{
  "type": "FeatureCollection",
  "features": [
    {
      "type": "Feature",
      "properties": {
        "creator": "BRouter-1.7.9",
        "name": "[ARIA] Aria Express",
        "track-length": "613",
        "filtered ascend": "0",
        "plain-ascend": "1",
        "total-time": "49",
        "total-energy": "27395",
        "cost": "613",
        "messages": [
          [
            "Longitude",
            "Latitude",
            "Elevation",
            "Distance",
            "CostPerKm",
            "ElevCost",
            "TurnCost",
            "NodeCost",
            "InitialCost",
            "WayTags",
            "NodeTags",
            "Time",
            "Energy"
          ],
          [
            "-115175209",
            "36108003",
            "642",
            "245",
            "1000",
            "0",
            "0",
            "0",
            "0",
            "railway=funicular",
            "wheelchair=yes railway=tram_stop",
            "19",
            "10877"
          ],
          [
            "-115177427",
            "36110155",
            "-8192",
            "368",
            "1000",
            "0",
            "0",
            "0",
            "0",
            "railway=funicular",
            "",
            "49",
            "27395"
          ]
        ],
        "times": [
          0,
          3.76,
          9.92,
          11.76,
          12.72,
          14.16,
          14.72,
          17.52,
          19.6,
          21.92,
          23.36,
          23.92,
          24.96,
          25.6,
          26.56,
          27.12,
          28.08,
          29.12,
          29.76,
          30.4,
          31.2,
          32.08,
          35.68,
          37.84,
          39.28,
          40.16,
          41.2,
          41.76,
          42.4,
          42.88,
          43.44,
          44,
          44.96,
          46,
          46.72,
          49.04
        ]
      },
      "geometry": {
        "type": "LineString",
        "coordinates": [
          [
            -115.176221,
            36.106031,
            642
          ],
          [
            -115.175929,
            36.106386,
            642
          ],
          [
            -115.175453,
            36.106958,
            642
          ],
          [
            -115.175328,
            36.107134,
            642
          ],
          [
            -115.17528,
            36.107234,
            642
          ],
          [
            -115.175228,
            36.10739,
            642
          ],
          [
            -115.175219,
            36.107451,
            642
          ],
          [
            -115.175214,
            36.10777,
            642
          ],
          [
            -115.175209,
            36.108003,
            642.5
          ],
          [
            -115.175204,
            36.108266
          ],
          [
            -115.175204,
            36.108431
          ],
          [
            -115.175212,
            36.108493
          ],
          [
            -115.175242,
            36.108606
          ],
          [
            -115.175272,
            36.108674
          ],
          [
            -115.175334,
            36.108766
          ],
          [
            -115.175375,
            36.108815
          ],
          [
            -115.175471,
            36.108895
          ],
          [
            -115.175589,
            36.108967
          ],
          [
            -115.175665,
            36.108999
          ],
          [
            -115.175742,
            36.109026
          ],
          [
            -115.175847,
            36.10905
          ],
          [
            -115.175966,
            36.109069
          ],
          [
            -115.176466,
            36.109123
          ],
          [
            -115.176765,
            36.109162
          ],
          [
            -115.176952,
            36.109211
          ],
          [
            -115.177062,
            36.109252
          ],
          [
            -115.177179,
            36.109321
          ],
          [
            -115.177235,
            36.109366
          ],
          [
            -115.177295,
            36.10942
          ],
          [
            -115.177334,
            36.109468
          ],
          [
            -115.177365,
            36.109521
          ],
          [
            -115.177394,
            36.109583
          ],
          [
            -115.177424,
            36.109687
          ],
          [
            -115.177434,
            36.109807
          ],
          [
            -115.177433,
            36.10989
          ],
          [
            -115.177427,
            36.110155
          ]
        ]
      }
    }
  ]
}