{
  "type": "FeatureCollection",
  "features": [
    {
      "type": "Feature",
      "properties": {
        "creator": "BRouter-1.7.9",
        "name": "[ATI] Tren Urbano",
        "track-length": "33299",
        "filtered ascend": "100",
        "plain-ascend": "29",
        "total-time": "2664",
        "total-energy": "1481319",
        "cost": "66600",
        "messages": [
          [
            "Longitude",
            "Latitude",
            "Elevation",
            "Distance",
            "CostPerKm",
            "ElevCost",
            "TurnCost",
            "NodeCost",
            "InitialCost",
            "WayTags",
            "NodeTags",
            "Time",
            "Energy"
          ],
          [
            "-66060458",
            "18436279",
            "-8192",
            "67",
            "2000",
            "0",
            "0",
            "0",
            "0",
            "railway=subway",
            "railway=halt",
            "5",
            "2947"
          ],
          [
            "-66059792",
            "18433605",
            "-8192",
            "339",
            "2000",
            "0",
            "0",
            "0",
            "0",
            "railway=subway",
            "railway=switch",
            "32",
            "17858"
          ],
          [
            "-66059965",
            "18433333",
            "-8192",
            "35",
            "2000",
            "0",
            "0",
            "0",
            "0",
            "railway=subway",
            "",
            "35",
            "19397"
          ],
          [
            "-66060092",
            "18433134",
            "-8192",
            "26",
            "2000",
            "0",
            "0",
            "0",
            "0",
            "railway=subway",
            "railway=switch",
            "2",
            "1143"
          ],
          [
            "-66060269",
            "18429330",
            "3",
            "438",
            "2000",
            "0",
            "0",
            "0",
            "0",
            "railway=subway",
            "railway=halt",
            "37",
            "20409"
          ],
          [
            "-66058943",
            "18423229",
            "8",
            "691",
            "2000",
            "0",
            "0",
            "0",
            "0",
            "railway=subway",
            "railway=halt",
            "92",
            "50802"
          ],
          [
            "-66056409",
            "18415267",
            "16",
            "953",
            "2000",
            "0",
            "0",
            "0",
            "0",
            "railway=subway",
            "railway=halt",
            "168",
            "92720"
          ],
          [
            "-66055560",
            "18411685",
            "20",
            "413",
            "2000",
            "0",
            "0",
            "0",
            "0",
            "railway=subway",
            "railway=switch",
            "201",
            "110886"
          ],
          [
            "-66055485",
            "18411209",
            "20",
            "53",
            "2000",
            "0",
            "0",
            "0",
            "0",
            "railway=subway",
            "railway=switch",
            "205",
            "113218"
          ],
          [
            "-66055431",
            "18410870",
            "20",
            "38",
            "2000",
            "0",
            "0",
            "0",
            "0",
            "railway=subway",
            "railway=halt",
            "208",
            "114889"
          ],
          [
            "-66052762",
            "18407491",
            "24",
            "545",
            "2000",
            "0",
            "0",
            "0",
            "0",
            "railway=subway",
            "",
            "252",
            "150470"
          ],
          [
            "-66051821",
            "18405371",
            "22",
            "289",
            "2000",
            "0",
            "0",
            "0",
            "0",
            "reversedirection=yes railway=subway",
            "railway=halt",
            "275",
            "168895"
          ],
          [
            "-66052306",
            "18399196",
            "18",
            "691",
            "2000",
            "0",
            "0",
            "0",
            "0",
            "reversedirection=yes railway=subway",
            "railway=halt",
            "330",
            "199624"
          ],
          [
            "-66053488",
            "18396526",
            "16",
            "328",
            "2000",
            "0",
            "0",
            "0",
            "0",
            "reversedirection=yes railway=subway",
            "",
            "357",
            "213890"
          ],
          [
            "-66057475",
            "18393919",
            "-8192",
            "511",
            "2000",
            "0",
            "0",
            "0",
            "0",
            "railway=subway",
            "railway=switch",
            "398",
            "235211"
          ],
          [
            "-66057748",
            "18393772",
            "-8192",
            "33",
            "2000",
            "0",
            "0",
            "0",
            "0",
            "railway=subway",
            "",
            "400",
            "236660"
          ],
          [
            "-66057982",
            "18393646",
            "-8192",
            "28",
            "2000",
            "0",
            "0",
            "0",
            "0",
            "railway=subway",
            "railway=switch",
            "2",
            "1231"
          ],
          [
            "-66062697",
            "18390855",
            "-8192",
            "588",
            "2000",
            "0",
            "0",
            "0",
            "0",
            "railway=subway",
            "railway=halt",
            "49",
            "27094"
          ],
          [
            "-66072653",
            "18390866",
            "27",
            "1105",
            "2000",
            "0",
            "0",
            "0",
            "0",
            "railway=subway",
            "railway=crossing",
            "137",
            "76658"
          ],
          [
            "-66074536",
            "18391445",
            "29",
            "209",
            "2000",
            "0",
            "0",
            "0",
            "0",
            "railway=subway",
            "railway=halt",
            "154",
            "88105"
          ],
          [
            "-66076331",
            "18392220",
            "30",
            "209",
            "2000",
            "0",
            "0",
            "0",
            "0",
            "railway=subway",
            "railway=switch",
            "171",
            "98390"
          ],
          [
            "-66076719",
            "18392499",
            "27",
            "51",
            "2000",
            "0",
            "0",
            "0",
            "0",
            "railway=subway",
            "railway=switch",
            "175",
            "99618"
          ],
          [
            "-66076755",
            "18392524",
            "27",
            "5",
            "2000",
            "0",
            "0",
            "0",
            "0",
            "railway=subway",
            "",
            "175",
            "99764"
          ],
          [
            "-66082764",
            "18390841",
            "30",
            "735",
            "2000",
            "0",
            "0",
            "0",
            "0",
            "railway=subway",
            "railway=halt",
            "58",
            "28591"
          ],
          [
            "-66093913",
            "18390798",
            "37",
            "1179",
            "2000",
            "0",
            "0",
            "0",
            "0",
            "railway=subway",
            "railway=halt",
            "153",
            "86636"
          ],
          [
            "-66098206",
            "18391034",
            "46",
            "455",
            "2000",
            "0",
            "0",
            "0",
            "0",
            "railway=subway",
            "railway=switch",
            "189",
            "117531"
          ],
          [
            "-66098298",
            "18391039",
            "46",
            "10",
            "2000",
            "0",
            "0",
            "0",
            "0",
            "railway=subway",
            "railway=switch",
            "190",
            "118088"
          ],
          [
            "-66099578",
            "18391116",
            "48",
            "136",
            "2000",
            "0",
            "0",
            "0",
            "0",
            "railway=subway",
            "",
            "201",
            "126051"
          ],
          [
            "-66101866",
            "18391224",
            "50",
            "242",
            "2000",
            "0",
            "0",
            "0",
            "0",
            "railway=subway",
            "railway=halt",
            "19",
            "11839"
          ],
          [
            "-66110990",
            "18390713",
            "36",
            "974",
            "2000",
            "0",
            "0",
            "0",
            "0",
            "railway=subway",
            "railway=switch",
            "97",
            "43387"
          ],
          [
            "-66111264",
            "18390672",
            "38",
            "29",
            "2000",
            "0",
            "0",
            "0",
            "0",
            "railway=subway",
            "",
            "99",
            "44760"
          ],
          [
            "-66111559",
            "18390628",
            "38",
            "32",
            "2000",
            "0",
            "0",
            "0",
            "0",
            "railway=subway",
            "railway=switch",
            "2",
            "1588"
          ],
          [
            "-66119046",
            "18391864",
            "35",
            "809",
            "2000",
            "0",
            "0",
            "0",
            "0",
            "railway=subway",
            "railway=halt",
            "67",
            "32613"
          ],
          [
            "-66125255",
            "18393410",
            "22",
            "678",
            "2000",
            "0",
            "0",
            "0",
            "0",
            "railway=subway",
            "railway=crossing",
            "121",
            "57440"
          ],
          [
            "-66127733",
            "18394023",
            "18",
            "270",
            "2000",
            "0",
            "0",
            "0",
            "0",
            "railway=subway",
            "railway=halt",
            "143",
            "65439"
          ],
          [
            "-66131526",
            "18394940",
            "15",
            "414",
            "2000",
            "0",
            "0",
            "0",
            "0",
            "railway=subway",
            "railway=switch",
            "176",
            "80677"
          ],
          [
            "-66131745",
            "18394992",
            "16",
            "24",
            "2000",
            "0",
            "0",
            "0",
            "0",
            "railway=subway",
            "",
            "178",
            "81709"
          ],
          [
            "-66131999",
            "18395053",
            "16",
            "28",
            "2000",
            "0",
            "0",
            "0",
            "0",
            "railway=subway",
            "railway=switch",
            "2",
            "1285"
          ],
          [
            "-66149525",
            "18394321",
            "-8192",
            "1914",
            "2000",
            "0",
            "0",
            "0",
            "0",
            "railway=subway",
            "railway=halt",
            "155",
            "81004"
          ],
          [
            "-66154018",
            "18397033",
            "-8192",
            "659",
            "2000",
            "0",
            "0",
            "0",
            "0",
            "railway=subway",
            "railway=switch",
            "208",
            "109991"
          ],
          [
            "-66153993",
            "18397369",
            "-8192",
            "37",
            "2000",
            "0",
            "0",
            "0",
            "0",
            "railway=subway",
            "",
            "211",
            "111618"
          ],
          [
            "-66153958",
            "18397820",
            "-8192",
            "50",
            "2000",
            "0",
            "0",
            "0",
            "0",
            "railway=subway",
            "railway=switch",
            "4",
            "2199"
          ],
          [
            "-66153787",
            "18400271",
            "-8192",
            "272",
            "2000",
            "0",
            "0",
            "0",
            "0",
            "railway=subway",
            "railway=halt",
            "25",
            "14163"
          ],
          [
            "-66153753",
            "18400784",
            "-8192",
            "57",
            "2000",
            "0",
            "0",
            "0",
            "0",
            "reversedirection=yes railway=subway",
            "",
            "30",
            "16670"
          ],
          [
            "-66153787",
            "18400271",
            "-8192",
            "57",
            "2000",
            "0",
            "0",
            "0",
            "0",
            "railway=subway",
            "railway=halt",
            "4",
            "2507"
          ],
          [
            "-66153958",
            "18397820",
            "-8192",
            "272",
            "2000",
            "0",
            "0",
            "0",
            "0",
            "reversedirection=yes railway=subway",
            "railway=switch",
            "26",
            "14471"
          ],
          [
            "-66154008",
            "18397428",
            "-8192",
            "44",
            "2000",
            "0",
            "0",
            "0",
            "0",
            "railway=subway",
            "railway=unknown",
            "29",
            "16406"
          ],
          [
            "-66154058",
            "18397036",
            "-8192",
            "44",
            "2000",
            "0",
            "0",
            "0",
            "0",
            "railway=subway",
            "railway=switch",
            "33",
            "18341"
          ],
          [
            "-66154086",
            "18396648",
            "-8192",
            "43",
            "2000",
            "0",
            "0",
            "0",
            "0",
            "reversedirection=yes railway=subway",
            "",
            "36",
            "20233"
          ],
          [
            "-66149526",
            "18394283",
            "-8192",
            "617",
            "2000",
            "0",
            "0",
            "0",
            "0",
            "reversedirection=yes railway=subway",
            "railway=halt",
            "49",
            "27182"
          ],
          [
            "-66132009",
            "18395016",
            "16",
            "1908",
            "2000",
            "0",
            "0",
            "0",
            "0",
            "reversedirection=yes railway=subway",
            "railway=switch",
            "202",
            "113312"
          ],
          [
            "-66131774",
            "18394958",
            "15",
            "26",
            "2000",
            "0",
            "0",
            "0",
            "0",
            "reversedirection=yes railway=subway",
            "",
            "204",
            "115012"
          ],
          [
            "-66131537",
            "18394900",
            "15",
            "26",
            "2000",
            "0",
            "0",
            "0",
            "0",
            "reversedirection=yes railway=subway",
            "railway=switch",
            "2",
            "1143"
          ],
          [
            "-66127760",
            "18393920",
            "19",
            "414",
            "2000",
            "0",
            "0",
            "0",
            "0",
            "reversedirection=yes railway=subway",
            "railway=halt",
            "35",
            "21276"
          ],
          [
            "-66119056",
            "18391827",
            "35",
            "948",
            "2000",
            "0",
            "0",
            "0",
            "0",
            "reversedirection=yes railway=subway",
            "railway=halt",
            "111",
            "78354"
          ],
          [
            "-66111553",
            "18390590",
            "38",
            "810",
            "2000",
            "0",
            "0",
            "0",
            "0",
            "reversedirection=yes railway=subway",
            "railway=switch",
            "175",
            "113288"
          ],
          [
            "-66111279",
            "18390631",
            "37",
            "29",
            "2000",
            "0",
            "0",
            "0",
            "0",
            "reversedirection=yes railway=subway",
            "",
            "178",
            "115217"
          ],
          [
            "-66110983",
            "18390675",
            "37",
            "32",
            "2000",
            "0",
            "0",
            "0",
            "0",
            "reversedirection=yes railway=subway",
            "railway=switch",
            "2",
            "1286"
          ],
          [
            "-66110888",
            "18390689",
            "36",
            "10",
            "2000",
            "0",
            "0",
            "0",
            "0",
            "reversedirection=yes railway=subway",
            "railway=switch",
            "3",
            "1674"
          ],
          [
            "-66101871",
            "18391117",
            "50",
            "958",
            "2000",
            "0",
            "0",
            "0",
            "0",
            "reversedirection=yes railway=subway",
            "railway=halt",
            "80",
            "52348"
          ],
          [
            "-66099457",
            "18391015",
            "48",
            "255",
            "2000",
            "0",
            "0",
            "0",
            "0",
            "reversedirection=yes railway=subway",
            "railway=switch",
            "100",
            "64772"
          ],
          [
            "-66099364",
            "18391011",
            "48",
            "10",
            "2000",
            "0",
            "0",
            "0",
            "0",
            "reversedirection=yes railway=subway",
            "railway=switch",
            "101",
            "65204"
          ],
          [
            "-66097486",
            "18390931",
            "41",
            "199",
            "2000",
            "0",
            "0",
            "0",
            "0",
            "reversedirection=yes railway=subway",
            "railway=switch",
            "117",
            "71227"
          ],
          [
            "-66093916",
            "18390759",
            "37",
            "378",
            "2000",
            "0",
            "0",
            "0",
            "0",
            "reversedirection=yes railway=subway",
            "railway=halt",
            "147",
            "82066"
          ],
          [
            "-66082756",
            "18390735",
            "27",
            "1178",
            "2000",
            "0",
            "0",
            "0",
            "0",
            "reversedirection=yes railway=subway",
            "railway=halt",
            "241",
            "125706"
          ],
          [
            "-66076744",
            "18392468",
            "27",
            "734",
            "2000",
            "0",
            "0",
            "0",
            "0",
            "reversedirection=yes railway=subway",
            "railway=switch",
            "300",
            "156003"
          ],
          [
            "-66076355",
            "18392189",
            "30",
            "51",
            "2000",
            "0",
            "0",
            "0",
            "0",
            "reversedirection=yes railway=subway",
            "railway=switch",
            "304",
            "158273"
          ],
          [
            "-66074568",
            "18391344",
            "27",
            "211",
            "2000",
            "0",
            "0",
            "0",
            "0",
            "reversedirection=yes railway=subway",
            "railway=halt",
            "321",
            "169335"
          ],
          [
            "-66062673",
            "18390824",
            "-8192",
            "1319",
            "2000",
            "0",
            "0",
            "0",
            "0",
            "reversedirection=yes railway=subway",
            "railway=halt",
            "426",
            "223845"
          ],
          [
            "-66057962",
            "18393613",
            "-8192",
            "588",
            "2000",
            "0",
            "0",
            "0",
            "0",
            "reversedirection=yes railway=subway",
            "railway=switch",
            "473",
            "249709"
          ],
          [
            "-66057788",
            "18393707",
            "-8192",
            "21",
            "2000",
            "0",
            "0",
            "0",
            "0",
            "reversedirection=yes railway=subway",
            "",
            "475",
            "250632"
          ],
          [
            "-66057456",
            "18393885",
            "-8192",
            "40",
            "2000",
            "0",
            "0",
            "0",
            "0",
            "reversedirection=yes railway=subway",
            "railway=switch",
            "3",
            "1759"
          ],
          [
            "-66053465",
            "18396494",
            "17",
            "511",
            "2000",
            "0",
            "0",
            "0",
            "0",
            "reversedirection=yes railway=subway",
            "",
            "44",
            "24644"
          ],
          [
            "-66052198",
            "18399167",
            "19",
            "334",
            "2000",
            "0",
            "0",
            "0",
            "0",
            "railway=subway",
            "railway=halt",
            "70",
            "39580"
          ],
          [
            "-66051709",
            "18405359",
            "23",
            "695",
            "2000",
            "0",
            "0",
            "0",
            "0",
            "railway=subway",
            "railway=halt",
            "126",
            "70158"
          ],
          [
            "-66052754",
            "18407529",
            "24",
            "295",
            "2000",
            "0",
            "0",
            "0",
            "0",
            "railway=subway",
            "",
            "150",
            "83774"
          ],
          [
            "-66055391",
            "18410875",
            "-8192",
            "547",
            "2000",
            "0",
            "0",
            "0",
            "0",
            "reversedirection=yes railway=subway",
            "railway=halt",
            "193",
            "109617"
          ],
          [
            "-66055403",
            "18410948",
            "-8192",
            "8",
            "2000",
            "0",
            "0",
            "0",
            "0",
            "reversedirection=yes railway=subway",
            "",
            "194",
            "109969"
          ],
          [
            "-66055445",
            "18411214",
            "-8192",
            "30",
            "2000",
            "0",
            "0",
            "0",
            "0",
            "reversedirection=yes railway=subway",
            "railway=switch",
            "2",
            "1319"
          ],
          [
            "-66055520",
            "18411690",
            "-8192",
            "53",
            "2000",
            "0",
            "0",
            "0",
            "0",
            "reversedirection=yes railway=subway",
            "railway=switch",
            "6",
            "3650"
          ],
          [
            "-66056369",
            "18415268",
            "-8192",
            "413",
            "2000",
            "0",
            "0",
            "0",
            "0",
            "reversedirection=yes railway=subway",
            "railway=halt",
            "39",
            "21816"
          ],
          [
            "-66058904",
            "18423238",
            "-8192",
            "952",
            "2000",
            "0",
            "0",
            "0",
            "0",
            "reversedirection=yes railway=subway",
            "railway=halt",
            "115",
            "63690"
          ],
          [
            "-66060158",
            "18429347",
            "-8192",
            "690",
            "2000",
            "0",
            "0",
            "0",
            "0",
            "reversedirection=yes railway=subway",
            "railway=halt",
            "171",
            "94040"
          ],
          [
            "-66060057",
            "18433114",
            "-8192",
            "432",
            "2000",
            "0",
            "0",
            "0",
            "0",
            "reversedirection=yes railway=subway",
            "railway=switch",
            "205",
            "113042"
          ],
          [
            "-66059924",
            "18433359",
            "-8192",
            "31",
            "2000",
            "0",
            "0",
            "0",
            "0",
            "railway=subway",
            "railway=unknown",
            "208",
            "114405"
          ],
          [
            "-66059792",
            "18433605",
            "-8192",
            "31",
            "2000",
            "0",
            "0",
            "0",
            "0",
            "railway=subway",
            "railway=switch",
            "210",
            "115769"
          ],
          [
            "-66060458",
            "18436279",
            "-8192",
            "339",
            "2000",
            "0",
            "0",
            "0",
            "0",
            "reversedirection=yes railway=subway",
            "railway=halt",
            "237",
            "130680"
          ],
          [
            "-66060840",
            "18436767",
            "-8192",
            "67",
            "2000",
            "0",
            "0",
            "0",
            "0",
            "reversedirection=yes railway=subway",
            "",
            "243",
            "133627"
          ]
        ],
        "times": [
          0,
          5.36,
          15.52,
          16.56,
          17.92,
          19.28,
          20.64,
          22,
          23.36,
          24.72,
          26.08,
          27.44,
          28.8,
          29.6,
          32.48,
          35.28,
          37.36,
          39.92,
          42.16,
          44,
          45.84,
          47.68,
          49.52,
          51.36,
          53.2,
          54.96,
          70.88,
          72.4,
          95.52,
          100.32,
          102.72,
          127.68,
          137.12,
          138.8,
          140.56,
          142.32,
          144.08,
          151.04,
          152.96,
          154.88,
          156.8,
          158.72,
          160.64,
          173.92,
          176.48,
          188,
          189.04,
          190.08,
          192.16,
          203.92,
          212.32,
          213.6,
          214.88,
          216.16,
          217.44,
          218.72,
          224.4,
          225.52,
          226.64,
          227.76,
          228.88,
          230,
          236.96,
          241.2,
          244.24,
          262.56,
          263.84,
          265.12,
          266.4,
          267.68,
          268.96,
          270.24,
          271.52,
          272.8,
          274.08,
          275.36,
          276.64,
          277.92,
          279.2,
          280.48,
          284.72,
          286.24,
          287.84,
          289.28,
          290.88,
          292.48,
          294.08,
          295.68,
          297.28,
          298.88,
          300.48,
          302.08,
          303.68,
          310.96,
          324.56,
          326.4,
          328.32,
          330.16,
          347.28,
          349.68,
          352.08,
          354.48,
          356.8,
          366.24,
          383.04,
          385.44,
          387.84,
          390.24,
          392.48,
          400.16,
          411.04,
          424.16,
          426.64,
          429.12,
          433.36,
          436,
          438.24,
          469.44,
          470.8,
          473.52,
          485.28,
          489.68,
          491.2,
          492.72,
          494.24,
          495.76,
          497.28,
          498.8,
          500.32,
          501.84,
          503.36,
          504.88,
          506.4,
          508.88,
          510.24,
          511.6,
          512.96,
          514.32,
          515.68,
          517.04,
          518.4,
          519.76,
          549.84,
          553.68,
          555.76,
          557.84,
          559.92,
          562,
          564.08,
          566.16,
          568.4,
          573.68,
          589.28,
          590.4,
          597.84,
          599.2,
          600.72,
          602.24,
          605.2,
          607.12,
          611.2,
          611.6,
          614.16,
          616.08,
          618,
          619.92,
          621.84,
          623.76,
          625.68,
          627.6,
          629.52,
          631.44,
          633.2,
          634.96,
          636.64,
          652.08,
          653.44,
          654.8,
          656.16,
          657.52,
          658.88,
          660.24,
          670.4,
          681.52,
          701.36,
          706.4,
          711.44,
          716.48,
          721.52,
          726.56,
          746.4,
          764.72,
          774.96,
          782.56,
          801.12,
          801.92,
          812.8,
          815.04,
          824,
          831.36,
          832.16,
          870.08,
          873.04,
          876,
          878.96,
          881.92,
          884.88,
          897.92,
          901.6,
          910.08,
          912.4,
          914.96,
          920,
          922.08,
          924.16,
          926.24,
          928.32,
          930.4,
          932.48,
          934.56,
          936.72,
          960.32,
          971.12,
          979.68,
          984.72,
          1023.6,
          1033.92,
          1036.88,
          1040.48,
          1055.52,
          1059.04,
          1072.64,
          1088.64,
          1090.56,
          1092.8,
          1137.28,
          1138.8,
          1140.32,
          1141.84,
          1143.36,
          1144.88,
          1146.4,
          1147.92,
          1152.08,
          1182.64,
          1184.4,
          1187.92,
          1196,
          1197.68,
          1199.36,
          1201.04,
          1202.72,
          1204.4,
          1217.2,
          1218.64,
          1220.08,
          1221.52,
          1222.96,
          1224.4,
          1225.84,
          1231.6,
          1233.04,
          1234.48,
          1235.92,
          1237.36,
          1238.8,
          1240.24,
          1245.92,
          1265.36,
          1266.8,
          1268.24,
          1269.68,
          1271.12,
          1272.48,
          1273.92,
          1275.36,
          1276.8,
          1286.24,
          1287.52,
          1288.8,
          1290.08,
          1291.36,
          1292.64,
          1293.92,
          1295.2,
          1298.64,
          1301.6,
          1305.6,
          1327.36,
          1331.92,
          1336.48,
          1358.24,
          1361.76,
          1365.28,
          1368.72,
          1370.08,
          1371.36,
          1372.64,
          1373.92,
          1375.2,
          1376.48,
          1377.76,
          1387.2,
          1388.64,
          1390.08,
          1391.52,
          1392.96,
          1394.4,
          1395.84,
          1397.28,
          1398.72,
          1418.16,
          1423.92,
          1425.36,
          1426.8,
          1428.24,
          1429.68,
          1431.12,
          1432.56,
          1438.4,
          1439.84,
          1441.28,
          1442.72,
          1444.16,
          1445.6,
          1447.04,
          1459.84,
          1461.52,
          1463.2,
          1464.88,
          1466.56,
          1468.24,
          1476.32,
          1478.08,
          1481.6,
          1512.16,
          1516.32,
          1517.76,
          1519.2,
          1520.64,
          1522.08,
          1523.52,
          1524.96,
          1526.4,
          1527.84,
          1570.8,
          1572.88,
          1574.96,
          1580.32,
          1582.88,
          1585.44,
          1588,
          1590.56,
          1594.72,
          1604.56,
          1608.08,
          1629.76,
          1678.88,
          1683.92,
          1692.48,
          1703.28,
          1726.88,
          1729.04,
          1731.12,
          1733.2,
          1735.28,
          1737.36,
          1739.44,
          1741.52,
          1743.6,
          1748.72,
          1751.04,
          1753.6,
          1754.4,
          1762.08,
          1765.76,
          1778.8,
          1781.68,
          1784.56,
          1787.44,
          1790.32,
          1793.2,
          1811.28,
          1816.8,
          1831.04,
          1831.84,
          1839.2,
          1851.44,
          1852.24,
          1868.16,
          1880.56,
          1888.16,
          1898.4,
          1916.72,
          1936.48,
          1941.52,
          1946.56,
          1951.6,
          1956.64,
          1961.68,
          1966.72,
          1981.52,
          1992.64,
          2002.8,
          2004.16,
          2005.52,
          2006.88,
          2008.24,
          2009.6,
          2010.96,
          2026.88,
          2028.56,
          2030.24,
          2031.92,
          2033.76,
          2035.6,
          2037.44,
          2039.28,
          2041.12,
          2042.96,
          2044.8,
          2046.64,
          2048.48,
          2051.36,
          2055.44,
          2060.32,
          2061.84,
          2063.36,
          2064.88,
          2072.32,
          2073.44,
          2090.32,
          2094.32,
          2096.4,
          2098.48,
          2100.56,
          2102.64,
          2104.72,
          2106.8,
          2108.88,
          2110.96,
          2113.04,
          2143.12,
          2144.4,
          2145.68,
          2146.96,
          2148.24,
          2149.52,
          2150.8,
          2152.08,
          2153.36,
          2155.84,
          2157.44,
          2159.04,
          2160.64,
          2162.24,
          2163.84,
          2165.44,
          2167.04,
          2168.64,
          2170.24,
          2171.84,
          2173.44,
          2177.84,
          2189.6,
          2190.96,
          2193.68,
          2224.88,
          2226.56,
          2229.76,
          2234,
          2236.48,
          2238.96,
          2252.08,
          2262.96,
          2270.64,
          2273.04,
          2275.44,
          2277.84,
          2280.24,
          2282.64,
          2297.36,
          2306.8,
          2309.28,
          2311.76,
          2314.24,
          2316.72,
          2333.84,
          2335.68,
          2337.52,
          2339.36,
          2352.96,
          2358.96,
          2360.56,
          2362.16,
          2363.76,
          2365.36,
          2366.96,
          2368.56,
          2370.16,
          2371.76,
          2373.36,
          2374.96,
          2376.56,
          2378.16,
          2379.76,
          2384.08,
          2385.36,
          2386.64,
          2387.92,
          2389.2,
          2390.48,
          2391.76,
          2393.04,
          2394.32,
          2395.6,
          2396.88,
          2398.16,
          2399.44,
          2400.72,
          2402,
          2420.32,
          2420.96,
          2423.36,
          2427.6,
          2434.56,
          2435.68,
          2436.8,
          2437.92,
          2439.04,
          2440.16,
          2445.84,
          2447.12,
          2448.4,
          2449.68,
          2450.96,
          2452.24,
          2460.64,
          2473.44,
          2475.6,
          2477.76,
          2488.16,
          2490.72,
          2504,
          2505.92,
          2507.84,
          2509.76,
          2511.68,
          2513.68,
          2520.64,
          2522.32,
          2524,
          2525.68,
          2527.36,
          2536.8,
          2561.36,
          2563.36,
          2567.36,
          2576,
          2579.28,
          2592,
          2609.44,
          2611.28,
          2613.04,
          2614.88,
          2616.72,
          2618.56,
          2620.32,
          2622.16,
          2624,
          2626.56,
          2629.04,
          2631.52,
          2634.4,
          2635.2,
          2636.56,
          2637.92,
          2639.28,
          2640.64,
          2642,
          2643.36,
          2644.72,
          2646.08,
          2647.44,
          2648.48,
          2658.64,
          2664
        ]
      },
      "geometry": {
        "type": "LineString",
        "coordinates": [
          [
            -66.06084,
            18.436767
          ],
          [
            -66.060458,
            18.436279
          ],
          [
            -66.059746,
            18.43536
          ],
          [
            -66.059679,
            18.435265
          ],
          [
            -66.059602,
            18.435134
          ],
          [
            -66.05954,
            18.434995
          ],
          [
            -66.059494,
            18.434851
          ],
          [
            -66.059465,
            18.434703
          ],
          [
            -66.059452,
            18.434553
          ],
          [
            -66.059457,
            18.434402
          ],
          [
            -66.059478,
            18.434253
          ],
          [
            -66.059516,
            18.434107
          ],
          [
            -66.059571,
            18.433966
          ],
          [
            -66.059616,
            18.433882
          ],
          [
            -66.059792,
            18.433605
          ],
          [
            -66.059965,
            18.433333,
            1.5
          ],
          [
            -66.060092,
            18.433134,
            1.5
          ],
          [
            -66.06025,
            18.432885,
            1.5
          ],
          [
            -66.060373,
            18.432658,
            1.5
          ],
          [
            -66.060459,
            18.432472,
            1.5
          ],
          [
            -66.060528,
            18.432279,
            1.5
          ],
          [
            -66.060579,
            18.432081,
            1.5
          ],
          [
            -66.060612,
            18.43188,
            1.5
          ],
          [
            -66.060626,
            18.431677,
            1.5
          ],
          [
            -66.060622,
            18.431473,
            1.5
          ],
          [
            -66.060609,
            18.431274,
            1.5
          ],
          [
            -66.060299,
            18.429501,
            3
          ],
          [
            -66.060269,
            18.42933,
            3.25
          ],
          [
            -66.059818,
            18.426757,
            5.5
          ],
          [
            -66.059708,
            18.426229,
            6
          ],
          [
            -66.059645,
            18.425966,
            6.25
          ],
          [
            -66.058943,
            18.423229,
            8.75
          ],
          [
            -66.058679,
            18.422196,
            9.75
          ],
          [
            -66.058623,
            18.422011,
            10
          ],
          [
            -66.05854,
            18.421833,
            10
          ],
          [
            -66.058432,
            18.421668,
            10.25
          ],
          [
            -66.058301,
            18.421518,
            10.5
          ],
          [
            -66.057678,
            18.420999,
            11.25
          ],
          [
            -66.057512,
            18.42085,
            11.25
          ],
          [
            -66.057372,
            18.420682,
            11.5
          ],
          [
            -66.05726,
            18.420496,
            11.75
          ],
          [
            -66.057177,
            18.420296,
            12
          ],
          [
            -66.057125,
            18.420086,
            12.25
          ],
          [
            -66.056865,
            18.418608,
            13.5
          ],
          [
            -66.056806,
            18.418327,
            13.75
          ],
          [
            -66.056498,
            18.417064,
            15
          ],
          [
            -66.056476,
            18.416947,
            15
          ],
          [
            -66.05646,
            18.41683,
            15.25
          ],
          [
            -66.056445,
            18.416592,
            15.25
          ],
          [
            -66.056409,
            18.415267,
            16.5
          ],
          [
            -66.056383,
            18.414322,
            17.5
          ],
          [
            -66.056376,
            18.414177,
            17.5
          ],
          [
            -66.056356,
            18.414032,
            17.75
          ],
          [
            -66.056322,
            18.41389,
            17.75
          ],
          [
            -66.056275,
            18.41375,
            18
          ],
          [
            -66.056215,
            18.413615,
            18
          ],
          [
            -66.05589,
            18.413056,
            18.75
          ],
          [
            -66.055831,
            18.412943,
            18.75
          ],
          [
            -66.05578,
            18.412826,
            19
          ],
          [
            -66.055738,
            18.412706,
            19
          ],
          [
            -66.055706,
            18.412583,
            19
          ],
          [
            -66.055682,
            18.412458,
            19.25
          ],
          [
            -66.05556,
            18.411685,
            20
          ],
          [
            -66.055485,
            18.411209,
            20.25
          ],
          [
            -66.055431,
            18.41087,
            20.75
          ],
          [
            -66.055108,
            18.408824,
            22.5
          ],
          [
            -66.055076,
            18.408683,
            22.75
          ],
          [
            -66.05503,
            18.408545,
            22.75
          ],
          [
            -66.054969,
            18.408412,
            23
          ],
          [
            -66.054895,
            18.408285,
            23
          ],
          [
            -66.054809,
            18.408166,
            23.25
          ],
          [
            -66.05471,
            18.408055,
            23.25
          ],
          [
            -66.054601,
            18.407954,
            23.5
          ],
          [
            -66.054482,
            18.407864,
            23.5
          ],
          [
            -66.054354,
            18.407785,
            23.75
          ],
          [
            -66.054218,
            18.407719,
            23.75
          ],
          [
            -66.054076,
            18.407665,
            24
          ],
          [
            -66.05393,
            18.407625,
            24
          ],
          [
            -66.05378,
            18.407598,
            24.25
          ],
          [
            -66.053629,
            18.407586,
            24.5
          ],
          [
            -66.053125,
            18.407551,
            24.5
          ],
          [
            -66.052943,
            18.407527,
            24.5
          ],
          [
            -66.052762,
            18.407491,
            24.25
          ],
          [
            -66.052596,
            18.407442,
            24.25
          ],
          [
            -66.052427,
            18.407365,
            24
          ],
          [
            -66.052271,
            18.407267,
            24
          ],
          [
            -66.05213,
            18.40715,
            23.75
          ],
          [
            -66.052007,
            18.407016,
            23.75
          ],
          [
            -66.051904,
            18.406867,
            23.5
          ],
          [
            -66.051823,
            18.406707,
            23.5
          ],
          [
            -66.051765,
            18.406538,
            23.25
          ],
          [
            -66.051732,
            18.406363,
            23.25
          ],
          [
            -66.051724,
            18.406186,
            23.25
          ],
          [
            -66.051821,
            18.405371,
            22.75
          ],
          [
            -66.052009,
            18.403845,
            21.75
          ],
          [
            -66.052032,
            18.403636,
            21.5
          ],
          [
            -66.052041,
            18.403423,
            21.5
          ],
          [
            -66.052036,
            18.403212,
            21.25
          ],
          [
            -66.05192,
            18.401285,
            20
          ],
          [
            -66.051909,
            18.401014,
            20
          ],
          [
            -66.051919,
            18.400745,
            19.75
          ],
          [
            -66.051951,
            18.400478,
            19.5
          ],
          [
            -66.052002,
            18.400219,
            19.5
          ],
          [
            -66.052306,
            18.399196,
            18.75
          ],
          [
            -66.052859,
            18.397374,
            17.5
          ],
          [
            -66.052972,
            18.39713,
            17.25
          ],
          [
            -66.053118,
            18.396902,
            17.25
          ],
          [
            -66.053296,
            18.396695,
            17
          ],
          [
            -66.053488,
            18.396526,
            16.75
          ],
          [
            -66.054235,
            18.396028,
            17
          ],
          [
            -66.055296,
            18.395333
          ],
          [
            -66.056551,
            18.394459
          ],
          [
            -66.056792,
            18.394305
          ],
          [
            -66.057038,
            18.394157
          ],
          [
            -66.057475,
            18.393919
          ],
          [
            -66.057748,
            18.393772,
            25
          ],
          [
            -66.057982,
            18.393646,
            25
          ],
          [
            -66.061193,
            18.391914,
            25
          ],
          [
            -66.061329,
            18.391833,
            25
          ],
          [
            -66.061593,
            18.391656,
            25
          ],
          [
            -66.062697,
            18.390855,
            25
          ],
          [
            -66.063111,
            18.390555,
            25
          ],
          [
            -66.063261,
            18.390454,
            25
          ],
          [
            -66.063422,
            18.390373,
            25
          ],
          [
            -66.063593,
            18.390312,
            25
          ],
          [
            -66.063771,
            18.390273,
            25
          ],
          [
            -66.063952,
            18.390256,
            25
          ],
          [
            -66.064135,
            18.390261,
            25
          ],
          [
            -66.064315,
            18.390288,
            25
          ],
          [
            -66.06449,
            18.390337,
            25
          ],
          [
            -66.064657,
            18.390407,
            25
          ],
          [
            -66.064813,
            18.390497,
            25
          ],
          [
            -66.064957,
            18.390605,
            25
          ],
          [
            -66.06518,
            18.390792,
            25
          ],
          [
            -66.065305,
            18.390885,
            25
          ],
          [
            -66.06544,
            18.390965,
            25
          ],
          [
            -66.065585,
            18.39103,
            25
          ],
          [
            -66.065736,
            18.391079,
            25
          ],
          [
            -66.065891,
            18.391113,
            25
          ],
          [
            -66.06605,
            18.39113,
            25
          ],
          [
            -66.06621,
            18.39113,
            25
          ],
          [
            -66.066367,
            18.391114,
            25
          ],
          [
            -66.069871,
            18.390548,
            25
          ],
          [
            -66.070319,
            18.390504,
            25
          ],
          [
            -66.070568,
            18.390494,
            25
          ],
          [
            -66.070816,
            18.390496,
            25
          ],
          [
            -66.071065,
            18.39051,
            25
          ],
          [
            -66.071312,
            18.390534,
            25
          ],
          [
            -66.071558,
            18.390571,
            25
          ],
          [
            -66.071802,
            18.390618,
            25
          ],
          [
            -66.072056,
            18.390688,
            25
          ],
          [
            -66.072653,
            18.390866,
            27.25
          ],
          [
            -66.074408,
            18.391407,
            29.5
          ],
          [
            -66.074536,
            18.391445,
            29.5
          ],
          [
            -66.075374,
            18.391705,
            30.75
          ],
          [
            -66.075528,
            18.391758,
            31
          ],
          [
            -66.075697,
            18.391827,
            31.25
          ],
          [
            -66.075861,
            18.391905,
            31.25
          ],
          [
            -66.07615,
            18.39209,
            31.5
          ],
          [
            -66.076331,
            18.39222,
            30.25
          ],
          [
            -66.076719,
            18.392499,
            27
          ],
          [
            -66.076755,
            18.392524,
            27.25
          ],
          [
            -66.076994,
            18.392696,
            27.25
          ],
          [
            -66.077177,
            18.392819,
            27
          ],
          [
            -66.077378,
            18.392919,
            26.75
          ],
          [
            -66.077591,
            18.392993,
            26.25
          ],
          [
            -66.077812,
            18.393039,
            26
          ],
          [
            -66.078038,
            18.393057,
            25.75
          ],
          [
            -66.078264,
            18.393046,
            26
          ],
          [
            -66.078487,
            18.393007,
            25
          ],
          [
            -66.078702,
            18.39294,
            23.75
          ],
          [
            -66.078907,
            18.392846,
            24
          ],
          [
            -66.079074,
            18.392729,
            24.25
          ],
          [
            -66.079232,
            18.392606,
            24.5
          ],
          [
            -66.079382,
            18.392475,
            24.75
          ],
          [
            -66.080685,
            18.391258,
            27.25
          ],
          [
            -66.080813,
            18.391167,
            27.5
          ],
          [
            -66.080951,
            18.391089,
            27.75
          ],
          [
            -66.081096,
            18.391024,
            28
          ],
          [
            -66.081247,
            18.390974,
            28.25
          ],
          [
            -66.081403,
            18.390938,
            28.5
          ],
          [
            -66.081562,
            18.390918,
            28.75
          ],
          [
            -66.082764,
            18.390841,
            30.25
          ],
          [
            -66.084072,
            18.390757,
            32
          ],
          [
            -66.08641,
            18.390606,
            32.25
          ],
          [
            -66.087009,
            18.390577,
            34.5
          ],
          [
            -66.087608,
            18.390558,
            36
          ],
          [
            -66.088208,
            18.390551,
            35.75
          ],
          [
            -66.088808,
            18.390554,
            35.5
          ],
          [
            -66.089408,
            18.390567,
            35.75
          ],
          [
            -66.091747,
            18.390685,
            36.75
          ],
          [
            -66.093913,
            18.390798,
            37.5
          ],
          [
            -66.095121,
            18.390861,
            38
          ],
          [
            -66.096016,
            18.390907,
            38.25
          ],
          [
            -66.098206,
            18.391034,
            46
          ],
          [
            -66.098298,
            18.391039,
            46.5
          ],
          [
            -66.099578,
            18.391116,
            48.75
          ],
          [
            -66.099845,
            18.391133,
            48.75
          ],
          [
            -66.100902,
            18.391183,
            48.5
          ],
          [
            -66.101776,
            18.39122,
            50.25
          ],
          [
            -66.101866,
            18.391224,
            50.25
          ],
          [
            -66.106345,
            18.391421,
            38.75
          ],
          [
            -66.106691,
            18.391425,
            37
          ],
          [
            -66.107038,
            18.391411,
            36.75
          ],
          [
            -66.107383,
            18.39138,
            36.25
          ],
          [
            -66.107725,
            18.39133,
            35
          ],
          [
            -66.108064,
            18.391263,
            33.25
          ],
          [
            -66.109567,
            18.390943,
            35.75
          ],
          [
            -66.109998,
            18.390864,
            38
          ],
          [
            -66.11099,
            18.390713,
            36.75
          ],
          [
            -66.111264,
            18.390672,
            38
          ],
          [
            -66.111559,
            18.390628,
            38
          ],
          [
            -66.112153,
            18.390544,
            36
          ],
          [
            -66.1124,
            18.390522,
            35
          ],
          [
            -66.112647,
            18.390511,
            34
          ],
          [
            -66.112895,
            18.390512,
            33.25
          ],
          [
            -66.113142,
            18.390523,
            32.5
          ],
          [
            -66.113388,
            18.390546,
            31.75
          ],
          [
            -66.113634,
            18.390579,
            31.75
          ],
          [
            -66.113877,
            18.390623,
            31.75
          ],
          [
            -66.114125,
            18.390677,
            32.25
          ],
          [
            -66.11683,
            18.39133,
            30
          ],
          [
            -66.118064,
            18.391627,
            32.5
          ],
          [
            -66.119046,
            18.391864,
            35.5
          ],
          [
            -66.119628,
            18.392005,
            38.25
          ],
          [
            -66.124087,
            18.393081,
            27.25
          ],
          [
            -66.125255,
            18.39341,
            22.25
          ],
          [
            -66.125593,
            18.393506,
            23
          ],
          [
            -66.126005,
            18.393612,
            23.25
          ],
          [
            -66.127733,
            18.394023,
            18.5
          ],
          [
            -66.128139,
            18.394122,
            17.5
          ],
          [
            -66.129696,
            18.394498,
            16.25
          ],
          [
            -66.131526,
            18.39494,
            15.75
          ],
          [
            -66.131745,
            18.394992,
            16
          ],
          [
            -66.131999,
            18.395053,
            16
          ],
          [
            -66.137091,
            18.396298,
            14.5
          ],
          [
            -66.137265,
            18.396327,
            14
          ],
          [
            -66.137439,
            18.396347,
            13.5
          ],
          [
            -66.137615,
            18.396358,
            12.75
          ],
          [
            -66.137791,
            18.396359,
            12.25
          ],
          [
            -66.137967,
            18.39635,
            11.5
          ],
          [
            -66.138142,
            18.396332,
            10.75
          ],
          [
            -66.138316,
            18.396304,
            10
          ],
          [
            -66.138792,
            18.396194,
            10.75
          ],
          [
            -66.142291,
            18.395322
          ],
          [
            -66.142493,
            18.395277
          ],
          [
            -66.1429,
            18.395202
          ],
          [
            -66.143846,
            18.395063
          ],
          [
            -66.144046,
            18.395044
          ],
          [
            -66.144247,
            18.395035
          ],
          [
            -66.144448,
            18.395035
          ],
          [
            -66.144649,
            18.395045
          ],
          [
            -66.14485,
            18.395064
          ],
          [
            -66.146353,
            18.39522
          ],
          [
            -66.146526,
            18.395219
          ],
          [
            -66.146698,
            18.395199
          ],
          [
            -66.146866,
            18.395163
          ],
          [
            -66.14703,
            18.395109
          ],
          [
            -66.147186,
            18.395039
          ],
          [
            -66.147334,
            18.394953
          ],
          [
            -66.147887,
            18.394566
          ],
          [
            -66.148033,
            18.394484
          ],
          [
            -66.148186,
            18.394417
          ],
          [
            -66.148346,
            18.394365
          ],
          [
            -66.148511,
            18.394328
          ],
          [
            -66.148679,
            18.394308
          ],
          [
            -66.148849,
            18.394305
          ],
          [
            -66.149525,
            18.394321
          ],
          [
            -66.151822,
            18.394379
          ],
          [
            -66.151989,
            18.39439
          ],
          [
            -66.152153,
            18.394419
          ],
          [
            -66.152312,
            18.394465
          ],
          [
            -66.152466,
            18.394527
          ],
          [
            -66.15261,
            18.394605
          ],
          [
            -66.152745,
            18.394698
          ],
          [
            -66.152868,
            18.394805
          ],
          [
            -66.152979,
            18.394925
          ],
          [
            -66.153706,
            18.395736
          ],
          [
            -66.153795,
            18.395849
          ],
          [
            -66.153871,
            18.39597
          ],
          [
            -66.153935,
            18.396098
          ],
          [
            -66.153984,
            18.39623
          ],
          [
            -66.154019,
            18.396367
          ],
          [
            -66.15404,
            18.396506
          ],
          [
            -66.154046,
            18.396647
          ],
          [
            -66.154018,
            18.397033
          ],
          [
            -66.153993,
            18.397369
          ],
          [
            -66.153958,
            18.39782
          ],
          [
            -66.153787,
            18.400271
          ],
          [
            -66.153753,
            18.400784
          ],
          [
            -66.153787,
            18.400271
          ],
          [
            -66.153958,
            18.39782
          ],
          [
            -66.154008,
            18.397428
          ],
          [
            -66.154058,
            18.397036
          ],
          [
            -66.154086,
            18.396648,
            10.5
          ],
          [
            -66.15408,
            18.396503,
            10.5
          ],
          [
            -66.154059,
            18.39636,
            10.5
          ],
          [
            -66.154023,
            18.396219,
            10.5
          ],
          [
            -66.153972,
            18.396083,
            10.5
          ],
          [
            -66.153907,
            18.395952,
            10.5
          ],
          [
            -66.153829,
            18.395828,
            10.5
          ],
          [
            -66.153738,
            18.395712,
            10.5
          ],
          [
            -66.15301,
            18.3949,
            10.5
          ],
          [
            -66.152897,
            18.394778,
            10.5
          ],
          [
            -66.152771,
            18.394668,
            10.5
          ],
          [
            -66.152632,
            18.394573,
            10.5
          ],
          [
            -66.152484,
            18.394493,
            10.5
          ],
          [
            -66.152326,
            18.394429,
            10.5
          ],
          [
            -66.152163,
            18.394382,
            10.5
          ],
          [
            -66.151994,
            18.394352,
            10.5
          ],
          [
            -66.151824,
            18.394341,
            10.5
          ],
          [
            -66.149526,
            18.394283,
            10.5
          ],
          [
            -66.148849,
            18.394266,
            10.5
          ],
          [
            -66.148676,
            18.39427,
            10.5
          ],
          [
            -66.148504,
            18.394291,
            10.5
          ],
          [
            -66.148335,
            18.394328,
            10.5
          ],
          [
            -66.148171,
            18.394381,
            10.5
          ],
          [
            -66.148014,
            18.39445,
            10.5
          ],
          [
            -66.147865,
            18.394534,
            10.5
          ],
          [
            -66.147311,
            18.394922,
            10.5
          ],
          [
            -66.147167,
            18.395005,
            10.5
          ],
          [
            -66.147015,
            18.395073,
            10.5
          ],
          [
            -66.146855,
            18.395126,
            10.5
          ],
          [
            -66.146691,
            18.395162,
            10.5
          ],
          [
            -66.146524,
            18.39518,
            10.5
          ],
          [
            -66.146355,
            18.395182,
            10.5
          ],
          [
            -66.144854,
            18.395026,
            10.5
          ],
          [
            -66.144652,
            18.395007,
            10.5
          ],
          [
            -66.144449,
            18.394997,
            10.5
          ],
          [
            -66.144246,
            18.394997,
            10.5
          ],
          [
            -66.144043,
            18.395006,
            10.5
          ],
          [
            -66.143841,
            18.395025,
            10.5
          ],
          [
            -66.142893,
            18.395164,
            10.5
          ],
          [
            -66.142688,
            18.395199,
            10.5
          ],
          [
            -66.142282,
            18.395285,
            10.5
          ],
          [
            -66.138782,
            18.396157,
            10.5
          ],
          [
            -66.138308,
            18.396267,
            10
          ],
          [
            -66.138137,
            18.396294,
            10.75
          ],
          [
            -66.137964,
            18.396312,
            11.25
          ],
          [
            -66.13779,
            18.39632,
            12
          ],
          [
            -66.137617,
            18.396319,
            12.5
          ],
          [
            -66.137443,
            18.396309,
            13
          ],
          [
            -66.137271,
            18.396289,
            13.75
          ],
          [
            -66.137099,
            18.39626,
            14.25
          ],
          [
            -66.13693,
            18.396222,
            14.5
          ],
          [
            -66.132009,
            18.395016,
            16
          ],
          [
            -66.131774,
            18.394958,
            15.75
          ],
          [
            -66.131537,
            18.3949,
            15.75
          ],
          [
            -66.130922,
            18.394749,
            15.5
          ],
          [
            -66.130629,
            18.394683,
            15.5
          ],
          [
            -66.130338,
            18.394608,
            15.25
          ],
          [
            -66.13005,
            18.394524,
            15
          ],
          [
            -66.129765,
            18.394432,
            15.5
          ],
          [
            -66.12929,
            18.394294,
            16.5
          ],
          [
            -66.128167,
            18.394016,
            19
          ],
          [
            -66.12776,
            18.39392,
            19
          ],
          [
            -66.12527,
            18.393327,
            22
          ],
          [
            -66.119638,
            18.391968,
            38.25
          ],
          [
            -66.119056,
            18.391827,
            35.5
          ],
          [
            -66.118074,
            18.39159,
            32.75
          ],
          [
            -66.11684,
            18.391292,
            30.25
          ],
          [
            -66.114135,
            18.390639,
            32.25
          ],
          [
            -66.113885,
            18.390586,
            32
          ],
          [
            -66.11364,
            18.390541,
            32
          ],
          [
            -66.113393,
            18.390507,
            32
          ],
          [
            -66.113145,
            18.390485,
            32.75
          ],
          [
            -66.112896,
            18.390473,
            33.75
          ],
          [
            -66.112646,
            18.390473,
            34.5
          ],
          [
            -66.112397,
            18.390484,
            35.25
          ],
          [
            -66.112148,
            18.390506,
            36.25
          ],
          [
            -66.111553,
            18.39059,
            38
          ],
          [
            -66.111279,
            18.390631,
            37
          ],
          [
            -66.110983,
            18.390675,
            37
          ],
          [
            -66.110888,
            18.390689,
            36.75
          ],
          [
            -66.109991,
            18.390826,
            37.75
          ],
          [
            -66.109559,
            18.390905,
            35.75
          ],
          [
            -66.108055,
            18.391226,
            33.5
          ],
          [
            -66.107718,
            18.391293,
            35
          ],
          [
            -66.107378,
            18.391342,
            36.5
          ],
          [
            -66.107035,
            18.391373,
            36.75
          ],
          [
            -66.106691,
            18.391387,
            37.25
          ],
          [
            -66.106346,
            18.391382,
            39
          ],
          [
            -66.104213,
            18.391223,
            45
          ],
          [
            -66.103558,
            18.391189,
            50.25
          ],
          [
            -66.101871,
            18.391117,
            50.5
          ],
          [
            -66.101781,
            18.391114,
            50.5
          ],
          [
            -66.100907,
            18.391076,
            48.25
          ],
          [
            -66.099457,
            18.391015,
            48.5
          ],
          [
            -66.099364,
            18.391011,
            48.25
          ],
          [
            -66.097486,
            18.390931,
            41.75
          ],
          [
            -66.096018,
            18.390869,
            38.5
          ],
          [
            -66.095123,
            18.390822,
            37.75
          ],
          [
            -66.093916,
            18.390759,
            37
          ],
          [
            -66.091749,
            18.390646,
            35.75
          ],
          [
            -66.089411,
            18.390524,
            35.75
          ],
          [
            -66.088811,
            18.390501,
            35.5
          ],
          [
            -66.088212,
            18.390486,
            35.5
          ],
          [
            -66.087612,
            18.390483,
            36.25
          ],
          [
            -66.087012,
            18.39049,
            34.5
          ],
          [
            -66.086412,
            18.390509,
            32.5
          ],
          [
            -66.085813,
            18.390538,
            30.5
          ],
          [
            -66.084064,
            18.39065,
            29
          ],
          [
            -66.082756,
            18.390735,
            27.75
          ],
          [
            -66.081561,
            18.390813,
            26.75
          ],
          [
            -66.081404,
            18.390839,
            26.75
          ],
          [
            -66.08125,
            18.390881,
            26.5
          ],
          [
            -66.081101,
            18.390937,
            26.25
          ],
          [
            -66.080959,
            18.391008,
            26.25
          ],
          [
            -66.080825,
            18.391091,
            26
          ],
          [
            -66.080701,
            18.391188,
            26
          ],
          [
            -66.079355,
            18.392448,
            24.5
          ],
          [
            -66.079205,
            18.392577,
            24.25
          ],
          [
            -66.079049,
            18.392699,
            24
          ],
          [
            -66.078886,
            18.392813,
            23.75
          ],
          [
            -66.078687,
            18.392904,
            24
          ],
          [
            -66.078477,
            18.39297,
            25
          ],
          [
            -66.07826,
            18.393008,
            26
          ],
          [
            -66.078039,
            18.393018,
            26
          ],
          [
            -66.077818,
            18.393001,
            26
          ],
          [
            -66.077602,
            18.392956,
            26.5
          ],
          [
            -66.077394,
            18.392884,
            27
          ],
          [
            -66.077199,
            18.392786,
            27.25
          ],
          [
            -66.077018,
            18.392665,
            27.5
          ],
          [
            -66.076744,
            18.392468,
            27.25
          ],
          [
            -66.076355,
            18.392189,
            30.25
          ],
          [
            -66.075892,
            18.391855,
            29.25
          ],
          [
            -66.075738,
            18.39176,
            29
          ],
          [
            -66.075576,
            18.391676,
            28.75
          ],
          [
            -66.075409,
            18.391604,
            28.5
          ],
          [
            -66.074568,
            18.391344,
            27
          ],
          [
            -66.074442,
            18.391306,
            27
          ],
          [
            -66.07254,
            18.390719,
            27
          ],
          [
            -66.072085,
            18.390597,
            25.25
          ],
          [
            -66.071843,
            18.390541
          ],
          [
            -66.071598,
            18.390497
          ],
          [
            -66.071352,
            18.390465
          ],
          [
            -66.071104,
            18.390443
          ],
          [
            -66.070855,
            18.390434
          ],
          [
            -66.070606,
            18.390436
          ],
          [
            -66.070358,
            18.390449
          ],
          [
            -66.070111,
            18.390474
          ],
          [
            -66.069865,
            18.39051
          ],
          [
            -66.066362,
            18.391076
          ],
          [
            -66.066207,
            18.391092
          ],
          [
            -66.066052,
            18.391092
          ],
          [
            -66.065898,
            18.391075
          ],
          [
            -66.065747,
            18.391043
          ],
          [
            -66.0656,
            18.390994
          ],
          [
            -66.06546,
            18.390931
          ],
          [
            -66.065328,
            18.390854
          ],
          [
            -66.065206,
            18.390763
          ],
          [
            -66.064983,
            18.390576
          ],
          [
            -66.064836,
            18.390465
          ],
          [
            -66.064675,
            18.390373
          ],
          [
            -66.064504,
            18.390301
          ],
          [
            -66.064324,
            18.390251
          ],
          [
            -66.064138,
            18.390223
          ],
          [
            -66.063951,
            18.390217
          ],
          [
            -66.063764,
            18.390235
          ],
          [
            -66.063582,
            18.390276
          ],
          [
            -66.063406,
            18.390338
          ],
          [
            -66.06324,
            18.390421
          ],
          [
            -66.063087,
            18.390524
          ],
          [
            -66.062673,
            18.390824
          ],
          [
            -66.061569,
            18.391625
          ],
          [
            -66.06144,
            18.391715
          ],
          [
            -66.061172,
            18.391882
          ],
          [
            -66.057962,
            18.393613
          ],
          [
            -66.057788,
            18.393707,
            17
          ],
          [
            -66.057456,
            18.393885,
            17
          ],
          [
            -66.057017,
            18.394125,
            17
          ],
          [
            -66.05677,
            18.394273,
            17
          ],
          [
            -66.056528,
            18.394428,
            17
          ],
          [
            -66.055272,
            18.395302,
            17
          ],
          [
            -66.054212,
            18.395997,
            17
          ],
          [
            -66.053465,
            18.396494,
            17.5
          ],
          [
            -66.053249,
            18.396666,
            17.5
          ],
          [
            -66.05306,
            18.396863,
            17.75
          ],
          [
            -66.0529,
            18.397082,
            18
          ],
          [
            -66.052772,
            18.39732,
            18
          ],
          [
            -66.052679,
            18.397572,
            18.25
          ],
          [
            -66.052198,
            18.399167,
            19.25
          ],
          [
            -66.051894,
            18.40019,
            19.75
          ],
          [
            -66.05184,
            18.400462,
            20
          ],
          [
            -66.051807,
            18.400737,
            20.25
          ],
          [
            -66.051796,
            18.401014,
            20.25
          ],
          [
            -66.051807,
            18.40129,
            20.5
          ],
          [
            -66.051923,
            18.403216,
            21.75
          ],
          [
            -66.051928,
            18.403422,
            21.75
          ],
          [
            -66.051919,
            18.403628,
            22
          ],
          [
            -66.051897,
            18.403834,
            22
          ],
          [
            -66.051709,
            18.405359,
            23
          ],
          [
            -66.051626,
            18.406035,
            23.5
          ],
          [
            -66.051616,
            18.406218,
            23.5
          ],
          [
            -66.051632,
            18.406401,
            23.75
          ],
          [
            -66.051673,
            18.406579,
            23.75
          ],
          [
            -66.05174,
            18.406752,
            23.75
          ],
          [
            -66.05183,
            18.406914,
            24
          ],
          [
            -66.051943,
            18.407063,
            24
          ],
          [
            -66.052076,
            18.407196,
            24.25
          ],
          [
            -66.052226,
            18.407311,
            24.25
          ],
          [
            -66.052391,
            18.407406,
            24.5
          ],
          [
            -66.052568,
            18.407479,
            24.5
          ],
          [
            -66.052754,
            18.407529,
            24.5
          ],
          [
            -66.052936,
            18.407565,
            24.75
          ],
          [
            -66.05312,
            18.407589,
            24.75
          ],
          [
            -66.053626,
            18.407624,
            23.5
          ],
          [
            -66.053774,
            18.407636
          ],
          [
            -66.053921,
            18.407662
          ],
          [
            -66.054063,
            18.407701
          ],
          [
            -66.054201,
            18.407754
          ],
          [
            -66.054333,
            18.407818
          ],
          [
            -66.054458,
            18.407895
          ],
          [
            -66.054574,
            18.407983
          ],
          [
            -66.054681,
            18.408082
          ],
          [
            -66.054777,
            18.408189
          ],
          [
            -66.054861,
            18.408305
          ],
          [
            -66.054933,
            18.408429
          ],
          [
            -66.054992,
            18.408558
          ],
          [
            -66.055037,
            18.408693
          ],
          [
            -66.055069,
            18.40883
          ],
          [
            -66.055391,
            18.410875
          ],
          [
            -66.055403,
            18.410948
          ],
          [
            -66.055445,
            18.411214
          ],
          [
            -66.05552,
            18.41169
          ],
          [
            -66.055642,
            18.412464
          ],
          [
            -66.055666,
            18.412591
          ],
          [
            -66.0557,
            18.412717
          ],
          [
            -66.055742,
            18.412839
          ],
          [
            -66.055794,
            18.412959
          ],
          [
            -66.055855,
            18.413074
          ],
          [
            -66.056179,
            18.413632
          ],
          [
            -66.056237,
            18.413764
          ],
          [
            -66.056283,
            18.4139
          ],
          [
            -66.056316,
            18.414039
          ],
          [
            -66.056336,
            18.41418
          ],
          [
            -66.056343,
            18.414323
          ],
          [
            -66.056369,
            18.415268
          ],
          [
            -66.056409,
            18.416714
          ],
          [
            -66.056436,
            18.416953
          ],
          [
            -66.056487,
            18.417189
          ],
          [
            -66.056767,
            18.418335
          ],
          [
            -66.056826,
            18.418615
          ],
          [
            -66.057085,
            18.420093
          ],
          [
            -66.057138,
            18.420308
          ],
          [
            -66.057223,
            18.420513
          ],
          [
            -66.057339,
            18.420703
          ],
          [
            -66.057482,
            18.420876
          ],
          [
            -66.057651,
            18.421028
          ],
          [
            -66.058272,
            18.421545
          ],
          [
            -66.058399,
            18.42169
          ],
          [
            -66.058504,
            18.421851
          ],
          [
            -66.058585,
            18.422024
          ],
          [
            -66.05864,
            18.422206
          ],
          [
            -66.058904,
            18.423238
          ],
          [
            -66.059591,
            18.425933
          ],
          [
            -66.059638,
            18.426153
          ],
          [
            -66.059718,
            18.426596
          ],
          [
            -66.059848,
            18.427564
          ],
          [
            -66.059911,
            18.427932
          ],
          [
            -66.060158,
            18.429347
          ],
          [
            -66.060498,
            18.431291
          ],
          [
            -66.060527,
            18.431493
          ],
          [
            -66.060537,
            18.431696
          ],
          [
            -66.060528,
            18.4319
          ],
          [
            -66.060502,
            18.432102
          ],
          [
            -66.060456,
            18.432301
          ],
          [
            -66.060393,
            18.432495
          ],
          [
            -66.060313,
            18.432684
          ],
          [
            -66.060215,
            18.432865
          ],
          [
            -66.060057,
            18.433114
          ],
          [
            -66.059924,
            18.433359
          ],
          [
            -66.059792,
            18.433605
          ],
          [
            -66.059616,
            18.433882
          ],
          [
            -66.059571,
            18.433966
          ],
          [
            -66.059516,
            18.434107
          ],
          [
            -66.059478,
            18.434253
          ],
          [
            -66.059457,
            18.434402
          ],
          [
            -66.059452,
            18.434553
          ],
          [
            -66.059465,
            18.434703
          ],
          [
            -66.059494,
            18.434851
          ],
          [
            -66.05954,
            18.434995
          ],
          [
            -66.059602,
            18.435134
          ],
          [
            -66.059679,
            18.435265
          ],
          [
            -66.059746,
            18.43536
          ],
          [
            -66.060458,
            18.436279
          ],
          [
            -66.06084,
            18.436767
          ]
        ]
      }
    }
  ]
}