{
  "type": "FeatureCollection",
  "features": [
    {
      "type": "Feature",
      "properties": {
        "creator": "BRouter-1.7.9",
        "name": "[ATL Airport] SkyTrain",
        "track-length": "4522",
        "filtered ascend": "0",
        "plain-ascend": "0",
        "total-time": "363",
        "total-energy": "198899",
        "cost": "4522",
        "messages": [
          [
            "Longitude",
            "Latitude",
            "Elevation",
            "Distance",
            "CostPerKm",
            "ElevCost",
            "TurnCost",
            "NodeCost",
            "InitialCost",
            "WayTags",
            "NodeTags",
            "Time",
            "Energy"
          ],
          [
            "-84446686",
            "33641320",
            "-8192",
            "107",
            "1000",
            "0",
            "0",
            "0",
            "0",
            "railway=monorail",
            "railway=switch",
            "8",
            "4706"
          ],
          [
            "-84447076",
            "33642506",
            "-8192",
            "144",
            "1000",
            "0",
            "0",
            "0",
            "0",
            "railway=monorail",
            "",
            "20",
            "11040"
          ],
          [
            "-84448035",
            "33642549",
            "-8192",
            "90",
            "1000",
            "0",
            "0",
            "0",
            "0",
            "railway=monorail",
            "railway=switch",
            "7",
            "3958"
          ],
          [
            "-84453488",
            "33644294",
            "-8192",
            "584",
            "1000",
            "0",
            "0",
            "0",
            "0",
            "railway=monorail",
            "railway=switch",
            "53",
            "29646"
          ],
          [
            "-84456988",
            "33643585",
            "-8192",
            "404",
            "1000",
            "0",
            "0",
            "0",
            "0",
            "railway=monorail",
            "railway=halt",
            "86",
            "47416"
          ],
          [
            "-84457518",
            "33642984",
            "-8192",
            "83",
            "1000",
            "0",
            "0",
            "0",
            "0",
            "railway=monorail",
            "railway=switch",
            "92",
            "51066"
          ],
          [
            "-84462334",
            "33639891",
            "-8192",
            "598",
            "1000",
            "0",
            "0",
            "0",
            "0",
            "railway=monorail",
            "",
            "140",
            "77370"
          ],
          [
            "-84462926",
            "33639884",
            "-8192",
            "55",
            "1000",
            "0",
            "0",
            "0",
            "0",
            "railway=monorail",
            "railway=switch",
            "4",
            "2419"
          ],
          [
            "-84463068",
            "33639882",
            "-8192",
            "13",
            "1000",
            "0",
            "0",
            "0",
            "0",
            "railway=monorail",
            "railway=switch",
            "5",
            "2990"
          ],
          [
            "-84465003",
            "33639983",
            "-8192",
            "181",
            "1000",
            "0",
            "0",
            "0",
            "0",
            "railway=monorail",
            "railway=halt",
            "19",
            "10952"
          ],
          [
            "-84465095",
            "33639982",
            "-8192",
            "9",
            "1000",
            "0",
            "0",
            "0",
            "0",
            "railway=monorail",
            "railway=switch",
            "20",
            "11348"
          ],
          [
            "-84465102",
            "33639981",
            "-8192",
            "1",
            "1000",
            "0",
            "0",
            "0",
            "0",
            "railway=monorail",
            "",
            "20",
            "11392"
          ],
          [
            "-84465095",
            "33639982",
            "-8192",
            "1",
            "1000",
            "0",
            "0",
            "0",
            "0",
            "reversedirection=yes railway=monorail",
            "railway=switch",
            "0",
            "43"
          ],
          [
            "-84465003",
            "33639983",
            "-8192",
            "9",
            "1000",
            "0",
            "0",
            "0",
            "0",
            "reversedirection=yes railway=monorail",
            "railway=halt",
            "0",
            "439"
          ],
          [
            "-84463068",
            "33639882",
            "-8192",
            "181",
            "1000",
            "0",
            "0",
            "0",
            "0",
            "reversedirection=yes railway=monorail",
            "railway=switch",
            "15",
            "8401"
          ],
          [
            "-84462926",
            "33639884",
            "-8192",
            "13",
            "1000",
            "0",
            "0",
            "0",
            "0",
            "reversedirection=yes railway=monorail",
            "railway=switch",
            "16",
            "8972"
          ],
          [
            "-84462503",
            "33639818",
            "-8192",
            "40",
            "1000",
            "0",
            "0",
            "0",
            "0",
            "railway=monorail",
            "railway=switch",
            "19",
            "10732"
          ],
          [
            "-84460871",
            "33639953",
            "-8192",
            "153",
            "1000",
            "0",
            "0",
            "0",
            "0",
            "railway=monorail",
            "",
            "31",
            "17462"
          ],
          [
            "-84457718",
            "33642656",
            "-8192",
            "425",
            "1000",
            "0",
            "0",
            "0",
            "0",
            "railway=monorail",
            "railway=switch",
            "34",
            "18693"
          ],
          [
            "-84456322",
            "33644114",
            "-8192",
            "208",
            "1000",
            "0",
            "0",
            "0",
            "0",
            "railway=monorail",
            "railway=halt",
            "50",
            "27842"
          ],
          [
            "-84453223",
            "33643998",
            "-8192",
            "347",
            "1000",
            "0",
            "0",
            "0",
            "0",
            "railway=monorail",
            "railway=switch",
            "78",
            "43105"
          ],
          [
            "-84449820",
            "33642409",
            "-8192",
            "378",
            "1000",
            "0",
            "0",
            "0",
            "0",
            "railway=monorail",
            "",
            "108",
            "59731"
          ],
          [
            "-84447595",
            "33642506",
            "-8192",
            "207",
            "1000",
            "0",
            "0",
            "0",
            "0",
            "railway=monorail",
            "railway=switch",
            "16",
            "9104"
          ],
          [
            "-84446783",
            "33641699",
            "-8192",
            "141",
            "1000",
            "0",
            "0",
            "0",
            "0",
            "railway=monorail",
            "railway=switch",
            "27",
            "15306"
          ],
          [
            "-84446686",
            "33641320",
            "-8192",
            "43",
            "1000",
            "0",
            "0",
            "0",
            "0",
            "railway=monorail",
            "railway=switch",
            "31",
            "17198"
          ],
          [
            "-84446689",
            "33640359",
            "-8192",
            "107",
            "1000",
            "0",
            "0",
            "0",
            "0",
            "reversedirection=yes railway=monorail",
            "",
            "39",
            "21904"
          ]
        ],
        "times": [
          0,
          8.56,
          14.64,
          15.52,
          16.4,
          17.2,
          18.08,
          19.04,
          19.92,
          20.08,
          20.8,
          21.76,
          22.72,
          23.76,
          27.28,
          29.76,
          33.76,
          43.68,
          45.2,
          46.48,
          47.68,
          48.88,
          50.16,
          51.36,
          52.48,
          53.6,
          54.8,
          67.36,
          71.28,
          74,
          76.16,
          77.44,
          78.64,
          79.84,
          81.04,
          82.24,
          83.44,
          84.64,
          85.84,
          87.04,
          88.24,
          89.44,
          90.72,
          92,
          93.2,
          94.4,
          95.68,
          96.96,
          98.24,
          106.32,
          107.52,
          111.6,
          112.96,
          116.16,
          120.24,
          121.44,
          138.24,
          139.68,
          141.12,
          142.56,
          143.92,
          145.28,
          146.72,
          148.16,
          149.6,
          150.96,
          152.32,
          154.96,
          156.32,
          160.8,
          161.84,
          165.2,
          166.24,
          167.12,
          169.68,
          170.64,
          180.72,
          181.44,
          181.52,
          181.6,
          182.32,
          192.4,
          193.36,
          195.92,
          196.8,
          197.84,
          198.96,
          200.08,
          201.04,
          204.96,
          206.72,
          208.16,
          210.8,
          213.28,
          213.6,
          215.12,
          216.56,
          218,
          219.44,
          220.8,
          222.24,
          223.68,
          225.12,
          247.28,
          251.84,
          256,
          263.92,
          266.4,
          267.52,
          268.64,
          269.84,
          271.04,
          272.24,
          273.36,
          274.56,
          275.76,
          276.96,
          278.16,
          279.2,
          280.4,
          281.6,
          282.8,
          283.84,
          285.04,
          287.44,
          291.68,
          306.48,
          307.6,
          308.8,
          310,
          311.12,
          312.32,
          313.6,
          314.8,
          316,
          317.28,
          318.8,
          321.92,
          338.48,
          339.76,
          340.64,
          341.52,
          342.32,
          343.12,
          344,
          344.8,
          345.52,
          346.24,
          347.04,
          349.76,
          350.8,
          352.24,
          353.2,
          361.76
        ]
      },
      "geometry": {
        "type": "LineString",
        "coordinates": [
          [
            -84.446689,
            33.640359
          ],
          [
            -84.446686,
            33.64132
          ],
          [
            -84.446713,
            33.642008
          ],
          [
            -84.446726,
            33.642109
          ],
          [
            -84.446755,
            33.642201
          ],
          [
            -84.446802,
            33.642283
          ],
          [
            -84.446866,
            33.642363
          ],
          [
            -84.446955,
            33.642439
          ],
          [
            -84.447053,
            33.642498
          ],
          [
            -84.447076,
            33.642506
          ],
          [
            -84.447166,
            33.64254
          ],
          [
            -84.44729,
            33.642563
          ],
          [
            -84.447418,
            33.642572
          ],
          [
            -84.447561,
            33.642571
          ],
          [
            -84.448035,
            33.642549
          ],
          [
            -84.448371,
            33.642531
          ],
          [
            -84.448907,
            33.642486
          ],
          [
            -84.450241,
            33.642427
          ],
          [
            -84.450446,
            33.642427
          ],
          [
            -84.450615,
            33.642438
          ],
          [
            -84.450773,
            33.642459
          ],
          [
            -84.450929,
            33.642491
          ],
          [
            -84.451089,
            33.642537
          ],
          [
            -84.451236,
            33.64259
          ],
          [
            -84.45137,
            33.642646
          ],
          [
            -84.451502,
            33.642714
          ],
          [
            -84.45163,
            33.642793
          ],
          [
            -84.452864,
            33.643758
          ],
          [
            -84.453221,
            33.644078
          ],
          [
            -84.453488,
            33.644294
          ],
          [
            -84.453699,
            33.644467
          ],
          [
            -84.453827,
            33.644561
          ],
          [
            -84.453957,
            33.644642
          ],
          [
            -84.45409,
            33.644711
          ],
          [
            -84.45424,
            33.644771
          ],
          [
            -84.454395,
            33.644821
          ],
          [
            -84.454549,
            33.644854
          ],
          [
            -84.454708,
            33.644877
          ],
          [
            -84.45487,
            33.644887
          ],
          [
            -84.455034,
            33.644883
          ],
          [
            -84.455197,
            33.644866
          ],
          [
            -84.455359,
            33.644836
          ],
          [
            -84.45552,
            33.644794
          ],
          [
            -84.455674,
            33.644737
          ],
          [
            -84.455819,
            33.644672
          ],
          [
            -84.455958,
            33.644596
          ],
          [
            -84.456086,
            33.644506
          ],
          [
            -84.456208,
            33.644405
          ],
          [
            -84.456317,
            33.644299
          ],
          [
            -84.456988,
            33.643585
          ],
          [
            -84.457086,
            33.64348
          ],
          [
            -84.457408,
            33.643102
          ],
          [
            -84.457518,
            33.642984
          ],
          [
            -84.457787,
            33.642699
          ],
          [
            -84.458099,
            33.642318
          ],
          [
            -84.458196,
            33.642207
          ],
          [
            -84.459615,
            33.640729
          ],
          [
            -84.459739,
            33.640606
          ],
          [
            -84.45987,
            33.640491
          ],
          [
            -84.460013,
            33.64038
          ],
          [
            -84.460159,
            33.640287
          ],
          [
            -84.460317,
            33.640201
          ],
          [
            -84.460484,
            33.640123
          ],
          [
            -84.460661,
            33.640056
          ],
          [
            -84.460845,
            33.64
          ],
          [
            -84.46102,
            33.639962
          ],
          [
            -84.461198,
            33.639934
          ],
          [
            -84.461552,
            33.639902
          ],
          [
            -84.46173,
            33.639892
          ],
          [
            -84.462334,
            33.639891
          ],
          [
            -84.462471,
            33.639891
          ],
          [
            -84.462926,
            33.639884
          ],
          [
            -84.463068,
            33.639882
          ],
          [
            -84.463185,
            33.639894
          ],
          [
            -84.463517,
            33.639967
          ],
          [
            -84.46365,
            33.639983
          ],
          [
            -84.465003,
            33.639983
          ],
          [
            -84.465095,
            33.639982
          ],
          [
            -84.465102,
            33.639981
          ],
          [
            -84.465095,
            33.639982
          ],
          [
            -84.465003,
            33.639983
          ],
          [
            -84.46365,
            33.639983
          ],
          [
            -84.463517,
            33.639967
          ],
          [
            -84.463185,
            33.639894
          ],
          [
            -84.463068,
            33.639882
          ],
          [
            -84.462926,
            33.639884
          ],
          [
            -84.462774,
            33.639871
          ],
          [
            -84.462632,
            33.639828
          ],
          [
            -84.462503,
            33.639818
          ],
          [
            -84.461975,
            33.639822
          ],
          [
            -84.461736,
            33.639831
          ],
          [
            -84.461543,
            33.639847
          ],
          [
            -84.461191,
            33.639888
          ],
          [
            -84.460871,
            33.639953
          ],
          [
            -84.460832,
            33.639961
          ],
          [
            -84.460642,
            33.640018
          ],
          [
            -84.460462,
            33.640087
          ],
          [
            -84.460291,
            33.640166
          ],
          [
            -84.46013,
            33.640253
          ],
          [
            -84.459981,
            33.640349
          ],
          [
            -84.459836,
            33.640462
          ],
          [
            -84.459703,
            33.640578
          ],
          [
            -84.459576,
            33.640703
          ],
          [
            -84.457718,
            33.642656
          ],
          [
            -84.457345,
            33.64306
          ],
          [
            -84.456976,
            33.643414
          ],
          [
            -84.456322,
            33.644114
          ],
          [
            -84.456112,
            33.644335
          ],
          [
            -84.456011,
            33.64443
          ],
          [
            -84.455898,
            33.644518
          ],
          [
            -84.455772,
            33.644597
          ],
          [
            -84.455635,
            33.644669
          ],
          [
            -84.455485,
            33.644728
          ],
          [
            -84.45534,
            33.644771
          ],
          [
            -84.455187,
            33.644802
          ],
          [
            -84.455029,
            33.644821
          ],
          [
            -84.45487,
            33.644828
          ],
          [
            -84.454712,
            33.644821
          ],
          [
            -84.454571,
            33.644803
          ],
          [
            -84.454418,
            33.644769
          ],
          [
            -84.454268,
            33.644722
          ],
          [
            -84.454123,
            33.644662
          ],
          [
            -84.454004,
            33.644597
          ],
          [
            -84.453872,
            33.644512
          ],
          [
            -84.45363,
            33.644331
          ],
          [
            -84.453223,
            33.643998
          ],
          [
            -84.451774,
            33.642851
          ],
          [
            -84.451657,
            33.642766
          ],
          [
            -84.451527,
            33.642685
          ],
          [
            -84.451391,
            33.642615
          ],
          [
            -84.451254,
            33.642558
          ],
          [
            -84.451104,
            33.642504
          ],
          [
            -84.450941,
            33.642457
          ],
          [
            -84.450781,
            33.642424
          ],
          [
            -84.45062,
            33.642403
          ],
          [
            -84.450448,
            33.642391
          ],
          [
            -84.45024,
            33.642391
          ],
          [
            -84.44982,
            33.642409
          ],
          [
            -84.447595,
            33.642506
          ],
          [
            -84.447424,
            33.642511
          ],
          [
            -84.447301,
            33.642503
          ],
          [
            -84.447189,
            33.642482
          ],
          [
            -84.44709,
            33.642446
          ],
          [
            -84.447003,
            33.642393
          ],
          [
            -84.446923,
            33.642325
          ],
          [
            -84.446865,
            33.642253
          ],
          [
            -84.446823,
            33.64218
          ],
          [
            -84.446797,
            33.642098
          ],
          [
            -84.446785,
            33.642004
          ],
          [
            -84.446783,
            33.641699
          ],
          [
            -84.446764,
            33.64158
          ],
          [
            -84.446706,
            33.641423
          ],
          [
            -84.446686,
            33.64132
          ],
          [
            -84.446689,
            33.640359
          ]
        ]
      }
    }
  ]
}