{
  "type": "FeatureCollection",
  "features": [
    {
      "type": "Feature",
      "properties": {
        "creator": "BRouter-1.7.0",
        "name": "Cincinnati Streetcar",
        "track-length": "5664",
        "filtered ascend": "86",
        "plain-ascend": "5",
        "total-time": "453",
        "total-energy": "268930",
        "cost": "11328",
        "messages": [
          [
            "Longitude",
            "Latitude",
            "Elevation",
            "Distance",
            "CostPerKm",
            "ElevCost",
            "TurnCost",
            "NodeCost",
            "InitialCost",
            "WayTags",
            "NodeTags",
            "Time",
            "Energy"
          ],
          [
            "-84509365",
            "39098302",
            "153",
            "33",
            "2000",
            "0",
            "0",
            "0",
            "0",
            "railway=tram",
            "railway=level_crossing",
            "2",
            "1265"
          ],
          [
            "-84509057",
            "39098349",
            "153",
            "27",
            "2000",
            "0",
            "0",
            "0",
            "0",
            "railway=tram",
            "railway=unknown",
            "4",
            "2183"
          ],
          [
            "-84508943",
            "39098425",
            "154",
            "13",
            "2000",
            "0",
            "0",
            "0",
            "0",
            "railway=tram",
            "railway=unknown",
            "5",
            "2716"
          ],
          [
            "-84508923",
            "39098449",
            "154",
            "3",
            "2000",
            "0",
            "0",
            "0",
            "0",
            "railway=tram",
            "railway=unknown",
            "6",
            "2857"
          ],
          [
            "-84508913",
            "39098558",
            "156",
            "12",
            "2000",
            "0",
            "0",
            "0",
            "0",
            "railway=tram",
            "railway=unknown",
            "7",
            "3549"
          ],
          [
            "-84509041",
            "39099060",
            "164",
            "56",
            "2000",
            "0",
            "0",
            "0",
            "0",
            "railway=tram",
            "railway=unknown",
            "11",
            "8230"
          ],
          [
            "-84509068",
            "39099170",
            "165",
            "12",
            "2000",
            "0",
            "0",
            "0",
            "0",
            "railway=tram",
            "railway=unknown",
            "12",
            "9367"
          ],
          [
            "-84509092",
            "39099266",
            "168",
            "11",
            "2000",
            "0",
            "0",
            "0",
            "0",
            "railway=tram",
            "railway=unknown",
            "13",
            "10578"
          ],
          [
            "-84509201",
            "39099689",
            "179",
            "48",
            "2000",
            "0",
            "0",
            "0",
            "0",
            "railway=tram",
            "railway=unknown",
            "17",
            "18862"
          ],
          [
            "-84509370",
            "39100365",
            "192",
            "76",
            "2000",
            "0",
            "0",
            "0",
            "0",
            "railway=tram",
            "railway=unknown",
            "23",
            "33648"
          ],
          [
            "-84509400",
            "39100441",
            "193",
            "9",
            "2000",
            "0",
            "0",
            "0",
            "0",
            "railway=tram",
            "railway=unknown",
            "23",
            "34985"
          ],
          [
            "-84509426",
            "39100536",
            "194",
            "11",
            "2000",
            "0",
            "0",
            "0",
            "0",
            "railway=tram",
            "railway=unknown",
            "24",
            "36579"
          ],
          [
            "-84509492",
            "39100797",
            "196",
            "30",
            "2000",
            "0",
            "0",
            "0",
            "0",
            "railway=tram",
            "railway=tram_stop",
            "27",
            "40887"
          ],
          [
            "-84509509",
            "39100865",
            "196",
            "8",
            "2000",
            "0",
            "0",
            "0",
            "0",
            "railway=tram",
            "railway=unknown",
            "27",
            "41896"
          ],
          [
            "-84509682",
            "39101511",
            "189",
            "73",
            "2000",
            "0",
            "0",
            "0",
            "0",
            "railway=tram",
            "highway=crossing crossing=traffic_signals railway=unknown",
            "33",
            "45877"
          ],
          [
            "-84509708",
            "39101609",
            "188",
            "11",
            "2000",
            "0",
            "0",
            "0",
            "0",
            "railway=tram",
            "railway=unknown",
            "34",
            "46620"
          ],
          [
            "-84509726",
            "39101680",
            "187",
            "8",
            "2000",
            "0",
            "0",
            "0",
            "0",
            "railway=tram",
            "highway=crossing crossing=traffic_signals railway=unknown",
            "35",
            "47091"
          ],
          [
            "-84509971",
            "39102447",
            "195",
            "89",
            "2000",
            "0",
            "0",
            "0",
            "0",
            "railway=tram",
            "railway=unknown",
            "42",
            "53151"
          ],
          [
            "-84510098",
            "39102866",
            "187",
            "47",
            "2000",
            "0",
            "0",
            "0",
            "0",
            "railway=tram",
            "highway=crossing crossing=traffic_signals railway=unknown",
            "46",
            "55279"
          ],
          [
            "-84510113",
            "39102922",
            "186",
            "6",
            "2000",
            "0",
            "0",
            "0",
            "0",
            "railway=tram",
            "railway=unknown",
            "46",
            "55434"
          ],
          [
            "-84510137",
            "39103011",
            "184",
            "10",
            "2000",
            "0",
            "0",
            "0",
            "0",
            "railway=tram",
            "highway=crossing crossing=traffic_signals railway=unknown",
            "47",
            "55811"
          ],
          [
            "-84510198",
            "39103264",
            "179",
            "29",
            "2000",
            "0",
            "0",
            "0",
            "0",
            "railway=tram",
            "railway=tram_stop",
            "49",
            "55882"
          ],
          [
            "-84510268",
            "39103557",
            "177",
            "33",
            "2000",
            "0",
            "0",
            "0",
            "0",
            "railway=tram",
            "railway=unknown",
            "52",
            "55882"
          ],
          [
            "-84510278",
            "39103603",
            "177",
            "5",
            "2000",
            "0",
            "0",
            "0",
            "0",
            "railway=tram",
            "highway=crossing crossing=traffic_signals railway=unknown",
            "52",
            "55904"
          ],
          [
            "-84510400",
            "39104090",
            "175",
            "55",
            "2000",
            "0",
            "0",
            "0",
            "0",
            "railway=tram",
            "highway=crossing crossing=traffic_signals railway=unknown",
            "57",
            "56033"
          ],
          [
            "-84510419",
            "39104172",
            "175",
            "9",
            "2000",
            "0",
            "0",
            "0",
            "0",
            "railway=tram",
            "railway=unknown",
            "57",
            "56122"
          ],
          [
            "-84510436",
            "39104249",
            "175",
            "9",
            "2000",
            "0",
            "0",
            "0",
            "0",
            "railway=tram",
            "highway=crossing crossing=traffic_signals railway=unknown",
            "58",
            "56219"
          ],
          [
            "-84510591",
            "39104857",
            "172",
            "69",
            "2000",
            "0",
            "0",
            "0",
            "0",
            "railway=tram",
            "highway=crossing crossing=traffic_signals railway=unknown",
            "64",
            "56680"
          ],
          [
            "-84510609",
            "39104927",
            "172",
            "8",
            "2000",
            "0",
            "0",
            "0",
            "0",
            "railway=tram",
            "railway=unknown",
            "64",
            "56815"
          ],
          [
            "-84510630",
            "39105006",
            "172",
            "9",
            "2000",
            "0",
            "0",
            "0",
            "0",
            "railway=tram",
            "highway=crossing crossing=traffic_signals railway=unknown",
            "65",
            "56950"
          ],
          [
            "-84510709",
            "39105325",
            "172",
            "36",
            "2000",
            "0",
            "0",
            "0",
            "0",
            "railway=tram",
            "railway=tram_stop",
            "68",
            "57761"
          ],
          [
            "-84510819",
            "39105776",
            "172",
            "51",
            "2000",
            "0",
            "0",
            "0",
            "0",
            "railway=tram",
            "railway=unknown",
            "72",
            "59204"
          ],
          [
            "-84510842",
            "39105867",
            "172",
            "10",
            "2000",
            "0",
            "0",
            "0",
            "0",
            "railway=tram",
            "railway=unknown",
            "73",
            "59529"
          ],
          [
            "-84510862",
            "39105948",
            "172",
            "9",
            "2000",
            "0",
            "0",
            "0",
            "0",
            "railway=tram",
            "railway=unknown",
            "74",
            "59870"
          ],
          [
            "-84510898",
            "39106085",
            "173",
            "16",
            "2000",
            "0",
            "0",
            "0",
            "0",
            "railway=tram",
            "railway=unknown",
            "75",
            "60225"
          ],
          [
            "-84511031",
            "39106623",
            "175",
            "61",
            "2000",
            "0",
            "0",
            "0",
            "0",
            "railway=tram",
            "railway=unknown",
            "80",
            "62797"
          ],
          [
            "-84511045",
            "39106676",
            "175",
            "6",
            "2000",
            "0",
            "0",
            "0",
            "0",
            "railway=tram",
            "railway=unknown",
            "80",
            "63053"
          ],
          [
            "-84511091",
            "39106850",
            "174",
            "20",
            "2000",
            "0",
            "0",
            "0",
            "0",
            "railway=tram",
            "railway=unknown",
            "82",
            "63790"
          ],
          [
            "-84511103",
            "39106899",
            "174",
            "6",
            "2000",
            "0",
            "0",
            "0",
            "0",
            "railway=tram",
            "railway=unknown",
            "82",
            "64004"
          ],
          [
            "-84511161",
            "39107125",
            "173",
            "26",
            "2000",
            "0",
            "0",
            "0",
            "0",
            "railway=tram",
            "railway=tram_stop",
            "84",
            "64759"
          ],
          [
            "-84511202",
            "39107291",
            "172",
            "19",
            "2000",
            "0",
            "0",
            "0",
            "0",
            "railway=tram",
            "railway=unknown",
            "86",
            "65216"
          ],
          [
            "-84511247",
            "39107476",
            "171",
            "21",
            "2000",
            "0",
            "0",
            "0",
            "0",
            "railway=tram",
            "railway=unknown",
            "88",
            "66130"
          ],
          [
            "-84511267",
            "39107563",
            "171",
            "10",
            "2000",
            "0",
            "0",
            "0",
            "0",
            "railway=tram",
            "railway=unknown",
            "88",
            "66546"
          ],
          [
            "-84511298",
            "39107716",
            "171",
            "17",
            "2000",
            "0",
            "0",
            "0",
            "0",
            "railway=tram",
            "railway=unknown",
            "90",
            "67257"
          ],
          [
            "-84511315",
            "39107784",
            "171",
            "8",
            "2000",
            "0",
            "0",
            "0",
            "0",
            "railway=tram",
            "railway=unknown",
            "90",
            "67594"
          ],
          [
            "-84511397",
            "39108104",
            "171",
            "36",
            "2000",
            "0",
            "0",
            "0",
            "0",
            "railway=tram",
            "railway=unknown",
            "93",
            "68388"
          ],
          [
            "-84511422",
            "39108204",
            "171",
            "11",
            "2000",
            "0",
            "0",
            "0",
            "0",
            "railway=tram",
            "railway=unknown",
            "94",
            "68682"
          ],
          [
            "-84511489",
            "39108465",
            "171",
            "30",
            "2000",
            "0",
            "0",
            "0",
            "0",
            "railway=tram",
            "railway=tram_stop",
            "96",
            "69522"
          ],
          [
            "-84511586",
            "39108708",
            "171",
            "29",
            "2000",
            "0",
            "0",
            "0",
            "0",
            "railway=tram",
            "railway=unknown",
            "99",
            "70400"
          ],
          [
            "-84511626",
            "39108734",
            "171",
            "5",
            "2000",
            "0",
            "0",
            "0",
            "0",
            "railway=tram",
            "railway=unknown",
            "99",
            "70561"
          ],
          [
            "-84511710",
            "39108762",
            "170",
            "8",
            "2000",
            "0",
            "0",
            "0",
            "0",
            "railway=tram",
            "railway=unknown",
            "100",
            "70809"
          ],
          [
            "-84512392",
            "39108677",
            "171",
            "60",
            "2000",
            "0",
            "0",
            "0",
            "0",
            "railway=tram",
            "railway=unknown",
            "105",
            "72968"
          ],
          [
            "-84512557",
            "39108652",
            "171",
            "15",
            "2000",
            "0",
            "0",
            "0",
            "0",
            "railway=tram",
            "railway=unknown",
            "106",
            "73551"
          ],
          [
            "-84512729",
            "39108627",
            "170",
            "15",
            "2000",
            "0",
            "0",
            "0",
            "0",
            "railway=tram",
            "railway=unknown",
            "107",
            "74083"
          ],
          [
            "-84513091",
            "39108571",
            "169",
            "32",
            "2000",
            "0",
            "0",
            "0",
            "0",
            "railway=tram",
            "railway=unknown",
            "110",
            "75032"
          ],
          [
            "-84513173",
            "39108558",
            "169",
            "7",
            "2000",
            "0",
            "0",
            "0",
            "0",
            "railway=tram",
            "railway=unknown",
            "110",
            "75243"
          ],
          [
            "-84513260",
            "39108546",
            "168",
            "8",
            "2000",
            "0",
            "0",
            "0",
            "0",
            "railway=tram",
            "railway=unknown",
            "111",
            "75458"
          ],
          [
            "-84513607",
            "39108496",
            "168",
            "31",
            "2000",
            "0",
            "0",
            "0",
            "0",
            "railway=tram",
            "railway=unknown",
            "113",
            "76325"
          ],
          [
            "-84513971",
            "39108441",
            "168",
            "32",
            "2000",
            "0",
            "0",
            "0",
            "0",
            "railway=tram",
            "railway=unknown",
            "116",
            "77298"
          ],
          [
            "-84514324",
            "39108389",
            "167",
            "31",
            "2000",
            "0",
            "0",
            "0",
            "0",
            "railway=tram",
            "railway=unknown",
            "118",
            "78237"
          ],
          [
            "-84514627",
            "39108345",
            "167",
            "27",
            "2000",
            "0",
            "0",
            "0",
            "0",
            "railway=tram",
            "railway=tram_stop",
            "120",
            "79043"
          ],
          [
            "-84514689",
            "39108335",
            "167",
            "3",
            "2000",
            "0",
            "0",
            "0",
            "0",
            "railway=tram",
            "",
            "121",
            "79139"
          ],
          [
            "-84514689",
            "39108335",
            "167",
            "2",
            "2000",
            "0",
            "0",
            "0",
            "0",
            "railway=tram",
            "railway=unknown",
            "0",
            "87"
          ],
          [
            "-84514781",
            "39108322",
            "167",
            "8",
            "2000",
            "0",
            "0",
            "0",
            "0",
            "railway=tram",
            "railway=unknown",
            "0",
            "439"
          ],
          [
            "-84514877",
            "39108308",
            "167",
            "8",
            "2000",
            "0",
            "0",
            "0",
            "0",
            "railway=tram",
            "railway=unknown",
            "1",
            "774"
          ],
          [
            "-84515330",
            "39108237",
            "167",
            "40",
            "2000",
            "0",
            "0",
            "0",
            "0",
            "railway=tram",
            "railway=unknown",
            "4",
            "2612"
          ],
          [
            "-84515590",
            "39108198",
            "167",
            "23",
            "2000",
            "0",
            "0",
            "0",
            "0",
            "railway=tram",
            "railway=unknown",
            "6",
            "3702"
          ],
          [
            "-84515930",
            "39108145",
            "168",
            "30",
            "2000",
            "0",
            "0",
            "0",
            "0",
            "railway=tram",
            "railway=unknown",
            "8",
            "5214"
          ],
          [
            "-84516107",
            "39108118",
            "168",
            "16",
            "2000",
            "0",
            "0",
            "0",
            "0",
            "railway=tram",
            "railway=switch",
            "10",
            "5999"
          ],
          [
            "-84516301",
            "39108088",
            "168",
            "17",
            "2000",
            "0",
            "0",
            "0",
            "0",
            "railway=tram",
            "railway=unknown",
            "11",
            "6820"
          ],
          [
            "-84516400",
            "39108072",
            "168",
            "8",
            "2000",
            "0",
            "0",
            "0",
            "0",
            "railway=tram",
            "railway=unknown",
            "12",
            "7203"
          ],
          [
            "-84516483",
            "39108060",
            "168",
            "7",
            "2000",
            "0",
            "0",
            "0",
            "0",
            "railway=tram",
            "railway=unknown",
            "12",
            "7535"
          ],
          [
            "-84516645",
            "39108035",
            "168",
            "14",
            "2000",
            "0",
            "0",
            "0",
            "0",
            "railway=tram",
            "railway=switch",
            "13",
            "8196"
          ],
          [
            "-84517911",
            "39107887",
            "167",
            "112",
            "2000",
            "0",
            "0",
            "0",
            "0",
            "railway=tram",
            "crossing=traffic_signals railway=unknown",
            "22",
            "12698"
          ],
          [
            "-84517938",
            "39107902",
            "167",
            "3",
            "2000",
            "0",
            "0",
            "0",
            "0",
            "railway=tram",
            "crossing=traffic_signals railway=unknown",
            "23",
            "12818"
          ],
          [
            "-84518123",
            "39108426",
            "166",
            "62",
            "2000",
            "0",
            "0",
            "0",
            "0",
            "railway=tram",
            "railway=unknown",
            "27",
            "15284"
          ],
          [
            "-84518320",
            "39109184",
            "167",
            "86",
            "2000",
            "0",
            "0",
            "0",
            "0",
            "railway=tram",
            "railway=unknown",
            "34",
            "19003"
          ],
          [
            "-84518406",
            "39109524",
            "167",
            "38",
            "2000",
            "0",
            "0",
            "0",
            "0",
            "railway=tram",
            "railway=unknown",
            "37",
            "20660"
          ],
          [
            "-84518500",
            "39109906",
            "167",
            "43",
            "2000",
            "0",
            "0",
            "0",
            "0",
            "railway=tram",
            "railway=tram_stop",
            "41",
            "22540"
          ],
          [
            "-84518539",
            "39110059",
            "167",
            "17",
            "2000",
            "0",
            "0",
            "0",
            "0",
            "railway=tram",
            "crossing=traffic_signals railway=unknown",
            "42",
            "23319"
          ],
          [
            "-84518554",
            "39110115",
            "167",
            "6",
            "2000",
            "0",
            "0",
            "0",
            "0",
            "railway=tram",
            "railway=unknown",
            "43",
            "23593"
          ],
          [
            "-84518569",
            "39110173",
            "167",
            "7",
            "2000",
            "0",
            "0",
            "0",
            "0",
            "railway=tram",
            "crossing=traffic_signals railway=unknown",
            "43",
            "23911"
          ],
          [
            "-84518848",
            "39111274",
            "167",
            "125",
            "2000",
            "0",
            "0",
            "0",
            "0",
            "railway=tram",
            "railway=unknown",
            "53",
            "29673"
          ],
          [
            "-84518906",
            "39111498",
            "167",
            "25",
            "2000",
            "0",
            "0",
            "0",
            "0",
            "railway=tram",
            "railway=unknown",
            "55",
            "30796"
          ],
          [
            "-84519185",
            "39112590",
            "165",
            "124",
            "2000",
            "0",
            "0",
            "0",
            "0",
            "railway=tram",
            "railway=unknown",
            "65",
            "35210"
          ],
          [
            "-84519253",
            "39112866",
            "165",
            "31",
            "2000",
            "0",
            "0",
            "0",
            "0",
            "railway=tram",
            "railway=tram_stop",
            "68",
            "36402"
          ],
          [
            "-84519284",
            "39112972",
            "165",
            "12",
            "2000",
            "0",
            "0",
            "0",
            "0",
            "railway=tram",
            "crossing=traffic_signals railway=unknown",
            "69",
            "36852"
          ],
          [
            "-84519309",
            "39113086",
            "165",
            "13",
            "2000",
            "0",
            "0",
            "0",
            "0",
            "railway=tram",
            "railway=unknown",
            "70",
            "37349"
          ],
          [
            "-84519321",
            "39113122",
            "165",
            "4",
            "2000",
            "0",
            "0",
            "0",
            "0",
            "railway=tram",
            "railway=unknown",
            "70",
            "37503"
          ],
          [
            "-84519347",
            "39113227",
            "165",
            "12",
            "2000",
            "0",
            "0",
            "0",
            "0",
            "railway=tram",
            "crossing=traffic_signals railway=unknown",
            "71",
            "37948"
          ],
          [
            "-84519538",
            "39113972",
            "165",
            "84",
            "2000",
            "0",
            "0",
            "0",
            "0",
            "railway=tram",
            "railway=unknown",
            "78",
            "41646"
          ],
          [
            "-84519697",
            "39114601",
            "165",
            "71",
            "2000",
            "0",
            "0",
            "0",
            "0",
            "railway=tram",
            "railway=unknown",
            "83",
            "44546"
          ],
          [
            "-84519736",
            "39114765",
            "165",
            "19",
            "2000",
            "0",
            "0",
            "0",
            "0",
            "railway=tram",
            "railway=unknown",
            "85",
            "45306"
          ],
          [
            "-84519788",
            "39114971",
            "164",
            "23",
            "2000",
            "0",
            "0",
            "0",
            "0",
            "railway=tram",
            "railway=tram_stop",
            "87",
            "46153"
          ],
          [
            "-84519807",
            "39115045",
            "164",
            "5",
            "2000",
            "0",
            "0",
            "0",
            "0",
            "railway=tram",
            "",
            "87",
            "46331"
          ],
          [
            "-84519833",
            "39115137",
            "164",
            "13",
            "2000",
            "0",
            "0",
            "0",
            "0",
            "railway=tram",
            "railway=unknown",
            "1",
            "571"
          ],
          [
            "-84519859",
            "39115243",
            "164",
            "12",
            "2000",
            "0",
            "0",
            "0",
            "0",
            "railway=tram",
            "railway=unknown",
            "2",
            "1074"
          ],
          [
            "-84520125",
            "39116287",
            "164",
            "118",
            "2000",
            "0",
            "0",
            "0",
            "0",
            "railway=tram",
            "railway=unknown",
            "11",
            "6425"
          ],
          [
            "-84520141",
            "39116347",
            "164",
            "7",
            "2000",
            "0",
            "0",
            "0",
            "0",
            "railway=tram",
            "railway=unknown",
            "12",
            "6738"
          ],
          [
            "-84520155",
            "39116402",
            "164",
            "6",
            "2000",
            "0",
            "0",
            "0",
            "0",
            "railway=tram",
            "railway=unknown",
            "12",
            "7007"
          ],
          [
            "-84520228",
            "39116693",
            "164",
            "33",
            "2000",
            "0",
            "0",
            "0",
            "0",
            "railway=tram",
            "railway=unknown",
            "15",
            "8480"
          ],
          [
            "-84520361",
            "39117226",
            "164",
            "60",
            "2000",
            "0",
            "0",
            "0",
            "0",
            "railway=tram",
            "railway=tram_stop",
            "19",
            "11243"
          ],
          [
            "-84520400",
            "39117653",
            "165",
            "49",
            "2000",
            "0",
            "0",
            "0",
            "0",
            "railway=tram",
            "crossing=unknown railway=unknown",
            "23",
            "13502"
          ],
          [
            "-84520355",
            "39117693",
            "165",
            "6",
            "2000",
            "0",
            "0",
            "0",
            "0",
            "railway=tram",
            "railway=unknown",
            "24",
            "13794"
          ],
          [
            "-84519991",
            "39117769",
            "166",
            "33",
            "2000",
            "0",
            "0",
            "0",
            "0",
            "railway=tram",
            "railway=unknown",
            "26",
            "15583"
          ],
          [
            "-84519737",
            "39117809",
            "165",
            "22",
            "2000",
            "0",
            "0",
            "0",
            "0",
            "railway=tram",
            "railway=switch",
            "28",
            "16662"
          ],
          [
            "-84519670",
            "39117820",
            "165",
            "6",
            "2000",
            "0",
            "0",
            "0",
            "0",
            "railway=tram",
            "railway=unknown",
            "29",
            "16940"
          ],
          [
            "-84519577",
            "39117834",
            "165",
            "8",
            "2000",
            "0",
            "0",
            "0",
            "0",
            "railway=tram",
            "railway=switch",
            "29",
            "17308"
          ],
          [
            "-84519386",
            "39117864",
            "165",
            "17",
            "2000",
            "0",
            "0",
            "0",
            "0",
            "railway=tram",
            "railway=switch",
            "31",
            "18053"
          ],
          [
            "-84519337",
            "39117871",
            "165",
            "4",
            "2000",
            "0",
            "0",
            "0",
            "0",
            "railway=tram",
            "railway=unknown",
            "31",
            "18220"
          ],
          [
            "-84519003",
            "39117889",
            "165",
            "29",
            "2000",
            "0",
            "0",
            "0",
            "0",
            "railway=tram",
            "railway=unknown",
            "33",
            "19470"
          ],
          [
            "-84518962",
            "39117877",
            "165",
            "4",
            "2000",
            "0",
            "0",
            "0",
            "0",
            "railway=tram",
            "crossing=unknown railway=unknown",
            "34",
            "19655"
          ],
          [
            "-84518741",
            "39117297",
            "164",
            "69",
            "2000",
            "0",
            "0",
            "0",
            "0",
            "railway=tram",
            "railway=switch",
            "39",
            "22528"
          ],
          [
            "-84518653",
            "39116935",
            "164",
            "41",
            "2000",
            "0",
            "0",
            "0",
            "0",
            "railway=tram",
            "railway=unknown",
            "42",
            "24166"
          ],
          [
            "-84518609",
            "39116642",
            "164",
            "33",
            "2000",
            "0",
            "0",
            "0",
            "0",
            "railway=tram",
            "railway=unknown",
            "45",
            "25526"
          ],
          [
            "-84518594",
            "39116577",
            "164",
            "7",
            "2000",
            "0",
            "0",
            "0",
            "0",
            "railway=tram",
            "railway=unknown",
            "46",
            "25818"
          ],
          [
            "-84518554",
            "39116416",
            "164",
            "18",
            "2000",
            "0",
            "0",
            "0",
            "0",
            "railway=tram",
            "railway=switch",
            "47",
            "26610"
          ],
          [
            "-84518404",
            "39115846",
            "164",
            "65",
            "2000",
            "0",
            "0",
            "0",
            "0",
            "railway=tram",
            "railway=unknown",
            "52",
            "29470"
          ],
          [
            "-84518353",
            "39115645",
            "165",
            "23",
            "2000",
            "0",
            "0",
            "0",
            "0",
            "railway=tram",
            "railway=tram_stop",
            "54",
            "30527"
          ],
          [
            "-84518337",
            "39115582",
            "165",
            "7",
            "2000",
            "0",
            "0",
            "0",
            "0",
            "railway=tram",
            "railway=switch",
            "55",
            "30862"
          ],
          [
            "-84518310",
            "39115479",
            "165",
            "11",
            "2000",
            "0",
            "0",
            "0",
            "0",
            "railway=tram",
            "railway=unknown",
            "56",
            "31385"
          ],
          [
            "-84518236",
            "39115263",
            "165",
            "25",
            "2000",
            "0",
            "0",
            "0",
            "0",
            "railway=tram",
            "railway=unknown",
            "58",
            "32629"
          ],
          [
            "-84518166",
            "39115116",
            "166",
            "17",
            "2000",
            "0",
            "0",
            "0",
            "0",
            "railway=tram",
            "railway=unknown",
            "59",
            "33544"
          ],
          [
            "-84518017",
            "39114603",
            "166",
            "58",
            "2000",
            "0",
            "0",
            "0",
            "0",
            "railway=tram",
            "railway=unknown",
            "64",
            "36530"
          ],
          [
            "-84517934",
            "39114280",
            "165",
            "37",
            "2000",
            "0",
            "0",
            "0",
            "0",
            "railway=tram",
            "railway=unknown",
            "67",
            "38097"
          ],
          [
            "-84517918",
            "39114219",
            "165",
            "7",
            "2000",
            "0",
            "0",
            "0",
            "0",
            "railway=tram",
            "railway=unknown",
            "67",
            "38396"
          ],
          [
            "-84517638",
            "39113111",
            "165",
            "125",
            "2000",
            "0",
            "0",
            "0",
            "0",
            "railway=tram",
            "crossing=traffic_signals railway=unknown",
            "77",
            "43490"
          ],
          [
            "-84517605",
            "39112995",
            "165",
            "13",
            "2000",
            "0",
            "0",
            "0",
            "0",
            "railway=tram",
            "railway=unknown",
            "78",
            "44042"
          ],
          [
            "-84517574",
            "39112875",
            "165",
            "14",
            "2000",
            "0",
            "0",
            "0",
            "0",
            "railway=tram",
            "railway=unknown",
            "79",
            "44668"
          ],
          [
            "-84517508",
            "39112616",
            "165",
            "29",
            "2000",
            "0",
            "0",
            "0",
            "0",
            "railway=tram",
            "railway=tram_stop",
            "82",
            "46072"
          ],
          [
            "-84517249",
            "39111572",
            "168",
            "86",
            "2000",
            "0",
            "0",
            "0",
            "0",
            "railway=tram",
            "",
            "88",
            "50965"
          ],
          [
            "-84517249",
            "39111572",
            "168",
            "32",
            "2000",
            "0",
            "0",
            "0",
            "0",
            "railway=tram",
            "crossing=traffic_signals railway=unknown",
            "2",
            "1588"
          ],
          [
            "-84517234",
            "39111515",
            "168",
            "6",
            "2000",
            "0",
            "0",
            "0",
            "0",
            "railway=tram",
            "railway=unknown",
            "3",
            "1880"
          ],
          [
            "-84517218",
            "39111456",
            "168",
            "7",
            "2000",
            "0",
            "0",
            "0",
            "0",
            "railway=tram",
            "crossing=traffic_signals railway=unknown",
            "3",
            "2204"
          ],
          [
            "-84516954",
            "39110408",
            "167",
            "119",
            "2000",
            "0",
            "0",
            "0",
            "0",
            "railway=tram",
            "crossing=traffic_signals railway=unknown",
            "13",
            "7435"
          ],
          [
            "-84516942",
            "39110355",
            "167",
            "6",
            "2000",
            "0",
            "0",
            "0",
            "0",
            "railway=tram",
            "railway=unknown",
            "13",
            "7699"
          ],
          [
            "-84516933",
            "39110317",
            "167",
            "4",
            "2000",
            "0",
            "0",
            "0",
            "0",
            "railway=tram",
            "crossing=traffic_signals railway=unknown",
            "13",
            "7875"
          ],
          [
            "-84516674",
            "39109284",
            "170",
            "117",
            "2000",
            "0",
            "0",
            "0",
            "0",
            "railway=tram",
            "crossing=traffic_signals railway=unknown",
            "23",
            "14695"
          ],
          [
            "-84516655",
            "39109211",
            "170",
            "8",
            "2000",
            "0",
            "0",
            "0",
            "0",
            "railway=tram",
            "railway=unknown",
            "23",
            "15121"
          ],
          [
            "-84516640",
            "39109151",
            "170",
            "7",
            "2000",
            "0",
            "0",
            "0",
            "0",
            "railway=tram",
            "crossing=traffic_signals railway=unknown",
            "24",
            "15490"
          ],
          [
            "-84516471",
            "39108469",
            "169",
            "77",
            "2000",
            "0",
            "0",
            "0",
            "0",
            "railway=tram",
            "railway=tram_stop",
            "30",
            "18497"
          ],
          [
            "-84516419",
            "39108257",
            "168",
            "24",
            "2000",
            "0",
            "0",
            "0",
            "0",
            "railway=tram",
            "railway=switch",
            "32",
            "19389"
          ],
          [
            "-84516390",
            "39108140",
            "168",
            "13",
            "2000",
            "0",
            "0",
            "0",
            "0",
            "railway=tram",
            "railway=unknown",
            "33",
            "19860"
          ],
          [
            "-84516372",
            "39108067",
            "168",
            "8",
            "2000",
            "0",
            "0",
            "0",
            "0",
            "railway=tram",
            "railway=unknown",
            "34",
            "20156"
          ],
          [
            "-84516353",
            "39107993",
            "168",
            "8",
            "2000",
            "0",
            "0",
            "0",
            "0",
            "railway=tram",
            "railway=unknown",
            "34",
            "20457"
          ],
          [
            "-84516322",
            "39107869",
            "168",
            "14",
            "2000",
            "0",
            "0",
            "0",
            "0",
            "railway=tram",
            "railway=switch",
            "36",
            "20963"
          ],
          [
            "-84516128",
            "39107096",
            "168",
            "87",
            "2000",
            "0",
            "0",
            "0",
            "0",
            "railway=tram",
            "railway=unknown",
            "42",
            "24495"
          ],
          [
            "-84516109",
            "39107021",
            "168",
            "8",
            "2000",
            "0",
            "0",
            "0",
            "0",
            "railway=tram",
            "railway=unknown",
            "43",
            "24847"
          ],
          [
            "-84515964",
            "39106893",
            "169",
            "20",
            "2000",
            "0",
            "0",
            "0",
            "0",
            "railway=tram",
            "railway=unknown",
            "45",
            "25774"
          ],
          [
            "-84514577",
            "39107076",
            "168",
            "122",
            "2000",
            "0",
            "0",
            "0",
            "0",
            "railway=tram",
            "railway=unknown",
            "54",
            "31142"
          ],
          [
            "-84514473",
            "39107094",
            "168",
            "9",
            "2000",
            "0",
            "0",
            "0",
            "0",
            "railway=tram",
            "railway=unknown",
            "55",
            "31497"
          ],
          [
            "-84514374",
            "39107110",
            "167",
            "9",
            "2000",
            "0",
            "0",
            "0",
            "0",
            "railway=tram",
            "railway=unknown",
            "56",
            "31835"
          ],
          [
            "-84514104",
            "39107151",
            "167",
            "24",
            "2000",
            "0",
            "0",
            "0",
            "0",
            "railway=tram",
            "railway=tram_stop",
            "58",
            "32715"
          ],
          [
            "-84512960",
            "39107307",
            "171",
            "103",
            "2000",
            "0",
            "0",
            "0",
            "0",
            "railway=tram",
            "highway=crossing crossing=traffic_signals railway=unknown",
            "66",
            "38445"
          ],
          [
            "-84512913",
            "39107278",
            "171",
            "5",
            "2000",
            "0",
            "0",
            "0",
            "0",
            "railway=tram",
            "railway=unknown",
            "66",
            "38747"
          ],
          [
            "-84512852",
            "39107205",
            "171",
            "10",
            "2000",
            "0",
            "0",
            "0",
            "0",
            "railway=tram",
            "railway=unknown",
            "67",
            "39360"
          ],
          [
            "-84512799",
            "39107004",
            "171",
            "23",
            "2000",
            "0",
            "0",
            "0",
            "0",
            "railway=tram",
            "railway=unknown",
            "69",
            "40620"
          ],
          [
            "-84512714",
            "39106659",
            "170",
            "39",
            "2000",
            "0",
            "0",
            "0",
            "0",
            "railway=tram",
            "railway=unknown",
            "72",
            "42431"
          ],
          [
            "-84512682",
            "39106542",
            "170",
            "13",
            "2000",
            "0",
            "0",
            "0",
            "0",
            "railway=tram",
            "railway=unknown",
            "73",
            "43054"
          ],
          [
            "-84512643",
            "39106381",
            "171",
            "18",
            "2000",
            "0",
            "0",
            "0",
            "0",
            "railway=tram",
            "railway=unknown",
            "75",
            "43943"
          ],
          [
            "-84512572",
            "39106106",
            "172",
            "31",
            "2000",
            "0",
            "0",
            "0",
            "0",
            "railway=tram",
            "railway=unknown",
            "77",
            "45673"
          ],
          [
            "-84512473",
            "39105713",
            "173",
            "44",
            "2000",
            "0",
            "0",
            "0",
            "0",
            "railway=tram",
            "railway=unknown",
            "81",
            "48360"
          ],
          [
            "-84512455",
            "39105625",
            "173",
            "10",
            "2000",
            "0",
            "0",
            "0",
            "0",
            "railway=tram",
            "railway=unknown",
            "82",
            "48951"
          ],
          [
            "-84512441",
            "39105564",
            "173",
            "7",
            "2000",
            "0",
            "0",
            "0",
            "0",
            "railway=tram",
            "railway=unknown",
            "82",
            "49355"
          ],
          [
            "-84512380",
            "39105329",
            "174",
            "27",
            "2000",
            "0",
            "0",
            "0",
            "0",
            "railway=tram",
            "railway=tram_stop",
            "84",
            "50963"
          ],
          [
            "-84512236",
            "39104773",
            "178",
            "63",
            "2000",
            "0",
            "0",
            "0",
            "0",
            "railway=tram",
            "railway=unknown",
            "89",
            "55090"
          ],
          [
            "-84512211",
            "39104673",
            "180",
            "2",
            "2000",
            "0",
            "0",
            "0",
            "0",
            "railway=tram",
            "",
            "89",
            "55213"
          ],
          [
            "-84512211",
            "39104673",
            "180",
            "9",
            "2000",
            "0",
            "0",
            "0",
            "0",
            "railway=tram",
            "railway=unknown",
            "0",
            "509"
          ],
          [
            "-84512196",
            "39104615",
            "181",
            "7",
            "2000",
            "0",
            "0",
            "0",
            "0",
            "railway=tram",
            "railway=unknown",
            "1",
            "974"
          ],
          [
            "-84512121",
            "39104308",
            "187",
            "35",
            "2000",
            "0",
            "0",
            "0",
            "0",
            "railway=tram",
            "railway=unknown",
            "4",
            "3802"
          ],
          [
            "-84512065",
            "39104093",
            "189",
            "24",
            "2000",
            "0",
            "0",
            "0",
            "0",
            "railway=tram",
            "railway=tram_stop",
            "6",
            "5985"
          ],
          [
            "-84512043",
            "39104009",
            "189",
            "10",
            "2000",
            "0",
            "0",
            "0",
            "0",
            "railway=tram",
            "highway=unknown crossing=traffic_signals",
            "6",
            "6799"
          ],
          [
            "-84512023",
            "39103930",
            "189",
            "9",
            "2000",
            "0",
            "0",
            "0",
            "0",
            "railway=tram",
            "railway=unknown",
            "7",
            "7464"
          ],
          [
            "-84512009",
            "39103872",
            "188",
            "7",
            "2000",
            "0",
            "0",
            "0",
            "0",
            "railway=tram",
            "highway=unknown crossing=traffic_signals",
            "8",
            "7949"
          ],
          [
            "-84511892",
            "39103415",
            "186",
            "52",
            "2000",
            "0",
            "0",
            "0",
            "0",
            "railway=tram",
            "railway=unknown",
            "12",
            "10246"
          ],
          [
            "-84511873",
            "39103327",
            "185",
            "10",
            "2000",
            "0",
            "0",
            "0",
            "0",
            "railway=tram",
            "railway=unknown",
            "13",
            "10877"
          ],
          [
            "-84511726",
            "39102777",
            "186",
            "62",
            "2000",
            "0",
            "0",
            "0",
            "0",
            "railway=tram",
            "highway=crossing crossing=traffic_signals railway=unknown",
            "18",
            "13726"
          ],
          [
            "-84511701",
            "39102680",
            "186",
            "11",
            "2000",
            "0",
            "0",
            "0",
            "0",
            "railway=tram",
            "railway=unknown",
            "18",
            "14248"
          ],
          [
            "-84511691",
            "39102601",
            "187",
            "9",
            "2000",
            "0",
            "0",
            "0",
            "0",
            "railway=tram",
            "highway=crossing crossing=traffic_signals railway=unknown",
            "19",
            "14710"
          ],
          [
            "-84511595",
            "39102113",
            "189",
            "55",
            "2000",
            "0",
            "0",
            "0",
            "0",
            "railway=tram",
            "highway=crossing crossing=traffic_signals railway=unknown",
            "23",
            "18049"
          ],
          [
            "-84511556",
            "39101967",
            "189",
            "17",
            "2000",
            "0",
            "0",
            "0",
            "0",
            "railway=tram",
            "railway=unknown",
            "25",
            "19073"
          ],
          [
            "-84511546",
            "39101931",
            "189",
            "4",
            "2000",
            "0",
            "0",
            "0",
            "0",
            "railway=tram",
            "railway=unknown",
            "25",
            "19308"
          ],
          [
            "-84511409",
            "39101378",
            "195",
            "63",
            "2000",
            "0",
            "0",
            "0",
            "0",
            "railway=tram",
            "railway=unknown",
            "30",
            "25328"
          ],
          [
            "-84511383",
            "39101284",
            "197",
            "11",
            "2000",
            "0",
            "0",
            "0",
            "0",
            "railway=tram",
            "railway=unknown",
            "31",
            "26381"
          ],
          [
            "-84511362",
            "39101200",
            "199",
            "10",
            "2000",
            "0",
            "0",
            "0",
            "0",
            "railway=tram",
            "railway=unknown",
            "32",
            "27434"
          ],
          [
            "-84511295",
            "39100933",
            "204",
            "30",
            "2000",
            "0",
            "0",
            "0",
            "0",
            "railway=tram",
            "railway=tram_stop",
            "34",
            "31409"
          ],
          [
            "-84511099",
            "39100279",
            "195",
            "74",
            "2000",
            "0",
            "0",
            "0",
            "0",
            "railway=tram",
            "railway=unknown",
            "40",
            "36604"
          ],
          [
            "-84511077",
            "39100194",
            "194",
            "10",
            "2000",
            "0",
            "0",
            "0",
            "0",
            "railway=tram",
            "railway=unknown",
            "41",
            "36993"
          ],
          [
            "-84511059",
            "39100103",
            "193",
            "10",
            "2000",
            "0",
            "0",
            "0",
            "0",
            "railway=tram",
            "railway=unknown",
            "42",
            "37282"
          ],
          [
            "-84510905",
            "39099514",
            "179",
            "67",
            "2000",
            "0",
            "0",
            "0",
            "0",
            "railway=tram",
            "railway=unknown",
            "47",
            "37282"
          ],
          [
            "-84510820",
            "39099190",
            "172",
            "37",
            "2000",
            "0",
            "0",
            "0",
            "0",
            "railway=tram",
            "railway=unknown",
            "50",
            "37282"
          ],
          [
            "-84510782",
            "39099020",
            "169",
            "19",
            "2000",
            "0",
            "0",
            "0",
            "0",
            "railway=tram",
            "railway=unknown",
            "52",
            "37282"
          ],
          [
            "-84510773",
            "39098921",
            "166",
            "11",
            "2000",
            "0",
            "0",
            "0",
            "0",
            "railway=tram",
            "railway=unknown",
            "53",
            "37282"
          ],
          [
            "-84510757",
            "39098796",
            "164",
            "14",
            "2000",
            "0",
            "0",
            "0",
            "0",
            "railway=tram",
            "railway=unknown",
            "54",
            "37282"
          ],
          [
            "-84510636",
            "39098296",
            "153",
            "56",
            "2000",
            "0",
            "0",
            "0",
            "0",
            "railway=tram",
            "railway=unknown",
            "58",
            "37282"
          ],
          [
            "-84510556",
            "39098197",
            "153",
            "13",
            "2000",
            "0",
            "0",
            "0",
            "0",
            "railway=tram",
            "railway=unknown",
            "59",
            "37282"
          ],
          [
            "-84510539",
            "39098188",
            "153",
            "2",
            "2000",
            "0",
            "0",
            "0",
            "0",
            "railway=tram",
            "railway=unknown",
            "59",
            "37282"
          ],
          [
            "-84509744",
            "39098247",
            "154",
            "70",
            "2000",
            "0",
            "0",
            "0",
            "0",
            "railway=tram",
            "",
            "65",
            "37282"
          ]
        ],
        "times": [
          0,
          2.64,
          4.8,
          5.12,
          5.44,
          5.84,
          6.08,
          6.48,
          7.04,
          7.28,
          11.04,
          11.52,
          12.48,
          13.36,
          17.2,
          23.28,
          24,
          24.88,
          27.28,
          27.92,
          33.76,
          34.64,
          35.28,
          40.48,
          41.44,
          42.4,
          42.88,
          43.36,
          46.16,
          46.64,
          47.44,
          49.76,
          52.4,
          52.8,
          57.2,
          57.92,
          58.64,
          64.16,
          64.8,
          65.52,
          68.4,
          72.48,
          72.8,
          73.28,
          74,
          75.28,
          80.16,
          80.64,
          82.24,
          82.72,
          84.8,
          86.32,
          88,
          88.8,
          90.16,
          90.8,
          93.68,
          94.56,
          96.96,
          97.12,
          98.56,
          98.88,
          99.28,
          99.68,
          100.32,
          100.8,
          101.2,
          105.12,
          106.32,
          107.52,
          110.08,
          110.64,
          111.28,
          113.76,
          116.32,
          118.8,
          120.96,
          121.2,
          121.36,
          122,
          122.64,
          125.84,
          127.68,
          130.08,
          131.36,
          132.72,
          133.2,
          133.36,
          133.92,
          135.04,
          142.88,
          143.44,
          144,
          144.24,
          144.8,
          145.04,
          149.2,
          156.08,
          159.12,
          162.56,
          163.92,
          164.4,
          164.96,
          174.96,
          176.96,
          186.88,
          189.36,
          190.32,
          191.36,
          191.68,
          192.64,
          199.36,
          205.04,
          206.56,
          208.4,
          208.8,
          209.04,
          209.84,
          210.8,
          211.36,
          220.24,
          220.8,
          221.28,
          223.92,
          228.72,
          231.44,
          232.08,
          232.64,
          233.12,
          233.76,
          235.76,
          237.52,
          238,
          238.64,
          240,
          240.32,
          241.84,
          242.24,
          242.64,
          242.96,
          243.52,
          244.16,
          248.48,
          251.76,
          254.4,
          254.96,
          256.4,
          261.6,
          263.44,
          264,
          264.24,
          264.88,
          266,
          266.64,
          266.88,
          268.24,
          269.36,
          272.88,
          275.84,
          276.4,
          286.4,
          287.44,
          288.56,
          290.88,
          297.76,
          300.32,
          300.8,
          301.36,
          310.88,
          311.36,
          311.68,
          321.04,
          321.68,
          322.24,
          328.4,
          330.32,
          331.36,
          331.92,
          332,
          332.64,
          333.76,
          340.72,
          341.36,
          341.68,
          342.24,
          342.48,
          342.96,
          343.52,
          343.84,
          352.72,
          353.44,
          354.16,
          356.08,
          357.52,
          360.48,
          362.8,
          363.52,
          364,
          364.32,
          364.72,
          365.28,
          365.52,
          367.36,
          370.48,
          371.52,
          372.96,
          375.44,
          378.96,
          379.76,
          380.32,
          382.48,
          387.52,
          387.68,
          388.4,
          388.96,
          391.76,
          393.68,
          394.48,
          395.2,
          395.76,
          399.92,
          400.72,
          405.68,
          406.56,
          407.28,
          409.52,
          411.68,
          413.04,
          413.36,
          418.4,
          419.28,
          420.08,
          422.48,
          423.68,
          426.4,
          428.4,
          429.2,
          430,
          435.36,
          438.32,
          439.84,
          440.72,
          441.84,
          442.24,
          446,
          446.32,
          446.96,
          447.36,
          447.52,
          448.16,
          448.56,
          453.12
        ]
      },
      "geometry": {
        "type": "LineString",
        "coordinates": [
          [
            -84.509739,
            39.098247,
            154.5
          ],
          [
            -84.509365,
            39.098302,
            153.75
          ],
          [
            -84.509057,
            39.098349,
            153
          ],
          [
            -84.509014,
            39.098362,
            153.25
          ],
          [
            -84.508977,
            39.098389,
            153.5
          ],
          [
            -84.508943,
            39.098425,
            154
          ],
          [
            -84.508923,
            39.098449,
            154.25
          ],
          [
            -84.508911,
            39.098491,
            155
          ],
          [
            -84.508913,
            39.098558,
            156
          ],
          [
            -84.508919,
            39.098586,
            156.5
          ],
          [
            -84.509027,
            39.099005,
            163
          ],
          [
            -84.509041,
            39.09906,
            164
          ],
          [
            -84.509068,
            39.09917,
            165.75
          ],
          [
            -84.509092,
            39.099266,
            168.25
          ],
          [
            -84.509201,
            39.099689,
            179.5
          ],
          [
            -84.50937,
            39.100365,
            192.5
          ],
          [
            -84.5094,
            39.100441,
            193.5
          ],
          [
            -84.509426,
            39.100536,
            194.25
          ],
          [
            -84.509492,
            39.100797,
            196.5
          ],
          [
            -84.509509,
            39.100865,
            196.5
          ],
          [
            -84.509682,
            39.101511,
            189.25
          ],
          [
            -84.509708,
            39.101609,
            188.25
          ],
          [
            -84.509726,
            39.10168,
            187.5
          ],
          [
            -84.509869,
            39.102252,
            192.25
          ],
          [
            -84.509911,
            39.102354,
            193.5
          ],
          [
            -84.509971,
            39.102447,
            195
          ],
          [
            -84.510001,
            39.102499,
            195.75
          ],
          [
            -84.510022,
            39.102554,
            194.5
          ],
          [
            -84.510098,
            39.102866,
            187.5
          ],
          [
            -84.510113,
            39.102922,
            186.25
          ],
          [
            -84.510137,
            39.103011,
            184.5
          ],
          [
            -84.510198,
            39.103264,
            179.75
          ],
          [
            -84.510268,
            39.103557,
            177.75
          ],
          [
            -84.510278,
            39.103603,
            177.5
          ],
          [
            -84.5104,
            39.10409,
            175.75
          ],
          [
            -84.510419,
            39.104172,
            175.25
          ],
          [
            -84.510436,
            39.104249,
            175
          ],
          [
            -84.510591,
            39.104857,
            172.75
          ],
          [
            -84.510609,
            39.104927,
            172.5
          ],
          [
            -84.51063,
            39.105006,
            172
          ],
          [
            -84.510709,
            39.105325,
            172.25
          ],
          [
            -84.510819,
            39.105776,
            172
          ],
          [
            -84.510828,
            39.105812,
            172
          ],
          [
            -84.510842,
            39.105867,
            172
          ],
          [
            -84.510862,
            39.105948,
            172.5
          ],
          [
            -84.510898,
            39.106085,
            173.5
          ],
          [
            -84.511031,
            39.106623,
            175.5
          ],
          [
            -84.511045,
            39.106676,
            175.5
          ],
          [
            -84.511091,
            39.10685,
            174.75
          ],
          [
            -84.511103,
            39.106899,
            174.5
          ],
          [
            -84.511161,
            39.107125,
            173.5
          ],
          [
            -84.511202,
            39.107291,
            172.5
          ],
          [
            -84.511247,
            39.107476,
            171.5
          ],
          [
            -84.511267,
            39.107563,
            171.25
          ],
          [
            -84.511298,
            39.107716,
            171.25
          ],
          [
            -84.511315,
            39.107784,
            171.25
          ],
          [
            -84.511397,
            39.108104,
            171.5
          ],
          [
            -84.511422,
            39.108204,
            171.5
          ],
          [
            -84.511489,
            39.108465,
            171.25
          ],
          [
            -84.511493,
            39.108482,
            171.25
          ],
          [
            -84.511536,
            39.10864,
            171
          ],
          [
            -84.511553,
            39.108671,
            171
          ],
          [
            -84.511586,
            39.108708,
            171
          ],
          [
            -84.511626,
            39.108734,
            171
          ],
          [
            -84.51171,
            39.108762,
            170.75
          ],
          [
            -84.511783,
            39.108766,
            170.75
          ],
          [
            -84.511839,
            39.10876,
            170.75
          ],
          [
            -84.512392,
            39.108677,
            171
          ],
          [
            -84.512557,
            39.108652,
            171
          ],
          [
            -84.512729,
            39.108627,
            170.5
          ],
          [
            -84.513091,
            39.108571,
            169.5
          ],
          [
            -84.513173,
            39.108558,
            169.25
          ],
          [
            -84.51326,
            39.108546,
            168.75
          ],
          [
            -84.513607,
            39.108496,
            168.5
          ],
          [
            -84.513971,
            39.108441,
            168.25
          ],
          [
            -84.514324,
            39.108389,
            167.75
          ],
          [
            -84.514627,
            39.108345,
            167.25
          ],
          [
            -84.514661,
            39.108339,
            167.25
          ],
          [
            -84.514689,
            39.108335,
            167.25
          ],
          [
            -84.514781,
            39.108322,
            167.25
          ],
          [
            -84.514877,
            39.108308,
            167
          ],
          [
            -84.51533,
            39.108237,
            167.5
          ],
          [
            -84.51559,
            39.108198,
            167.75
          ],
          [
            -84.51593,
            39.108145,
            168.25
          ],
          [
            -84.516107,
            39.108118,
            168.25
          ],
          [
            -84.516301,
            39.108088,
            168.25
          ],
          [
            -84.516374,
            39.108077,
            168.25
          ],
          [
            -84.5164,
            39.108072,
            168.25
          ],
          [
            -84.516483,
            39.10806,
            168.25
          ],
          [
            -84.516645,
            39.108035,
            168.25
          ],
          [
            -84.517753,
            39.107865,
            167.25
          ],
          [
            -84.517832,
            39.107865,
            167
          ],
          [
            -84.517911,
            39.107887,
            167
          ],
          [
            -84.517938,
            39.107902,
            167
          ],
          [
            -84.51799,
            39.107946,
            167
          ],
          [
            -84.518005,
            39.107971,
            167
          ],
          [
            -84.518123,
            39.108426,
            166.75
          ],
          [
            -84.51832,
            39.109184,
            167
          ],
          [
            -84.518406,
            39.109524,
            167
          ],
          [
            -84.5185,
            39.109906,
            167
          ],
          [
            -84.518539,
            39.110059,
            167.25
          ],
          [
            -84.518554,
            39.110115,
            167.25
          ],
          [
            -84.518569,
            39.110173,
            167.25
          ],
          [
            -84.518848,
            39.111274,
            167.5
          ],
          [
            -84.518906,
            39.111498,
            167.5
          ],
          [
            -84.519185,
            39.11259,
            165.75
          ],
          [
            -84.519253,
            39.112866,
            165.5
          ],
          [
            -84.519284,
            39.112972,
            165.25
          ],
          [
            -84.519309,
            39.113086,
            165.25
          ],
          [
            -84.519321,
            39.113122,
            165.25
          ],
          [
            -84.519347,
            39.113227,
            165
          ],
          [
            -84.519538,
            39.113972,
            165.75
          ],
          [
            -84.519697,
            39.114601,
            165.25
          ],
          [
            -84.519736,
            39.114765,
            165
          ],
          [
            -84.519788,
            39.114971,
            164.5
          ],
          [
            -84.5198,
            39.115016,
            164.25
          ],
          [
            -84.519807,
            39.115045,
            164.25
          ],
          [
            -84.519833,
            39.115137,
            164.25
          ],
          [
            -84.519859,
            39.115243,
            164
          ],
          [
            -84.519876,
            39.115307,
            164
          ],
          [
            -84.520125,
            39.116287,
            164.5
          ],
          [
            -84.520141,
            39.116347,
            164.5
          ],
          [
            -84.520155,
            39.116402,
            164.5
          ],
          [
            -84.520228,
            39.116693,
            164.5
          ],
          [
            -84.520361,
            39.117226,
            164.75
          ],
          [
            -84.520435,
            39.117524,
            164.75
          ],
          [
            -84.520432,
            39.117595,
            165
          ],
          [
            -84.5204,
            39.117653,
            165.25
          ],
          [
            -84.520355,
            39.117693,
            165.25
          ],
          [
            -84.520275,
            39.117724,
            165.5
          ],
          [
            -84.519991,
            39.117769,
            166.25
          ],
          [
            -84.519737,
            39.117809,
            165.75
          ],
          [
            -84.51967,
            39.11782,
            165.5
          ],
          [
            -84.519577,
            39.117834,
            165.5
          ],
          [
            -84.519386,
            39.117864,
            165.25
          ],
          [
            -84.519337,
            39.117871,
            165
          ],
          [
            -84.519118,
            39.117902,
            165
          ],
          [
            -84.519055,
            39.1179,
            165.25
          ],
          [
            -84.519003,
            39.117889,
            165.5
          ],
          [
            -84.518962,
            39.117877,
            165.5
          ],
          [
            -84.518905,
            39.117837,
            165.5
          ],
          [
            -84.518867,
            39.117773,
            165.5
          ],
          [
            -84.518741,
            39.117297,
            164.75
          ],
          [
            -84.518653,
            39.116935,
            164.5
          ],
          [
            -84.518609,
            39.116642,
            164.5
          ],
          [
            -84.518594,
            39.116577,
            164.5
          ],
          [
            -84.518554,
            39.116416,
            164.75
          ],
          [
            -84.518404,
            39.115846,
            164.75
          ],
          [
            -84.518353,
            39.115645,
            165
          ],
          [
            -84.518337,
            39.115582,
            165.25
          ],
          [
            -84.518329,
            39.115552,
            165.25
          ],
          [
            -84.51831,
            39.115479,
            165.25
          ],
          [
            -84.518276,
            39.115357,
            165.5
          ],
          [
            -84.518246,
            39.115285,
            165.75
          ],
          [
            -84.518236,
            39.115263,
            165.75
          ],
          [
            -84.518166,
            39.115116,
            166.25
          ],
          [
            -84.51812,
            39.114995,
            166.75
          ],
          [
            -84.518017,
            39.114603,
            166.25
          ],
          [
            -84.517934,
            39.11428,
            165.5
          ],
          [
            -84.517918,
            39.114219,
            165.5
          ],
          [
            -84.517638,
            39.113111,
            165
          ],
          [
            -84.517605,
            39.112995,
            165
          ],
          [
            -84.517574,
            39.112875,
            165.25
          ],
          [
            -84.517508,
            39.112616,
            165.75
          ],
          [
            -84.517321,
            39.111859,
            168.25
          ],
          [
            -84.517249,
            39.111572,
            168.25
          ],
          [
            -84.517234,
            39.111515,
            168.25
          ],
          [
            -84.517218,
            39.111456,
            168
          ],
          [
            -84.516954,
            39.110408,
            167.75
          ],
          [
            -84.516942,
            39.110355,
            167.75
          ],
          [
            -84.516933,
            39.110317,
            167.75
          ],
          [
            -84.516674,
            39.109284,
            170.5
          ],
          [
            -84.516655,
            39.109211,
            170.75
          ],
          [
            -84.51664,
            39.109151,
            170.75
          ],
          [
            -84.516471,
            39.108469,
            169
          ],
          [
            -84.516419,
            39.108257,
            168.5
          ],
          [
            -84.51639,
            39.10814,
            168.25
          ],
          [
            -84.516374,
            39.108077,
            168.25
          ],
          [
            -84.516372,
            39.108067,
            168.25
          ],
          [
            -84.516353,
            39.107993,
            168.25
          ],
          [
            -84.516322,
            39.107869,
            168
          ],
          [
            -84.516128,
            39.107096,
            168.25
          ],
          [
            -84.516109,
            39.107021,
            168.5
          ],
          [
            -84.516095,
            39.106991,
            168.5
          ],
          [
            -84.516052,
            39.106937,
            168.75
          ],
          [
            -84.516026,
            39.106918,
            168.75
          ],
          [
            -84.515964,
            39.106893,
            169
          ],
          [
            -84.515886,
            39.106878,
            169.5
          ],
          [
            -84.515835,
            39.106881,
            169.5
          ],
          [
            -84.514577,
            39.107076,
            168.5
          ],
          [
            -84.514473,
            39.107094,
            168
          ],
          [
            -84.514374,
            39.10711,
            167.75
          ],
          [
            -84.514104,
            39.107151,
            167.5
          ],
          [
            -84.513903,
            39.107181,
            168.25
          ],
          [
            -84.513488,
            39.107273,
            169.75
          ],
          [
            -84.513161,
            39.107323,
            170.75
          ],
          [
            -84.513063,
            39.10733,
            171.25
          ],
          [
            -84.512997,
            39.107321,
            171.5
          ],
          [
            -84.51296,
            39.107307,
            171.5
          ],
          [
            -84.512913,
            39.107278,
            171.5
          ],
          [
            -84.512865,
            39.107232,
            171.75
          ],
          [
            -84.512852,
            39.107205,
            171.75
          ],
          [
            -84.512799,
            39.107004,
            171.25
          ],
          [
            -84.512714,
            39.106659,
            170.5
          ],
          [
            -84.512682,
            39.106542,
            170.75
          ],
          [
            -84.512643,
            39.106381,
            171
          ],
          [
            -84.512572,
            39.106106,
            172
          ],
          [
            -84.512473,
            39.105713,
            173.25
          ],
          [
            -84.512455,
            39.105625,
            173.5
          ],
          [
            -84.512441,
            39.105564,
            173.5
          ],
          [
            -84.51238,
            39.105329,
            174
          ],
          [
            -84.512236,
            39.104773,
            178.75
          ],
          [
            -84.512232,
            39.104753,
            180.5
          ],
          [
            -84.512211,
            39.104673,
            180.5
          ],
          [
            -84.512196,
            39.104615,
            181.75
          ],
          [
            -84.512121,
            39.104308,
            187.25
          ],
          [
            -84.512065,
            39.104093,
            189.75
          ],
          [
            -84.512043,
            39.104009,
            189.5
          ],
          [
            -84.512023,
            39.10393,
            189
          ],
          [
            -84.512009,
            39.103872,
            188.75
          ],
          [
            -84.511892,
            39.103415,
            186
          ],
          [
            -84.511873,
            39.103327,
            185.25
          ],
          [
            -84.511726,
            39.102777,
            186.5
          ],
          [
            -84.511701,
            39.10268,
            186.75
          ],
          [
            -84.511691,
            39.102601,
            187.25
          ],
          [
            -84.511657,
            39.10235,
            188.5
          ],
          [
            -84.511595,
            39.102113,
            189.25
          ],
          [
            -84.511556,
            39.101967,
            189.5
          ],
          [
            -84.511546,
            39.101931,
            189.5
          ],
          [
            -84.511409,
            39.101378,
            195.75
          ],
          [
            -84.511383,
            39.101284,
            197.75
          ],
          [
            -84.511362,
            39.1012,
            199.5
          ],
          [
            -84.511295,
            39.100933,
            204.5
          ],
          [
            -84.511261,
            39.100801,
            205.75
          ],
          [
            -84.51116,
            39.100501,
            199.5
          ],
          [
            -84.511099,
            39.100279,
            195.75
          ],
          [
            -84.511077,
            39.100194,
            194.5
          ],
          [
            -84.511059,
            39.100103,
            193.25
          ],
          [
            -84.510905,
            39.099514,
            179.5
          ],
          [
            -84.51082,
            39.09919,
            172.5
          ],
          [
            -84.510782,
            39.09902,
            169
          ],
          [
            -84.510773,
            39.098921,
            166.75
          ],
          [
            -84.510757,
            39.098796,
            164
          ],
          [
            -84.51075,
            39.098747,
            162.75
          ],
          [
            -84.510647,
            39.098328,
            153.5
          ],
          [
            -84.510636,
            39.098296,
            153.5
          ],
          [
            -84.510595,
            39.098229,
            153.75
          ],
          [
            -84.510556,
            39.098197,
            153.75
          ],
          [
            -84.510539,
            39.098188,
            153.75
          ],
          [
            -84.510451,
            39.098155,
            154
          ],
          [
            -84.510391,
            39.098151,
            154
          ],
          [
            -84.509749,
            39.098246,
            154.75
          ]
        ]
      }
    }
  ]
}