{
  "type": "FeatureCollection",
  "features": [
    {
      "type": "Feature",
      "properties": {
        "creator": "BRouter-1.7.0",
        "name": "[CTA] Yellow Line",
        "track-length": "16349",
        "filtered ascend": "10",
        "plain-ascend": "3",
        "total-time": "1308",
        "total-energy": "719537",
        "cost": "32698",
        "messages": [
          [
            "Longitude",
            "Latitude",
            "Elevation",
            "Distance",
            "CostPerKm",
            "ElevCost",
            "TurnCost",
            "NodeCost",
            "InitialCost",
            "WayTags",
            "NodeTags",
            "Time",
            "Energy"
          ],
          [
            "-87673496",
            "42019657",
            "185",
            "144",
            "2000",
            "0",
            "0",
            "0",
            "0",
            "railway=subway",
            "railway=unknown",
            "11",
            "7351"
          ],
          [
            "-87673594",
            "42019741",
            "185",
            "12",
            "2000",
            "0",
            "0",
            "0",
            "0",
            "railway=subway",
            "railway=switch",
            "12",
            "7963"
          ],
          [
            "-87673956",
            "42019975",
            "185",
            "40",
            "2000",
            "0",
            "0",
            "0",
            "0",
            "railway=subway",
            "railway=crossing",
            "15",
            "10014"
          ],
          [
            "-87674130",
            "42020070",
            "185",
            "18",
            "2000",
            "0",
            "0",
            "0",
            "0",
            "railway=subway",
            "railway=switch",
            "17",
            "10904"
          ],
          [
            "-87674150",
            "42020081",
            "185",
            "2",
            "2000",
            "0",
            "0",
            "0",
            "0",
            "railway=subway",
            "railway=crossing",
            "17",
            "11001"
          ],
          [
            "-87674253",
            "42020137",
            "186",
            "11",
            "2000",
            "0",
            "0",
            "0",
            "0",
            "railway=subway",
            "railway=switch",
            "18",
            "11559"
          ],
          [
            "-87674345",
            "42020186",
            "186",
            "9",
            "2000",
            "0",
            "0",
            "0",
            "0",
            "railway=subway",
            "railway=switch",
            "18",
            "12009"
          ],
          [
            "-87674622",
            "42020342",
            "186",
            "29",
            "2000",
            "0",
            "0",
            "0",
            "0",
            "railway=subway",
            "railway=switch",
            "21",
            "13486"
          ],
          [
            "-87674982",
            "42020539",
            "186",
            "37",
            "2000",
            "0",
            "0",
            "0",
            "0",
            "railway=subway",
            "railway=signal",
            "24",
            "15298"
          ],
          [
            "-87680755",
            "42021898",
            "185",
            "514",
            "2000",
            "0",
            "0",
            "0",
            "0",
            "railway=subway",
            "railway=switch",
            "65",
            "38049"
          ],
          [
            "-87682352",
            "42021899",
            "185",
            "67",
            "2000",
            "0",
            "0",
            "0",
            "0",
            "railway=subway",
            "",
            "70",
            "40805"
          ],
          [
            "-87682352",
            "42021899",
            "185",
            "65",
            "2000",
            "0",
            "0",
            "0",
            "0",
            "railway=subway",
            "railway=switch",
            "5",
            "2964"
          ],
          [
            "-87720431",
            "42022637",
            "181",
            "3157",
            "2000",
            "0",
            "0",
            "0",
            "0",
            "railway=subway",
            "railway=switch",
            "257",
            "138597"
          ],
          [
            "-87720687",
            "42022613",
            "181",
            "21",
            "2000",
            "0",
            "0",
            "0",
            "0",
            "railway=subway",
            "railway=switch",
            "259",
            "139485"
          ],
          [
            "-87726560",
            "42022481",
            "184",
            "487",
            "2000",
            "0",
            "0",
            "0",
            "0",
            "railway=subway",
            "railway=crossing",
            "298",
            "162652"
          ],
          [
            "-87726669",
            "42022480",
            "184",
            "9",
            "2000",
            "0",
            "0",
            "0",
            "0",
            "railway=subway",
            "railway=level_crossing",
            "299",
            "163055"
          ],
          [
            "-87726775",
            "42022479",
            "184",
            "9",
            "2000",
            "0",
            "0",
            "0",
            "0",
            "railway=subway",
            "railway=crossing",
            "299",
            "163458"
          ],
          [
            "-87728178",
            "42022479",
            "185",
            "116",
            "2000",
            "0",
            "0",
            "0",
            "0",
            "railway=subway",
            "railway=crossing",
            "309",
            "169672"
          ],
          [
            "-87728232",
            "42022478",
            "185",
            "4",
            "2000",
            "0",
            "0",
            "0",
            "0",
            "railway=subway",
            "railway=level_crossing",
            "309",
            "169868"
          ],
          [
            "-87728368",
            "42022477",
            "186",
            "11",
            "2000",
            "0",
            "0",
            "0",
            "0",
            "railway=subway",
            "railway=level_crossing",
            "310",
            "170425"
          ],
          [
            "-87728439",
            "42022476",
            "186",
            "6",
            "2000",
            "0",
            "0",
            "0",
            "0",
            "railway=subway",
            "railway=crossing",
            "310",
            "170726"
          ],
          [
            "-87737848",
            "42022463",
            "187",
            "779",
            "2000",
            "0",
            "0",
            "0",
            "0",
            "railway=subway",
            "railway=crossing",
            "373",
            "206691"
          ],
          [
            "-87737958",
            "42022464",
            "187",
            "9",
            "2000",
            "0",
            "0",
            "0",
            "0",
            "railway=subway",
            "railway=level_crossing",
            "373",
            "207106"
          ],
          [
            "-87738068",
            "42022464",
            "187",
            "9",
            "2000",
            "0",
            "0",
            "0",
            "0",
            "railway=subway",
            "railway=crossing",
            "374",
            "207519"
          ],
          [
            "-87747190",
            "42026149",
            "187",
            "937",
            "2000",
            "0",
            "0",
            "0",
            "0",
            "railway=subway",
            "railway=crossing",
            "449",
            "249069"
          ],
          [
            "-87747211",
            "42026203",
            "187",
            "6",
            "2000",
            "0",
            "0",
            "0",
            "0",
            "railway=subway",
            "railway=level_crossing",
            "450",
            "249324"
          ],
          [
            "-87747251",
            "42026319",
            "187",
            "13",
            "2000",
            "0",
            "0",
            "0",
            "0",
            "railway=subway",
            "railway=level_crossing",
            "451",
            "249852"
          ],
          [
            "-87747270",
            "42026371",
            "187",
            "6",
            "2000",
            "0",
            "0",
            "0",
            "0",
            "railway=subway",
            "railway=crossing",
            "451",
            "250097"
          ],
          [
            "-87747606",
            "42027426",
            "187",
            "121",
            "2000",
            "0",
            "0",
            "0",
            "0",
            "railway=subway",
            "railway=unknown",
            "461",
            "255196"
          ],
          [
            "-87747923",
            "42028418",
            "189",
            "113",
            "2000",
            "0",
            "0",
            "0",
            "0",
            "railway=subway",
            "railway=crossing",
            "470",
            "261459"
          ],
          [
            "-87748210",
            "42029330",
            "190",
            "104",
            "2000",
            "0",
            "0",
            "0",
            "0",
            "railway=subway",
            "railway=crossing",
            "478",
            "266718"
          ],
          [
            "-87748222",
            "42029371",
            "189",
            "5",
            "2000",
            "0",
            "0",
            "0",
            "0",
            "railway=subway",
            "railway=level_crossing",
            "478",
            "266946"
          ],
          [
            "-87748244",
            "42029438",
            "189",
            "8",
            "2000",
            "0",
            "0",
            "0",
            "0",
            "railway=subway",
            "railway=level_crossing",
            "479",
            "267292"
          ],
          [
            "-87748258",
            "42029479",
            "189",
            "5",
            "2000",
            "0",
            "0",
            "0",
            "0",
            "railway=subway",
            "railway=crossing",
            "480",
            "267498"
          ],
          [
            "-87748866",
            "42031392",
            "187",
            "218",
            "2000",
            "0",
            "0",
            "0",
            "0",
            "railway=subway",
            "railway=switch",
            "497",
            "275080"
          ],
          [
            "-87749536",
            "42033443",
            "189",
            "234",
            "2000",
            "0",
            "0",
            "0",
            "0",
            "railway=subway",
            "railway=crossing",
            "516",
            "286789"
          ],
          [
            "-87749546",
            "42033472",
            "189",
            "3",
            "2000",
            "0",
            "0",
            "0",
            "0",
            "railway=subway",
            "railway=level_crossing",
            "516",
            "286930"
          ],
          [
            "-87749582",
            "42033579",
            "189",
            "12",
            "2000",
            "0",
            "0",
            "0",
            "0",
            "railway=subway",
            "railway=level_crossing",
            "517",
            "287493"
          ],
          [
            "-87749602",
            "42033634",
            "189",
            "6",
            "2000",
            "0",
            "0",
            "0",
            "0",
            "railway=subway",
            "railway=crossing",
            "517",
            "287785"
          ],
          [
            "-87750291",
            "42035266",
            "191",
            "190",
            "2000",
            "0",
            "0",
            "0",
            "0",
            "railway=subway",
            "railway=crossing",
            "533",
            "297420"
          ],
          [
            "-87750340",
            "42035372",
            "191",
            "12",
            "2000",
            "0",
            "0",
            "0",
            "0",
            "railway=subway",
            "railway=level_crossing",
            "534",
            "298006"
          ],
          [
            "-87750406",
            "42035516",
            "191",
            "17",
            "2000",
            "0",
            "0",
            "0",
            "0",
            "railway=subway",
            "railway=crossing",
            "535",
            "298824"
          ],
          [
            "-87752089",
            "42039218",
            "191",
            "434",
            "2000",
            "0",
            "0",
            "0",
            "0",
            "railway=subway",
            "railway=unknown",
            "570",
            "318551"
          ],
          [
            "-87752206",
            "42039582",
            "191",
            "2",
            "2000",
            "0",
            "0",
            "0",
            "0",
            "railway=subway",
            "",
            "570",
            "318643"
          ],
          [
            "-87752206",
            "42039582",
            "191",
            "39",
            "2000",
            "0",
            "0",
            "0",
            "0",
            "railway=subway",
            "railway=crossing",
            "3",
            "1572"
          ],
          [
            "-87752337",
            "42039839",
            "190",
            "30",
            "2000",
            "0",
            "0",
            "0",
            "0",
            "railway=subway",
            "railway=switch",
            "5",
            "2717"
          ],
          [
            "-87752563",
            "42040558",
            "192",
            "82",
            "2000",
            "0",
            "0",
            "0",
            "0",
            "reversedirection=yes railway=subway",
            "",
            "12",
            "6748"
          ],
          [
            "-87752337",
            "42039839",
            "190",
            "82",
            "2000",
            "0",
            "0",
            "0",
            "0",
            "railway=subway",
            "railway=switch",
            "6",
            "2865"
          ],
          [
            "-87752254",
            "42039574",
            "191",
            "30",
            "2000",
            "0",
            "0",
            "0",
            "0",
            "railway=subway",
            "railway=crossing",
            "8",
            "4148"
          ],
          [
            "-87752025",
            "42038862",
            "191",
            "81",
            "2000",
            "0",
            "0",
            "0",
            "0",
            "railway=subway",
            "railway=unknown",
            "15",
            "7898"
          ],
          [
            "-87750471",
            "42035346",
            "191",
            "321",
            "2000",
            "0",
            "0",
            "0",
            "0",
            "railway=subway",
            "",
            "41",
            "21524"
          ],
          [
            "-87750471",
            "42035346",
            "191",
            "91",
            "2000",
            "0",
            "0",
            "0",
            "0",
            "railway=subway",
            "railway=crossing",
            "7",
            "4134"
          ],
          [
            "-87750404",
            "42035202",
            "191",
            "17",
            "2000",
            "0",
            "0",
            "0",
            "0",
            "railway=subway",
            "railway=level_crossing",
            "8",
            "4896"
          ],
          [
            "-87750356",
            "42035095",
            "191",
            "13",
            "2000",
            "0",
            "0",
            "0",
            "0",
            "railway=subway",
            "railway=crossing",
            "9",
            "5477"
          ],
          [
            "-87749744",
            "42033636",
            "189",
            "170",
            "2000",
            "0",
            "0",
            "0",
            "0",
            "railway=subway",
            "railway=crossing",
            "23",
            "12003"
          ],
          [
            "-87749723",
            "42033580",
            "189",
            "6",
            "2000",
            "0",
            "0",
            "0",
            "0",
            "railway=subway",
            "railway=level_crossing",
            "23",
            "12249"
          ],
          [
            "-87749681",
            "42033471",
            "189",
            "13",
            "2000",
            "0",
            "0",
            "0",
            "0",
            "railway=subway",
            "railway=level_crossing",
            "24",
            "12785"
          ],
          [
            "-87749671",
            "42033443",
            "189",
            "3",
            "2000",
            "0",
            "0",
            "0",
            "0",
            "railway=subway",
            "railway=crossing",
            "25",
            "12910"
          ],
          [
            "-87748716",
            "42030477",
            "187",
            "339",
            "2000",
            "0",
            "0",
            "0",
            "0",
            "railway=subway",
            "railway=switch",
            "52",
            "25907"
          ],
          [
            "-87748397",
            "42029479",
            "189",
            "114",
            "2000",
            "0",
            "0",
            "0",
            "0",
            "railway=subway",
            "railway=crossing",
            "61",
            "31905"
          ],
          [
            "-87748383",
            "42029437",
            "189",
            "5",
            "2000",
            "0",
            "0",
            "0",
            "0",
            "railway=subway",
            "railway=level_crossing",
            "61",
            "32158"
          ],
          [
            "-87748362",
            "42029371",
            "189",
            "8",
            "2000",
            "0",
            "0",
            "0",
            "0",
            "railway=subway",
            "railway=level_crossing",
            "62",
            "32577"
          ],
          [
            "-87748350",
            "42029331",
            "190",
            "5",
            "2000",
            "0",
            "0",
            "0",
            "0",
            "railway=subway",
            "railway=crossing",
            "62",
            "32847"
          ],
          [
            "-87747542",
            "42026774",
            "187",
            "292",
            "2000",
            "0",
            "0",
            "0",
            "0",
            "railway=subway",
            "railway=unknown",
            "86",
            "44451"
          ],
          [
            "-87747409",
            "42026370",
            "187",
            "46",
            "2000",
            "0",
            "0",
            "0",
            "0",
            "railway=subway",
            "railway=crossing",
            "89",
            "46395"
          ],
          [
            "-87747390",
            "42026316",
            "187",
            "6",
            "2000",
            "0",
            "0",
            "0",
            "0",
            "railway=subway",
            "railway=level_crossing",
            "90",
            "46652"
          ],
          [
            "-87747350",
            "42026204",
            "187",
            "13",
            "2000",
            "0",
            "0",
            "0",
            "0",
            "railway=subway",
            "railway=level_crossing",
            "91",
            "47235"
          ],
          [
            "-87747328",
            "42026150",
            "187",
            "6",
            "2000",
            "0",
            "0",
            "0",
            "0",
            "railway=subway",
            "railway=crossing",
            "91",
            "47503"
          ],
          [
            "-87738070",
            "42022377",
            "187",
            "957",
            "2000",
            "0",
            "0",
            "0",
            "0",
            "railway=subway",
            "railway=crossing",
            "168",
            "89602"
          ],
          [
            "-87737959",
            "42022378",
            "187",
            "9",
            "2000",
            "0",
            "0",
            "0",
            "0",
            "railway=subway",
            "railway=level_crossing",
            "169",
            "90004"
          ],
          [
            "-87737851",
            "42022379",
            "187",
            "9",
            "2000",
            "0",
            "0",
            "0",
            "0",
            "railway=subway",
            "railway=crossing",
            "169",
            "90387"
          ],
          [
            "-87728442",
            "42022394",
            "186",
            "779",
            "2000",
            "0",
            "0",
            "0",
            "0",
            "railway=subway",
            "railway=crossing",
            "232",
            "123407"
          ],
          [
            "-87728371",
            "42022394",
            "186",
            "6",
            "2000",
            "0",
            "0",
            "0",
            "0",
            "railway=subway",
            "railway=level_crossing",
            "232",
            "123671"
          ],
          [
            "-87728235",
            "42022394",
            "185",
            "11",
            "2000",
            "0",
            "0",
            "0",
            "0",
            "railway=subway",
            "railway=level_crossing",
            "233",
            "124132"
          ],
          [
            "-87728177",
            "42022394",
            "185",
            "5",
            "2000",
            "0",
            "0",
            "0",
            "0",
            "railway=subway",
            "railway=crossing",
            "233",
            "124342"
          ],
          [
            "-87726773",
            "42022396",
            "184",
            "116",
            "2000",
            "0",
            "0",
            "0",
            "0",
            "railway=subway",
            "railway=crossing",
            "243",
            "128255"
          ],
          [
            "-87726668",
            "42022396",
            "184",
            "9",
            "2000",
            "0",
            "0",
            "0",
            "0",
            "railway=subway",
            "railway=level_crossing",
            "243",
            "128604"
          ],
          [
            "-87726559",
            "42022394",
            "184",
            "9",
            "2000",
            "0",
            "0",
            "0",
            "0",
            "railway=subway",
            "railway=crossing",
            "244",
            "128957"
          ],
          [
            "-87719759",
            "42022654",
            "182",
            "565",
            "2000",
            "0",
            "0",
            "0",
            "0",
            "railway=subway",
            "railway=switch",
            "289",
            "151763"
          ],
          [
            "-87681685",
            "42021860",
            "185",
            "3158",
            "2000",
            "0",
            "0",
            "0",
            "0",
            "railway=subway",
            "railway=switch",
            "542",
            "295914"
          ],
          [
            "-87681429",
            "42021860",
            "185",
            "21",
            "2000",
            "0",
            "0",
            "0",
            "0",
            "railway=subway",
            "railway=switch",
            "544",
            "296815"
          ],
          [
            "-87680755",
            "42021898",
            "185",
            "56",
            "2000",
            "0",
            "0",
            "0",
            "0",
            "railway=subway",
            "railway=switch",
            "548",
            "298419"
          ],
          [
            "-87674982",
            "42020539",
            "186",
            "514",
            "2000",
            "0",
            "0",
            "0",
            "0",
            "reversedirection=yes railway=subway",
            "railway=signal",
            "589",
            "320077"
          ],
          [
            "-87674622",
            "42020342",
            "186",
            "37",
            "2000",
            "0",
            "0",
            "0",
            "0",
            "reversedirection=yes railway=subway",
            "railway=switch",
            "592",
            "321756"
          ],
          [
            "-87674345",
            "42020186",
            "186",
            "29",
            "2000",
            "0",
            "0",
            "0",
            "0",
            "reversedirection=yes railway=subway",
            "railway=switch",
            "594",
            "323004"
          ],
          [
            "-87674253",
            "42020137",
            "186",
            "9",
            "2000",
            "0",
            "0",
            "0",
            "0",
            "reversedirection=yes railway=subway",
            "railway=switch",
            "595",
            "323393"
          ],
          [
            "-87674150",
            "42020081",
            "185",
            "11",
            "2000",
            "0",
            "0",
            "0",
            "0",
            "reversedirection=yes railway=subway",
            "railway=crossing",
            "596",
            "323846"
          ],
          [
            "-87674130",
            "42020070",
            "185",
            "2",
            "2000",
            "0",
            "0",
            "0",
            "0",
            "reversedirection=yes railway=subway",
            "railway=switch",
            "596",
            "323929"
          ],
          [
            "-87673956",
            "42019975",
            "185",
            "18",
            "2000",
            "0",
            "0",
            "0",
            "0",
            "reversedirection=yes railway=subway",
            "railway=crossing",
            "598",
            "324678"
          ],
          [
            "-87673594",
            "42019741",
            "185",
            "40",
            "2000",
            "0",
            "0",
            "0",
            "0",
            "reversedirection=yes railway=subway",
            "railway=switch",
            "601",
            "326320"
          ],
          [
            "-87673496",
            "42019657",
            "185",
            "12",
            "2000",
            "0",
            "0",
            "0",
            "0",
            "reversedirection=yes railway=subway",
            "railway=unknown",
            "602",
            "326811"
          ],
          [
            "-87672307",
            "42018665",
            "183",
            "144",
            "2000",
            "0",
            "0",
            "0",
            "0",
            "reversedirection=yes railway=subway",
            "",
            "613",
            "331817"
          ]
        ],
        "times": [
          0,
          5.6,
          9.44,
          11.52,
          12.48,
          14.4,
          15.68,
          17.12,
          17.28,
          18.16,
          18.88,
          21.2,
          24.16,
          29.36,
          32.88,
          34.8,
          37.44,
          41.2,
          43.92,
          45.68,
          48.16,
          50.48,
          52.4,
          54.32,
          56.4,
          58.48,
          65.28,
          70.64,
          75.84,
          113.12,
          114.88,
          116.88,
          118.88,
          141.76,
          144.8,
          147.12,
          151.76,
          158.64,
          166.32,
          169.12,
          171.04,
          175.2,
          177.44,
          179.92,
          187.52,
          192.08,
          197.28,
          199.36,
          203.36,
          207.84,
          220.16,
          221.92,
          237.76,
          243.12,
          248.88,
          268.8,
          287.36,
          295.04,
          308.4,
          314.16,
          318.56,
          328.4,
          330.08,
          338.32,
          342.4,
          369.04,
          369.76,
          370.48,
          379.76,
          380.08,
          380.96,
          381.44,
          443.76,
          444.48,
          445.2,
          459.68,
          463.44,
          466.88,
          468.64,
          470.4,
          472.48,
          474.64,
          476.96,
          479.2,
          481.36,
          483.44,
          485.2,
          487.36,
          489.36,
          491.92,
          494,
          495.84,
          499.84,
          502.32,
          504.08,
          506.72,
          509.2,
          511.6,
          513.76,
          516.48,
          520.16,
          520.64,
          521.68,
          522.16,
          523.6,
          531.84,
          540.88,
          549.2,
          549.6,
          550.24,
          550.64,
          568.08,
          584.64,
          586.8,
          587.04,
          588,
          588.48,
          594.8,
          598.4,
          603.68,
          604.64,
          606,
          630.64,
          634.32,
          637.2,
          640.72,
          640.88,
          644,
          644.4,
          646.4,
          652.96,
          659.52,
          661.92,
          668.4,
          669.92,
          674.24,
          676.16,
          694.08,
          701.36,
          702.72,
          703.76,
          712.32,
          717.36,
          717.84,
          718.88,
          719.12,
          724.8,
          746.24,
          755.36,
          755.76,
          756.4,
          756.8,
          770.88,
          780.16,
          783.84,
          784.32,
          785.36,
          785.84,
          790.32,
          792.16,
          793.76,
          797.28,
          800,
          801.44,
          804.48,
          805.68,
          807.92,
          811.92,
          814,
          815.92,
          817.76,
          819.52,
          821.44,
          823.84,
          825.92,
          828.24,
          830.16,
          832.24,
          833.76,
          836.96,
          840.32,
          842,
          843.68,
          845.68,
          862.4,
          863.12,
          863.84,
          926.16,
          926.64,
          927.52,
          927.92,
          937.2,
          937.92,
          938.64,
          961.6,
          965.6,
          983.84,
          986.56,
          991.44,
          993.68,
          999.04,
          1013.76,
          1016.48,
          1038.8,
          1058.88,
          1063.84,
          1068.96,
          1085.84,
          1087.6,
          1100.4,
          1104,
          1107.44,
          1109.84,
          1115.68,
          1120.24,
          1125.28,
          1128.4,
          1130.56,
          1134.32,
          1138.48,
          1156.48,
          1160.08,
          1162,
          1164.24,
          1166.88,
          1188.88,
          1190.8,
          1192.88,
          1194.8,
          1216.24,
          1236.48,
          1238.16,
          1239.36,
          1242.64,
          1249.44,
          1251.52,
          1253.6,
          1255.52,
          1257.44,
          1259.76,
          1262.24,
          1264,
          1266.72,
          1270.48,
          1273.12,
          1275.04,
          1278.56,
          1283.76,
          1286.72,
          1289.04,
          1289.76,
          1290.64,
          1290.8,
          1292.24,
          1293.52,
          1295.44,
          1296.4,
          1298.48,
          1302.32,
          1307.92
        ]
      },
      "geometry": {
        "type": "LineString",
        "coordinates": [
          [
            -87.672336,
            42.018688,
            183.5
          ],
          [
            -87.672897,
            42.019162,
            184.25
          ],
          [
            -87.673285,
            42.019485,
            185.25
          ],
          [
            -87.673496,
            42.019657,
            185.5
          ],
          [
            -87.673594,
            42.019741,
            185.5
          ],
          [
            -87.673805,
            42.019887,
            185.75
          ],
          [
            -87.673956,
            42.019975,
            185.75
          ],
          [
            -87.67413,
            42.02007,
            185.75
          ],
          [
            -87.67415,
            42.020081,
            185.75
          ],
          [
            -87.674253,
            42.020137,
            186
          ],
          [
            -87.674345,
            42.020186,
            186
          ],
          [
            -87.674622,
            42.020342,
            186.25
          ],
          [
            -87.674982,
            42.020539,
            186.25
          ],
          [
            -87.675616,
            42.020884,
            185.25
          ],
          [
            -87.676061,
            42.021099,
            185.5
          ],
          [
            -87.676311,
            42.021207,
            185.75
          ],
          [
            -87.676664,
            42.021343,
            185.75
          ],
          [
            -87.677188,
            42.021514,
            187
          ],
          [
            -87.677577,
            42.021617,
            187.75
          ],
          [
            -87.677836,
            42.021676,
            187.75
          ],
          [
            -87.678197,
            42.021749,
            187.75
          ],
          [
            -87.678538,
            42.021802,
            187.75
          ],
          [
            -87.678818,
            42.021837,
            187.5
          ],
          [
            -87.6791,
            42.021864,
            187.5
          ],
          [
            -87.679417,
            42.021885,
            186.75
          ],
          [
            -87.679725,
            42.021895,
            185.75
          ],
          [
            -87.680755,
            42.021898,
            185.25
          ],
          [
            -87.681564,
            42.021898,
            185.75
          ],
          [
            -87.682352,
            42.021899,
            185.75
          ],
          [
            -87.687986,
            42.021902,
            190
          ],
          [
            -87.688257,
            42.021907,
            190
          ],
          [
            -87.688554,
            42.021921,
            189.75
          ],
          [
            -87.688855,
            42.021944,
            189.5
          ],
          [
            -87.69228,
            42.022298,
            187
          ],
          [
            -87.692741,
            42.02234,
            187.5
          ],
          [
            -87.69309,
            42.022362,
            188
          ],
          [
            -87.69379,
            42.022375,
            187.5
          ],
          [
            -87.694832,
            42.022361,
            186.75
          ],
          [
            -87.695992,
            42.022336,
            186.5
          ],
          [
            -87.69642,
            42.022331,
            186
          ],
          [
            -87.696711,
            42.022334,
            186
          ],
          [
            -87.697336,
            42.022358,
            186
          ],
          [
            -87.697673,
            42.022384,
            186
          ],
          [
            -87.698049,
            42.02242,
            186
          ],
          [
            -87.699184,
            42.022546,
            184.75
          ],
          [
            -87.69987,
            42.022621,
            184.25
          ],
          [
            -87.700648,
            42.0227,
            184.25
          ],
          [
            -87.700961,
            42.022722,
            184.25
          ],
          [
            -87.701563,
            42.022745,
            185.25
          ],
          [
            -87.70224,
            42.022744,
            184.5
          ],
          [
            -87.704103,
            42.022701,
            184.5
          ],
          [
            -87.704364,
            42.022695,
            185
          ],
          [
            -87.706756,
            42.02264,
            186
          ],
          [
            -87.707567,
            42.022638,
            186.5
          ],
          [
            -87.708438,
            42.022655,
            186.25
          ],
          [
            -87.711448,
            42.022726,
            185.25
          ],
          [
            -87.714245,
            42.02279,
            182
          ],
          [
            -87.715407,
            42.022809,
            181.5
          ],
          [
            -87.717423,
            42.022799,
            181.75
          ],
          [
            -87.718292,
            42.022781,
            182.25
          ],
          [
            -87.718956,
            42.022748,
            182.75
          ],
          [
            -87.720431,
            42.022637,
            181.75
          ],
          [
            -87.720687,
            42.022613,
            181.75
          ],
          [
            -87.721922,
            42.022514,
            181
          ],
          [
            -87.722542,
            42.022488,
            181
          ],
          [
            -87.72656,
            42.022481,
            184
          ],
          [
            -87.726669,
            42.02248,
            184
          ],
          [
            -87.726775,
            42.022479,
            184
          ],
          [
            -87.728178,
            42.022479,
            185.75
          ],
          [
            -87.728232,
            42.022478,
            185.75
          ],
          [
            -87.728368,
            42.022477,
            186
          ],
          [
            -87.728439,
            42.022476,
            186
          ],
          [
            -87.737848,
            42.022463,
            187.25
          ],
          [
            -87.737958,
            42.022464,
            187.5
          ],
          [
            -87.738068,
            42.022464,
            187.5
          ],
          [
            -87.740259,
            42.02246,
            187.25
          ],
          [
            -87.74083,
            42.022467,
            186
          ],
          [
            -87.741351,
            42.022503,
            186.5
          ],
          [
            -87.741611,
            42.022531,
            186.75
          ],
          [
            -87.741878,
            42.022568,
            186.75
          ],
          [
            -87.742181,
            42.022619,
            186.75
          ],
          [
            -87.742495,
            42.022683,
            186.75
          ],
          [
            -87.742828,
            42.022764,
            187.25
          ],
          [
            -87.743147,
            42.022857,
            188
          ],
          [
            -87.743441,
            42.022953,
            188.5
          ],
          [
            -87.743724,
            42.023057,
            188.75
          ],
          [
            -87.743962,
            42.023154,
            189
          ],
          [
            -87.74424,
            42.023278,
            189.75
          ],
          [
            -87.744488,
            42.023399,
            189.75
          ],
          [
            -87.744794,
            42.023569,
            189
          ],
          [
            -87.745037,
            42.023718,
            188.5
          ],
          [
            -87.745245,
            42.023855,
            188
          ],
          [
            -87.745667,
            42.024173,
            187
          ],
          [
            -87.745916,
            42.024387,
            187.5
          ],
          [
            -87.74608,
            42.024544,
            187.75
          ],
          [
            -87.746313,
            42.024786,
            188
          ],
          [
            -87.746514,
            42.025023,
            188
          ],
          [
            -87.74669,
            42.025262,
            187.75
          ],
          [
            -87.746835,
            42.025478,
            187.5
          ],
          [
            -87.746993,
            42.025758,
            187.75
          ],
          [
            -87.74719,
            42.026149,
            187.5
          ],
          [
            -87.747211,
            42.026203,
            187.5
          ],
          [
            -87.747251,
            42.026319,
            187.25
          ],
          [
            -87.74727,
            42.026371,
            187.25
          ],
          [
            -87.747314,
            42.026526,
            187
          ],
          [
            -87.747606,
            42.027426,
            187.25
          ],
          [
            -87.747923,
            42.028418,
            189.5
          ],
          [
            -87.74821,
            42.02933,
            190
          ],
          [
            -87.748222,
            42.029371,
            189.75
          ],
          [
            -87.748244,
            42.029438,
            189.5
          ],
          [
            -87.748258,
            42.029479,
            189.25
          ],
          [
            -87.748866,
            42.031392,
            187
          ],
          [
            -87.749446,
            42.033205,
            189
          ],
          [
            -87.749536,
            42.033443,
            189.25
          ],
          [
            -87.749546,
            42.033472,
            189.25
          ],
          [
            -87.749582,
            42.033579,
            189.25
          ],
          [
            -87.749602,
            42.033634,
            189.5
          ],
          [
            -87.749866,
            42.034316,
            190
          ],
          [
            -87.750032,
            42.034701,
            190.5
          ],
          [
            -87.750291,
            42.035266,
            191
          ],
          [
            -87.75034,
            42.035372,
            191
          ],
          [
            -87.750406,
            42.035516,
            191
          ],
          [
            -87.751618,
            42.03814,
            190.75
          ],
          [
            -87.751806,
            42.038529,
            191
          ],
          [
            -87.751942,
            42.038834,
            191.5
          ],
          [
            -87.752089,
            42.039218,
            191.75
          ],
          [
            -87.752096,
            42.039237,
            191
          ],
          [
            -87.752206,
            42.039582,
            191
          ],
          [
            -87.752223,
            42.039626,
            191
          ],
          [
            -87.752337,
            42.039839,
            190.5
          ],
          [
            -87.752563,
            42.040558,
            192
          ],
          [
            -87.752337,
            42.039839,
            190.5
          ],
          [
            -87.752254,
            42.039574,
            191
          ],
          [
            -87.752025,
            42.038862,
            191.5
          ],
          [
            -87.751972,
            42.038698,
            191.25
          ],
          [
            -87.751797,
            42.038231,
            190.75
          ],
          [
            -87.751708,
            42.038027,
            190.5
          ],
          [
            -87.750827,
            42.036117,
            191
          ],
          [
            -87.750471,
            42.035346,
            191
          ],
          [
            -87.750404,
            42.035202,
            191
          ],
          [
            -87.750356,
            42.035095,
            191
          ],
          [
            -87.749946,
            42.03418,
            189.75
          ],
          [
            -87.749744,
            42.033636,
            189.5
          ],
          [
            -87.749723,
            42.03358,
            189.5
          ],
          [
            -87.749681,
            42.033471,
            189.5
          ],
          [
            -87.749671,
            42.033443,
            189.5
          ],
          [
            -87.74946,
            42.032823,
            188.5
          ],
          [
            -87.748716,
            42.030477,
            187.5
          ],
          [
            -87.748397,
            42.029479,
            189.25
          ],
          [
            -87.748383,
            42.029437,
            189.5
          ],
          [
            -87.748362,
            42.029371,
            189.75
          ],
          [
            -87.74835,
            42.029331,
            190
          ],
          [
            -87.747858,
            42.027793,
            188.5
          ],
          [
            -87.747542,
            42.026774,
            187
          ],
          [
            -87.747409,
            42.02637,
            187.25
          ],
          [
            -87.74739,
            42.026316,
            187.25
          ],
          [
            -87.74735,
            42.026204,
            187.5
          ],
          [
            -87.747328,
            42.02615,
            187.5
          ],
          [
            -87.747095,
            42.025672,
            187.5
          ],
          [
            -87.746992,
            42.025484,
            187.5
          ],
          [
            -87.746891,
            42.025323,
            187.5
          ],
          [
            -87.746651,
            42.024971,
            187.75
          ],
          [
            -87.746432,
            42.024707,
            187.75
          ],
          [
            -87.746309,
            42.024575,
            187.5
          ],
          [
            -87.746031,
            42.024304,
            187.25
          ],
          [
            -87.745913,
            42.024202,
            187
          ],
          [
            -87.74569,
            42.024018,
            187.25
          ],
          [
            -87.745254,
            42.023703,
            188.5
          ],
          [
            -87.745016,
            42.023554,
            189
          ],
          [
            -87.744791,
            42.023421,
            189.5
          ],
          [
            -87.744565,
            42.0233,
            189.75
          ],
          [
            -87.744345,
            42.023193,
            189.5
          ],
          [
            -87.744099,
            42.023081,
            189.25
          ],
          [
            -87.743778,
            42.02295,
            188.75
          ],
          [
            -87.743492,
            42.022848,
            188.5
          ],
          [
            -87.743167,
            42.022744,
            188.25
          ],
          [
            -87.742893,
            42.022668,
            187.5
          ],
          [
            -87.742596,
            42.022598,
            187
          ],
          [
            -87.742374,
            42.022551,
            186.75
          ],
          [
            -87.741903,
            42.022472,
            187
          ],
          [
            -87.741399,
            42.022413,
            186.75
          ],
          [
            -87.741146,
            42.022395,
            186.5
          ],
          [
            -87.740897,
            42.022383,
            186
          ],
          [
            -87.740595,
            42.022377,
            186.5
          ],
          [
            -87.73807,
            42.022377,
            187.5
          ],
          [
            -87.737959,
            42.022378,
            187.5
          ],
          [
            -87.737851,
            42.022379,
            187.25
          ],
          [
            -87.728442,
            42.022394,
            186
          ],
          [
            -87.728371,
            42.022394,
            186
          ],
          [
            -87.728235,
            42.022394,
            185.75
          ],
          [
            -87.728177,
            42.022394,
            185.75
          ],
          [
            -87.726773,
            42.022396,
            184
          ],
          [
            -87.726668,
            42.022396,
            184
          ],
          [
            -87.726559,
            42.022394,
            184
          ],
          [
            -87.723096,
            42.022407,
            182.25
          ],
          [
            -87.722494,
            42.022431,
            180.75
          ],
          [
            -87.719759,
            42.022654,
            182.25
          ],
          [
            -87.719352,
            42.022689,
            182.75
          ],
          [
            -87.718622,
            42.022731,
            182.5
          ],
          [
            -87.718283,
            42.022746,
            182.25
          ],
          [
            -87.71747,
            42.022761,
            181.75
          ],
          [
            -87.715246,
            42.02277,
            181.5
          ],
          [
            -87.71483,
            42.022765,
            181.75
          ],
          [
            -87.711466,
            42.022691,
            185.75
          ],
          [
            -87.708438,
            42.022619,
            186.25
          ],
          [
            -87.707684,
            42.022603,
            186.5
          ],
          [
            -87.706913,
            42.022599,
            186
          ],
          [
            -87.704363,
            42.022662,
            185
          ],
          [
            -87.704102,
            42.022668,
            184.75
          ],
          [
            -87.702173,
            42.022708,
            184.75
          ],
          [
            -87.701634,
            42.022705,
            185.5
          ],
          [
            -87.701114,
            42.022681,
            184.75
          ],
          [
            -87.700756,
            42.02265,
            184.25
          ],
          [
            -87.699882,
            42.022558,
            184
          ],
          [
            -87.699198,
            42.022481,
            184.75
          ],
          [
            -87.698444,
            42.022394,
            185.75
          ],
          [
            -87.697974,
            42.022347,
            186
          ],
          [
            -87.697647,
            42.02232,
            186
          ],
          [
            -87.69708,
            42.022293,
            186
          ],
          [
            -87.696448,
            42.022289,
            186
          ],
          [
            -87.693734,
            42.02234,
            187.5
          ],
          [
            -87.693187,
            42.022329,
            188.25
          ],
          [
            -87.692901,
            42.022314,
            187.75
          ],
          [
            -87.692562,
            42.022289,
            187.25
          ],
          [
            -87.692167,
            42.022251,
            187
          ],
          [
            -87.688875,
            42.02191,
            189.5
          ],
          [
            -87.688583,
            42.021885,
            189.75
          ],
          [
            -87.688265,
            42.021871,
            190
          ],
          [
            -87.687975,
            42.021865,
            190
          ],
          [
            -87.684739,
            42.021865,
            189.75
          ],
          [
            -87.681685,
            42.02186,
            185
          ],
          [
            -87.681429,
            42.02186,
            185
          ],
          [
            -87.681253,
            42.021865,
            185
          ],
          [
            -87.680755,
            42.021898,
            185.25
          ],
          [
            -87.679725,
            42.021895,
            185.75
          ],
          [
            -87.679417,
            42.021885,
            186.75
          ],
          [
            -87.6791,
            42.021864,
            187.5
          ],
          [
            -87.678818,
            42.021837,
            187.5
          ],
          [
            -87.678538,
            42.021802,
            187.75
          ],
          [
            -87.678197,
            42.021749,
            187.75
          ],
          [
            -87.677836,
            42.021676,
            187.75
          ],
          [
            -87.677577,
            42.021617,
            187.75
          ],
          [
            -87.677188,
            42.021514,
            187
          ],
          [
            -87.676664,
            42.021343,
            185.75
          ],
          [
            -87.676311,
            42.021207,
            185.75
          ],
          [
            -87.676061,
            42.021099,
            185.5
          ],
          [
            -87.675616,
            42.020884,
            185.25
          ],
          [
            -87.674982,
            42.020539,
            186.25
          ],
          [
            -87.674622,
            42.020342,
            186.25
          ],
          [
            -87.674345,
            42.020186,
            186
          ],
          [
            -87.674253,
            42.020137,
            186
          ],
          [
            -87.67415,
            42.020081,
            185.75
          ],
          [
            -87.67413,
            42.02007,
            185.75
          ],
          [
            -87.673956,
            42.019975,
            185.75
          ],
          [
            -87.673805,
            42.019887,
            185.75
          ],
          [
            -87.673594,
            42.019741,
            185.5
          ],
          [
            -87.673496,
            42.019657,
            185.5
          ],
          [
            -87.673285,
            42.019485,
            185.25
          ],
          [
            -87.672897,
            42.019162,
            184.25
          ],
          [
            -87.672334,
            42.018687,
            183.5
          ]
        ]
      }
    }
  ]
}