{
  "type": "FeatureCollection",
  "features": [
    {
      "type": "Feature",
      "properties": {
        "creator": "BRouter-1.7.0",
        "name": "[CTA] Pink Line",
        "track-length": "30916",
        "filtered ascend": "16",
        "plain-ascend": "4",
        "total-time": "2473",
        "total-energy": "1359007",
        "cost": "61832",
        "messages": [
          [
            "Longitude",
            "Latitude",
            "Elevation",
            "Distance",
            "CostPerKm",
            "ElevCost",
            "TurnCost",
            "NodeCost",
            "InitialCost",
            "WayTags",
            "NodeTags",
            "Time",
            "Energy"
          ],
          [
            "-87758503",
            "41851797",
            "186",
            "15",
            "2000",
            "0",
            "0",
            "0",
            "0",
            "reversedirection=yes railway=subway",
            "railway=unknown",
            "1",
            "659"
          ],
          [
            "-87756793",
            "41851824",
            "187",
            "142",
            "2000",
            "0",
            "0",
            "0",
            "0",
            "reversedirection=yes railway=subway",
            "railway=switch",
            "12",
            "7909"
          ],
          [
            "-87756324",
            "41851829",
            "187",
            "19",
            "2000",
            "0",
            "0",
            "0",
            "0",
            "railway=subway",
            "",
            "14",
            "8801"
          ],
          [
            "-87756324",
            "41851829",
            "187",
            "20",
            "2000",
            "0",
            "0",
            "0",
            "0",
            "railway=subway",
            "railway=switch",
            "1",
            "879"
          ],
          [
            "-87754554",
            "41851850",
            "188",
            "147",
            "2000",
            "0",
            "0",
            "0",
            "0",
            "railway=subway",
            "railway=unknown",
            "13",
            "7685"
          ],
          [
            "-87754239",
            "41851855",
            "187",
            "26",
            "2000",
            "0",
            "0",
            "0",
            "0",
            "railway=subway",
            "railway=crossing",
            "15",
            "8751"
          ],
          [
            "-87754110",
            "41851857",
            "187",
            "11",
            "2000",
            "0",
            "0",
            "0",
            "0",
            "railway=subway",
            "railway=level_crossing",
            "16",
            "9184"
          ],
          [
            "-87753975",
            "41851858",
            "187",
            "11",
            "2000",
            "0",
            "0",
            "0",
            "0",
            "railway=subway",
            "railway=crossing",
            "17",
            "9600"
          ],
          [
            "-87750338",
            "41851857",
            "184",
            "302",
            "2000",
            "0",
            "0",
            "0",
            "0",
            "railway=subway",
            "railway=switch",
            "41",
            "20060"
          ],
          [
            "-87749644",
            "41851866",
            "184",
            "30",
            "2000",
            "0",
            "0",
            "0",
            "0",
            "railway=subway",
            "",
            "43",
            "21273"
          ],
          [
            "-87749644",
            "41851866",
            "184",
            "27",
            "2000",
            "0",
            "0",
            "0",
            "0",
            "railway=subway",
            "railway=switch",
            "2",
            "1187"
          ],
          [
            "-87749310",
            "41851866",
            "184",
            "28",
            "2000",
            "0",
            "0",
            "0",
            "0",
            "railway=subway",
            "railway=crossing",
            "4",
            "2473"
          ],
          [
            "-87749192",
            "41851869",
            "184",
            "10",
            "2000",
            "0",
            "0",
            "0",
            "0",
            "railway=subway",
            "railway=level_crossing",
            "5",
            "2928"
          ],
          [
            "-87749093",
            "41851870",
            "184",
            "8",
            "2000",
            "0",
            "0",
            "0",
            "0",
            "railway=subway",
            "railway=crossing",
            "5",
            "3309"
          ],
          [
            "-87746847",
            "41851855",
            "186",
            "186",
            "2000",
            "0",
            "0",
            "0",
            "0",
            "railway=subway",
            "railway=crossing",
            "20",
            "12903"
          ],
          [
            "-87746728",
            "41851855",
            "186",
            "10",
            "2000",
            "0",
            "0",
            "0",
            "0",
            "railway=subway",
            "railway=level_crossing",
            "21",
            "13367"
          ],
          [
            "-87746635",
            "41851857",
            "185",
            "8",
            "2000",
            "0",
            "0",
            "0",
            "0",
            "railway=subway",
            "railway=crossing",
            "22",
            "13720"
          ],
          [
            "-87745618",
            "41851866",
            "184",
            "84",
            "2000",
            "0",
            "0",
            "0",
            "0",
            "railway=subway",
            "railway=unknown",
            "28",
            "16918"
          ],
          [
            "-87744420",
            "41851883",
            "184",
            "100",
            "2000",
            "0",
            "0",
            "0",
            "0",
            "railway=subway",
            "railway=crossing",
            "36",
            "20938"
          ],
          [
            "-87744303",
            "41851884",
            "184",
            "10",
            "2000",
            "0",
            "0",
            "0",
            "0",
            "railway=subway",
            "railway=level_crossing",
            "37",
            "21378"
          ],
          [
            "-87744156",
            "41851887",
            "184",
            "12",
            "2000",
            "0",
            "0",
            "0",
            "0",
            "railway=subway",
            "railway=crossing",
            "38",
            "21906"
          ],
          [
            "-87743193",
            "41851902",
            "184",
            "80",
            "2000",
            "0",
            "0",
            "0",
            "0",
            "railway=subway",
            "railway=crossing",
            "45",
            "25060"
          ],
          [
            "-87743068",
            "41851904",
            "184",
            "10",
            "2000",
            "0",
            "0",
            "0",
            "0",
            "railway=subway",
            "railway=level_crossing",
            "45",
            "25472"
          ],
          [
            "-87742967",
            "41851907",
            "184",
            "8",
            "2000",
            "0",
            "0",
            "0",
            "0",
            "railway=subway",
            "railway=crossing",
            "46",
            "25803"
          ],
          [
            "-87741959",
            "41851968",
            "182",
            "84",
            "2000",
            "0",
            "0",
            "0",
            "0",
            "railway=subway",
            "railway=crossing",
            "53",
            "28965"
          ],
          [
            "-87741841",
            "41851972",
            "182",
            "10",
            "2000",
            "0",
            "0",
            "0",
            "0",
            "railway=subway",
            "railway=level_crossing",
            "53",
            "29306"
          ],
          [
            "-87741741",
            "41851974",
            "182",
            "8",
            "2000",
            "0",
            "0",
            "0",
            "0",
            "railway=subway",
            "railway=crossing",
            "54",
            "29585"
          ],
          [
            "-87737087",
            "41852230",
            "183",
            "392",
            "2000",
            "0",
            "0",
            "0",
            "0",
            "railway=subway",
            "railway=crossing",
            "85",
            "47733"
          ],
          [
            "-87736954",
            "41852294",
            "183",
            "13",
            "2000",
            "0",
            "0",
            "0",
            "0",
            "railway=subway",
            "railway=level_crossing",
            "87",
            "48196"
          ],
          [
            "-87736863",
            "41852361",
            "183",
            "11",
            "2000",
            "0",
            "0",
            "0",
            "0",
            "railway=subway",
            "railway=crossing",
            "87",
            "48576"
          ],
          [
            "-87736545",
            "41852654",
            "183",
            "42",
            "2000",
            "0",
            "0",
            "0",
            "0",
            "railway=subway",
            "railway=switch",
            "91",
            "50039"
          ],
          [
            "-87736385",
            "41852854",
            "183",
            "26",
            "2000",
            "0",
            "0",
            "0",
            "0",
            "railway=subway",
            "railway=unknown",
            "93",
            "51065"
          ],
          [
            "-87736166",
            "41853051",
            "183",
            "28",
            "2000",
            "0",
            "0",
            "0",
            "0",
            "railway=subway",
            "railway=switch",
            "95",
            "52254"
          ],
          [
            "-87734689",
            "41853693",
            "184",
            "149",
            "2000",
            "0",
            "0",
            "0",
            "0",
            "railway=subway",
            "railway=crossing",
            "107",
            "59200"
          ],
          [
            "-87734588",
            "41853695",
            "183",
            "8",
            "2000",
            "0",
            "0",
            "0",
            "0",
            "railway=subway",
            "railway=level_crossing",
            "108",
            "59529"
          ],
          [
            "-87734473",
            "41853696",
            "183",
            "10",
            "2000",
            "0",
            "0",
            "0",
            "0",
            "railway=subway",
            "railway=crossing",
            "108",
            "59921"
          ],
          [
            "-87733201",
            "41853710",
            "184",
            "106",
            "2000",
            "0",
            "0",
            "0",
            "0",
            "railway=subway",
            "railway=unknown",
            "117",
            "64863"
          ],
          [
            "-87732208",
            "41853729",
            "184",
            "82",
            "2000",
            "0",
            "0",
            "0",
            "0",
            "railway=subway",
            "railway=crossing",
            "123",
            "68429"
          ],
          [
            "-87732140",
            "41853730",
            "184",
            "6",
            "2000",
            "0",
            "0",
            "0",
            "0",
            "railway=subway",
            "railway=level_crossing",
            "124",
            "68691"
          ],
          [
            "-87732070",
            "41853732",
            "184",
            "6",
            "2000",
            "0",
            "0",
            "0",
            "0",
            "railway=subway",
            "railway=crossing",
            "124",
            "68953"
          ],
          [
            "-87724112",
            "41853816",
            "-8192",
            "661",
            "2000",
            "0",
            "0",
            "0",
            "0",
            "railway=subway",
            "railway=unknown",
            "177",
            "98439"
          ],
          [
            "-87722093",
            "41853845",
            "-8192",
            "168",
            "2000",
            "0",
            "0",
            "0",
            "0",
            "railway=subway",
            "railway=switch",
            "191",
            "105830"
          ],
          [
            "-87717496",
            "41853921",
            "-8192",
            "181",
            "2000",
            "0",
            "0",
            "0",
            "0",
            "railway=subway",
            "",
            "205",
            "113792"
          ],
          [
            "-87717496",
            "41853921",
            "-8192",
            "201",
            "2000",
            "0",
            "0",
            "0",
            "0",
            "railway=subway",
            "railway=switch",
            "16",
            "8841"
          ],
          [
            "-87715135",
            "41853957",
            "-8192",
            "196",
            "2000",
            "0",
            "0",
            "0",
            "0",
            "railway=subway",
            "railway=unknown",
            "31",
            "17462"
          ],
          [
            "-87705738",
            "41854091",
            "-8192",
            "781",
            "2000",
            "0",
            "0",
            "0",
            "0",
            "railway=subway",
            "railway=unknown",
            "94",
            "51814"
          ],
          [
            "-87702590",
            "41854143",
            "-8192",
            "262",
            "2000",
            "0",
            "0",
            "0",
            "0",
            "railway=subway",
            "railway=switch",
            "115",
            "63338"
          ],
          [
            "-87702130",
            "41854149",
            "-8192",
            "20",
            "2000",
            "0",
            "0",
            "0",
            "0",
            "railway=subway",
            "",
            "116",
            "64218"
          ],
          [
            "-87702130",
            "41854149",
            "-8192",
            "18",
            "2000",
            "0",
            "0",
            "0",
            "0",
            "railway=subway",
            "railway=switch",
            "1",
            "791"
          ],
          [
            "-87694725",
            "41854246",
            "-8192",
            "615",
            "2000",
            "0",
            "0",
            "0",
            "0",
            "railway=subway",
            "railway=unknown",
            "50",
            "27842"
          ],
          [
            "-87684900",
            "41854328",
            "-8192",
            "816",
            "2000",
            "0",
            "0",
            "0",
            "0",
            "railway=subway",
            "railway=unknown",
            "115",
            "63734"
          ],
          [
            "-87679946",
            "41854457",
            "-8192",
            "411",
            "2000",
            "0",
            "0",
            "0",
            "0",
            "railway=subway",
            "railway=switch",
            "148",
            "81812"
          ],
          [
            "-87679485",
            "41854460",
            "-8192",
            "38",
            "2000",
            "0",
            "0",
            "0",
            "0",
            "railway=subway",
            "railway=switch",
            "151",
            "83484"
          ],
          [
            "-87676797",
            "41854456",
            "-8192",
            "223",
            "2000",
            "0",
            "0",
            "0",
            "0",
            "railway=subway",
            "railway=unknown",
            "169",
            "93292"
          ],
          [
            "-87669314",
            "41854852",
            "-8192",
            "630",
            "2000",
            "0",
            "0",
            "0",
            "0",
            "railway=subway",
            "",
            "220",
            "121003"
          ],
          [
            "-87669176",
            "41857957",
            "-8192",
            "350",
            "2000",
            "0",
            "0",
            "0",
            "0",
            "railway=subway",
            "railway=unknown",
            "28",
            "15394"
          ],
          [
            "-87669194",
            "41858607",
            "-8192",
            "72",
            "2000",
            "0",
            "0",
            "0",
            "0",
            "railway=subway",
            "railway=switch",
            "33",
            "18561"
          ],
          [
            "-87669200",
            "41858959",
            "-8192",
            "39",
            "2000",
            "0",
            "0",
            "0",
            "0",
            "railway=subway",
            "railway=switch",
            "36",
            "20277"
          ],
          [
            "-87669552",
            "41871388",
            "-8192",
            "1203",
            "2000",
            "0",
            "0",
            "0",
            "0",
            "railway=subway",
            "",
            "133",
            "73191"
          ],
          [
            "-87669552",
            "41871388",
            "-8192",
            "177",
            "2000",
            "0",
            "0",
            "0",
            "0",
            "railway=subway",
            "railway=unknown",
            "14",
            "7785"
          ],
          [
            "-87669645",
            "41874927",
            "-8192",
            "393",
            "2000",
            "0",
            "0",
            "0",
            "0",
            "railway=subway",
            "railway=switch",
            "45",
            "23118"
          ],
          [
            "-87669660",
            "41875177",
            "-8192",
            "28",
            "2000",
            "0",
            "0",
            "0",
            "0",
            "railway=subway",
            "railway=unknown",
            "47",
            "24288"
          ],
          [
            "-87669223",
            "41885235",
            "-8192",
            "1163",
            "2000",
            "0",
            "0",
            "0",
            "0",
            "railway=subway",
            "railway=switch",
            "140",
            "75250"
          ],
          [
            "-87669078",
            "41885240",
            "-8192",
            "12",
            "2000",
            "0",
            "0",
            "0",
            "0",
            "railway=subway",
            "railway=switch",
            "141",
            "75778"
          ],
          [
            "-87667920",
            "41885282",
            "-8192",
            "96",
            "2000",
            "0",
            "0",
            "0",
            "0",
            "railway=subway",
            "railway=switch",
            "149",
            "80001"
          ],
          [
            "-87666490",
            "41885320",
            "-8192",
            "119",
            "2000",
            "0",
            "0",
            "0",
            "0",
            "railway=subway",
            "railway=unknown",
            "159",
            "85235"
          ],
          [
            "-87651031",
            "41885592",
            "-8192",
            "1284",
            "2000",
            "0",
            "0",
            "0",
            "0",
            "railway=subway",
            "railway=unknown",
            "261",
            "139063"
          ],
          [
            "-87642678",
            "41885697",
            "-8192",
            "690",
            "2000",
            "0",
            "0",
            "0",
            "0",
            "railway=subway",
            "",
            "316",
            "169413"
          ],
          [
            "-87642678",
            "41885697",
            "-8192",
            "4",
            "2000",
            "0",
            "0",
            "0",
            "0",
            "railway=subway",
            "railway=switch",
            "0",
            "175"
          ],
          [
            "-87641821",
            "41885699",
            "-8192",
            "71",
            "2000",
            "0",
            "0",
            "0",
            "0",
            "railway=subway",
            "railway=unknown",
            "6",
            "3298"
          ],
          [
            "-87639005",
            "41885695",
            "-8192",
            "234",
            "2000",
            "0",
            "0",
            "0",
            "0",
            "railway=subway",
            "railway=switch",
            "24",
            "13591"
          ],
          [
            "-87635540",
            "41885714",
            "-8192",
            "288",
            "2000",
            "0",
            "0",
            "0",
            "0",
            "railway=subway",
            "railway=switch",
            "47",
            "28631"
          ],
          [
            "-87635265",
            "41885717",
            "-8192",
            "23",
            "2000",
            "0",
            "0",
            "0",
            "0",
            "railway=subway",
            "railway=switch",
            "49",
            "29699"
          ],
          [
            "-87634392",
            "41885720",
            "-8192",
            "73",
            "2000",
            "0",
            "0",
            "0",
            "0",
            "railway=subway",
            "railway=signal",
            "55",
            "33024"
          ],
          [
            "-87634322",
            "41885720",
            "-8192",
            "6",
            "2000",
            "0",
            "0",
            "0",
            "0",
            "railway=subway",
            "railway=switch",
            "55",
            "33294"
          ],
          [
            "-87634099",
            "41885721",
            "-8192",
            "19",
            "2000",
            "0",
            "0",
            "0",
            "0",
            "railway=subway",
            "railway=unknown",
            "57",
            "34147"
          ],
          [
            "-87633972",
            "41885720",
            "-8192",
            "11",
            "2000",
            "0",
            "0",
            "0",
            "0",
            "railway=subway",
            "railway=unknown",
            "58",
            "34640"
          ],
          [
            "-87633928",
            "41885719",
            "-8192",
            "4",
            "2000",
            "0",
            "0",
            "0",
            "0",
            "railway=subway",
            "railway=unknown",
            "58",
            "34818"
          ],
          [
            "-87633808",
            "41885720",
            "-8192",
            "10",
            "2000",
            "0",
            "0",
            "0",
            "0",
            "railway=subway",
            "railway=unknown",
            "59",
            "35265"
          ],
          [
            "-87633682",
            "41885721",
            "-8192",
            "10",
            "2000",
            "0",
            "0",
            "0",
            "0",
            "railway=subway",
            "railway=switch",
            "60",
            "35711"
          ],
          [
            "-87633563",
            "41885721",
            "-8192",
            "10",
            "2000",
            "0",
            "0",
            "0",
            "0",
            "railway=subway",
            "railway=switch",
            "61",
            "36156"
          ],
          [
            "-87633533",
            "41885721",
            "-8192",
            "2",
            "2000",
            "0",
            "0",
            "0",
            "0",
            "railway=subway",
            "railway=signal",
            "61",
            "36245"
          ],
          [
            "-87633269",
            "41885721",
            "-8192",
            "22",
            "2000",
            "0",
            "0",
            "0",
            "0",
            "railway=subway",
            "railway=switch",
            "62",
            "37223"
          ],
          [
            "-87632822",
            "41885721",
            "-8192",
            "37",
            "2000",
            "0",
            "0",
            "0",
            "0",
            "railway=subway",
            "railway=switch",
            "65",
            "38863"
          ],
          [
            "-87630615",
            "41885730",
            "-8192",
            "183",
            "2000",
            "0",
            "0",
            "0",
            "0",
            "railway=subway",
            "railway=unknown",
            "80",
            "46937"
          ],
          [
            "-87626212",
            "41881915",
            "-8192",
            "505",
            "2000",
            "0",
            "0",
            "0",
            "0",
            "railway=subway",
            "",
            "120",
            "69154"
          ],
          [
            "-87626212",
            "41881915",
            "-8192",
            "268",
            "2000",
            "0",
            "0",
            "0",
            "0",
            "railway=subway",
            "railway=unknown",
            "21",
            "11788"
          ],
          [
            "-87626140",
            "41878943",
            "-8192",
            "330",
            "2000",
            "0",
            "0",
            "0",
            "0",
            "railway=subway",
            "railway=unknown",
            "47",
            "26303"
          ],
          [
            "-87626114",
            "41877932",
            "-8192",
            "112",
            "2000",
            "0",
            "0",
            "0",
            "0",
            "railway=subway",
            "railway=switch",
            "56",
            "31229"
          ],
          [
            "-87626114",
            "41877889",
            "-8192",
            "5",
            "2000",
            "0",
            "0",
            "0",
            "0",
            "railway=subway",
            "railway=switch",
            "57",
            "31449"
          ],
          [
            "-87626101",
            "41877237",
            "-8192",
            "72",
            "2000",
            "0",
            "0",
            "0",
            "0",
            "railway=subway",
            "railway=switch",
            "62",
            "34616"
          ],
          [
            "-87626451",
            "41876990",
            "-8192",
            "45",
            "2000",
            "0",
            "0",
            "0",
            "0",
            "railway=subway",
            "railway=switch",
            "66",
            "36595"
          ],
          [
            "-87627026",
            "41876983",
            "-8192",
            "48",
            "2000",
            "0",
            "0",
            "0",
            "0",
            "railway=subway",
            "railway=switch",
            "70",
            "38707"
          ],
          [
            "-87629754",
            "41876915",
            "-8192",
            "227",
            "2000",
            "0",
            "0",
            "0",
            "0",
            "railway=subway",
            "railway=unknown",
            "88",
            "48691"
          ],
          [
            "-87632159",
            "41876888",
            "-8192",
            "199",
            "2000",
            "0",
            "0",
            "0",
            "0",
            "railway=subway",
            "railway=unknown",
            "104",
            "57444"
          ],
          [
            "-87633371",
            "41876873",
            "-8192",
            "72",
            "2000",
            "0",
            "0",
            "0",
            "0",
            "railway=subway",
            "",
            "110",
            "60611"
          ],
          [
            "-87633756",
            "41879300",
            "-8192",
            "314",
            "2000",
            "0",
            "0",
            "0",
            "0",
            "railway=subway",
            "railway=unknown",
            "25",
            "13811"
          ],
          [
            "-87633853",
            "41882978",
            "-8192",
            "409",
            "2000",
            "0",
            "0",
            "0",
            "0",
            "railway=subway",
            "railway=unknown",
            "57",
            "31801"
          ],
          [
            "-87633861",
            "41883193",
            "-8192",
            "24",
            "2000",
            "0",
            "0",
            "0",
            "0",
            "railway=subway",
            "railway=switch",
            "59",
            "32856"
          ],
          [
            "-87633887",
            "41883373",
            "-8192",
            "20",
            "2000",
            "0",
            "0",
            "0",
            "0",
            "reversedirection=yes railway=subway",
            "railway=unknown",
            "61",
            "33736"
          ],
          [
            "-87633869",
            "41883533",
            "-8192",
            "18",
            "2000",
            "0",
            "0",
            "0",
            "0",
            "reversedirection=yes railway=subway",
            "railway=switch",
            "62",
            "34528"
          ],
          [
            "-87633917",
            "41885444",
            "-8192",
            "117",
            "2000",
            "0",
            "0",
            "0",
            "0",
            "railway=subway",
            "",
            "72",
            "39674"
          ],
          [
            "-87633917",
            "41885444",
            "-8192",
            "95",
            "2000",
            "0",
            "0",
            "0",
            "0",
            "railway=subway",
            "railway=signal",
            "7",
            "4178"
          ],
          [
            "-87633918",
            "41885487",
            "-8192",
            "5",
            "2000",
            "0",
            "0",
            "0",
            "0",
            "railway=subway",
            "railway=switch",
            "8",
            "4398"
          ],
          [
            "-87633922",
            "41885534",
            "-8192",
            "5",
            "2000",
            "0",
            "0",
            "0",
            "0",
            "railway=subway",
            "railway=switch",
            "8",
            "4618"
          ],
          [
            "-87633946",
            "41885591",
            "-8192",
            "7",
            "2000",
            "0",
            "0",
            "0",
            "0",
            "railway=subway",
            "railway=unknown",
            "8",
            "4926"
          ],
          [
            "-87633970",
            "41885629",
            "-8192",
            "5",
            "2000",
            "0",
            "0",
            "0",
            "0",
            "railway=subway",
            "railway=unknown",
            "9",
            "5146"
          ],
          [
            "-87634099",
            "41885721",
            "-8192",
            "15",
            "2000",
            "0",
            "0",
            "0",
            "0",
            "railway=subway",
            "railway=unknown",
            "10",
            "5806"
          ],
          [
            "-87634250",
            "41885750",
            "-8192",
            "13",
            "2000",
            "0",
            "0",
            "0",
            "0",
            "railway=subway",
            "railway=switch",
            "11",
            "6377"
          ],
          [
            "-87634269",
            "41885750",
            "-8192",
            "2",
            "2000",
            "0",
            "0",
            "0",
            "0",
            "railway=subway",
            "railway=signal",
            "11",
            "6465"
          ],
          [
            "-87634574",
            "41885750",
            "-8192",
            "25",
            "2000",
            "0",
            "0",
            "0",
            "0",
            "railway=subway",
            "railway=signal",
            "13",
            "7565"
          ],
          [
            "-87634813",
            "41885750",
            "-8192",
            "20",
            "2000",
            "0",
            "0",
            "0",
            "0",
            "railway=subway",
            "railway=switch",
            "15",
            "8445"
          ],
          [
            "-87636007",
            "41885751",
            "-8192",
            "99",
            "2000",
            "0",
            "0",
            "0",
            "0",
            "railway=subway",
            "railway=switch",
            "23",
            "12799"
          ],
          [
            "-87636610",
            "41885747",
            "-8192",
            "50",
            "2000",
            "0",
            "0",
            "0",
            "0",
            "railway=subway",
            "railway=switch",
            "27",
            "14998"
          ],
          [
            "-87641824",
            "41885734",
            "-8192",
            "434",
            "2000",
            "0",
            "0",
            "0",
            "0",
            "railway=subway",
            "railway=unknown",
            "61",
            "31711"
          ],
          [
            "-87643179",
            "41885729",
            "-8192",
            "113",
            "2000",
            "0",
            "0",
            "0",
            "0",
            "railway=subway",
            "railway=switch",
            "71",
            "36647"
          ],
          [
            "-87648170",
            "41885676",
            "-8192",
            "57",
            "2000",
            "0",
            "0",
            "0",
            "0",
            "railway=subway",
            "",
            "75",
            "39147"
          ],
          [
            "-87652360",
            "41885604",
            "-8192",
            "705",
            "2000",
            "0",
            "0",
            "0",
            "0",
            "railway=subway",
            "railway=unknown",
            "56",
            "31009"
          ],
          [
            "-87666482",
            "41885356",
            "-8192",
            "1173",
            "2000",
            "0",
            "0",
            "0",
            "0",
            "railway=subway",
            "railway=unknown",
            "150",
            "82604"
          ],
          [
            "-87668359",
            "41885296",
            "-8192",
            "156",
            "2000",
            "0",
            "0",
            "0",
            "0",
            "railway=subway",
            "railway=switch",
            "162",
            "89465"
          ],
          [
            "-87668608",
            "41885288",
            "-8192",
            "21",
            "2000",
            "0",
            "0",
            "0",
            "0",
            "railway=subway",
            "railway=switch",
            "164",
            "90389"
          ],
          [
            "-87669249",
            "41885265",
            "-8192",
            "43",
            "2000",
            "0",
            "0",
            "0",
            "0",
            "railway=subway",
            "",
            "167",
            "92281"
          ],
          [
            "-87669249",
            "41885265",
            "-8192",
            "11",
            "2000",
            "0",
            "0",
            "0",
            "0",
            "railway=subway",
            "railway=switch",
            "0",
            "483"
          ],
          [
            "-87669567",
            "41885222",
            "-8192",
            "27",
            "2000",
            "0",
            "0",
            "0",
            "0",
            "railway=subway",
            "railway=unknown",
            "3",
            "1671"
          ],
          [
            "-87670062",
            "41878635",
            "-8192",
            "340",
            "2000",
            "0",
            "0",
            "0",
            "0",
            "railway=subway",
            "",
            "30",
            "16626"
          ],
          [
            "-87669696",
            "41874953",
            "-8192",
            "829",
            "2000",
            "0",
            "0",
            "0",
            "0",
            "railway=subway",
            "railway=switch",
            "66",
            "36463"
          ],
          [
            "-87669601",
            "41871389",
            "-8192",
            "396",
            "2000",
            "0",
            "0",
            "0",
            "0",
            "railway=subway",
            "railway=unknown",
            "97",
            "56695"
          ],
          [
            "-87669326",
            "41861480",
            "-8192",
            "118",
            "2000",
            "0",
            "0",
            "0",
            "0",
            "railway=subway",
            "",
            "107",
            "61924"
          ],
          [
            "-87669244",
            "41858956",
            "-8192",
            "1263",
            "2000",
            "0",
            "0",
            "0",
            "0",
            "railway=subway",
            "railway=switch",
            "101",
            "55553"
          ],
          [
            "-87669237",
            "41858607",
            "-8192",
            "39",
            "2000",
            "0",
            "0",
            "0",
            "0",
            "railway=subway",
            "railway=switch",
            "104",
            "57268"
          ],
          [
            "-87669215",
            "41857958",
            "-8192",
            "72",
            "2000",
            "0",
            "0",
            "0",
            "0",
            "railway=subway",
            "railway=unknown",
            "109",
            "60435"
          ],
          [
            "-87669524",
            "41854755",
            "-8192",
            "365",
            "2000",
            "0",
            "0",
            "0",
            "0",
            "railway=subway",
            "",
            "139",
            "76490"
          ],
          [
            "-87676802",
            "41854536",
            "-8192",
            "609",
            "2000",
            "0",
            "0",
            "0",
            "0",
            "railway=subway",
            "railway=unknown",
            "48",
            "26787"
          ],
          [
            "-87679486",
            "41854497",
            "-8192",
            "223",
            "2000",
            "0",
            "0",
            "0",
            "0",
            "railway=subway",
            "railway=switch",
            "66",
            "36595"
          ],
          [
            "-87679947",
            "41854494",
            "-8192",
            "38",
            "2000",
            "0",
            "0",
            "0",
            "0",
            "railway=subway",
            "railway=switch",
            "69",
            "38267"
          ],
          [
            "-87684906",
            "41854424",
            "-8192",
            "412",
            "2000",
            "0",
            "0",
            "0",
            "0",
            "railway=subway",
            "railway=unknown",
            "102",
            "56389"
          ],
          [
            "-87694731",
            "41854343",
            "-8192",
            "816",
            "2000",
            "0",
            "0",
            "0",
            "0",
            "railway=subway",
            "railway=unknown",
            "167",
            "92281"
          ],
          [
            "-87702132",
            "41854186",
            "-8192",
            "614",
            "2000",
            "0",
            "0",
            "0",
            "0",
            "railway=subway",
            "railway=switch",
            "216",
            "119287"
          ],
          [
            "-87702590",
            "41854180",
            "-8192",
            "38",
            "2000",
            "0",
            "0",
            "0",
            "0",
            "railway=subway",
            "railway=switch",
            "220",
            "120959"
          ],
          [
            "-87703116",
            "41854171",
            "-8192",
            "37",
            "2000",
            "0",
            "0",
            "0",
            "0",
            "railway=subway",
            "",
            "222",
            "122586"
          ],
          [
            "-87705741",
            "41854197",
            "-8192",
            "225",
            "2000",
            "0",
            "0",
            "0",
            "0",
            "railway=subway",
            "railway=unknown",
            "18",
            "9896"
          ],
          [
            "-87715139",
            "41854050",
            "-8192",
            "781",
            "2000",
            "0",
            "0",
            "0",
            "0",
            "railway=subway",
            "railway=unknown",
            "80",
            "44249"
          ],
          [
            "-87717584",
            "41854017",
            "-8192",
            "203",
            "2000",
            "0",
            "0",
            "0",
            "0",
            "railway=subway",
            "railway=switch",
            "96",
            "53178"
          ],
          [
            "-87721206",
            "41853933",
            "-8192",
            "272",
            "2000",
            "0",
            "0",
            "0",
            "0",
            "railway=subway",
            "",
            "118",
            "65142"
          ],
          [
            "-87722576",
            "41853944",
            "-8192",
            "144",
            "2000",
            "0",
            "0",
            "0",
            "0",
            "railway=subway",
            "railway=switch",
            "11",
            "6333"
          ],
          [
            "-87724116",
            "41853923",
            "-8192",
            "128",
            "2000",
            "0",
            "0",
            "0",
            "0",
            "railway=subway",
            "railway=unknown",
            "21",
            "11963"
          ],
          [
            "-87732073",
            "41853805",
            "184",
            "661",
            "2000",
            "0",
            "0",
            "0",
            "0",
            "railway=subway",
            "railway=crossing",
            "74",
            "40478"
          ],
          [
            "-87732142",
            "41853804",
            "184",
            "6",
            "2000",
            "0",
            "0",
            "0",
            "0",
            "railway=subway",
            "railway=level_crossing",
            "75",
            "40736"
          ],
          [
            "-87732210",
            "41853803",
            "184",
            "6",
            "2000",
            "0",
            "0",
            "0",
            "0",
            "railway=subway",
            "railway=crossing",
            "75",
            "41007"
          ],
          [
            "-87733203",
            "41853786",
            "184",
            "82",
            "2000",
            "0",
            "0",
            "0",
            "0",
            "railway=subway",
            "railway=unknown",
            "82",
            "44679"
          ],
          [
            "-87734475",
            "41853771",
            "183",
            "106",
            "2000",
            "0",
            "0",
            "0",
            "0",
            "railway=subway",
            "railway=crossing",
            "90",
            "49087"
          ],
          [
            "-87734590",
            "41853770",
            "184",
            "10",
            "2000",
            "0",
            "0",
            "0",
            "0",
            "railway=subway",
            "railway=level_crossing",
            "91",
            "49535"
          ],
          [
            "-87734691",
            "41853764",
            "184",
            "8",
            "2000",
            "0",
            "0",
            "0",
            "0",
            "railway=subway",
            "railway=crossing",
            "92",
            "49910"
          ],
          [
            "-87736208",
            "41853075",
            "183",
            "154",
            "2000",
            "0",
            "0",
            "0",
            "0",
            "railway=subway",
            "railway=switch",
            "104",
            "56698"
          ],
          [
            "-87736583",
            "41852675",
            "183",
            "54",
            "2000",
            "0",
            "0",
            "0",
            "0",
            "railway=subway",
            "railway=switch",
            "108",
            "58722"
          ],
          [
            "-87736864",
            "41852419",
            "183",
            "38",
            "2000",
            "0",
            "0",
            "0",
            "0",
            "railway=subway",
            "railway=crossing",
            "111",
            "60263"
          ],
          [
            "-87736955",
            "41852345",
            "183",
            "11",
            "2000",
            "0",
            "0",
            "0",
            "0",
            "railway=subway",
            "railway=level_crossing",
            "112",
            "60755"
          ],
          [
            "-87737089",
            "41852275",
            "183",
            "14",
            "2000",
            "0",
            "0",
            "0",
            "0",
            "railway=subway",
            "railway=crossing",
            "113",
            "61409"
          ],
          [
            "-87741742",
            "41852005",
            "182",
            "392",
            "2000",
            "0",
            "0",
            "0",
            "0",
            "railway=subway",
            "railway=crossing",
            "145",
            "78280"
          ],
          [
            "-87741842",
            "41852003",
            "182",
            "8",
            "2000",
            "0",
            "0",
            "0",
            "0",
            "railway=subway",
            "railway=level_crossing",
            "145",
            "78595"
          ],
          [
            "-87741960",
            "41852001",
            "182",
            "10",
            "2000",
            "0",
            "0",
            "0",
            "0",
            "railway=subway",
            "railway=crossing",
            "146",
            "79014"
          ],
          [
            "-87742969",
            "41851981",
            "184",
            "84",
            "2000",
            "0",
            "0",
            "0",
            "0",
            "railway=subway",
            "railway=crossing",
            "153",
            "83223"
          ],
          [
            "-87743070",
            "41851979",
            "184",
            "8",
            "2000",
            "0",
            "0",
            "0",
            "0",
            "railway=subway",
            "railway=level_crossing",
            "153",
            "83621"
          ],
          [
            "-87743195",
            "41851978",
            "184",
            "10",
            "2000",
            "0",
            "0",
            "0",
            "0",
            "railway=subway",
            "railway=crossing",
            "154",
            "84115"
          ],
          [
            "-87744158",
            "41851968",
            "184",
            "80",
            "2000",
            "0",
            "0",
            "0",
            "0",
            "railway=subway",
            "railway=crossing",
            "161",
            "88158"
          ],
          [
            "-87744305",
            "41851966",
            "184",
            "12",
            "2000",
            "0",
            "0",
            "0",
            "0",
            "railway=subway",
            "railway=level_crossing",
            "162",
            "88734"
          ],
          [
            "-87744423",
            "41851965",
            "184",
            "10",
            "2000",
            "0",
            "0",
            "0",
            "0",
            "railway=subway",
            "railway=crossing",
            "162",
            "89189"
          ],
          [
            "-87745611",
            "41851955",
            "185",
            "99",
            "2000",
            "0",
            "0",
            "0",
            "0",
            "railway=subway",
            "railway=unknown",
            "170",
            "93911"
          ],
          [
            "-87746639",
            "41851943",
            "185",
            "85",
            "2000",
            "0",
            "0",
            "0",
            "0",
            "railway=subway",
            "railway=crossing",
            "177",
            "98154"
          ],
          [
            "-87746731",
            "41851942",
            "186",
            "8",
            "2000",
            "0",
            "0",
            "0",
            "0",
            "railway=subway",
            "railway=level_crossing",
            "178",
            "98551"
          ],
          [
            "-87746850",
            "41851941",
            "186",
            "10",
            "2000",
            "0",
            "0",
            "0",
            "0",
            "railway=subway",
            "railway=crossing",
            "179",
            "99044"
          ],
          [
            "-87749094",
            "41851933",
            "184",
            "187",
            "2000",
            "0",
            "0",
            "0",
            "0",
            "railway=subway",
            "railway=crossing",
            "194",
            "107091"
          ],
          [
            "-87749194",
            "41851932",
            "184",
            "8",
            "2000",
            "0",
            "0",
            "0",
            "0",
            "railway=subway",
            "railway=level_crossing",
            "194",
            "107394"
          ],
          [
            "-87749312",
            "41851929",
            "184",
            "10",
            "2000",
            "0",
            "0",
            "0",
            "0",
            "railway=subway",
            "railway=crossing",
            "195",
            "107776"
          ],
          [
            "-87749641",
            "41851925",
            "184",
            "27",
            "2000",
            "0",
            "0",
            "0",
            "0",
            "railway=subway",
            "railway=switch",
            "197",
            "108784"
          ],
          [
            "-87750335",
            "41851914",
            "184",
            "27",
            "2000",
            "0",
            "0",
            "0",
            "0",
            "railway=subway",
            "",
            "199",
            "109781"
          ],
          [
            "-87750335",
            "41851914",
            "184",
            "30",
            "2000",
            "0",
            "0",
            "0",
            "0",
            "railway=subway",
            "railway=switch",
            "2",
            "1319"
          ],
          [
            "-87753976",
            "41851894",
            "187",
            "302",
            "2000",
            "0",
            "0",
            "0",
            "0",
            "railway=subway",
            "railway=crossing",
            "26",
            "17128"
          ],
          [
            "-87754111",
            "41851893",
            "187",
            "11",
            "2000",
            "0",
            "0",
            "0",
            "0",
            "railway=subway",
            "railway=level_crossing",
            "27",
            "17648"
          ],
          [
            "-87754240",
            "41851891",
            "187",
            "11",
            "2000",
            "0",
            "0",
            "0",
            "0",
            "railway=subway",
            "railway=crossing",
            "28",
            "18187"
          ],
          [
            "-87756333",
            "41851864",
            "187",
            "174",
            "2000",
            "0",
            "0",
            "0",
            "0",
            "railway=subway",
            "railway=switch",
            "42",
            "26413"
          ],
          [
            "-87756570",
            "41851843",
            "187",
            "20",
            "2000",
            "0",
            "0",
            "0",
            "0",
            "railway=subway",
            "railway=unknown",
            "43",
            "27274"
          ],
          [
            "-87756793",
            "41851824",
            "187",
            "19",
            "2000",
            "0",
            "0",
            "0",
            "0",
            "railway=subway",
            "railway=switch",
            "45",
            "28096"
          ],
          [
            "-87758503",
            "41851797",
            "186",
            "142",
            "2000",
            "0",
            "0",
            "0",
            "0",
            "railway=subway",
            "railway=unknown",
            "56",
            "33287"
          ],
          [
            "-87758831",
            "41851792",
            "186",
            "15",
            "2000",
            "0",
            "0",
            "0",
            "0",
            "railway=subway",
            "",
            "57",
            "33900"
          ]
        ],
        "times": [
          0,
          1.2,
          12.56,
          14.08,
          15.68,
          27.44,
          29.52,
          30.4,
          31.28,
          42.96,
          46.4,
          52.8,
          55.44,
          57.84,
          60,
          62.24,
          63.04,
          63.68,
          66.88,
          69.76,
          75.44,
          78.56,
          79.36,
          80,
          86.72,
          94.72,
          95.52,
          96.48,
          102.88,
          103.68,
          104.32,
          109.12,
          111.04,
          111.84,
          112.48,
          125.84,
          129.36,
          137.44,
          139.12,
          140.64,
          142.32,
          143.84,
          144.88,
          145.76,
          147.28,
          149.12,
          151.2,
          153.44,
          154.72,
          156.48,
          157.84,
          159.44,
          161.12,
          162.64,
          163.92,
          165.36,
          166,
          166.8,
          175.28,
          181.84,
          182.32,
          182.8,
          185.2,
          188.08,
          190.48,
          197.76,
          221.68,
          229.68,
          235.68,
          249.12,
          263.6,
          279.68,
          295.36,
          338.96,
          357.84,
          369.52,
          378.8,
          380.4,
          381.84,
          420.48,
          424.96,
          431.04,
          440.56,
          445.76,
          477.92,
          483.84,
          486,
          490.48,
          492.4,
          496.32,
          506.48,
          513.84,
          515.76,
          529.2,
          532.24,
          535.04,
          538.56,
          540.8,
          550.08,
          556.4,
          562.96,
          579.52,
          587.92,
          595.12,
          596.48,
          597.68,
          598.64,
          599.52,
          600.48,
          600.56,
          601.44,
          603.2,
          604.08,
          604.88,
          605.76,
          628.48,
          634.24,
          637.36,
          709.36,
          733.6,
          747.76,
          761.92,
          778.64,
          779.2,
          781.44,
          794.24,
          803.68,
          804.8,
          806.24,
          807.04,
          809.04,
          810,
          810.96,
          812.32,
          848.16,
          848.96,
          852.24,
          853.12,
          864.64,
          865.76,
          866.64,
          867.52,
          868.32,
          869.04,
          869.76,
          870.56,
          871.36,
          872.08,
          874.48,
          875.44,
          883.12,
          892.64,
          912.48,
          977.28,
          995.36,
          1027.92,
          1050.56,
          1050.88,
          1056.56,
          1061.6,
          1067.6,
          1070.64,
          1075.28,
          1080.24,
          1087.44,
          1091.2,
          1098.32,
          1100.16,
          1106,
          1106.48,
          1108,
          1108.88,
          1109.2,
          1110,
          1110.8,
          1111.6,
          1111.76,
          1113.52,
          1116.48,
          1131.12,
          1132,
          1156.96,
          1157.52,
          1158.4,
          1158.88,
          1159.28,
          1159.76,
          1160.32,
          1161.04,
          1163.12,
          1171.52,
          1192.96,
          1219.36,
          1228.32,
          1228.72,
          1231.76,
          1234.48,
          1235.12,
          1235.68,
          1236.16,
          1236.72,
          1237.36,
          1238.08,
          1241.92,
          1242.96,
          1248.88,
          1260.08,
          1260.88,
          1265.52,
          1276,
          1281.76,
          1284.08,
          1284.48,
          1284.88,
          1285.28,
          1285.76,
          1286.4,
          1286.8,
          1287.2,
          1306.88,
          1339.6,
          1341.52,
          1343.12,
          1344.56,
          1353.92,
          1361.52,
          1361.92,
          1362.32,
          1362.88,
          1363.28,
          1364,
          1364.48,
          1365.52,
          1365.68,
          1367.68,
          1369.28,
          1373.12,
          1377.2,
          1381.2,
          1384.96,
          1392.16,
          1401.76,
          1404.88,
          1415.92,
          1424.96,
          1429.52,
          1458.08,
          1485.92,
          1579.76,
          1583.68,
          1592.24,
          1593.92,
          1597.36,
          1598.24,
          1599.36,
          1600.4,
          1601.36,
          1602.24,
          1603.12,
          1604,
          1604.72,
          1605.44,
          1606.32,
          1606.96,
          1608.64,
          1620.24,
          1623.36,
          1624.16,
          1625.04,
          1627.6,
          1660.8,
          1662.08,
          1663.36,
          1664.08,
          1664.72,
          1666.48,
          1667.28,
          1667.92,
          1668.56,
          1669.68,
          1672,
          1680.8,
          1693.92,
          1694.08,
          1711.44,
          1718,
          1725.6,
          1735.04,
          1813.68,
          1836.08,
          1839.2,
          1844.96,
          1862.32,
          1868.4,
          1869.2,
          1870.32,
          1871.36,
          1872.32,
          1873.36,
          1874.16,
          1874.24,
          1875.28,
          1876.4,
          1877.6,
          1879.44,
          1884.32,
          1922.88,
          1940.72,
          1943.76,
          1958.16,
          1976.72,
          1995.12,
          1998.88,
          2024.4,
          2030.16,
          2032.48,
          2042,
          2047.6,
          2055.2,
          2068.64,
          2091.12,
          2094.16,
          2097.12,
          2097.68,
          2100.96,
          2105.44,
          2108.96,
          2115.12,
          2124.96,
          2131.12,
          2133.68,
          2158.64,
          2161.36,
          2164.8,
          2168.48,
          2177.6,
          2193.84,
          2202.16,
          2215.6,
          2218,
          2223.36,
          2227.12,
          2237.36,
          2275.28,
          2290.24,
          2290.72,
          2291.2,
          2297.76,
          2306.24,
          2307.04,
          2307.68,
          2309.2,
          2310.48,
          2311.92,
          2313.04,
          2314.56,
          2315.92,
          2317.6,
          2320,
          2324.32,
          2325.36,
          2326.4,
          2327.36,
          2328.24,
          2329.36,
          2330.88,
          2331.68,
          2332.48,
          2333.52,
          2334.4,
          2335.6,
          2343.84,
          2347.36,
          2360.72,
          2361.36,
          2362.16,
          2368.88,
          2369.52,
          2370.32,
          2376.72,
          2377.68,
          2378.48,
          2386.4,
          2393.2,
          2393.84,
          2394.64,
          2397.76,
          2402.64,
          2409.6,
          2410.24,
          2411.04,
          2413.2,
          2415.36,
          2417.76,
          2420.8,
          2426,
          2441.92,
          2442.8,
          2443.68,
          2457.6,
          2459.2,
          2460.72,
          2472.08,
          2473.28
        ]
      },
      "geometry": {
        "type": "LineString",
        "coordinates": [
          [
            -87.75868,
            41.851794,
            186
          ],
          [
            -87.758503,
            41.851797,
            186
          ],
          [
            -87.756793,
            41.851824,
            187.5
          ],
          [
            -87.75657,
            41.851826,
            187.5
          ],
          [
            -87.756324,
            41.851829,
            187.5
          ],
          [
            -87.754554,
            41.85185,
            188
          ],
          [
            -87.754239,
            41.851855,
            187.5
          ],
          [
            -87.75411,
            41.851857,
            187.25
          ],
          [
            -87.753975,
            41.851858,
            187
          ],
          [
            -87.752218,
            41.851882,
            185.25
          ],
          [
            -87.751697,
            41.851884,
            184.75
          ],
          [
            -87.750732,
            41.851848,
            184
          ],
          [
            -87.750338,
            41.851857,
            184
          ],
          [
            -87.749974,
            41.851861,
            184
          ],
          [
            -87.749644,
            41.851866,
            184
          ],
          [
            -87.74931,
            41.851866,
            184.25
          ],
          [
            -87.749192,
            41.851869,
            184.25
          ],
          [
            -87.749093,
            41.85187,
            184.5
          ],
          [
            -87.748607,
            41.851878,
            185.75
          ],
          [
            -87.748173,
            41.851876,
            186.25
          ],
          [
            -87.74732,
            41.851854,
            186
          ],
          [
            -87.746847,
            41.851855,
            186
          ],
          [
            -87.746728,
            41.851855,
            186
          ],
          [
            -87.746635,
            41.851857,
            185.75
          ],
          [
            -87.745618,
            41.851866,
            184.75
          ],
          [
            -87.74442,
            41.851883,
            184.5
          ],
          [
            -87.744303,
            41.851884,
            184.75
          ],
          [
            -87.744156,
            41.851887,
            184.75
          ],
          [
            -87.743193,
            41.851902,
            184
          ],
          [
            -87.743068,
            41.851904,
            184
          ],
          [
            -87.742967,
            41.851907,
            184
          ],
          [
            -87.742251,
            41.851956,
            183.5
          ],
          [
            -87.741959,
            41.851968,
            182.75
          ],
          [
            -87.741841,
            41.851972,
            182.5
          ],
          [
            -87.741741,
            41.851974,
            182.5
          ],
          [
            -87.739733,
            41.852004,
            185.25
          ],
          [
            -87.739202,
            41.852012,
            186.25
          ],
          [
            -87.737991,
            41.852024,
            184.75
          ],
          [
            -87.737742,
            41.852036,
            184.5
          ],
          [
            -87.737519,
            41.852076,
            184.5
          ],
          [
            -87.737288,
            41.85215,
            184
          ],
          [
            -87.737087,
            41.85223,
            183.75
          ],
          [
            -87.736954,
            41.852294,
            183.5
          ],
          [
            -87.736863,
            41.852361,
            183.25
          ],
          [
            -87.736701,
            41.852487,
            183
          ],
          [
            -87.736545,
            41.852654,
            183
          ],
          [
            -87.736385,
            41.852854,
            183.25
          ],
          [
            -87.736166,
            41.853051,
            183.5
          ],
          [
            -87.736055,
            41.853166,
            183.75
          ],
          [
            -87.735886,
            41.853314,
            183.75
          ],
          [
            -87.735738,
            41.85342,
            184
          ],
          [
            -87.735537,
            41.853522,
            184.25
          ],
          [
            -87.735312,
            41.853608,
            184.5
          ],
          [
            -87.735092,
            41.85366,
            184.5
          ],
          [
            -87.734904,
            41.853684,
            184.5
          ],
          [
            -87.734689,
            41.853693,
            184
          ],
          [
            -87.734588,
            41.853695,
            183.75
          ],
          [
            -87.734473,
            41.853696,
            183.5
          ],
          [
            -87.733201,
            41.85371,
            184.5
          ],
          [
            -87.732208,
            41.853729,
            184.25
          ],
          [
            -87.73214,
            41.85373,
            184.25
          ],
          [
            -87.73207,
            41.853732,
            184.25
          ],
          [
            -87.731712,
            41.853742,
            184
          ],
          [
            -87.731278,
            41.85377,
            184
          ],
          [
            -87.730913,
            41.853786,
            184.25
          ],
          [
            -87.729812,
            41.853809,
            184.75
          ],
          [
            -87.726214,
            41.853858
          ],
          [
            -87.725015,
            41.85381
          ],
          [
            -87.724112,
            41.853816
          ],
          [
            -87.722093,
            41.853845
          ],
          [
            -87.71992,
            41.85388
          ],
          [
            -87.717496,
            41.853921
          ],
          [
            -87.715135,
            41.853957
          ],
          [
            -87.708578,
            41.854058
          ],
          [
            -87.705738,
            41.854091
          ],
          [
            -87.703986,
            41.854125
          ],
          [
            -87.70259,
            41.854143
          ],
          [
            -87.702347,
            41.854146,
            180.25
          ],
          [
            -87.70213,
            41.854149,
            180.25
          ],
          [
            -87.69631,
            41.854243,
            180.25
          ],
          [
            -87.695636,
            41.854232,
            180.25
          ],
          [
            -87.694725,
            41.854246
          ],
          [
            -87.69329,
            41.854267
          ],
          [
            -87.692509,
            41.854295
          ],
          [
            -87.687674,
            41.85437
          ],
          [
            -87.68678,
            41.854371
          ],
          [
            -87.686458,
            41.854361
          ],
          [
            -87.685785,
            41.854323
          ],
          [
            -87.685492,
            41.854319
          ],
          [
            -87.6849,
            41.854328
          ],
          [
            -87.683367,
            41.854348
          ],
          [
            -87.682258,
            41.854412
          ],
          [
            -87.681965,
            41.854425
          ],
          [
            -87.679946,
            41.854457
          ],
          [
            -87.679485,
            41.85446
          ],
          [
            -87.679063,
            41.854461
          ],
          [
            -87.678535,
            41.854441
          ],
          [
            -87.678194,
            41.854435
          ],
          [
            -87.676797,
            41.854456
          ],
          [
            -87.675847,
            41.854473
          ],
          [
            -87.674863,
            41.854522
          ],
          [
            -87.672373,
            41.854555
          ],
          [
            -87.671114,
            41.854576
          ],
          [
            -87.670029,
            41.854593
          ],
          [
            -87.669826,
            41.854615
          ],
          [
            -87.669659,
            41.854655
          ],
          [
            -87.669533,
            41.854709
          ],
          [
            -87.669425,
            41.854767
          ],
          [
            -87.669321,
            41.854847
          ],
          [
            -87.669314,
            41.854852
          ],
          [
            -87.669236,
            41.854931
          ],
          [
            -87.669131,
            41.855116
          ],
          [
            -87.669109,
            41.85521
          ],
          [
            -87.669099,
            41.8553
          ],
          [
            -87.669101,
            41.855402
          ],
          [
            -87.669176,
            41.857957
          ],
          [
            -87.669194,
            41.858607
          ],
          [
            -87.6692,
            41.858959
          ],
          [
            -87.669437,
            41.86706
          ],
          [
            -87.66951,
            41.869791,
            194.5
          ],
          [
            -87.669552,
            41.871388,
            194.5
          ],
          [
            -87.669593,
            41.872979,
            194.5
          ],
          [
            -87.669647,
            41.874864,
            189
          ],
          [
            -87.669645,
            41.874927
          ],
          [
            -87.66966,
            41.875177
          ],
          [
            -87.669696,
            41.876621
          ],
          [
            -87.669719,
            41.877679
          ],
          [
            -87.66973,
            41.877804
          ],
          [
            -87.669768,
            41.877966
          ],
          [
            -87.669815,
            41.878052
          ],
          [
            -87.669948,
            41.878256
          ],
          [
            -87.669986,
            41.878358
          ],
          [
            -87.670009,
            41.878468
          ],
          [
            -87.670018,
            41.878624
          ],
          [
            -87.670139,
            41.882655
          ],
          [
            -87.670133,
            41.882748
          ],
          [
            -87.670066,
            41.883117
          ],
          [
            -87.670059,
            41.883219
          ],
          [
            -87.670097,
            41.884516
          ],
          [
            -87.670093,
            41.88464
          ],
          [
            -87.670078,
            41.884736
          ],
          [
            -87.670047,
            41.884828
          ],
          [
            -87.670004,
            41.884912
          ],
          [
            -87.669947,
            41.884981
          ],
          [
            -87.669876,
            41.885047
          ],
          [
            -87.669783,
            41.885105
          ],
          [
            -87.669681,
            41.885151
          ],
          [
            -87.669578,
            41.885181
          ],
          [
            -87.669223,
            41.885235
          ],
          [
            -87.669078,
            41.88524
          ],
          [
            -87.66792,
            41.885282
          ],
          [
            -87.66649,
            41.88532
          ],
          [
            -87.663505,
            41.885379
          ],
          [
            -87.653749,
            41.885543
          ],
          [
            -87.651031,
            41.885592
          ],
          [
            -87.646137,
            41.885663
          ],
          [
            -87.642731,
            41.885696,
            179.25
          ],
          [
            -87.642678,
            41.885697,
            179.25
          ],
          [
            -87.641821,
            41.885699,
            179.25
          ],
          [
            -87.641061,
            41.885705,
            179.25
          ],
          [
            -87.640163,
            41.885709,
            179.25
          ],
          [
            -87.639709,
            41.885696,
            179.25
          ],
          [
            -87.639005,
            41.885695,
            179.25
          ],
          [
            -87.638261,
            41.885697,
            179.25
          ],
          [
            -87.637181,
            41.885699,
            182.25
          ],
          [
            -87.636617,
            41.885714
          ],
          [
            -87.63554,
            41.885714
          ],
          [
            -87.635265,
            41.885717
          ],
          [
            -87.634392,
            41.88572
          ],
          [
            -87.634322,
            41.88572
          ],
          [
            -87.634099,
            41.885721
          ],
          [
            -87.633972,
            41.88572
          ],
          [
            -87.633928,
            41.885719
          ],
          [
            -87.633808,
            41.88572
          ],
          [
            -87.633682,
            41.885721
          ],
          [
            -87.633563,
            41.885721
          ],
          [
            -87.633533,
            41.885721
          ],
          [
            -87.633269,
            41.885721
          ],
          [
            -87.632822,
            41.885721
          ],
          [
            -87.630615,
            41.88573
          ],
          [
            -87.630487,
            41.885732
          ],
          [
            -87.626732,
            41.885748
          ],
          [
            -87.626651,
            41.885747
          ],
          [
            -87.626519,
            41.885731
          ],
          [
            -87.626449,
            41.885709
          ],
          [
            -87.626403,
            41.885686
          ],
          [
            -87.626352,
            41.885643
          ],
          [
            -87.626314,
            41.885585
          ],
          [
            -87.626295,
            41.885507
          ],
          [
            -87.626305,
            41.885274
          ],
          [
            -87.626279,
            41.884325
          ],
          [
            -87.626212,
            41.881915
          ],
          [
            -87.62614,
            41.878943
          ],
          [
            -87.626114,
            41.877932
          ],
          [
            -87.626114,
            41.877889
          ],
          [
            -87.626102,
            41.877546
          ],
          [
            -87.626101,
            41.877237
          ],
          [
            -87.626114,
            41.877167
          ],
          [
            -87.626145,
            41.877106
          ],
          [
            -87.626191,
            41.877066
          ],
          [
            -87.626253,
            41.877028
          ],
          [
            -87.626342,
            41.877002
          ],
          [
            -87.626451,
            41.87699
          ],
          [
            -87.627026,
            41.876983
          ],
          [
            -87.62718,
            41.87698
          ],
          [
            -87.628064,
            41.876934
          ],
          [
            -87.629754,
            41.876915
          ],
          [
            -87.629876,
            41.876912
          ],
          [
            -87.630577,
            41.876901
          ],
          [
            -87.632159,
            41.876888
          ],
          [
            -87.633024,
            41.876877
          ],
          [
            -87.633371,
            41.876873
          ],
          [
            -87.633431,
            41.876877
          ],
          [
            -87.633492,
            41.876891
          ],
          [
            -87.633541,
            41.876909
          ],
          [
            -87.633596,
            41.876942
          ],
          [
            -87.633657,
            41.876995
          ],
          [
            -87.633681,
            41.877038
          ],
          [
            -87.633695,
            41.877083
          ],
          [
            -87.633756,
            41.8793
          ],
          [
            -87.633853,
            41.882978
          ],
          [
            -87.633861,
            41.883193
          ],
          [
            -87.633887,
            41.883373
          ],
          [
            -87.633869,
            41.883533
          ],
          [
            -87.633896,
            41.88459,
            182.25
          ],
          [
            -87.633917,
            41.885444,
            182.25
          ],
          [
            -87.633918,
            41.885487,
            182.25
          ],
          [
            -87.633922,
            41.885534,
            182.25
          ],
          [
            -87.633946,
            41.885591,
            182.25
          ],
          [
            -87.63397,
            41.885629,
            182.25
          ],
          [
            -87.634042,
            41.885692,
            182.25
          ],
          [
            -87.634099,
            41.885721,
            182.25
          ],
          [
            -87.63425,
            41.88575,
            182.25
          ],
          [
            -87.634269,
            41.88575,
            182.25
          ],
          [
            -87.634574,
            41.88575,
            182.25
          ],
          [
            -87.634813,
            41.88575,
            182.25
          ],
          [
            -87.635397,
            41.885751,
            182.25
          ],
          [
            -87.636007,
            41.885751,
            182.25
          ],
          [
            -87.63661,
            41.885747,
            182.25
          ],
          [
            -87.637181,
            41.885767,
            182.25
          ],
          [
            -87.638261,
            41.885764,
            179.5
          ],
          [
            -87.6397,
            41.885755
          ],
          [
            -87.640166,
            41.885737
          ],
          [
            -87.641824,
            41.885734
          ],
          [
            -87.643179,
            41.885729
          ],
          [
            -87.643871,
            41.885721
          ],
          [
            -87.64817,
            41.885676
          ],
          [
            -87.65236,
            41.885604
          ],
          [
            -87.666482,
            41.885356
          ],
          [
            -87.667077,
            41.885342
          ],
          [
            -87.668359,
            41.885296
          ],
          [
            -87.668608,
            41.885288
          ],
          [
            -87.669121,
            41.885269
          ],
          [
            -87.669249,
            41.885265
          ],
          [
            -87.669416,
            41.885247
          ],
          [
            -87.669567,
            41.885222
          ],
          [
            -87.669696,
            41.885183
          ],
          [
            -87.669807,
            41.885131
          ],
          [
            -87.669909,
            41.885068
          ],
          [
            -87.669991,
            41.88499
          ],
          [
            -87.670047,
            41.884921
          ],
          [
            -87.67009,
            41.884848
          ],
          [
            -87.670121,
            41.884754
          ],
          [
            -87.670135,
            41.884684
          ],
          [
            -87.670144,
            41.884495
          ],
          [
            -87.670106,
            41.883186
          ],
          [
            -87.670167,
            41.882842
          ],
          [
            -87.670179,
            41.882752
          ],
          [
            -87.67018,
            41.882654
          ],
          [
            -87.670172,
            41.88237,
            188.5
          ],
          [
            -87.670062,
            41.878635,
            188.5
          ],
          [
            -87.670058,
            41.878495,
            188.5
          ],
          [
            -87.670035,
            41.878349,
            188.5
          ],
          [
            -87.67001,
            41.878273,
            188.5
          ],
          [
            -87.669974,
            41.878208,
            188.5
          ],
          [
            -87.669852,
            41.87803,
            188.5
          ],
          [
            -87.669807,
            41.87795,
            188.5
          ],
          [
            -87.669781,
            41.877876,
            188.5
          ],
          [
            -87.669766,
            41.877801,
            188.5
          ],
          [
            -87.669758,
            41.877679,
            188.5
          ],
          [
            -87.669748,
            41.877418,
            188.5
          ],
          [
            -87.669738,
            41.876427,
            188.5
          ],
          [
            -87.669696,
            41.874953,
            188.5
          ],
          [
            -87.669696,
            41.874939,
            188.5
          ],
          [
            -87.669638,
            41.872984,
            194.75
          ],
          [
            -87.669624,
            41.872245
          ],
          [
            -87.669601,
            41.871389
          ],
          [
            -87.669572,
            41.870329
          ],
          [
            -87.669326,
            41.86148
          ],
          [
            -87.669244,
            41.858956
          ],
          [
            -87.669237,
            41.858607
          ],
          [
            -87.669215,
            41.857958
          ],
          [
            -87.669157,
            41.856006
          ],
          [
            -87.669136,
            41.85532
          ],
          [
            -87.669144,
            41.855228
          ],
          [
            -87.66918,
            41.855106
          ],
          [
            -87.669245,
            41.854996
          ],
          [
            -87.669319,
            41.854906
          ],
          [
            -87.66942,
            41.854822
          ],
          [
            -87.669512,
            41.854763
          ],
          [
            -87.669524,
            41.854755
          ],
          [
            -87.669658,
            41.854694
          ],
          [
            -87.669816,
            41.854649
          ],
          [
            -87.669996,
            41.854622
          ],
          [
            -87.670271,
            41.854614
          ],
          [
            -87.671002,
            41.85461
          ],
          [
            -87.676802,
            41.854536
          ],
          [
            -87.679486,
            41.854497
          ],
          [
            -87.679947,
            41.854494
          ],
          [
            -87.682113,
            41.854456
          ],
          [
            -87.684906,
            41.854424
          ],
          [
            -87.687675,
            41.854402
          ],
          [
            -87.688243,
            41.854397
          ],
          [
            -87.692082,
            41.854335
          ],
          [
            -87.692944,
            41.854356
          ],
          [
            -87.693293,
            41.854359
          ],
          [
            -87.694731,
            41.854343
          ],
          [
            -87.695579,
            41.854329
          ],
          [
            -87.696719,
            41.854265
          ],
          [
            -87.698747,
            41.854231
          ],
          [
            -87.702132,
            41.854186
          ],
          [
            -87.70259,
            41.85418
          ],
          [
            -87.703031,
            41.854172
          ],
          [
            -87.703116,
            41.854171
          ],
          [
            -87.703613,
            41.854178
          ],
          [
            -87.704282,
            41.854209
          ],
          [
            -87.704809,
            41.85421
          ],
          [
            -87.705741,
            41.854197
          ],
          [
            -87.707218,
            41.854167
          ],
          [
            -87.708138,
            41.854108
          ],
          [
            -87.708525,
            41.85409
          ],
          [
            -87.712285,
            41.854037
          ],
          [
            -87.712699,
            41.854047
          ],
          [
            -87.71321,
            41.854069
          ],
          [
            -87.713768,
            41.854072
          ],
          [
            -87.715139,
            41.85405
          ],
          [
            -87.717584,
            41.854017
          ],
          [
            -87.718832,
            41.853972
          ],
          [
            -87.72085,
            41.853938,
            184.75
          ],
          [
            -87.721206,
            41.853933,
            184.75
          ],
          [
            -87.722014,
            41.853945,
            184.75
          ],
          [
            -87.722576,
            41.853944,
            184.75
          ],
          [
            -87.724116,
            41.853923,
            184.75
          ],
          [
            -87.729819,
            41.85384,
            184.75
          ],
          [
            -87.732073,
            41.853805,
            184
          ],
          [
            -87.732142,
            41.853804,
            184
          ],
          [
            -87.73221,
            41.853803,
            184.25
          ],
          [
            -87.733203,
            41.853786,
            184.25
          ],
          [
            -87.734475,
            41.853771,
            183.75
          ],
          [
            -87.73459,
            41.85377,
            184
          ],
          [
            -87.734691,
            41.853764,
            184.25
          ],
          [
            -87.734921,
            41.853747,
            184.75
          ],
          [
            -87.735106,
            41.853724,
            184.75
          ],
          [
            -87.735312,
            41.853666,
            184.5
          ],
          [
            -87.735468,
            41.85361,
            184.25
          ],
          [
            -87.735657,
            41.85352,
            184.25
          ],
          [
            -87.735816,
            41.853422,
            184
          ],
          [
            -87.735991,
            41.853289,
            183.75
          ],
          [
            -87.736208,
            41.853075,
            183.5
          ],
          [
            -87.736583,
            41.852675,
            183
          ],
          [
            -87.736668,
            41.852581,
            183
          ],
          [
            -87.736765,
            41.852494,
            183
          ],
          [
            -87.736864,
            41.852419,
            183.25
          ],
          [
            -87.736955,
            41.852345,
            183.5
          ],
          [
            -87.737089,
            41.852275,
            183.75
          ],
          [
            -87.737292,
            41.852188,
            184
          ],
          [
            -87.737397,
            41.852154,
            184.25
          ],
          [
            -87.737511,
            41.852125,
            184.25
          ],
          [
            -87.737663,
            41.852098,
            184.5
          ],
          [
            -87.737789,
            41.852084,
            184.5
          ],
          [
            -87.737964,
            41.85207,
            184.75
          ],
          [
            -87.739202,
            41.852056,
            186.25
          ],
          [
            -87.739733,
            41.852049,
            185.25
          ],
          [
            -87.741742,
            41.852005,
            182.5
          ],
          [
            -87.741842,
            41.852003,
            182.5
          ],
          [
            -87.74196,
            41.852001,
            182.75
          ],
          [
            -87.742969,
            41.851981,
            184
          ],
          [
            -87.74307,
            41.851979,
            184.25
          ],
          [
            -87.743195,
            41.851978,
            184.25
          ],
          [
            -87.744158,
            41.851968,
            184.75
          ],
          [
            -87.744305,
            41.851966,
            184.75
          ],
          [
            -87.744423,
            41.851965,
            184.5
          ],
          [
            -87.745611,
            41.851955,
            185
          ],
          [
            -87.746639,
            41.851943,
            185.75
          ],
          [
            -87.746731,
            41.851942,
            186
          ],
          [
            -87.74685,
            41.851941,
            186
          ],
          [
            -87.747318,
            41.851936,
            186
          ],
          [
            -87.74805,
            41.851944,
            186.25
          ],
          [
            -87.749094,
            41.851933,
            184.75
          ],
          [
            -87.749194,
            41.851932,
            184.5
          ],
          [
            -87.749312,
            41.851929,
            184.5
          ],
          [
            -87.749641,
            41.851925,
            184.25
          ],
          [
            -87.74997,
            41.851919,
            184
          ],
          [
            -87.750335,
            41.851914,
            184
          ],
          [
            -87.75079,
            41.8519,
            184.25
          ],
          [
            -87.751576,
            41.851918,
            184.75
          ],
          [
            -87.753976,
            41.851894,
            187.25
          ],
          [
            -87.754111,
            41.851893,
            187.25
          ],
          [
            -87.75424,
            41.851891,
            187.5
          ],
          [
            -87.756333,
            41.851864,
            187.75
          ],
          [
            -87.75657,
            41.851843,
            187.5
          ],
          [
            -87.756793,
            41.851824,
            187.5
          ],
          [
            -87.758503,
            41.851797,
            186
          ],
          [
            -87.758681,
            41.851794,
            186
          ]
        ]
      }
    }
  ]
}