{
  "type": "FeatureCollection",
  "features": [
    {
      "type": "Feature",
      "properties": {
        "creator": "BRouter-1.7.9",
        "name": "[DART] Dallas Streetcar",
        "track-length": "7458",
        "filtered ascend": "22",
        "plain-ascend": "4",
        "total-time": "597",
        "total-energy": "326642",
        "cost": "14916",
        "messages": [
          [
            "Longitude",
            "Latitude",
            "Elevation",
            "Distance",
            "CostPerKm",
            "ElevCost",
            "TurnCost",
            "NodeCost",
            "InitialCost",
            "WayTags",
            "NodeTags",
            "Time",
            "Energy"
          ],
          [
            "-96806813",
            "32775264",
            "136",
            "22",
            "2000",
            "0",
            "0",
            "0",
            "0",
            "reversedirection=yes railway=tram",
            "railway=switch",
            "1",
            "924"
          ],
          [
            "-96806749",
            "32775118",
            "136",
            "17",
            "2000",
            "0",
            "0",
            "0",
            "0",
            "reversedirection=yes railway=tram",
            "railway=level_crossing",
            "3",
            "1644"
          ],
          [
            "-96815175",
            "32762351",
            "132",
            "1684",
            "2000",
            "0",
            "0",
            "0",
            "0",
            "reversedirection=yes railway=tram",
            "railway=tram_stop",
            "137",
            "70850"
          ],
          [
            "-96815297",
            "32762276",
            "132",
            "14",
            "2000",
            "0",
            "0",
            "0",
            "0",
            "reversedirection=yes railway=tram",
            "railway=tram_stop",
            "138",
            "71562"
          ],
          [
            "-96815385",
            "32762222",
            "132",
            "10",
            "2000",
            "0",
            "0",
            "0",
            "0",
            "reversedirection=yes railway=tram",
            "railway=level_crossing",
            "139",
            "72064"
          ],
          [
            "-96815609",
            "32762075",
            "132",
            "27",
            "2000",
            "0",
            "0",
            "0",
            "0",
            "reversedirection=yes railway=tram",
            "railway=level_crossing",
            "141",
            "73442"
          ],
          [
            "-96817270",
            "32761023",
            "134",
            "195",
            "2000",
            "0",
            "0",
            "0",
            "0",
            "reversedirection=yes railway=tram",
            "railway=unknown",
            "157",
            "84196"
          ],
          [
            "-96817525",
            "32760867",
            "135",
            "30",
            "2000",
            "0",
            "0",
            "0",
            "0",
            "reversedirection=yes railway=tram",
            "railway=switch",
            "159",
            "85911"
          ],
          [
            "-96817783",
            "32760709",
            "137",
            "30",
            "2000",
            "0",
            "0",
            "0",
            "0",
            "railway=tram",
            "railway=level_crossing",
            "162",
            "87238"
          ],
          [
            "-96818015",
            "32760544",
            "138",
            "28",
            "2000",
            "0",
            "0",
            "0",
            "0",
            "railway=tram",
            "railway=tram_stop",
            "164",
            "88583"
          ],
          [
            "-96818066",
            "32760507",
            "138",
            "6",
            "2000",
            "0",
            "0",
            "0",
            "0",
            "railway=tram",
            "railway=level_crossing",
            "165",
            "88880"
          ],
          [
            "-96818300",
            "32760341",
            "137",
            "29",
            "2000",
            "0",
            "0",
            "0",
            "0",
            "railway=tram",
            "railway=level_crossing",
            "167",
            "90179"
          ],
          [
            "-96818530",
            "32760160",
            "138",
            "30",
            "2000",
            "0",
            "0",
            "0",
            "0",
            "railway=tram",
            "",
            "169",
            "92147"
          ],
          [
            "-96819554",
            "32759369",
            "143",
            "130",
            "2000",
            "0",
            "0",
            "0",
            "0",
            "railway=tram",
            "railway=level_crossing",
            "10",
            "7018"
          ],
          [
            "-96820284",
            "32758703",
            "143",
            "101",
            "2000",
            "0",
            "0",
            "0",
            "0",
            "railway=tram",
            "railway=crossing",
            "18",
            "12681"
          ],
          [
            "-96820404",
            "32758642",
            "143",
            "14",
            "2000",
            "0",
            "0",
            "0",
            "0",
            "railway=tram",
            "railway=level_crossing",
            "19",
            "13313"
          ],
          [
            "-96820425",
            "32758637",
            "143",
            "2",
            "2000",
            "0",
            "0",
            "0",
            "0",
            "railway=tram",
            "railway=level_crossing",
            "19",
            "13403"
          ],
          [
            "-96820536",
            "32758635",
            "143",
            "10",
            "2000",
            "0",
            "0",
            "0",
            "0",
            "railway=tram",
            "railway=crossing",
            "20",
            "14085"
          ],
          [
            "-96821707",
            "32758778",
            "146",
            "111",
            "2000",
            "0",
            "0",
            "0",
            "0",
            "railway=tram",
            "railway=level_crossing",
            "29",
            "20358"
          ],
          [
            "-96822248",
            "32758826",
            "147",
            "52",
            "2000",
            "0",
            "0",
            "0",
            "0",
            "railway=tram",
            "railway=level_crossing",
            "33",
            "23244"
          ],
          [
            "-96822389",
            "32758844",
            "147",
            "13",
            "2000",
            "0",
            "0",
            "0",
            "0",
            "railway=tram",
            "railway=switch",
            "34",
            "24014"
          ],
          [
            "-96822583",
            "32758868",
            "148",
            "18",
            "2000",
            "0",
            "0",
            "0",
            "0",
            "railway=tram",
            "railway=tram_stop",
            "36",
            "25078"
          ],
          [
            "-96822806",
            "32758888",
            "148",
            "21",
            "2000",
            "0",
            "0",
            "0",
            "0",
            "railway=tram",
            "railway=crossing",
            "37",
            "26328"
          ],
          [
            "-96822896",
            "32758866",
            "148",
            "9",
            "2000",
            "0",
            "0",
            "0",
            "0",
            "railway=tram",
            "railway=level_crossing",
            "38",
            "26872"
          ],
          [
            "-96822925",
            "32758852",
            "149",
            "3",
            "2000",
            "0",
            "0",
            "0",
            "0",
            "railway=tram",
            "railway=level_crossing",
            "38",
            "27057"
          ],
          [
            "-96822990",
            "32758790",
            "149",
            "9",
            "2000",
            "0",
            "0",
            "0",
            "0",
            "railway=tram",
            "railway=crossing",
            "39",
            "27602"
          ],
          [
            "-96823001",
            "32757821",
            "148",
            "108",
            "2000",
            "0",
            "0",
            "0",
            "0",
            "railway=tram",
            "railway=level_crossing",
            "48",
            "33193"
          ],
          [
            "-96822997",
            "32756611",
            "147",
            "134",
            "2000",
            "0",
            "0",
            "0",
            "0",
            "railway=tram",
            "railway=level_crossing",
            "58",
            "40616"
          ],
          [
            "-96822996",
            "32756593",
            "147",
            "2",
            "2000",
            "0",
            "0",
            "0",
            "0",
            "railway=tram",
            "railway=crossing",
            "58",
            "40714"
          ],
          [
            "-96822995",
            "32756499",
            "147",
            "10",
            "2000",
            "0",
            "0",
            "0",
            "0",
            "railway=tram",
            "railway=level_crossing",
            "59",
            "41184"
          ],
          [
            "-96822993",
            "32756285",
            "146",
            "24",
            "2000",
            "0",
            "0",
            "0",
            "0",
            "railway=tram",
            "railway=level_crossing",
            "61",
            "42205"
          ],
          [
            "-96824080",
            "32754638",
            "153",
            "210",
            "2000",
            "0",
            "0",
            "0",
            "0",
            "railway=tram",
            "railway=unknown",
            "78",
            "52956"
          ],
          [
            "-96824156",
            "32753778",
            "155",
            "96",
            "2000",
            "0",
            "0",
            "0",
            "0",
            "railway=tram",
            "railway=unknown",
            "86",
            "59168"
          ],
          [
            "-96824155",
            "32753283",
            "155",
            "55",
            "2000",
            "0",
            "0",
            "0",
            "0",
            "railway=tram",
            "railway=unknown",
            "90",
            "62013"
          ],
          [
            "-96824154",
            "32752988",
            "155",
            "33",
            "2000",
            "0",
            "0",
            "0",
            "0",
            "railway=tram",
            "railway=tram_stop",
            "93",
            "63689"
          ],
          [
            "-96824157",
            "32752237",
            "156",
            "83",
            "2000",
            "0",
            "0",
            "0",
            "0",
            "railway=tram",
            "railway=level_crossing",
            "99",
            "68163"
          ],
          [
            "-96824162",
            "32750711",
            "155",
            "169",
            "2000",
            "0",
            "0",
            "0",
            "0",
            "railway=tram",
            "railway=level_crossing",
            "113",
            "77735"
          ],
          [
            "-96824133",
            "32749751",
            "152",
            "106",
            "2000",
            "0",
            "0",
            "0",
            "0",
            "railway=tram",
            "",
            "121",
            "81202"
          ],
          [
            "-96824143",
            "32749538",
            "151",
            "23",
            "2000",
            "0",
            "0",
            "0",
            "0",
            "railway=tram",
            "railway=crossing",
            "1",
            "953"
          ],
          [
            "-96824161",
            "32749490",
            "151",
            "6",
            "2000",
            "0",
            "0",
            "0",
            "0",
            "railway=tram",
            "railway=level_crossing",
            "2",
            "1195"
          ],
          [
            "-96824185",
            "32749444",
            "151",
            "6",
            "2000",
            "0",
            "0",
            "0",
            "0",
            "railway=tram",
            "railway=level_crossing",
            "2",
            "1437"
          ],
          [
            "-96824230",
            "32749360",
            "151",
            "10",
            "2000",
            "0",
            "0",
            "0",
            "0",
            "railway=tram",
            "railway=crossing",
            "3",
            "1845"
          ],
          [
            "-96824310",
            "32749212",
            "151",
            "18",
            "2000",
            "0",
            "0",
            "0",
            "0",
            "railway=tram",
            "railway=switch",
            "5",
            "2586"
          ],
          [
            "-96824417",
            "32749013",
            "153",
            "24",
            "2000",
            "0",
            "0",
            "0",
            "0",
            "reversedirection=yes railway=tram",
            "railway=tram_stop",
            "6",
            "3869"
          ],
          [
            "-96824440",
            "32748970",
            "154",
            "5",
            "2000",
            "0",
            "0",
            "0",
            "0",
            "reversedirection=yes railway=tram",
            "",
            "7",
            "4141"
          ],
          [
            "-96824417",
            "32749013",
            "153",
            "5",
            "2000",
            "0",
            "0",
            "0",
            "0",
            "railway=tram",
            "railway=tram_stop",
            "0",
            "209"
          ],
          [
            "-96824310",
            "32749212",
            "151",
            "24",
            "2000",
            "0",
            "0",
            "0",
            "0",
            "railway=tram",
            "railway=switch",
            "2",
            "937"
          ],
          [
            "-96824187",
            "32749359",
            "151",
            "20",
            "2000",
            "0",
            "0",
            "0",
            "0",
            "railway=tram",
            "railway=crossing",
            "3",
            "1571"
          ],
          [
            "-96824166",
            "32749380",
            "151",
            "3",
            "2000",
            "0",
            "0",
            "0",
            "0",
            "railway=tram",
            "railway=level_crossing",
            "4",
            "1668"
          ],
          [
            "-96824110",
            "32749443",
            "151",
            "9",
            "2000",
            "0",
            "0",
            "0",
            "0",
            "railway=tram",
            "railway=level_crossing",
            "4",
            "1965"
          ],
          [
            "-96824058",
            "32749538",
            "151",
            "11",
            "2000",
            "0",
            "0",
            "0",
            "0",
            "railway=tram",
            "railway=crossing",
            "5",
            "2363"
          ],
          [
            "-96824050",
            "32750085",
            "153",
            "60",
            "2000",
            "0",
            "0",
            "0",
            "0",
            "railway=tram",
            "",
            "10",
            "5036"
          ],
          [
            "-96824074",
            "32750712",
            "155",
            "57",
            "2000",
            "0",
            "0",
            "0",
            "0",
            "railway=tram",
            "railway=level_crossing",
            "4",
            "3070"
          ],
          [
            "-96824074",
            "32752238",
            "155",
            "169",
            "2000",
            "0",
            "0",
            "0",
            "0",
            "railway=tram",
            "railway=level_crossing",
            "18",
            "11844"
          ],
          [
            "-96824080",
            "32753136",
            "155",
            "100",
            "2000",
            "0",
            "0",
            "0",
            "0",
            "railway=tram",
            "railway=tram_stop",
            "26",
            "16016"
          ],
          [
            "-96824079",
            "32753283",
            "154",
            "16",
            "2000",
            "0",
            "0",
            "0",
            "0",
            "railway=tram",
            "railway=unknown",
            "27",
            "16667"
          ],
          [
            "-96824070",
            "32753779",
            "155",
            "55",
            "2000",
            "0",
            "0",
            "0",
            "0",
            "railway=tram",
            "railway=unknown",
            "31",
            "19240"
          ],
          [
            "-96824002",
            "32754637",
            "153",
            "95",
            "2000",
            "0",
            "0",
            "0",
            "0",
            "railway=tram",
            "railway=unknown",
            "39",
            "23036"
          ],
          [
            "-96822934",
            "32756300",
            "146",
            "210",
            "2000",
            "0",
            "0",
            "0",
            "0",
            "railway=tram",
            "railway=level_crossing",
            "56",
            "28100"
          ],
          [
            "-96822921",
            "32756368",
            "146",
            "8",
            "2000",
            "0",
            "0",
            "0",
            "0",
            "railway=tram",
            "railway=level_crossing",
            "56",
            "28428"
          ],
          [
            "-96822915",
            "32756578",
            "147",
            "23",
            "2000",
            "0",
            "0",
            "0",
            "0",
            "railway=tram",
            "railway=level_crossing",
            "58",
            "29092"
          ],
          [
            "-96822916",
            "32756629",
            "147",
            "6",
            "2000",
            "0",
            "0",
            "0",
            "0",
            "railway=tram",
            "railway=crossing",
            "59",
            "29231"
          ],
          [
            "-96822916",
            "32757806",
            "148",
            "131",
            "2000",
            "0",
            "0",
            "0",
            "0",
            "railway=tram",
            "railway=level_crossing",
            "69",
            "34160"
          ],
          [
            "-96822901",
            "32758779",
            "148",
            "110",
            "2000",
            "0",
            "0",
            "0",
            "0",
            "railway=tram",
            "railway=crossing",
            "78",
            "39165"
          ],
          [
            "-96822896",
            "32758784",
            "148",
            "1",
            "2000",
            "0",
            "0",
            "0",
            "0",
            "railway=tram",
            "railway=level_crossing",
            "78",
            "39209"
          ],
          [
            "-96822812",
            "32758827",
            "148",
            "10",
            "2000",
            "0",
            "0",
            "0",
            "0",
            "railway=tram",
            "railway=level_crossing",
            "79",
            "39631"
          ],
          [
            "-96822806",
            "32758829",
            "148",
            "1",
            "2000",
            "0",
            "0",
            "0",
            "0",
            "railway=tram",
            "railway=crossing",
            "79",
            "39672"
          ],
          [
            "-96822423",
            "32758798",
            "147",
            "37",
            "2000",
            "0",
            "0",
            "0",
            "0",
            "railway=tram",
            "railway=tram_stop",
            "82",
            "41061"
          ],
          [
            "-96822256",
            "32758778",
            "147",
            "16",
            "2000",
            "0",
            "0",
            "0",
            "0",
            "railway=tram",
            "railway=level_crossing",
            "83",
            "41602"
          ],
          [
            "-96822078",
            "32758755",
            "146",
            "17",
            "2000",
            "0",
            "0",
            "0",
            "0",
            "railway=tram",
            "railway=switch",
            "84",
            "42135"
          ],
          [
            "-96821741",
            "32758714",
            "146",
            "32",
            "2000",
            "0",
            "0",
            "0",
            "0",
            "railway=tram",
            "railway=level_crossing",
            "87",
            "43043"
          ],
          [
            "-96820568",
            "32758606",
            "143",
            "110",
            "2000",
            "0",
            "0",
            "0",
            "0",
            "railway=tram",
            "railway=crossing",
            "96",
            "47197"
          ],
          [
            "-96820471",
            "32758596",
            "143",
            "9",
            "2000",
            "0",
            "0",
            "0",
            "0",
            "railway=tram",
            "railway=level_crossing",
            "97",
            "47557"
          ],
          [
            "-96820337",
            "32758615",
            "143",
            "13",
            "2000",
            "0",
            "0",
            "0",
            "0",
            "railway=tram",
            "railway=level_crossing",
            "98",
            "48093"
          ],
          [
            "-96820202",
            "32758708",
            "143",
            "17",
            "2000",
            "0",
            "0",
            "0",
            "0",
            "railway=tram",
            "railway=crossing",
            "99",
            "48679"
          ],
          [
            "-96819496",
            "32759322",
            "143",
            "95",
            "2000",
            "0",
            "0",
            "0",
            "0",
            "railway=tram",
            "railway=level_crossing",
            "107",
            "51255"
          ],
          [
            "-96818510",
            "32760073",
            "137",
            "125",
            "2000",
            "0",
            "0",
            "0",
            "0",
            "railway=tram",
            "",
            "117",
            "54830"
          ],
          [
            "-96818234",
            "32760304",
            "137",
            "36",
            "2000",
            "0",
            "0",
            "0",
            "0",
            "railway=tram",
            "railway=level_crossing",
            "2",
            "1516"
          ],
          [
            "-96818022",
            "32760460",
            "138",
            "26",
            "2000",
            "0",
            "0",
            "0",
            "0",
            "railway=tram",
            "railway=level_crossing",
            "4",
            "2726"
          ],
          [
            "-96817861",
            "32760577",
            "138",
            "20",
            "2000",
            "0",
            "0",
            "0",
            "0",
            "railway=tram",
            "railway=tram_stop",
            "6",
            "3606"
          ],
          [
            "-96817795",
            "32760625",
            "137",
            "8",
            "2000",
            "0",
            "0",
            "0",
            "0",
            "railway=tram",
            "railway=level_crossing",
            "7",
            "3941"
          ],
          [
            "-96817525",
            "32760867",
            "135",
            "37",
            "2000",
            "0",
            "0",
            "0",
            "0",
            "railway=tram",
            "railway=switch",
            "10",
            "5149"
          ],
          [
            "-96817270",
            "32761023",
            "134",
            "30",
            "2000",
            "0",
            "0",
            "0",
            "0",
            "railway=tram",
            "railway=unknown",
            "12",
            "6467"
          ],
          [
            "-96815609",
            "32762075",
            "132",
            "195",
            "2000",
            "0",
            "0",
            "0",
            "0",
            "railway=tram",
            "railway=level_crossing",
            "28",
            "13629"
          ],
          [
            "-96815385",
            "32762222",
            "132",
            "27",
            "2000",
            "0",
            "0",
            "0",
            "0",
            "railway=tram",
            "railway=level_crossing",
            "30",
            "14654"
          ],
          [
            "-96815297",
            "32762276",
            "132",
            "10",
            "2000",
            "0",
            "0",
            "0",
            "0",
            "railway=tram",
            "railway=tram_stop",
            "31",
            "15033"
          ],
          [
            "-96815175",
            "32762351",
            "132",
            "14",
            "2000",
            "0",
            "0",
            "0",
            "0",
            "railway=tram",
            "railway=tram_stop",
            "32",
            "15574"
          ],
          [
            "-96806749",
            "32775118",
            "136",
            "1684",
            "2000",
            "0",
            "0",
            "0",
            "0",
            "railway=tram",
            "railway=level_crossing",
            "166",
            "87386"
          ],
          [
            "-96806813",
            "32775264",
            "136",
            "17",
            "2000",
            "0",
            "0",
            "0",
            "0",
            "railway=tram",
            "railway=switch",
            "168",
            "88202"
          ],
          [
            "-96806893",
            "32775453",
            "136",
            "22",
            "2000",
            "0",
            "0",
            "0",
            "0",
            "railway=tram",
            "",
            "170",
            "89286"
          ]
        ],
        "times": [
          0,
          1.76,
          3.12,
          5.36,
          6.4,
          12.4,
          17.52,
          18.16,
          18.96,
          19.76,
          20.56,
          103.52,
          127.2,
          129.92,
          131.04,
          132.32,
          133.44,
          134.64,
          136.8,
          137.84,
          138.96,
          139.76,
          140.8,
          141.92,
          143.68,
          157.52,
          159.92,
          162.32,
          164.56,
          165.04,
          167.36,
          168.56,
          169.76,
          173.76,
          175.36,
          179.2,
          180.16,
          183.04,
          184,
          185.12,
          186,
          188.24,
          188.88,
          189.36,
          189.52,
          190.32,
          199.2,
          200,
          201.76,
          203.36,
          204.4,
          205.84,
          206.64,
          207.52,
          208,
          208.24,
          208.48,
          208.96,
          209.2,
          209.68,
          210.32,
          213.68,
          216.48,
          217.84,
          228.56,
          228.72,
          229.52,
          230.88,
          231.44,
          231.76,
          232.48,
          237.12,
          240.88,
          245.2,
          246.24,
          247.28,
          248.24,
          249.04,
          250.8,
          251.84,
          255.92,
          260.32,
          262.96,
          269.6,
          283.12,
          285.44,
          289.44,
          291.6,
          292.96,
          293.44,
          293.92,
          294.4,
          295.2,
          296.64,
          298.56,
          298.96,
          299.36,
          301.28,
          301.84,
          302.88,
          303.12,
          303.84,
          304.48,
          304.72,
          305.2,
          309.52,
          312.4,
          314.08,
          327.6,
          335.6,
          336.88,
          341.28,
          346,
          346.96,
          347.84,
          348.88,
          349.68,
          351.68,
          364.08,
          364.64,
          365.68,
          366.32,
          367.04,
          368.16,
          368.64,
          379.12,
          382.96,
          383.44,
          385.04,
          386.56,
          386.96,
          387.28,
          387.92,
          388,
          388.24,
          388.8,
          388.88,
          389.52,
          391.84,
          393.12,
          394.48,
          397.04,
          398.88,
          401.92,
          405.84,
          406.56,
          407.2,
          407.6,
          408.48,
          408.96,
          416.56,
          417.52,
          419.36,
          421.36,
          422.96,
          426.56,
          429.44,
          431.52,
          433.12,
          433.76,
          434.88,
          436,
          436.72,
          439.12,
          452.96,
          454.72,
          455.84,
          456.88,
          457.68,
          458.8,
          459.84,
          462,
          463.2,
          464.32,
          465.6,
          466.72,
          469.44,
          493.12,
          576.08,
          576.88,
          577.68,
          578.48,
          579.12,
          584.24,
          590.24,
          591.28,
          593.52,
          594.88,
          596.64
        ]
      },
      "geometry": {
        "type": "LineString",
        "coordinates": [
          [
            -96.806893,
            32.775453,
            136.75
          ],
          [
            -96.806813,
            32.775264,
            136.5
          ],
          [
            -96.806749,
            32.775118,
            136.5
          ],
          [
            -96.806653,
            32.774879,
            136.25
          ],
          [
            -96.806615,
            32.774768,
            136
          ],
          [
            -96.806418,
            32.77411,
            135.5
          ],
          [
            -96.806253,
            32.773553,
            135.25
          ],
          [
            -96.806243,
            32.773483,
            135.25
          ],
          [
            -96.806247,
            32.773394,
            135.25
          ],
          [
            -96.806276,
            32.773303,
            135.25
          ],
          [
            -96.806326,
            32.773225,
            135.25
          ],
          [
            -96.812453,
            32.765437,
            131
          ],
          [
            -96.814203,
            32.763212,
            130
          ],
          [
            -96.81441,
            32.762955,
            130
          ],
          [
            -96.814503,
            32.762852,
            130
          ],
          [
            -96.814614,
            32.762744,
            130
          ],
          [
            -96.814718,
            32.762654,
            130.5
          ],
          [
            -96.814837,
            32.762565,
            131
          ],
          [
            -96.815066,
            32.762417,
            132
          ],
          [
            -96.815175,
            32.762351,
            132
          ],
          [
            -96.815297,
            32.762276,
            132
          ],
          [
            -96.815385,
            32.762222,
            132
          ],
          [
            -96.815497,
            32.762154,
            132.25
          ],
          [
            -96.815609,
            32.762075,
            132.25
          ],
          [
            -96.815782,
            32.761941,
            132.75
          ],
          [
            -96.81727,
            32.761023,
            134.5
          ],
          [
            -96.817525,
            32.760867,
            135.75
          ],
          [
            -96.817783,
            32.760709,
            137.5
          ],
          [
            -96.818015,
            32.760544,
            138
          ],
          [
            -96.818066,
            32.760507,
            138.25
          ],
          [
            -96.8183,
            32.760341,
            137.75
          ],
          [
            -96.81842,
            32.760252,
            137.5
          ],
          [
            -96.81853,
            32.76016,
            138.5
          ],
          [
            -96.818906,
            32.759843,
            138.5
          ],
          [
            -96.819067,
            32.759721,
            139.75
          ],
          [
            -96.819462,
            32.759449,
            142.75
          ],
          [
            -96.819554,
            32.759369,
            143.25
          ],
          [
            -96.819823,
            32.759141,
            144.75
          ],
          [
            -96.819912,
            32.759059,
            144.5
          ],
          [
            -96.819999,
            32.758961,
            144.5
          ],
          [
            -96.820078,
            32.758885,
            144.25
          ],
          [
            -96.820284,
            32.758703,
            143.5
          ],
          [
            -96.820348,
            32.758661,
            143.5
          ],
          [
            -96.820404,
            32.758642,
            143.5
          ],
          [
            -96.820425,
            32.758637,
            143.5
          ],
          [
            -96.820536,
            32.758635,
            143.25
          ],
          [
            -96.821707,
            32.758778,
            146
          ],
          [
            -96.821811,
            32.758791,
            146.25
          ],
          [
            -96.822041,
            32.758805,
            146.75
          ],
          [
            -96.822248,
            32.758826,
            147.25
          ],
          [
            -96.822389,
            32.758844,
            147.75
          ],
          [
            -96.822583,
            32.758868,
            148
          ],
          [
            -96.822686,
            32.758882,
            148.25
          ],
          [
            -96.822806,
            32.758888,
            148.5
          ],
          [
            -96.822867,
            32.758877,
            148.75
          ],
          [
            -96.822896,
            32.758866,
            148.75
          ],
          [
            -96.822925,
            32.758852,
            149
          ],
          [
            -96.822972,
            32.758813,
            149
          ],
          [
            -96.82299,
            32.75879,
            149
          ],
          [
            -96.823017,
            32.758741,
            149
          ],
          [
            -96.82303,
            32.758673,
            149.25
          ],
          [
            -96.823023,
            32.758293,
            149
          ],
          [
            -96.822998,
            32.757978,
            148.5
          ],
          [
            -96.823001,
            32.757821,
            148.25
          ],
          [
            -96.822997,
            32.756611,
            147.5
          ],
          [
            -96.822996,
            32.756593,
            147.5
          ],
          [
            -96.822995,
            32.756499,
            147.25
          ],
          [
            -96.822988,
            32.75635,
            146.75
          ],
          [
            -96.822993,
            32.756285,
            146.75
          ],
          [
            -96.823002,
            32.756249,
            146.5
          ],
          [
            -96.823038,
            32.756178,
            146.5
          ],
          [
            -96.823357,
            32.75573,
            146.75
          ],
          [
            -96.823625,
            32.755376,
            149.5
          ],
          [
            -96.823918,
            32.754958,
            151.5
          ],
          [
            -96.823986,
            32.754851,
            152
          ],
          [
            -96.82404,
            32.75474,
            152.75
          ],
          [
            -96.82408,
            32.754638,
            153.25
          ],
          [
            -96.824109,
            32.75455,
            153.75
          ],
          [
            -96.824147,
            32.754356,
            154.75
          ],
          [
            -96.824156,
            32.754238,
            155.5
          ],
          [
            -96.824156,
            32.753778,
            155.5
          ],
          [
            -96.824155,
            32.753283,
            155
          ],
          [
            -96.824154,
            32.752988,
            155.25
          ],
          [
            -96.824157,
            32.752237,
            156.25
          ],
          [
            -96.824162,
            32.750711,
            155.5
          ],
          [
            -96.824161,
            32.750447,
            154.5
          ],
          [
            -96.824128,
            32.749993,
            152.75
          ],
          [
            -96.824133,
            32.749751,
            152
          ],
          [
            -96.824135,
            32.749595,
            152
          ],
          [
            -96.824143,
            32.749538,
            151.75
          ],
          [
            -96.824161,
            32.74949,
            151.75
          ],
          [
            -96.824185,
            32.749444,
            151.75
          ],
          [
            -96.82423,
            32.74936,
            151.75
          ],
          [
            -96.82431,
            32.749212,
            151.75
          ],
          [
            -96.824417,
            32.749013,
            153.25
          ],
          [
            -96.82444,
            32.74897,
            154
          ],
          [
            -96.824417,
            32.749013,
            153.25
          ],
          [
            -96.82431,
            32.749212,
            151.75
          ],
          [
            -96.824271,
            32.74927,
            151.75
          ],
          [
            -96.824187,
            32.749359,
            151.5
          ],
          [
            -96.824166,
            32.74938,
            151.5
          ],
          [
            -96.82411,
            32.749443,
            151.5
          ],
          [
            -96.824067,
            32.749508,
            151.75
          ],
          [
            -96.824058,
            32.749538,
            151.75
          ],
          [
            -96.82405,
            32.749594,
            151.75
          ],
          [
            -96.82405,
            32.750085,
            153.25
          ],
          [
            -96.824074,
            32.750521,
            154.5
          ],
          [
            -96.824074,
            32.750712,
            155
          ],
          [
            -96.824074,
            32.752238,
            155.75
          ],
          [
            -96.82408,
            32.753136,
            155
          ],
          [
            -96.824079,
            32.753283,
            154.75
          ],
          [
            -96.82407,
            32.753779,
            155.5
          ],
          [
            -96.824068,
            32.754313,
            155.25
          ],
          [
            -96.824057,
            32.754423,
            154.5
          ],
          [
            -96.824038,
            32.754523,
            154
          ],
          [
            -96.824002,
            32.754637,
            153.25
          ],
          [
            -96.823968,
            32.75472,
            152.75
          ],
          [
            -96.823844,
            32.754923,
            151.75
          ],
          [
            -96.823008,
            32.756133,
            146.25
          ],
          [
            -96.822976,
            32.75619,
            146.25
          ],
          [
            -96.822934,
            32.7563,
            146.5
          ],
          [
            -96.822921,
            32.756368,
            146.75
          ],
          [
            -96.822913,
            32.756449,
            146.75
          ],
          [
            -96.822915,
            32.756578,
            147.25
          ],
          [
            -96.822916,
            32.756629,
            147.25
          ],
          [
            -96.822916,
            32.757806,
            148.25
          ],
          [
            -96.822914,
            32.758238,
            148.75
          ],
          [
            -96.822918,
            32.758288,
            148.75
          ],
          [
            -96.822958,
            32.758464,
            149
          ],
          [
            -96.822964,
            32.758633,
            149
          ],
          [
            -96.822961,
            32.758678,
            149
          ],
          [
            -96.822949,
            32.758716,
            149
          ],
          [
            -96.822901,
            32.758779,
            148.75
          ],
          [
            -96.822896,
            32.758784,
            148.75
          ],
          [
            -96.822876,
            32.758799,
            148.75
          ],
          [
            -96.822812,
            32.758827,
            148.5
          ],
          [
            -96.822806,
            32.758829,
            148.5
          ],
          [
            -96.822724,
            32.758836,
            148.5
          ],
          [
            -96.822423,
            32.758798,
            147.75
          ],
          [
            -96.822256,
            32.758778,
            147.25
          ],
          [
            -96.822078,
            32.758755,
            146.75
          ],
          [
            -96.821741,
            32.758714,
            146
          ],
          [
            -96.821498,
            32.75869,
            145.25
          ],
          [
            -96.821089,
            32.758667,
            144
          ],
          [
            -96.820568,
            32.758606,
            143.25
          ],
          [
            -96.820471,
            32.758596,
            143.25
          ],
          [
            -96.820383,
            32.758602,
            143.25
          ],
          [
            -96.820337,
            32.758615,
            143.5
          ],
          [
            -96.820244,
            32.75867,
            143.5
          ],
          [
            -96.820202,
            32.758708,
            143.75
          ],
          [
            -96.819496,
            32.759322,
            143.5
          ],
          [
            -96.819404,
            32.759398,
            142.75
          ],
          [
            -96.819221,
            32.759532,
            141.5
          ],
          [
            -96.819011,
            32.759668,
            140
          ],
          [
            -96.818854,
            32.759787,
            138.75
          ],
          [
            -96.81851,
            32.760073,
            137.75
          ],
          [
            -96.818234,
            32.760304,
            137.75
          ],
          [
            -96.818022,
            32.76046,
            138.25
          ],
          [
            -96.817861,
            32.760577,
            138
          ],
          [
            -96.817795,
            32.760625,
            137.75
          ],
          [
            -96.817692,
            32.760714,
            137.25
          ],
          [
            -96.817594,
            32.760814,
            136.25
          ],
          [
            -96.817525,
            32.760867,
            135.75
          ],
          [
            -96.81727,
            32.761023,
            134.5
          ],
          [
            -96.815782,
            32.761941,
            132.75
          ],
          [
            -96.815609,
            32.762075,
            132.25
          ],
          [
            -96.815497,
            32.762154,
            132.25
          ],
          [
            -96.815385,
            32.762222,
            132
          ],
          [
            -96.815297,
            32.762276,
            132
          ],
          [
            -96.815175,
            32.762351,
            132
          ],
          [
            -96.815066,
            32.762417,
            132
          ],
          [
            -96.814837,
            32.762565,
            131
          ],
          [
            -96.814718,
            32.762654,
            130.5
          ],
          [
            -96.814614,
            32.762744,
            130
          ],
          [
            -96.814503,
            32.762852,
            130
          ],
          [
            -96.81441,
            32.762955,
            130
          ],
          [
            -96.814203,
            32.763212,
            130
          ],
          [
            -96.812453,
            32.765437,
            131.25
          ],
          [
            -96.806326,
            32.773225,
            135.5
          ],
          [
            -96.806276,
            32.773303,
            135.5
          ],
          [
            -96.806247,
            32.773394,
            135.5
          ],
          [
            -96.806243,
            32.773483,
            135.5
          ],
          [
            -96.806253,
            32.773553,
            135.5
          ],
          [
            -96.806418,
            32.77411,
            136
          ],
          [
            -96.806615,
            32.774768,
            136
          ],
          [
            -96.806653,
            32.774879,
            136.25
          ],
          [
            -96.806749,
            32.775118,
            136.5
          ],
          [
            -96.806813,
            32.775264,
            136.5
          ],
          [
            -96.806893,
            32.775453,
            136.75
          ]
        ]
      }
    }
  ]
}