{
  "type": "FeatureCollection",
  "features": [
    {
      "type": "Feature",
      "properties": {
        "creator": "BRouter-1.7.0",
        "name": "[ETS] Red Line",
        "track-length": "16185",
        "filtered ascend": "20",
        "plain-ascend": "-24",
        "total-time": "1295",
        "total-energy": "697424",
        "cost": "16185",
        "messages": [
          [
            "Longitude",
            "Latitude",
            "Elevation",
            "Distance",
            "CostPerKm",
            "ElevCost",
            "TurnCost",
            "NodeCost",
            "InitialCost",
            "WayTags",
            "NodeTags",
            "Time",
            "Energy"
          ],
          [
            "-113525813",
            "53520581",
            "679",
            "118",
            "1000",
            "0",
            "0",
            "0",
            "0",
            "railway=light_rail",
            "railway=unknown",
            "9",
            "6260"
          ],
          [
            "-113525813",
            "53520635",
            "679",
            "6",
            "1000",
            "0",
            "0",
            "0",
            "0",
            "railway=light_rail",
            "railway=signal",
            "9",
            "6552"
          ],
          [
            "-113525813",
            "53520768",
            "679",
            "15",
            "1000",
            "0",
            "0",
            "0",
            "0",
            "railway=light_rail",
            "railway=crossing",
            "11",
            "7274"
          ],
          [
            "-113522212",
            "53524835",
            "663",
            "564",
            "1000",
            "0",
            "0",
            "0",
            "0",
            "railway=light_rail",
            "railway=unknown",
            "56",
            "32685"
          ],
          [
            "-113516111",
            "53527101",
            "648",
            "476",
            "1000",
            "0",
            "0",
            "0",
            "0",
            "railway=light_rail",
            "railway=switch",
            "94",
            "53624"
          ],
          [
            "-113515914",
            "53527212",
            "648",
            "18",
            "1000",
            "0",
            "0",
            "0",
            "0",
            "reversedirection=yes railway=light_rail",
            "railway=unknown",
            "95",
            "54416"
          ],
          [
            "-113515665",
            "53527281",
            "647",
            "18",
            "1000",
            "0",
            "0",
            "0",
            "0",
            "railway=light_rail",
            "railway=switch",
            "97",
            "55207"
          ],
          [
            "-113515632",
            "53527294",
            "647",
            "3",
            "1000",
            "0",
            "0",
            "0",
            "0",
            "railway=light_rail",
            "entrance=main",
            "97",
            "55207"
          ],
          [
            "-113512313",
            "53529918",
            "645",
            "374",
            "1000",
            "0",
            "0",
            "0",
            "0",
            "railway=light_rail",
            "railway=signal",
            "127",
            "60287"
          ],
          [
            "-113510204",
            "53536244",
            "-8192",
            "726",
            "1000",
            "0",
            "0",
            "0",
            "0",
            "railway=light_rail",
            "railway=unknown",
            "185",
            "84841"
          ],
          [
            "-113509261",
            "53539935",
            "-8192",
            "432",
            "1000",
            "0",
            "0",
            "0",
            "0",
            "railway=light_rail",
            "railway=switch",
            "220",
            "103799"
          ],
          [
            "-113508702",
            "53540237",
            "-8192",
            "50",
            "1000",
            "0",
            "0",
            "0",
            "0",
            "railway=light_rail",
            "railway=switch",
            "224",
            "105998"
          ],
          [
            "-113503863",
            "53540898",
            "-8192",
            "345",
            "1000",
            "0",
            "0",
            "0",
            "0",
            "railway=light_rail",
            "railway=unknown",
            "251",
            "121172"
          ],
          [
            "-113498408",
            "53540873",
            "-8192",
            "361",
            "1000",
            "0",
            "0",
            "0",
            "0",
            "railway=light_rail",
            "railway=unknown",
            "280",
            "137051"
          ],
          [
            "-113492319",
            "53540980",
            "-8192",
            "405",
            "1000",
            "0",
            "0",
            "0",
            "0",
            "railway=light_rail",
            "railway=unknown",
            "312",
            "154865"
          ],
          [
            "-113489028",
            "53544342",
            "-8192",
            "554",
            "1000",
            "0",
            "0",
            "0",
            "0",
            "railway=light_rail",
            "railway=unknown",
            "357",
            "179233"
          ],
          [
            "-113489150",
            "53545017",
            "-8192",
            "61",
            "1000",
            "0",
            "0",
            "0",
            "0",
            "railway=light_rail",
            "",
            "362",
            "181916"
          ],
          [
            "-113489150",
            "53545017",
            "-8192",
            "14",
            "1000",
            "0",
            "0",
            "0",
            "0",
            "railway=light_rail",
            "railway=switch",
            "1",
            "615"
          ],
          [
            "-113489259",
            "53545485",
            "-8192",
            "53",
            "1000",
            "0",
            "0",
            "0",
            "0",
            "railway=light_rail",
            "railway=unknown",
            "5",
            "2947"
          ],
          [
            "-113499622",
            "53547865",
            "662",
            "843",
            "1000",
            "0",
            "0",
            "0",
            "0",
            "railway=light_rail",
            "railway=unknown",
            "72",
            "39764"
          ],
          [
            "-113500326",
            "53547967",
            "662",
            "48",
            "1000",
            "0",
            "0",
            "0",
            "0",
            "railway=light_rail",
            "crossing=traffic_signals railway=crossing",
            "76",
            "41765"
          ],
          [
            "-113500990",
            "53548431",
            "659",
            "70",
            "1000",
            "0",
            "0",
            "0",
            "0",
            "railway=light_rail",
            "railway=level_crossing",
            "82",
            "43944"
          ],
          [
            "-113501061",
            "53549824",
            "660",
            "156",
            "1000",
            "0",
            "0",
            "0",
            "0",
            "railway=light_rail",
            "railway=level_crossing",
            "94",
            "49719"
          ],
          [
            "-113501058",
            "53551429",
            "659",
            "179",
            "1000",
            "0",
            "0",
            "0",
            "0",
            "railway=light_rail",
            "railway=level_crossing",
            "109",
            "56983"
          ],
          [
            "-113501059",
            "53551509",
            "659",
            "9",
            "1000",
            "0",
            "0",
            "0",
            "0",
            "railway=light_rail",
            "crossing=traffic_signals railway=crossing",
            "109",
            "57350"
          ],
          [
            "-113500374",
            "53553085",
            "660",
            "191",
            "1000",
            "0",
            "0",
            "0",
            "0",
            "railway=light_rail",
            "crossing=traffic_signals railway=crossing",
            "125",
            "66436"
          ],
          [
            "-113499184",
            "53554668",
            "658",
            "204",
            "1000",
            "0",
            "0",
            "0",
            "0",
            "railway=light_rail",
            "railway=switch",
            "141",
            "74235"
          ],
          [
            "-113499183",
            "53555740",
            "659",
            "57",
            "1000",
            "0",
            "0",
            "0",
            "0",
            "railway=light_rail",
            "",
            "145",
            "76531"
          ],
          [
            "-113499183",
            "53555740",
            "659",
            "63",
            "1000",
            "0",
            "0",
            "0",
            "0",
            "railway=light_rail",
            "railway=switch",
            "5",
            "3183"
          ],
          [
            "-113499328",
            "53556622",
            "660",
            "99",
            "1000",
            "0",
            "0",
            "0",
            "0",
            "railway=light_rail",
            "railway=crossing",
            "12",
            "8343"
          ],
          [
            "-113499365",
            "53556684",
            "660",
            "7",
            "1000",
            "0",
            "0",
            "0",
            "0",
            "railway=light_rail",
            "railway=level_crossing",
            "13",
            "8703"
          ],
          [
            "-113499465",
            "53556820",
            "661",
            "17",
            "1000",
            "0",
            "0",
            "0",
            "0",
            "railway=light_rail",
            "railway=level_crossing",
            "14",
            "9597"
          ],
          [
            "-113500047",
            "53557266",
            "661",
            "63",
            "1000",
            "0",
            "0",
            "0",
            "0",
            "railway=light_rail",
            "railway=crossing",
            "19",
            "12899"
          ],
          [
            "-113500202",
            "53557349",
            "661",
            "14",
            "1000",
            "0",
            "0",
            "0",
            "0",
            "railway=light_rail",
            "railway=signal",
            "21",
            "13577"
          ],
          [
            "-113501473",
            "53558030",
            "659",
            "113",
            "1000",
            "0",
            "0",
            "0",
            "0",
            "railway=light_rail",
            "railway=unknown",
            "30",
            "17934"
          ],
          [
            "-113501881",
            "53558249",
            "659",
            "36",
            "1000",
            "0",
            "0",
            "0",
            "0",
            "railway=light_rail",
            "railway=crossing",
            "32",
            "19363"
          ],
          [
            "-113502626",
            "53558852",
            "661",
            "84",
            "1000",
            "0",
            "0",
            "0",
            "0",
            "railway=light_rail",
            "railway=level_crossing",
            "39",
            "23434"
          ],
          [
            "-113502692",
            "53558975",
            "661",
            "14",
            "1000",
            "0",
            "0",
            "0",
            "0",
            "railway=light_rail",
            "railway=level_crossing",
            "40",
            "24127"
          ],
          [
            "-113502724",
            "53559094",
            "661",
            "13",
            "1000",
            "0",
            "0",
            "0",
            "0",
            "railway=light_rail",
            "crossing=traffic_signals railway=crossing",
            "41",
            "24761"
          ],
          [
            "-113503163",
            "53562783",
            "661",
            "412",
            "1000",
            "0",
            "0",
            "0",
            "0",
            "railway=light_rail",
            "crossing=traffic_signals railway=crossing",
            "74",
            "43144"
          ],
          [
            "-113503169",
            "53563341",
            "661",
            "62",
            "1000",
            "0",
            "0",
            "0",
            "0",
            "railway=light_rail",
            "railway=switch",
            "79",
            "45958"
          ],
          [
            "-113503169",
            "53563417",
            "661",
            "8",
            "1000",
            "0",
            "0",
            "0",
            "0",
            "railway=light_rail",
            "railway=switch",
            "80",
            "46335"
          ],
          [
            "-113503179",
            "53565339",
            "663",
            "215",
            "1000",
            "0",
            "0",
            "0",
            "0",
            "railway=light_rail",
            "railway=level_crossing",
            "97",
            "57251"
          ],
          [
            "-113503359",
            "53565574",
            "662",
            "29",
            "1000",
            "0",
            "0",
            "0",
            "0",
            "railway=light_rail",
            "railway=level_crossing",
            "99",
            "58583"
          ],
          [
            "-113503455",
            "53565657",
            "662",
            "11",
            "1000",
            "0",
            "0",
            "0",
            "0",
            "railway=light_rail",
            "crossing=traffic_signals railway=crossing",
            "100",
            "59078"
          ],
          [
            "-113503954",
            "53565909",
            "663",
            "43",
            "1000",
            "0",
            "0",
            "0",
            "0",
            "railway=light_rail",
            "railway=crossing",
            "104",
            "61050"
          ],
          [
            "-113504049",
            "53565941",
            "663",
            "7",
            "1000",
            "0",
            "0",
            "0",
            "0",
            "railway=light_rail",
            "railway=level_crossing",
            "104",
            "61374"
          ],
          [
            "-113504277",
            "53565994",
            "663",
            "16",
            "1000",
            "0",
            "0",
            "0",
            "0",
            "railway=light_rail",
            "railway=level_crossing",
            "106",
            "62143"
          ],
          [
            "-113504884",
            "53566038",
            "663",
            "41",
            "1000",
            "0",
            "0",
            "0",
            "0",
            "railway=light_rail",
            "crossing=traffic_signals railway=crossing",
            "109",
            "64137"
          ],
          [
            "-113506713",
            "53566044",
            "661",
            "121",
            "1000",
            "0",
            "0",
            "0",
            "0",
            "railway=light_rail",
            "crossing=traffic_signals railway=crossing",
            "119",
            "68194"
          ],
          [
            "-113508210",
            "53566360",
            "659",
            "109",
            "1000",
            "0",
            "0",
            "0",
            "0",
            "railway=light_rail",
            "crossing=traffic_signals railway=crossing",
            "127",
            "72071"
          ],
          [
            "-113508415",
            "53566493",
            "658",
            "20",
            "1000",
            "0",
            "0",
            "0",
            "0",
            "railway=light_rail",
            "railway=signal",
            "129",
            "72619"
          ],
          [
            "-113509089",
            "53566947",
            "659",
            "67",
            "1000",
            "0",
            "0",
            "0",
            "0",
            "railway=light_rail",
            "wheelchair=yes railway=unknown",
            "134",
            "75034"
          ],
          [
            "-113509952",
            "53567522",
            "660",
            "60",
            "1000",
            "0",
            "0",
            "0",
            "0",
            "railway=light_rail",
            "",
            "139",
            "77836"
          ],
          [
            "-113509089",
            "53566947",
            "659",
            "60",
            "1000",
            "0",
            "0",
            "0",
            "0",
            "reversedirection=yes railway=light_rail",
            "wheelchair=yes railway=unknown",
            "4",
            "2240"
          ],
          [
            "-113508415",
            "53566493",
            "658",
            "67",
            "1000",
            "0",
            "0",
            "0",
            "0",
            "reversedirection=yes railway=light_rail",
            "railway=signal",
            "10",
            "4638"
          ],
          [
            "-113508210",
            "53566360",
            "659",
            "20",
            "1000",
            "0",
            "0",
            "0",
            "0",
            "reversedirection=yes railway=light_rail",
            "crossing=traffic_signals railway=crossing",
            "11",
            "5570"
          ],
          [
            "-113506713",
            "53566044",
            "661",
            "109",
            "1000",
            "0",
            "0",
            "0",
            "0",
            "reversedirection=yes railway=light_rail",
            "crossing=traffic_signals railway=crossing",
            "20",
            "11315"
          ],
          [
            "-113504884",
            "53566038",
            "663",
            "121",
            "1000",
            "0",
            "0",
            "0",
            "0",
            "reversedirection=yes railway=light_rail",
            "crossing=traffic_signals railway=crossing",
            "30",
            "16908"
          ],
          [
            "-113504277",
            "53565994",
            "663",
            "41",
            "1000",
            "0",
            "0",
            "0",
            "0",
            "reversedirection=yes railway=light_rail",
            "railway=level_crossing",
            "33",
            "19230"
          ],
          [
            "-113504049",
            "53565941",
            "663",
            "16",
            "1000",
            "0",
            "0",
            "0",
            "0",
            "reversedirection=yes railway=light_rail",
            "railway=level_crossing",
            "34",
            "20200"
          ],
          [
            "-113503954",
            "53565909",
            "663",
            "7",
            "1000",
            "0",
            "0",
            "0",
            "0",
            "reversedirection=yes railway=light_rail",
            "railway=crossing",
            "35",
            "20612"
          ],
          [
            "-113503455",
            "53565657",
            "662",
            "43",
            "1000",
            "0",
            "0",
            "0",
            "0",
            "reversedirection=yes railway=light_rail",
            "crossing=traffic_signals railway=crossing",
            "38",
            "22947"
          ],
          [
            "-113503359",
            "53565574",
            "662",
            "11",
            "1000",
            "0",
            "0",
            "0",
            "0",
            "reversedirection=yes railway=light_rail",
            "railway=level_crossing",
            "39",
            "23511"
          ],
          [
            "-113503179",
            "53565339",
            "663",
            "29",
            "1000",
            "0",
            "0",
            "0",
            "0",
            "reversedirection=yes railway=light_rail",
            "railway=level_crossing",
            "41",
            "25016"
          ],
          [
            "-113503169",
            "53563417",
            "661",
            "215",
            "1000",
            "0",
            "0",
            "0",
            "0",
            "reversedirection=yes railway=light_rail",
            "railway=switch",
            "59",
            "33924"
          ],
          [
            "-113503169",
            "53563341",
            "661",
            "8",
            "1000",
            "0",
            "0",
            "0",
            "0",
            "reversedirection=yes railway=light_rail",
            "railway=switch",
            "59",
            "34235"
          ],
          [
            "-113503235",
            "53562856",
            "661",
            "54",
            "1000",
            "0",
            "0",
            "0",
            "0",
            "reversedirection=yes railway=light_rail",
            "railway=switch",
            "64",
            "36403"
          ],
          [
            "-113503235",
            "53562783",
            "661",
            "8",
            "1000",
            "0",
            "0",
            "0",
            "0",
            "railway=light_rail",
            "crossing=traffic_signals railway=crossing",
            "64",
            "36733"
          ],
          [
            "-113502794",
            "53559099",
            "661",
            "412",
            "1000",
            "0",
            "0",
            "0",
            "0",
            "railway=light_rail",
            "crossing=traffic_signals railway=crossing",
            "97",
            "54599"
          ],
          [
            "-113502765",
            "53558976",
            "661",
            "14",
            "1000",
            "0",
            "0",
            "0",
            "0",
            "railway=light_rail",
            "railway=level_crossing",
            "98",
            "55213"
          ],
          [
            "-113502710",
            "53558851",
            "661",
            "14",
            "1000",
            "0",
            "0",
            "0",
            "0",
            "railway=light_rail",
            "railway=level_crossing",
            "99",
            "55828"
          ],
          [
            "-113500703",
            "53557475",
            "661",
            "207",
            "1000",
            "0",
            "0",
            "0",
            "0",
            "railway=light_rail",
            "railway=unknown",
            "116",
            "64684"
          ],
          [
            "-113500322",
            "53557272",
            "661",
            "34",
            "1000",
            "0",
            "0",
            "0",
            "0",
            "railway=light_rail",
            "railway=signal",
            "119",
            "66312"
          ],
          [
            "-113499657",
            "53556880",
            "661",
            "63",
            "1000",
            "0",
            "0",
            "0",
            "0",
            "railway=light_rail",
            "railway=level_crossing",
            "124",
            "69141"
          ],
          [
            "-113499497",
            "53556722",
            "660",
            "21",
            "1000",
            "0",
            "0",
            "0",
            "0",
            "railway=light_rail",
            "railway=level_crossing",
            "125",
            "70033"
          ],
          [
            "-113499449",
            "53556658",
            "660",
            "8",
            "1000",
            "0",
            "0",
            "0",
            "0",
            "railway=light_rail",
            "railway=crossing",
            "126",
            "70357"
          ],
          [
            "-113499251",
            "53555239",
            "657",
            "79",
            "1000",
            "0",
            "0",
            "0",
            "0",
            "railway=light_rail",
            "",
            "132",
            "73420"
          ],
          [
            "-113499251",
            "53555239",
            "657",
            "81",
            "1000",
            "0",
            "0",
            "0",
            "0",
            "railway=light_rail",
            "railway=switch",
            "6",
            "2705"
          ],
          [
            "-113499251",
            "53555144",
            "657",
            "11",
            "1000",
            "0",
            "0",
            "0",
            "0",
            "railway=light_rail",
            "railway=switch",
            "7",
            "3094"
          ],
          [
            "-113499252",
            "53554244",
            "659",
            "49",
            "1000",
            "0",
            "0",
            "0",
            "0",
            "railway=light_rail",
            "",
            "11",
            "5190"
          ],
          [
            "-113500456",
            "53553097",
            "660",
            "207",
            "1000",
            "0",
            "0",
            "0",
            "0",
            "railway=light_rail",
            "crossing=traffic_signals railway=crossing",
            "16",
            "10366"
          ],
          [
            "-113501127",
            "53551508",
            "659",
            "191",
            "1000",
            "0",
            "0",
            "0",
            "0",
            "railway=light_rail",
            "crossing=traffic_signals railway=crossing",
            "31",
            "18804"
          ],
          [
            "-113501128",
            "53551425",
            "659",
            "9",
            "1000",
            "0",
            "0",
            "0",
            "0",
            "railway=light_rail",
            "railway=level_crossing",
            "32",
            "19183"
          ],
          [
            "-113501127",
            "53549824",
            "660",
            "178",
            "1000",
            "0",
            "0",
            "0",
            "0",
            "railway=light_rail",
            "railway=level_crossing",
            "46",
            "27226"
          ],
          [
            "-113500988",
            "53548219",
            "660",
            "180",
            "1000",
            "0",
            "0",
            "0",
            "0",
            "railway=light_rail",
            "railway=level_crossing",
            "61",
            "35237"
          ],
          [
            "-113500507",
            "53547903",
            "662",
            "48",
            "1000",
            "0",
            "0",
            "0",
            "0",
            "railway=light_rail",
            "crossing=traffic_signals railway=crossing",
            "65",
            "37978"
          ],
          [
            "-113497889",
            "53547639",
            "662",
            "177",
            "1000",
            "0",
            "0",
            "0",
            "0",
            "railway=light_rail",
            "railway=unknown",
            "79",
            "47277"
          ],
          [
            "-113489276",
            "53545007",
            "-8192",
            "761",
            "1000",
            "0",
            "0",
            "0",
            "0",
            "railway=light_rail",
            "railway=switch",
            "140",
            "81211"
          ],
          [
            "-113489041",
            "53543765",
            "-8192",
            "115",
            "1000",
            "0",
            "0",
            "0",
            "0",
            "railway=light_rail",
            "",
            "149",
            "86270"
          ],
          [
            "-113489041",
            "53543765",
            "-8192",
            "24",
            "1000",
            "0",
            "0",
            "0",
            "0",
            "railway=light_rail",
            "railway=unknown",
            "1",
            "1055"
          ],
          [
            "-113492339",
            "53541071",
            "-8192",
            "478",
            "1000",
            "0",
            "0",
            "0",
            "0",
            "railway=light_rail",
            "railway=unknown",
            "40",
            "22080"
          ],
          [
            "-113498410",
            "53540975",
            "-8192",
            "402",
            "1000",
            "0",
            "0",
            "0",
            "0",
            "railway=light_rail",
            "railway=unknown",
            "72",
            "39762"
          ],
          [
            "-113505587",
            "53540996",
            "-8192",
            "475",
            "1000",
            "0",
            "0",
            "0",
            "0",
            "railway=light_rail",
            "railway=unknown",
            "110",
            "60655"
          ],
          [
            "-113508836",
            "53540296",
            "-8192",
            "240",
            "1000",
            "0",
            "0",
            "0",
            "0",
            "railway=light_rail",
            "railway=switch",
            "129",
            "71212"
          ],
          [
            "-113509380",
            "53539999",
            "-8192",
            "49",
            "1000",
            "0",
            "0",
            "0",
            "0",
            "railway=light_rail",
            "railway=switch",
            "133",
            "73367"
          ],
          [
            "-113510364",
            "53536237",
            "-8192",
            "438",
            "1000",
            "0",
            "0",
            "0",
            "0",
            "railway=light_rail",
            "railway=unknown",
            "168",
            "92632"
          ],
          [
            "-113512385",
            "53529934",
            "645",
            "722",
            "1000",
            "0",
            "0",
            "0",
            "0",
            "railway=light_rail",
            "railway=signal",
            "226",
            "122046"
          ],
          [
            "-113515686",
            "53527334",
            "648",
            "371",
            "1000",
            "0",
            "0",
            "0",
            "0",
            "railway=light_rail",
            "entrance=main",
            "255",
            "140964"
          ],
          [
            "-113515732",
            "53527315",
            "-8192",
            "4",
            "1000",
            "0",
            "0",
            "0",
            "0",
            "railway=light_rail",
            "railway=switch",
            "256",
            "141251"
          ],
          [
            "-113515914",
            "53527212",
            "-8192",
            "17",
            "1000",
            "0",
            "0",
            "0",
            "0",
            "railway=light_rail",
            "railway=unknown",
            "257",
            "142425"
          ],
          [
            "-113516167",
            "53527143",
            "-8192",
            "18",
            "1000",
            "0",
            "0",
            "0",
            "0",
            "reversedirection=yes railway=light_rail",
            "railway=switch",
            "259",
            "143595"
          ],
          [
            "-113522304",
            "53524877",
            "-8192",
            "478",
            "1000",
            "0",
            "0",
            "0",
            "0",
            "railway=light_rail",
            "railway=unknown",
            "297",
            "166523"
          ],
          [
            "-113524271",
            "53524164",
            "-8192",
            "37",
            "1000",
            "0",
            "0",
            "0",
            "0",
            "railway=light_rail",
            "",
            "300",
            "168155"
          ],
          [
            "-113525992",
            "53520767",
            "678",
            "531",
            "1000",
            "0",
            "0",
            "0",
            "0",
            "railway=light_rail",
            "railway=crossing",
            "42",
            "23039"
          ],
          [
            "-113525991",
            "53520639",
            "678",
            "14",
            "1000",
            "0",
            "0",
            "0",
            "0",
            "railway=light_rail",
            "railway=signal",
            "43",
            "23610"
          ],
          [
            "-113525986",
            "53519537",
            "676",
            "123",
            "1000",
            "0",
            "0",
            "0",
            "0",
            "railway=light_rail",
            "railway=unknown",
            "53",
            "28026"
          ],
          [
            "-113525985",
            "53519516",
            "676",
            "2",
            "1000",
            "0",
            "0",
            "0",
            "0",
            "railway=light_rail",
            "",
            "53",
            "28106"
          ]
        ],
        "times": [
          0,
          9.44,
          9.92,
          11.12,
          12.8,
          21.36,
          25.68,
          27.84,
          30.24,
          32.8,
          34.48,
          36.32,
          37.92,
          39.28,
          40.56,
          41.76,
          43.2,
          56.24,
          61.52,
          86.96,
          90.96,
          94.32,
          95.76,
          97.2,
          97.44,
          98.24,
          102.56,
          107.6,
          109.68,
          110.72,
          112.08,
          113.6,
          115.04,
          117.2,
          118.8,
          120.56,
          121.92,
          125.04,
          127.36,
          144.56,
          153.04,
          154.32,
          156.4,
          159.92,
          162.32,
          163.6,
          164.96,
          179.68,
          185.44,
          189.6,
          208.48,
          209.36,
          211.28,
          213.04,
          214.72,
          216.56,
          218.48,
          220,
          224,
          228.08,
          229.76,
          231.6,
          233.36,
          235.2,
          237.12,
          242.08,
          251.6,
          252.08,
          258.64,
          263.28,
          280.48,
          304.64,
          305.92,
          312.88,
          322,
          323.44,
          324.72,
          326.64,
          327.84,
          329.04,
          330.4,
          331.52,
          332.72,
          334.48,
          335.68,
          337.76,
          339.04,
          357.2,
          362.08,
          363.2,
          367.44,
          373.12,
          374.96,
          376.4,
          377.84,
          379.28,
          380.64,
          382.24,
          383.76,
          385.76,
          387.44,
          389.36,
          392.16,
          393.52,
          395.2,
          397.52,
          405.6,
          419.04,
          420.64,
          422.56,
          430.8,
          434.88,
          436.32,
          437.04,
          438,
          438.72,
          439.92,
          441.52,
          442.16,
          442.96,
          444.32,
          444.96,
          446.56,
          452.32,
          456.8,
          471.12,
          471.84,
          472.32,
          479.12,
          479.92,
          480.64,
          481.36,
          482.08,
          483.52,
          484.72,
          485.52,
          487.12,
          488.64,
          492.24,
          493.6,
          494.64,
          495.12,
          496.64,
          497.84,
          499.04,
          503.44,
          508,
          513.04,
          517.68,
          519.12,
          520.24,
          520.96,
          521.52,
          522.88,
          524.88,
          526.08,
          527.92,
          529.04,
          538.08,
          540.96,
          542.64,
          543.68,
          544.64,
          546.08,
          547.68,
          548.8,
          549.84,
          550.48,
          551.2,
          559.36,
          562.56,
          565.44,
          571.28,
          574.8,
          577.84,
          582.8,
          587.76,
          588.4,
          596.16,
          602.88,
          604.4,
          605.6,
          606.32,
          607.92,
          608.8,
          609.2,
          610.32,
          611.2,
          612.24,
          612.8,
          614.08,
          614.56,
          615.84,
          617.36,
          627.04,
          628.16,
          629.28,
          631.2,
          632.4,
          633.28,
          634.32,
          635.76,
          637.36,
          637.76,
          642.72,
          647.52,
          652.32,
          657.28,
          657.68,
          659.28,
          660.72,
          661.76,
          662.64,
          663.84,
          665.76,
          666.88,
          668,
          677.68,
          679.2,
          680.48,
          680.96,
          682.24,
          682.8,
          683.84,
          684.72,
          685.84,
          686.24,
          687.12,
          688.72,
          689.44,
          690.64,
          692.16,
          698.88,
          706.64,
          707.28,
          708.16,
          710.56,
          711.6,
          712.24,
          717.36,
          719.68,
          721.76,
          730.72,
          732.16,
          735.68,
          741.36,
          744.16,
          745.2,
          746.32,
          747.44,
          748.56,
          749.52,
          750.56,
          752,
          752.72,
          754,
          760.8,
          764,
          766.72,
          767.2,
          769.28,
          770.8,
          771.76,
          773.44,
          774.08,
          775.04,
          776.24,
          777.6,
          778.48,
          780.4,
          786.88,
          787.76,
          791.68,
          795.76,
          797.04,
          798.24,
          799.44,
          800,
          801.28,
          802.8,
          803.52,
          808.24,
          809.84,
          810.56,
          811.84,
          813.28,
          814.88,
          815.44,
          816.48,
          823.52,
          824.24,
          825.36,
          838.48,
          840.16,
          850.16,
          850.8,
          851.6,
          852.88,
          854.24,
          854.96,
          855.92,
          856.72,
          857.68,
          858.56,
          859.92,
          865.6,
          870.88,
          872.32,
          873.76,
          877.36,
          888,
          898.96,
          901.12,
          902.64,
          905.36,
          906.64,
          908.32,
          909.92,
          911.6,
          913.2,
          914.72,
          917.44,
          918.72,
          920.16,
          921.92,
          931.76,
          940.96,
          942.88,
          955.52,
          956.96,
          958.16,
          960.4,
          962,
          963.12,
          964.24,
          965.52,
          966.8,
          968.08,
          969.68,
          970.4,
          971.2,
          981.12,
          987.36,
          988.24,
          989.2,
          1013.28,
          1035.12,
          1041.68,
          1051.28,
          1051.68,
          1056.64,
          1058.72,
          1060.64,
          1062.48,
          1064.48,
          1066.24,
          1070.48,
          1074.4,
          1075.84,
          1077.92,
          1079.84,
          1081.6,
          1083.44,
          1085.44,
          1086.4,
          1105.28,
          1109.44,
          1115.12,
          1129.76,
          1131.2,
          1133.68,
          1135.28,
          1138.32,
          1140.32,
          1141.6,
          1148.16,
          1167.2,
          1170.56,
          1172.88,
          1174.32,
          1177.6,
          1179.36,
          1180.4,
          1182.48,
          1184.88,
          1186.16,
          1189.36,
          1196.08,
          1196.88,
          1197.2,
          1198.56,
          1200,
          1204.56,
          1207.84,
          1232.72,
          1238.24,
          1241.2,
          1250.4,
          1252.08,
          1253.92,
          1255.68,
          1257.52,
          1259.76,
          1261.84,
          1264.64,
          1266.72,
          1269.04,
          1273.44,
          1275.12,
          1277.2,
          1282,
          1283.68,
          1284.8,
          1294.64,
          1294.8
        ]
      },
      "geometry": {
        "type": "LineString",
        "coordinates": [
          [
            -113.525807,
            53.519517,
            677.25
          ],
          [
            -113.525813,
            53.520581,
            679
          ],
          [
            -113.525813,
            53.520635,
            679
          ],
          [
            -113.525813,
            53.520768,
            679
          ],
          [
            -113.525817,
            53.520958,
            679.25
          ],
          [
            -113.525798,
            53.521918,
            676
          ],
          [
            -113.525808,
            53.522402,
            674.25
          ],
          [
            -113.525764,
            53.522647,
            673.5
          ],
          [
            -113.52568,
            53.522912,
            672.75
          ],
          [
            -113.52553,
            53.52319,
            671.75
          ],
          [
            -113.525397,
            53.523366,
            671
          ],
          [
            -113.52522,
            53.523542,
            670.25
          ],
          [
            -113.525053,
            53.523689,
            669.75
          ],
          [
            -113.524882,
            53.523805,
            669.25
          ],
          [
            -113.524713,
            53.523904,
            668.75
          ],
          [
            -113.524527,
            53.523986,
            668.25
          ],
          [
            -113.524306,
            53.524075,
            667.75
          ],
          [
            -113.522212,
            53.524835,
            663
          ],
          [
            -113.521359,
            53.525146,
            661
          ],
          [
            -113.517264,
            53.526639,
            651.5
          ],
          [
            -113.516624,
            53.526883,
            650
          ],
          [
            -113.516111,
            53.527101,
            648.75
          ],
          [
            -113.515914,
            53.527212,
            648.25
          ],
          [
            -113.515665,
            53.527281,
            647.75
          ],
          [
            -113.515632,
            53.527294,
            647.5
          ],
          [
            -113.515518,
            53.527348,
            647.25
          ],
          [
            -113.514877,
            53.527648,
            647
          ],
          [
            -113.514158,
            53.528015,
            646.5
          ],
          [
            -113.513877,
            53.528184,
            646.5
          ],
          [
            -113.513741,
            53.528274,
            646.25
          ],
          [
            -113.513577,
            53.528386,
            646.25
          ],
          [
            -113.513407,
            53.528522,
            646
          ],
          [
            -113.513256,
            53.528651,
            646
          ],
          [
            -113.513049,
            53.528858,
            645.75
          ],
          [
            -113.512911,
            53.529016,
            645.75
          ],
          [
            -113.512767,
            53.529198,
            645.5
          ],
          [
            -113.512668,
            53.529339,
            645.5
          ],
          [
            -113.512458,
            53.529671,
            645.25
          ],
          [
            -113.512313,
            53.529918,
            645
          ],
          [
            -113.511241,
            53.531741,
            643.5
          ],
          [
            -113.510717,
            53.532641,
            642.75
          ],
          [
            -113.51064,
            53.53278,
            643
          ],
          [
            -113.510526,
            53.533004
          ],
          [
            -113.510368,
            53.533384
          ],
          [
            -113.51028,
            53.53365
          ],
          [
            -113.510243,
            53.533796
          ],
          [
            -113.510226,
            53.533951
          ],
          [
            -113.510204,
            53.535601
          ],
          [
            -113.510204,
            53.536244
          ],
          [
            -113.510204,
            53.536707
          ],
          [
            -113.510205,
            53.538829
          ],
          [
            -113.510198,
            53.53893
          ],
          [
            -113.510144,
            53.539139
          ],
          [
            -113.510045,
            53.539326
          ],
          [
            -113.509908,
            53.539496
          ],
          [
            -113.509716,
            53.539665
          ],
          [
            -113.509469,
            53.539823
          ],
          [
            -113.509261,
            53.539935
          ],
          [
            -113.508702,
            53.540237
          ],
          [
            -113.508141,
            53.540546
          ],
          [
            -113.507896,
            53.540662
          ],
          [
            -113.507596,
            53.540766
          ],
          [
            -113.507294,
            53.540838
          ],
          [
            -113.506959,
            53.540885
          ],
          [
            -113.506599,
            53.540901
          ],
          [
            -113.50566,
            53.540897
          ],
          [
            -113.503863,
            53.540898
          ],
          [
            -113.50377,
            53.540898
          ],
          [
            -113.502527,
            53.540895
          ],
          [
            -113.501653,
            53.540874
          ],
          [
            -113.498408,
            53.540873
          ],
          [
            -113.49385,
            53.540886
          ],
          [
            -113.493616,
            53.540894
          ],
          [
            -113.492319,
            53.54098
          ],
          [
            -113.490611,
            53.541099
          ],
          [
            -113.49034,
            53.54112
          ],
          [
            -113.49011,
            53.541146
          ],
          [
            -113.489774,
            53.541219
          ],
          [
            -113.489561,
            53.541273
          ],
          [
            -113.489375,
            53.541342
          ],
          [
            -113.489163,
            53.541429
          ],
          [
            -113.489004,
            53.54151
          ],
          [
            -113.488867,
            53.54162
          ],
          [
            -113.488736,
            53.541806
          ],
          [
            -113.488683,
            53.541937
          ],
          [
            -113.488661,
            53.542172
          ],
          [
            -113.488663,
            53.542314
          ],
          [
            -113.489028,
            53.544342
          ],
          [
            -113.489127,
            53.544889,
            663
          ],
          [
            -113.48915,
            53.545017,
            663
          ],
          [
            -113.489259,
            53.545485,
            663
          ],
          [
            -113.489378,
            53.546116,
            663
          ],
          [
            -113.489447,
            53.546317,
            663
          ],
          [
            -113.489525,
            53.546476,
            663
          ],
          [
            -113.48962,
            53.546624,
            663
          ],
          [
            -113.48975,
            53.546768,
            663
          ],
          [
            -113.489884,
            53.546897,
            663
          ],
          [
            -113.490057,
            53.547043,
            663
          ],
          [
            -113.490246,
            53.547168,
            663
          ],
          [
            -113.490523,
            53.547315,
            663
          ],
          [
            -113.490784,
            53.547428,
            663
          ],
          [
            -113.491102,
            53.547527,
            663
          ],
          [
            -113.491607,
            53.54761,
            663
          ],
          [
            -113.491856,
            53.547633,
            663
          ],
          [
            -113.492174,
            53.547651,
            663
          ],
          [
            -113.492607,
            53.547663,
            663
          ],
          [
            -113.494124,
            53.547667,
            663
          ],
          [
            -113.496662,
            53.547684,
            663
          ],
          [
            -113.496961,
            53.547691,
            663
          ],
          [
            -113.497318,
            53.547711,
            663
          ],
          [
            -113.498856,
            53.547811,
            662.75
          ],
          [
            -113.499622,
            53.547865,
            662.5
          ],
          [
            -113.499897,
            53.547883,
            662.5
          ],
          [
            -113.500035,
            53.547899,
            662.5
          ],
          [
            -113.500201,
            53.547931,
            662.25
          ],
          [
            -113.500326,
            53.547967,
            662.25
          ],
          [
            -113.500523,
            53.548037,
            661.75
          ],
          [
            -113.500739,
            53.548158,
            661
          ],
          [
            -113.500812,
            53.548215,
            660.5
          ],
          [
            -113.500889,
            53.548291,
            660.25
          ],
          [
            -113.50099,
            53.548431,
            659.75
          ],
          [
            -113.501023,
            53.548497,
            660
          ],
          [
            -113.501059,
            53.548675,
            660
          ],
          [
            -113.50106,
            53.549321,
            660
          ],
          [
            -113.501061,
            53.549824,
            660
          ],
          [
            -113.501058,
            53.551429,
            659.5
          ],
          [
            -113.501059,
            53.551509,
            659.25
          ],
          [
            -113.501059,
            53.551559,
            659.25
          ],
          [
            -113.501042,
            53.55232,
            660.5
          ],
          [
            -113.501034,
            53.552409,
            660.75
          ],
          [
            -113.501011,
            53.552485,
            660.75
          ],
          [
            -113.500975,
            53.552562,
            661
          ],
          [
            -113.500925,
            53.552641,
            661
          ],
          [
            -113.500807,
            53.552785,
            660.75
          ],
          [
            -113.500685,
            53.552894,
            660.75
          ],
          [
            -113.500592,
            53.552961,
            660.5
          ],
          [
            -113.500374,
            53.553085,
            660
          ],
          [
            -113.500164,
            53.553206,
            659.5
          ],
          [
            -113.499662,
            53.553477,
            659.5
          ],
          [
            -113.499508,
            53.553598,
            659.5
          ],
          [
            -113.499404,
            53.553699,
            659.75
          ],
          [
            -113.499363,
            53.553747,
            659.75
          ],
          [
            -113.499264,
            53.553906,
            659.75
          ],
          [
            -113.499217,
            53.554039,
            659.75
          ],
          [
            -113.499191,
            53.554172,
            659.75
          ],
          [
            -113.499184,
            53.554668,
            658
          ],
          [
            -113.499184,
            53.555178,
            659.5
          ],
          [
            -113.499183,
            53.55574,
            659.5
          ],
          [
            -113.499193,
            53.556261,
            660.25
          ],
          [
            -113.499235,
            53.556425,
            660.5
          ],
          [
            -113.499283,
            53.556548,
            660.5
          ],
          [
            -113.499328,
            53.556622,
            660.75
          ],
          [
            -113.499365,
            53.556684,
            660.75
          ],
          [
            -113.499465,
            53.55682,
            661
          ],
          [
            -113.499658,
            53.55701,
            661.5
          ],
          [
            -113.4998,
            53.557116,
            661.5
          ],
          [
            -113.500047,
            53.557266,
            661.25
          ],
          [
            -113.500202,
            53.557349,
            661.25
          ],
          [
            -113.501473,
            53.55803,
            659.75
          ],
          [
            -113.501881,
            53.558249,
            659.5
          ],
          [
            -113.502112,
            53.558374,
            660
          ],
          [
            -113.502253,
            53.55846,
            660.25
          ],
          [
            -113.502365,
            53.55855,
            660.5
          ],
          [
            -113.502509,
            53.558686,
            661
          ],
          [
            -113.502626,
            53.558852,
            661
          ],
          [
            -113.502692,
            53.558975,
            661
          ],
          [
            -113.502724,
            53.559094,
            661
          ],
          [
            -113.502741,
            53.559169,
            661
          ],
          [
            -113.502746,
            53.559253,
            661
          ],
          [
            -113.50275,
            53.560166,
            661
          ],
          [
            -113.502769,
            53.560521,
            661.5
          ],
          [
            -113.502847,
            53.560844,
            661.75
          ],
          [
            -113.50304,
            53.561491,
            660.5
          ],
          [
            -113.503139,
            53.561883,
            660.25
          ],
          [
            -113.503166,
            53.562224,
            660.5
          ],
          [
            -113.503163,
            53.562783,
            661
          ],
          [
            -113.503169,
            53.563341,
            661
          ],
          [
            -113.503169,
            53.563417,
            661.25
          ],
          [
            -113.503168,
            53.564289,
            662
          ],
          [
            -113.503099,
            53.565045,
            663
          ],
          [
            -113.503122,
            53.565212,
            663
          ],
          [
            -113.503179,
            53.565339,
            663
          ],
          [
            -113.50322,
            53.565417,
            663
          ],
          [
            -113.503359,
            53.565574,
            662.75
          ],
          [
            -113.503455,
            53.565657,
            662.75
          ],
          [
            -113.503502,
            53.565694,
            662.75
          ],
          [
            -113.503656,
            53.565786,
            662.75
          ],
          [
            -113.503792,
            53.565848,
            663
          ],
          [
            -113.503954,
            53.565909,
            663
          ],
          [
            -113.504049,
            53.565941,
            663
          ],
          [
            -113.504277,
            53.565994,
            663.25
          ],
          [
            -113.504368,
            53.566009,
            663.25
          ],
          [
            -113.5046,
            53.566032,
            663.5
          ],
          [
            -113.504884,
            53.566038,
            663.5
          ],
          [
            -113.506713,
            53.566044,
            661
          ],
          [
            -113.506921,
            53.566043,
            661
          ],
          [
            -113.507135,
            53.566051,
            660.75
          ],
          [
            -113.507494,
            53.566084,
            660.5
          ],
          [
            -113.507702,
            53.566134,
            660.25
          ],
          [
            -113.507856,
            53.566179,
            660
          ],
          [
            -113.508011,
            53.566247,
            659.75
          ],
          [
            -113.50821,
            53.56636,
            659.25
          ],
          [
            -113.508415,
            53.566493,
            658.5
          ],
          [
            -113.50847,
            53.566528,
            658.25
          ],
          [
            -113.509089,
            53.566947,
            659
          ],
          [
            -113.509692,
            53.567348,
            660.75
          ],
          [
            -113.509089,
            53.566947,
            659
          ],
          [
            -113.50847,
            53.566528,
            658.25
          ],
          [
            -113.508415,
            53.566493,
            658.5
          ],
          [
            -113.50821,
            53.56636,
            659.25
          ],
          [
            -113.508011,
            53.566247,
            659.75
          ],
          [
            -113.507856,
            53.566179,
            660
          ],
          [
            -113.507702,
            53.566134,
            660.25
          ],
          [
            -113.507494,
            53.566084,
            660.5
          ],
          [
            -113.507135,
            53.566051,
            660.75
          ],
          [
            -113.506921,
            53.566043,
            661
          ],
          [
            -113.506713,
            53.566044,
            661
          ],
          [
            -113.504884,
            53.566038,
            663.5
          ],
          [
            -113.5046,
            53.566032,
            663.5
          ],
          [
            -113.504368,
            53.566009,
            663.25
          ],
          [
            -113.504277,
            53.565994,
            663.25
          ],
          [
            -113.504049,
            53.565941,
            663
          ],
          [
            -113.503954,
            53.565909,
            663
          ],
          [
            -113.503792,
            53.565848,
            663
          ],
          [
            -113.503656,
            53.565786,
            662.75
          ],
          [
            -113.503502,
            53.565694,
            662.75
          ],
          [
            -113.503455,
            53.565657,
            662.75
          ],
          [
            -113.503359,
            53.565574,
            662.75
          ],
          [
            -113.50322,
            53.565417,
            663
          ],
          [
            -113.503179,
            53.565339,
            663
          ],
          [
            -113.503122,
            53.565212,
            663
          ],
          [
            -113.503099,
            53.565045,
            663
          ],
          [
            -113.503168,
            53.564289,
            662
          ],
          [
            -113.503169,
            53.563417,
            661.25
          ],
          [
            -113.503169,
            53.563341,
            661
          ],
          [
            -113.503175,
            53.563243,
            661
          ],
          [
            -113.503227,
            53.562977,
            661
          ],
          [
            -113.503235,
            53.562856,
            661
          ],
          [
            -113.503235,
            53.562783,
            661
          ],
          [
            -113.503233,
            53.562205,
            660.5
          ],
          [
            -113.503214,
            53.561949,
            660.25
          ],
          [
            -113.503177,
            53.561713,
            660
          ],
          [
            -113.502882,
            53.560723,
            661.75
          ],
          [
            -113.502844,
            53.560561,
            661.5
          ],
          [
            -113.502818,
            53.560166,
            661
          ],
          [
            -113.502816,
            53.559529,
            661
          ],
          [
            -113.502813,
            53.559217,
            660.75
          ],
          [
            -113.502794,
            53.559099,
            661
          ],
          [
            -113.502765,
            53.558976,
            661
          ],
          [
            -113.50271,
            53.558851,
            661
          ],
          [
            -113.502648,
            53.558735,
            661
          ],
          [
            -113.502581,
            53.558639,
            661
          ],
          [
            -113.502492,
            53.558536,
            660.75
          ],
          [
            -113.502342,
            53.558398,
            660.5
          ],
          [
            -113.502259,
            53.558332,
            660.25
          ],
          [
            -113.502095,
            53.558226,
            660
          ],
          [
            -113.501149,
            53.557714,
            660.5
          ],
          [
            -113.500703,
            53.557475,
            661
          ],
          [
            -113.500322,
            53.557272,
            661.25
          ],
          [
            -113.500253,
            53.557235,
            661.25
          ],
          [
            -113.499965,
            53.55708,
            661
          ],
          [
            -113.499767,
            53.55696,
            661
          ],
          [
            -113.499657,
            53.55688,
            661
          ],
          [
            -113.499497,
            53.556722,
            660.75
          ],
          [
            -113.499449,
            53.556658,
            660.5
          ],
          [
            -113.499379,
            53.556563,
            660.5
          ],
          [
            -113.499317,
            53.556438,
            660.5
          ],
          [
            -113.499273,
            53.556292,
            660.25
          ],
          [
            -113.499257,
            53.55619,
            660.25
          ],
          [
            -113.499256,
            53.55597,
            657.75
          ],
          [
            -113.499251,
            53.555239,
            657.75
          ],
          [
            -113.499251,
            53.555144,
            657.5
          ],
          [
            -113.499252,
            53.554705,
            659.5
          ],
          [
            -113.499252,
            53.554244,
            659.5
          ],
          [
            -113.499262,
            53.554098,
            659.75
          ],
          [
            -113.499302,
            53.553962,
            659.75
          ],
          [
            -113.499375,
            53.553833,
            659.75
          ],
          [
            -113.499413,
            53.553779,
            659.75
          ],
          [
            -113.499531,
            53.553653,
            659.5
          ],
          [
            -113.499704,
            53.553515,
            659.25
          ],
          [
            -113.499796,
            53.553458,
            659.25
          ],
          [
            -113.500456,
            53.553097,
            660.25
          ],
          [
            -113.500671,
            53.552974,
            660.75
          ],
          [
            -113.500757,
            53.552908,
            660.75
          ],
          [
            -113.500886,
            53.552784,
            661
          ],
          [
            -113.501002,
            53.552639,
            661
          ],
          [
            -113.501086,
            53.55247,
            660.75
          ],
          [
            -113.501101,
            53.552412,
            660.75
          ],
          [
            -113.501109,
            53.552295,
            660.5
          ],
          [
            -113.501127,
            53.551508,
            659.25
          ],
          [
            -113.501128,
            53.551425,
            659.5
          ],
          [
            -113.501128,
            53.551296,
            659.75
          ],
          [
            -113.501127,
            53.549824,
            660
          ],
          [
            -113.501128,
            53.549639,
            660
          ],
          [
            -113.501124,
            53.548513,
            660
          ],
          [
            -113.50111,
            53.548445,
            659.75
          ],
          [
            -113.501072,
            53.548355,
            660
          ],
          [
            -113.500988,
            53.548219,
            660.5
          ],
          [
            -113.500849,
            53.548089,
            661.25
          ],
          [
            -113.500764,
            53.548028,
            661.75
          ],
          [
            -113.500632,
            53.547953,
            662.25
          ],
          [
            -113.500507,
            53.547903,
            662.5
          ],
          [
            -113.500347,
            53.54785,
            662.75
          ],
          [
            -113.500193,
            53.547813,
            662.75
          ],
          [
            -113.499944,
            53.547779,
            662.75
          ],
          [
            -113.498877,
            53.547707,
            663
          ],
          [
            -113.497889,
            53.547639,
            662.75
          ],
          [
            -113.497614,
            53.547618,
            662.75
          ],
          [
            -113.497337,
            53.547609,
            663
          ],
          [
            -113.496656,
            53.547592
          ],
          [
            -113.494644,
            53.547582
          ],
          [
            -113.492576,
            53.547581
          ],
          [
            -113.49217,
            53.547567
          ],
          [
            -113.491879,
            53.547543
          ],
          [
            -113.491377,
            53.547477
          ],
          [
            -113.491149,
            53.547428
          ],
          [
            -113.490871,
            53.547343
          ],
          [
            -113.49062,
            53.547244
          ],
          [
            -113.490373,
            53.547122
          ],
          [
            -113.49017,
            53.546988
          ],
          [
            -113.490002,
            53.54685
          ],
          [
            -113.489734,
            53.546589
          ],
          [
            -113.489643,
            53.546455
          ],
          [
            -113.489565,
            53.546301
          ],
          [
            -113.489499,
            53.546105
          ],
          [
            -113.489276,
            53.545007
          ],
          [
            -113.489082,
            53.543979,
            642.25
          ],
          [
            -113.489041,
            53.543765,
            642.25
          ],
          [
            -113.488789,
            53.542355,
            642.25
          ],
          [
            -113.488776,
            53.542194,
            642.25
          ],
          [
            -113.488782,
            53.54206,
            642.25
          ],
          [
            -113.488858,
            53.541815,
            642.25
          ],
          [
            -113.488973,
            53.541653,
            642.25
          ],
          [
            -113.489115,
            53.54156,
            642.25
          ],
          [
            -113.48927,
            53.541476,
            642.25
          ],
          [
            -113.489467,
            53.541399,
            642.25
          ],
          [
            -113.489685,
            53.541328,
            642.25
          ],
          [
            -113.489909,
            53.541278,
            642.25
          ],
          [
            -113.490196,
            53.541226,
            642.25
          ],
          [
            -113.490321,
            53.541208,
            642.25
          ],
          [
            -113.490477,
            53.541195,
            642.25
          ],
          [
            -113.492339,
            53.541071,
            642.25
          ],
          [
            -113.49351,
            53.540992,
            642.25
          ],
          [
            -113.493679,
            53.540982,
            642.25
          ],
          [
            -113.493866,
            53.540979,
            642.25
          ],
          [
            -113.49841,
            53.540975,
            642.25
          ],
          [
            -113.502526,
            53.54099,
            642.25
          ],
          [
            -113.50377,
            53.540995,
            642.25
          ],
          [
            -113.505587,
            53.540996,
            642.25
          ],
          [
            -113.50566,
            53.540996,
            642.25
          ],
          [
            -113.506599,
            53.540996,
            642.25
          ],
          [
            -113.506985,
            53.540979,
            642.25
          ],
          [
            -113.507343,
            53.540929,
            642.25
          ],
          [
            -113.507666,
            53.540852,
            642.25
          ],
          [
            -113.507987,
            53.540741,
            642.25
          ],
          [
            -113.50825,
            53.540617,
            642.25
          ],
          [
            -113.508836,
            53.540296,
            642.25
          ],
          [
            -113.50938,
            53.539999,
            642.25
          ],
          [
            -113.509577,
            53.539893,
            642.25
          ],
          [
            -113.509841,
            53.539724,
            642.25
          ],
          [
            -113.510047,
            53.539543,
            642.25
          ],
          [
            -113.510179,
            53.539358,
            642.25
          ],
          [
            -113.510299,
            53.53916,
            642.25
          ],
          [
            -113.510358,
            53.538937,
            642.25
          ],
          [
            -113.510364,
            53.538829,
            642.25
          ],
          [
            -113.510364,
            53.536706,
            642.25
          ],
          [
            -113.510364,
            53.536237,
            642.25
          ],
          [
            -113.510364,
            53.535601,
            642.25
          ],
          [
            -113.510349,
            53.533955,
            642.25
          ],
          [
            -113.510365,
            53.533798,
            642.25
          ],
          [
            -113.510437,
            53.53352,
            642.25
          ],
          [
            -113.510502,
            53.533345,
            642.25
          ],
          [
            -113.510648,
            53.533019,
            642.25
          ],
          [
            -113.510756,
            53.532803,
            642.25
          ],
          [
            -113.510829,
            53.532662,
            642.25
          ],
          [
            -113.511202,
            53.531956,
            643
          ],
          [
            -113.512385,
            53.529934,
            645.25
          ],
          [
            -113.512594,
            53.529578,
            645.75
          ],
          [
            -113.512747,
            53.529332,
            646
          ],
          [
            -113.512849,
            53.529185,
            646
          ],
          [
            -113.513132,
            53.528857,
            646.5
          ],
          [
            -113.5133,
            53.528687,
            646.75
          ],
          [
            -113.513411,
            53.528591,
            646.75
          ],
          [
            -113.513647,
            53.528403,
            647
          ],
          [
            -113.51395,
            53.528198,
            647.25
          ],
          [
            -113.514123,
            53.528094,
            647.5
          ],
          [
            -113.514574,
            53.527856,
            647.75
          ],
          [
            -113.515571,
            53.527387,
            648.5
          ],
          [
            -113.515686,
            53.527334,
            648.75
          ],
          [
            -113.515732,
            53.527315
          ],
          [
            -113.515914,
            53.527212
          ],
          [
            -113.516167,
            53.527143
          ],
          [
            -113.516889,
            53.526857
          ],
          [
            -113.517415,
            53.526658
          ],
          [
            -113.521418,
            53.5252
          ],
          [
            -113.522304,
            53.524877
          ],
          [
            -113.522785,
            53.524703,
            678.75
          ],
          [
            -113.524271,
            53.524164,
            678.75
          ],
          [
            -113.524536,
            53.524059,
            678.75
          ],
          [
            -113.524807,
            53.523934,
            678.75
          ],
          [
            -113.525038,
            53.523795,
            678.75
          ],
          [
            -113.525251,
            53.523637,
            678.75
          ],
          [
            -113.525459,
            53.523413,
            678.75
          ],
          [
            -113.525618,
            53.523198,
            678.75
          ],
          [
            -113.525764,
            53.522899,
            678.75
          ],
          [
            -113.525835,
            53.522665,
            678.75
          ],
          [
            -113.525883,
            53.522402,
            678.75
          ],
          [
            -113.525896,
            53.521911,
            678.75
          ],
          [
            -113.525901,
            53.521719,
            679.25
          ],
          [
            -113.525922,
            53.521489,
            679
          ],
          [
            -113.525991,
            53.520955,
            678
          ],
          [
            -113.525992,
            53.520767,
            678
          ],
          [
            -113.525991,
            53.520639,
            678
          ],
          [
            -113.525986,
            53.519537,
            676.75
          ],
          [
            -113.525986,
            53.519517,
            676.75
          ]
        ]
      }
    }
  ]
}