{
  "type": "FeatureCollection",
  "features": [
    {
      "type": "Feature",
      "properties": {
        "creator": "BRouter-1.7.0",
        "name": "[Ferrocarril] Tren Suburbano",
        "track-length": "51683",
        "filtered ascend": "94",
        "plain-ascend": "7",
        "total-time": "4134",
        "total-energy": "2274388",
        "cost": "51683",
        "messages": [
          [
            "Longitude",
            "Latitude",
            "Elevation",
            "Distance",
            "CostPerKm",
            "ElevCost",
            "TurnCost",
            "NodeCost",
            "InitialCost",
            "WayTags",
            "NodeTags",
            "Time",
            "Energy"
          ],
          [
            "-99151656",
            "19449431",
            "2240",
            "139",
            "1000",
            "0",
            "0",
            "0",
            "0",
            "railway=rail",
            "railway=unknown",
            "11",
            "6445"
          ],
          [
            "-99151446",
            "19453069",
            "2240",
            "412",
            "1000",
            "0",
            "0",
            "0",
            "0",
            "railway=rail",
            "railway=switch",
            "44",
            "24887"
          ],
          [
            "-99151496",
            "19453213",
            "2239",
            "17",
            "1000",
            "0",
            "0",
            "0",
            "0",
            "railway=rail",
            "railway=switch",
            "45",
            "25533"
          ],
          [
            "-99151868",
            "19454359",
            "2239",
            "57",
            "1000",
            "0",
            "0",
            "0",
            "0",
            "railway=rail",
            "",
            "50",
            "27801"
          ],
          [
            "-99151868",
            "19454359",
            "2239",
            "75",
            "1000",
            "0",
            "0",
            "0",
            "0",
            "railway=rail",
            "railway=switch",
            "6",
            "3298"
          ],
          [
            "-99165308",
            "19477004",
            "2243",
            "2898",
            "1000",
            "0",
            "0",
            "0",
            "0",
            "railway=rail",
            "railway=switch",
            "237",
            "134650"
          ],
          [
            "-99165779",
            "19478211",
            "2243",
            "142",
            "1000",
            "0",
            "0",
            "0",
            "0",
            "railway=rail",
            "railway=switch",
            "249",
            "140682"
          ],
          [
            "-99166020",
            "19478813",
            "2242",
            "61",
            "1000",
            "0",
            "0",
            "0",
            "0",
            "railway=rail",
            "",
            "254",
            "142799"
          ],
          [
            "-99168455",
            "19485005",
            "2244",
            "742",
            "1000",
            "0",
            "0",
            "0",
            "0",
            "railway=rail",
            "railway=switch",
            "59",
            "33987"
          ],
          [
            "-99168777",
            "19485825",
            "2242",
            "97",
            "1000",
            "0",
            "0",
            "0",
            "0",
            "railway=rail",
            "railway=switch",
            "67",
            "37552"
          ],
          [
            "-99169865",
            "19488598",
            "2243",
            "128",
            "1000",
            "0",
            "0",
            "0",
            "0",
            "railway=rail",
            "",
            "77",
            "42714"
          ],
          [
            "-99171016",
            "19491794",
            "2246",
            "573",
            "1000",
            "0",
            "0",
            "0",
            "0",
            "railway=rail",
            "railway=unknown",
            "45",
            "28270"
          ],
          [
            "-99171891",
            "19493937",
            "2244",
            "255",
            "1000",
            "0",
            "0",
            "0",
            "0",
            "railway=rail",
            "railway=switch",
            "66",
            "38051"
          ],
          [
            "-99172999",
            "19496827",
            "2246",
            "122",
            "1000",
            "0",
            "0",
            "0",
            "0",
            "railway=rail",
            "",
            "76",
            "43823"
          ],
          [
            "-99181765",
            "19529936",
            "2251",
            "4028",
            "1000",
            "0",
            "0",
            "0",
            "0",
            "railway=rail",
            "railway=switch",
            "322",
            "182995"
          ],
          [
            "-99183864",
            "19536640",
            "2253",
            "777",
            "1000",
            "0",
            "0",
            "0",
            "0",
            "railway=rail",
            "railway=unknown",
            "384",
            "218955"
          ],
          [
            "-99185237",
            "19541783",
            "2254",
            "589",
            "1000",
            "0",
            "0",
            "0",
            "0",
            "railway=rail",
            "railway=switch",
            "431",
            "245285"
          ],
          [
            "-99187856",
            "19552178",
            "2256",
            "114",
            "1000",
            "0",
            "0",
            "0",
            "0",
            "railway=rail",
            "",
            "440",
            "250393"
          ],
          [
            "-99188016",
            "19552809",
            "2260",
            "1141",
            "1000",
            "0",
            "0",
            "0",
            "0",
            "railway=rail",
            "railway=switch",
            "91",
            "52173"
          ],
          [
            "-99193933",
            "19560169",
            "2265",
            "1048",
            "1000",
            "0",
            "0",
            "0",
            "0",
            "railway=rail",
            "railway=switch",
            "175",
            "104825"
          ],
          [
            "-99195237",
            "19564803",
            "2257",
            "534",
            "1000",
            "0",
            "0",
            "0",
            "0",
            "railway=rail",
            "railway=unknown",
            "217",
            "125308"
          ],
          [
            "-99196589",
            "19570715",
            "2261",
            "670",
            "1000",
            "0",
            "0",
            "0",
            "0",
            "railway=rail",
            "railway=switch",
            "271",
            "155886"
          ],
          [
            "-99185967",
            "19599589",
            "2267",
            "3618",
            "1000",
            "0",
            "0",
            "0",
            "0",
            "railway=rail",
            "railway=unknown",
            "560",
            "321201"
          ],
          [
            "-99184073",
            "19617901",
            "2259",
            "2054",
            "1000",
            "0",
            "0",
            "0",
            "0",
            "railway=rail",
            "railway=switch",
            "725",
            "404927"
          ],
          [
            "-99183155",
            "19622212",
            "2256",
            "152",
            "1000",
            "0",
            "0",
            "0",
            "0",
            "railway=rail",
            "",
            "737",
            "410905"
          ],
          [
            "-99181232",
            "19631345",
            "2254",
            "1365",
            "1000",
            "0",
            "0",
            "0",
            "0",
            "railway=rail",
            "railway=switch",
            "109",
            "56508"
          ],
          [
            "-99180356",
            "19635496",
            "2254",
            "469",
            "1000",
            "0",
            "0",
            "0",
            "0",
            "railway=rail",
            "railway=unknown",
            "146",
            "76918"
          ],
          [
            "-99176740",
            "19662448",
            "2257",
            "2939",
            "1000",
            "0",
            "0",
            "0",
            "0",
            "railway=rail",
            "",
            "381",
            "208394"
          ],
          [
            "-99176334",
            "19666154",
            "2254",
            "486",
            "1000",
            "0",
            "0",
            "0",
            "0",
            "railway=rail",
            "railway=unknown",
            "38",
            "19056"
          ],
          [
            "-99176187",
            "19668046",
            "2256",
            "140",
            "1000",
            "0",
            "0",
            "0",
            "0",
            "railway=rail",
            "",
            "50",
            "25964"
          ],
          [
            "-99176334",
            "19666154",
            "2254",
            "140",
            "1000",
            "0",
            "0",
            "0",
            "0",
            "reversedirection=yes railway=rail",
            "railway=unknown",
            "11",
            "5160"
          ],
          [
            "-99176833",
            "19661783",
            "2258",
            "486",
            "1000",
            "0",
            "0",
            "0",
            "0",
            "reversedirection=yes railway=rail",
            "",
            "50",
            "29443"
          ],
          [
            "-99177159",
            "19657853",
            "2256",
            "65",
            "1000",
            "0",
            "0",
            "0",
            "0",
            "railway=rail",
            "",
            "55",
            "32550"
          ],
          [
            "-99180460",
            "19635509",
            "2254",
            "2873",
            "1000",
            "0",
            "0",
            "0",
            "0",
            "railway=rail",
            "railway=unknown",
            "229",
            "122851"
          ],
          [
            "-99181387",
            "19630854",
            "2255",
            "524",
            "1000",
            "0",
            "0",
            "0",
            "0",
            "railway=rail",
            "railway=switch",
            "271",
            "146839"
          ],
          [
            "-99184011",
            "19618380",
            "2259",
            "1408",
            "1000",
            "0",
            "0",
            "0",
            "0",
            "railway=rail",
            "railway=switch",
            "384",
            "210024"
          ],
          [
            "-99186087",
            "19599570",
            "2267",
            "2107",
            "1000",
            "0",
            "0",
            "0",
            "0",
            "railway=rail",
            "railway=unknown",
            "552",
            "311261"
          ],
          [
            "-99196866",
            "19571724",
            "2262",
            "3506",
            "1000",
            "0",
            "0",
            "0",
            "0",
            "railway=rail",
            "railway=switch",
            "833",
            "464737"
          ],
          [
            "-99195341",
            "19564788",
            "2257",
            "784",
            "1000",
            "0",
            "0",
            "0",
            "0",
            "railway=rail",
            "railway=unknown",
            "896",
            "494711"
          ],
          [
            "-99188092",
            "19552893",
            "2258",
            "1560",
            "1000",
            "0",
            "0",
            "0",
            "0",
            "railway=rail",
            "",
            "1020",
            "562040"
          ],
          [
            "-99187900",
            "19552132",
            "2256",
            "96",
            "1000",
            "0",
            "0",
            "0",
            "0",
            "railway=rail",
            "railway=switch",
            "7",
            "3188"
          ],
          [
            "-99185535",
            "19542754",
            "2254",
            "1067",
            "1000",
            "0",
            "0",
            "0",
            "0",
            "railway=rail",
            "railway=switch",
            "93",
            "47624"
          ],
          [
            "-99184005",
            "19536612",
            "2253",
            "698",
            "1000",
            "0",
            "0",
            "0",
            "0",
            "railway=rail",
            "railway=unknown",
            "148",
            "77530"
          ],
          [
            "-99181372",
            "19529002",
            "2249",
            "890",
            "1000",
            "0",
            "0",
            "0",
            "0",
            "railway=rail",
            "railway=switch",
            "220",
            "113453"
          ],
          [
            "-99172277",
            "19494847",
            "2244",
            "3931",
            "1000",
            "0",
            "0",
            "0",
            "0",
            "railway=rail",
            "railway=switch",
            "534",
            "282038"
          ],
          [
            "-99171114",
            "19491700",
            "2245",
            "369",
            "1000",
            "0",
            "0",
            "0",
            "0",
            "railway=rail",
            "railway=unknown",
            "564",
            "298748"
          ],
          [
            "-99168973",
            "19486221",
            "2242",
            "647",
            "1000",
            "0",
            "0",
            "0",
            "0",
            "railway=rail",
            "railway=switch",
            "615",
            "324917"
          ],
          [
            "-99165541",
            "19477504",
            "2244",
            "1017",
            "1000",
            "0",
            "0",
            "0",
            "0",
            "railway=rail",
            "",
            "697",
            "370523"
          ],
          [
            "-99165054",
            "19476249",
            "2244",
            "162",
            "1000",
            "0",
            "0",
            "0",
            "0",
            "railway=rail",
            "railway=switch",
            "12",
            "7011"
          ],
          [
            "-99151784",
            "19453955",
            "2240",
            "2852",
            "1000",
            "0",
            "0",
            "0",
            "0",
            "railway=rail",
            "",
            "241",
            "127825"
          ],
          [
            "-99151784",
            "19453955",
            "2240",
            "4",
            "1000",
            "0",
            "0",
            "0",
            "0",
            "railway=rail",
            "railway=switch",
            "0",
            "184"
          ],
          [
            "-99151657",
            "19453581",
            "2239",
            "43",
            "1000",
            "0",
            "0",
            "0",
            "0",
            "railway=rail",
            "railway=switch",
            "3",
            "1918"
          ],
          [
            "-99151496",
            "19453213",
            "2239",
            "44",
            "1000",
            "0",
            "0",
            "0",
            "0",
            "railway=rail",
            "railway=switch",
            "7",
            "3749"
          ],
          [
            "-99151446",
            "19453069",
            "2240",
            "17",
            "1000",
            "0",
            "0",
            "0",
            "0",
            "reversedirection=yes railway=rail",
            "railway=switch",
            "8",
            "4537"
          ],
          [
            "-99151656",
            "19449431",
            "2240",
            "412",
            "1000",
            "0",
            "0",
            "0",
            "0",
            "reversedirection=yes railway=rail",
            "railway=unknown",
            "41",
            "22884"
          ],
          [
            "-99151890",
            "19448198",
            "2239",
            "139",
            "1000",
            "0",
            "0",
            "0",
            "0",
            "reversedirection=yes railway=rail",
            "",
            "52",
            "28657"
          ]
        ],
        "times": [
          0,
          11.12,
          30.8,
          33.76,
          35.28,
          36.8,
          39.6,
          40.56,
          44.08,
          45.44,
          50,
          56,
          58,
          61.2,
          64.4,
          67.2,
          70,
          72.88,
          75.76,
          79.44,
          122.32,
          160.4,
          175.68,
          183.2,
          187.28,
          191.2,
          198.32,
          200.48,
          203.2,
          207.36,
          210.56,
          213.52,
          216.8,
          223.12,
          225.84,
          241.92,
          245.68,
          260.88,
          268.16,
          281.36,
          287.84,
          292.64,
          299.2,
          304.08,
          304.88,
          322.24,
          327.2,
          350.8,
          363.44,
          371.2,
          381.04,
          381.44,
          397.36,
          404.32,
          409.36,
          419.76,
          427.28,
          435.76,
          443.12,
          447.68,
          456.4,
          457.44,
          474.88,
          479.04,
          494.48,
          502.32,
          508.96,
          512.16,
          515.36,
          526.96,
          546.64,
          554.8,
          559.68,
          563.44,
          567.6,
          574.08,
          589.84,
          602.88,
          605.68,
          611.36,
          614.4,
          618.88,
          641.84,
          684.32,
          689.84,
          695.6,
          700.88,
          706.08,
          711.36,
          716.72,
          721.76,
          726.32,
          731.44,
          735.36,
          745.12,
          748.96,
          763.92,
          779.68,
          793.68,
          797.04,
          803.6,
          807.84,
          811.28,
          816.96,
          818.72,
          819.84,
          820.96,
          825.92,
          827.28,
          841.84,
          859.28,
          861.36,
          864.08,
          866.8,
          869.44,
          888.96,
          898.08,
          983.6,
          989.36,
          990.8,
          995.28,
          997.84,
          1001.2,
          1003.12,
          1004.88,
          1007.28,
          1011.44,
          1013.44,
          1015.6,
          1017.12,
          1019.52,
          1022,
          1024.56,
          1026.24,
          1034.88,
          1042.96,
          1045.28,
          1053.36,
          1058,
          1060.64,
          1063.04,
          1067.04,
          1070.88,
          1073.2,
          1076.24,
          1078.64,
          1081.6,
          1082.88,
          1084.88,
          1086.96,
          1091.28,
          1094.64,
          1096.16,
          1098.88,
          1101.36,
          1115.92,
          1132.16,
          1133.52,
          1138,
          1139.68,
          1155.52,
          1169.52,
          1185.44,
          1195.84,
          1206.24,
          1210.48,
          1213.44,
          1216,
          1218.4,
          1221.36,
          1224,
          1226.64,
          1228.72,
          1230.8,
          1232.72,
          1235.2,
          1236.64,
          1238.16,
          1239.76,
          1242.88,
          1244.56,
          1246.8,
          1248.8,
          1255.68,
          1267.44,
          1304.32,
          1308.16,
          1315.76,
          1324.24,
          1327.2,
          1329.92,
          1333.28,
          1371.2,
          1377.92,
          1380.64,
          1383.6,
          1386.56,
          1389.84,
          1393.2,
          1396.4,
          1399.6,
          1401.36,
          1402.96,
          1406.48,
          1409.76,
          1412.48,
          1414.8,
          1417.36,
          1420.48,
          1432.96,
          1438.16,
          1441.52,
          1445.2,
          1450.96,
          1458.96,
          1468.08,
          1478.16,
          1484.56,
          1500.8,
          1510.8,
          1513.6,
          1516.32,
          1518.88,
          1523.2,
          1528.64,
          1531.92,
          1577.36,
          1599.84,
          1613.92,
          1616.08,
          1623.28,
          1635.44,
          1662.16,
          1744.64,
          1782.16,
          1809.36,
          1820.72,
          1871.92,
          1877.12,
          1882.8,
          1890.24,
          1913.92,
          1979.12,
          2017.28,
          2023.2,
          2029.52,
          2036.32,
          2041.68,
          2050.16,
          2056.16,
          2067.36,
          2078.56,
          2084.56,
          2093.04,
          2098.4,
          2105.2,
          2111.52,
          2117.44,
          2122.64,
          2152.32,
          2220.64,
          2252.08,
          2257.36,
          2262.64,
          2271.84,
          2309.04,
          2326.24,
          2332.32,
          2334,
          2352.48,
          2360.8,
          2362.56,
          2370.08,
          2372.72,
          2394.4,
          2472.4,
          2507.04,
          2518.72,
          2520.8,
          2534.8,
          2557.2,
          2602.64,
          2605.92,
          2611.36,
          2614,
          2618.32,
          2620.96,
          2623.76,
          2633.04,
          2666.4,
          2675.6,
          2683.44,
          2689.68,
          2711.76,
          2716.96,
          2719.52,
          2721.84,
          2724.56,
          2727.84,
          2731.52,
          2734.96,
          2738,
          2741.2,
          2744.56,
          2747.76,
          2750.72,
          2753.68,
          2756.4,
          2759.12,
          2763.12,
          2783.76,
          2804.4,
          2810.08,
          2818.56,
          2825.68,
          2829.92,
          2866.8,
          2878.08,
          2885.52,
          2887.52,
          2889.76,
          2891.52,
          2894.64,
          2896.24,
          2899.36,
          2901.76,
          2903.76,
          2905.84,
          2907.92,
          2910.64,
          2913.36,
          2916.32,
          2918.72,
          2921.28,
          2924.32,
          2928.56,
          2956.08,
          3018.8,
          3039.84,
          3044.16,
          3047.76,
          3051.92,
          3053.92,
          3057.2,
          3059.92,
          3063.36,
          3065.92,
          3068,
          3072.08,
          3074.56,
          3077.04,
          3082.64,
          3092.08,
          3094.4,
          3096.48,
          3109.84,
          3112,
          3114,
          3115.92,
          3117.76,
          3120.4,
          3123.6,
          3125.76,
          3127.84,
          3129.92,
          3132.08,
          3133.68,
          3136.24,
          3138.64,
          3140.96,
          3143.6,
          3144.32,
          3151.28,
          3152.08,
          3192.4,
          3236.64,
          3275.6,
          3292.48,
          3317.2,
          3323.12,
          3330.8,
          3334.08,
          3337.28,
          3343.44,
          3363.68,
          3370.48,
          3389.28,
          3395.2,
          3399.12,
          3403.04,
          3412.72,
          3417.76,
          3423.12,
          3428.32,
          3433.52,
          3438.72,
          3444.56,
          3450,
          3490.32,
          3515.52,
          3520,
          3523.04,
          3526.32,
          3528.72,
          3531.52,
          3544.56,
          3560.32,
          3570.96,
          3574.72,
          3579.68,
          3583.84,
          3607.52,
          3619.12,
          3622.32,
          3632.16,
          3640.24,
          3649.92,
          3655.44,
          3659.6,
          3678.16,
          3691.52,
          3707.68,
          3759.44,
          3765.84,
          3783.68,
          3807.28,
          3812.24,
          3829.6,
          3840.8,
          3841.84,
          3848.16,
          3853.76,
          3873.76,
          3880.16,
          3888.96,
          3892.72,
          3908.8,
          3914.96,
          3921.12,
          3927.36,
          3931.52,
          3936.4,
          3943.6,
          3947.52,
          3951.52,
          4012.4,
          4055.28,
          4058.88,
          4064.56,
          4067.36,
          4070.24,
          4073.36,
          4076.64,
          4081.92,
          4082.24,
          4085.68,
          4089.2,
          4090.56,
          4094.08,
          4095.04,
          4097.84,
          4099.36,
          4100.88,
          4103.84,
          4123.52,
          4134.64
        ]
      },
      "geometry": {
        "type": "LineString",
        "coordinates": [
          [
            -99.15189,
            19.448198,
            2239.5
          ],
          [
            -99.151656,
            19.449431,
            2240
          ],
          [
            -99.15125,
            19.451624,
            2239.75
          ],
          [
            -99.151191,
            19.45195,
            2240.25
          ],
          [
            -99.151179,
            19.452118,
            2240.5
          ],
          [
            -99.151191,
            19.452292,
            2240.75
          ],
          [
            -99.151256,
            19.452598,
            2240.75
          ],
          [
            -99.151291,
            19.452698,
            2240.75
          ],
          [
            -99.151446,
            19.453069,
            2240
          ],
          [
            -99.151496,
            19.453213,
            2239.5
          ],
          [
            -99.151657,
            19.453708,
            2239.5
          ],
          [
            -99.151868,
            19.454359,
            2239.5
          ],
          [
            -99.151938,
            19.454578,
            2238.25
          ],
          [
            -99.152067,
            19.454921,
            2236.75
          ],
          [
            -99.152205,
            19.455253,
            2237
          ],
          [
            -99.152339,
            19.455543,
            2237.5
          ],
          [
            -99.152487,
            19.455831,
            2237.75
          ],
          [
            -99.152646,
            19.456121,
            2238.75
          ],
          [
            -99.152815,
            19.4564,
            2239.25
          ],
          [
            -99.153045,
            19.456752,
            2240
          ],
          [
            -99.156013,
            19.460687,
            2241.25
          ],
          [
            -99.158682,
            19.464159,
            2245.25
          ],
          [
            -99.15975,
            19.465555,
            2241.75
          ],
          [
            -99.160285,
            19.46624,
            2243.25
          ],
          [
            -99.160565,
            19.466611,
            2243.75
          ],
          [
            -99.160831,
            19.466972,
            2242.75
          ],
          [
            -99.161286,
            19.467649,
            2242.25
          ],
          [
            -99.161419,
            19.467861,
            2242
          ],
          [
            -99.161583,
            19.468125,
            2241.5
          ],
          [
            -99.161819,
            19.468537,
            2240.75
          ],
          [
            -99.161994,
            19.46886,
            2240.25
          ],
          [
            -99.162154,
            19.469162,
            2239.5
          ],
          [
            -99.162318,
            19.469501,
            2240.5
          ],
          [
            -99.162615,
            19.470157,
            2242.25
          ],
          [
            -99.162733,
            19.470443,
            2242.75
          ],
          [
            -99.163401,
            19.472141,
            2245.75
          ],
          [
            -99.163557,
            19.472537,
            2244.75
          ],
          [
            -99.164177,
            19.47415,
            2244
          ],
          [
            -99.164486,
            19.474921,
            2243
          ],
          [
            -99.16503,
            19.47632,
            2244.25
          ],
          [
            -99.165308,
            19.477004,
            2243.75
          ],
          [
            -99.165501,
            19.477518,
            2244.5
          ],
          [
            -99.165779,
            19.478211,
            2243.25
          ],
          [
            -99.165986,
            19.478726,
            2242.25
          ],
          [
            -99.16602,
            19.478813,
            2242.25
          ],
          [
            -99.166735,
            19.48065,
            2242
          ],
          [
            -99.166947,
            19.481175,
            2241.25
          ],
          [
            -99.167922,
            19.483674,
            2243
          ],
          [
            -99.168455,
            19.485005,
            2244
          ],
          [
            -99.168777,
            19.485825,
            2242.5
          ],
          [
            -99.16918,
            19.486871,
            2242.25
          ],
          [
            -99.169197,
            19.486912,
            2243.25
          ],
          [
            -99.169865,
            19.488598,
            2243.25
          ],
          [
            -99.170142,
            19.489338,
            2244.75
          ],
          [
            -99.170306,
            19.489887,
            2245.5
          ],
          [
            -99.170729,
            19.490992,
            2245.5
          ],
          [
            -99.171016,
            19.491794,
            2246
          ],
          [
            -99.171358,
            19.492693,
            2243.75
          ],
          [
            -99.171717,
            19.493452,
            2244
          ],
          [
            -99.171891,
            19.493937,
            2244
          ],
          [
            -99.172224,
            19.494869,
            2244.75
          ],
          [
            -99.172269,
            19.49498,
            2246.25
          ],
          [
            -99.172999,
            19.496827,
            2246.25
          ],
          [
            -99.173192,
            19.49726,
            2244.75
          ],
          [
            -99.173749,
            19.498924,
            2245.25
          ],
          [
            -99.174047,
            19.499759,
            2245
          ],
          [
            -99.174337,
            19.500461,
            2244
          ],
          [
            -99.174477,
            19.500793,
            2243.5
          ],
          [
            -99.174627,
            19.501126,
            2243.75
          ],
          [
            -99.175164,
            19.502333,
            2245.5
          ],
          [
            -99.175992,
            19.504408,
            2248.25
          ],
          [
            -99.176312,
            19.505281,
            2249.5
          ],
          [
            -99.176487,
            19.505808,
            2250
          ],
          [
            -99.176613,
            19.50622,
            2250.5
          ],
          [
            -99.176743,
            19.50667,
            2250.75
          ],
          [
            -99.176937,
            19.507378,
            2250.75
          ],
          [
            -99.177375,
            19.509109,
            2249
          ],
          [
            -99.177729,
            19.51054,
            2248.5
          ],
          [
            -99.177799,
            19.510847,
            2248.25
          ],
          [
            -99.177907,
            19.511478,
            2249.5
          ],
          [
            -99.177954,
            19.511822,
            2250.5
          ],
          [
            -99.178002,
            19.51233,
            2252
          ],
          [
            -99.1782,
            19.514918,
            2250.25
          ],
          [
            -99.17852,
            19.519705,
            2248.75
          ],
          [
            -99.178572,
            19.520325,
            2249
          ],
          [
            -99.17864,
            19.520976,
            2249.5
          ],
          [
            -99.178721,
            19.521565,
            2249
          ],
          [
            -99.178819,
            19.522142,
            2247.75
          ],
          [
            -99.178934,
            19.522728,
            2247.5
          ],
          [
            -99.179066,
            19.523316,
            2249.5
          ],
          [
            -99.179209,
            19.523867,
            2248.75
          ],
          [
            -99.179354,
            19.524361,
            2248.5
          ],
          [
            -99.179528,
            19.524915,
            2249.25
          ],
          [
            -99.179675,
            19.525339,
            2249
          ],
          [
            -99.180068,
            19.526379,
            2249.5
          ],
          [
            -99.18025,
            19.526778,
            2249.5
          ],
          [
            -99.180982,
            19.528323,
            2248.75
          ],
          [
            -99.181765,
            19.529936,
            2251.75
          ],
          [
            -99.182457,
            19.531372,
            2251.5
          ],
          [
            -99.182609,
            19.531727,
            2251.75
          ],
          [
            -99.182878,
            19.532419,
            2253.5
          ],
          [
            -99.183022,
            19.532879,
            2254.25
          ],
          [
            -99.18313,
            19.533257,
            2254.5
          ],
          [
            -99.183295,
            19.533876,
            2254.25
          ],
          [
            -99.18334,
            19.53407,
            2254
          ],
          [
            -99.183362,
            19.534199,
            2254
          ],
          [
            -99.183381,
            19.534324,
            2254
          ],
          [
            -99.183444,
            19.534884,
            2254
          ],
          [
            -99.183475,
            19.535037,
            2253.75
          ],
          [
            -99.183864,
            19.53664,
            2253.25
          ],
          [
            -99.184332,
            19.538558,
            2252.25
          ],
          [
            -99.184404,
            19.53878,
            2252.25
          ],
          [
            -99.184519,
            19.539067,
            2252.25
          ],
          [
            -99.184621,
            19.539354,
            2252.25
          ],
          [
            -99.1847,
            19.53964,
            2252
          ],
          [
            -99.185237,
            19.541783,
            2254
          ],
          [
            -99.185489,
            19.542781,
            2256.25
          ],
          [
            -99.187856,
            19.552178,
            2259.75
          ],
          [
            -99.188016,
            19.552809,
            2260
          ],
          [
            -99.188057,
            19.552971,
            2260.25
          ],
          [
            -99.188188,
            19.553464,
            2260.25
          ],
          [
            -99.188274,
            19.553739,
            2260
          ],
          [
            -99.188412,
            19.554096,
            2259
          ],
          [
            -99.188501,
            19.554297,
            2258.25
          ],
          [
            -99.188589,
            19.554476,
            2257.75
          ],
          [
            -99.188722,
            19.554711,
            2257
          ],
          [
            -99.188981,
            19.555108,
            2256.25
          ],
          [
            -99.18912,
            19.555292,
            2256.25
          ],
          [
            -99.189281,
            19.555483,
            2256.5
          ],
          [
            -99.189399,
            19.555612,
            2256.75
          ],
          [
            -99.189592,
            19.555807,
            2257.25
          ],
          [
            -99.189803,
            19.556,
            2258
          ],
          [
            -99.190028,
            19.55619,
            2258.75
          ],
          [
            -99.190187,
            19.556312,
            2258.5
          ],
          [
            -99.190999,
            19.556906,
            2257.75
          ],
          [
            -99.191736,
            19.557491,
            2258.75
          ],
          [
            -99.191928,
            19.557675,
            2259.25
          ],
          [
            -99.192581,
            19.558341,
            2260.5
          ],
          [
            -99.192942,
            19.558738,
            2261.25
          ],
          [
            -99.193138,
            19.55897,
            2261.75
          ],
          [
            -99.193308,
            19.559191,
            2262.25
          ],
          [
            -99.193566,
            19.559569,
            2264
          ],
          [
            -99.193798,
            19.559938,
            2264.75
          ],
          [
            -99.193933,
            19.560169,
            2265
          ],
          [
            -99.194107,
            19.560466,
            2265.25
          ],
          [
            -99.19423,
            19.560715,
            2265.75
          ],
          [
            -99.194377,
            19.56102,
            2265.25
          ],
          [
            -99.194436,
            19.561156,
            2264.5
          ],
          [
            -99.194515,
            19.561365,
            2263.75
          ],
          [
            -99.194587,
            19.561594,
            2263
          ],
          [
            -99.194711,
            19.562071,
            2262
          ],
          [
            -99.19479,
            19.56244,
            2261.5
          ],
          [
            -99.194811,
            19.562609,
            2261.25
          ],
          [
            -99.194841,
            19.562916,
            2261
          ],
          [
            -99.194884,
            19.56319,
            2260.75
          ],
          [
            -99.195237,
            19.564803,
            2257
          ],
          [
            -99.195629,
            19.566603,
            2259.5
          ],
          [
            -99.19567,
            19.566756,
            2260
          ],
          [
            -99.195832,
            19.567239,
            2262
          ],
          [
            -99.195877,
            19.56742,
            2262.5
          ],
          [
            -99.19626,
            19.569169,
            2261.75
          ],
          [
            -99.196589,
            19.570715,
            2261.5
          ],
          [
            -99.196969,
            19.57248,
            2265.25
          ],
          [
            -99.197232,
            19.573629,
            2268
          ],
          [
            -99.197483,
            19.574778,
            2268
          ],
          [
            -99.19758,
            19.575248,
            2268.5
          ],
          [
            -99.197634,
            19.575578,
            2269
          ],
          [
            -99.197666,
            19.57587,
            2269.25
          ],
          [
            -99.197679,
            19.576143,
            2270
          ],
          [
            -99.197677,
            19.576473,
            2271
          ],
          [
            -99.197653,
            19.576774,
            2271.5
          ],
          [
            -99.197611,
            19.577071,
            2271.25
          ],
          [
            -99.197568,
            19.5773,
            2271
          ],
          [
            -99.197512,
            19.577527,
            2270.75
          ],
          [
            -99.19745,
            19.577738,
            2270.5
          ],
          [
            -99.197356,
            19.578006,
            2270.25
          ],
          [
            -99.197294,
            19.578162,
            2270.25
          ],
          [
            -99.197226,
            19.57832,
            2270.25
          ],
          [
            -99.197147,
            19.578483,
            2270.75
          ],
          [
            -99.196973,
            19.578796,
            2272.25
          ],
          [
            -99.196869,
            19.578963,
            2272.75
          ],
          [
            -99.196722,
            19.579177,
            2273.75
          ],
          [
            -99.196586,
            19.57936,
            2274.25
          ],
          [
            -99.196027,
            19.579923,
            2276.25
          ],
          [
            -99.194997,
            19.580823,
            2283
          ],
          [
            -99.192158,
            19.584005,
            2290.75
          ],
          [
            -99.191909,
            19.58437,
            2284.25
          ],
          [
            -99.191407,
            19.585081,
            2274.75
          ],
          [
            -99.190872,
            19.585889,
            2273
          ],
          [
            -99.190674,
            19.58617,
            2271.75
          ],
          [
            -99.190486,
            19.586419,
            2271.5
          ],
          [
            -99.190244,
            19.586716,
            2272.25
          ],
          [
            -99.1874,
            19.590042,
            2269.75
          ],
          [
            -99.186933,
            19.590663,
            2270.25
          ],
          [
            -99.186758,
            19.590926,
            2270.25
          ],
          [
            -99.186577,
            19.591217,
            2270
          ],
          [
            -99.186411,
            19.591514,
            2269.5
          ],
          [
            -99.186246,
            19.591845,
            2268.75
          ],
          [
            -99.186107,
            19.592199,
            2268.75
          ],
          [
            -99.185985,
            19.592544,
            2268.25
          ],
          [
            -99.185875,
            19.592893,
            2267.5
          ],
          [
            -99.185823,
            19.593089,
            2267.25
          ],
          [
            -99.185789,
            19.59327,
            2267.75
          ],
          [
            -99.185731,
            19.593668,
            2268
          ],
          [
            -99.185689,
            19.594036,
            2268
          ],
          [
            -99.185673,
            19.594347,
            2268.5
          ],
          [
            -99.185668,
            19.594612,
            2269
          ],
          [
            -99.185673,
            19.594903,
            2269.5
          ],
          [
            -99.185696,
            19.595259,
            2269.75
          ],
          [
            -99.185807,
            19.596663,
            2268
          ],
          [
            -99.185849,
            19.597252,
            2266.5
          ],
          [
            -99.185836,
            19.597628,
            2266
          ],
          [
            -99.18584,
            19.598044,
            2266.5
          ],
          [
            -99.185899,
            19.598692,
            2267
          ],
          [
            -99.185967,
            19.599589,
            2267.5
          ],
          [
            -99.186046,
            19.600615,
            2268
          ],
          [
            -99.186132,
            19.60175,
            2267.75
          ],
          [
            -99.186266,
            19.602458,
            2267.75
          ],
          [
            -99.186418,
            19.604285,
            2262.5
          ],
          [
            -99.186484,
            19.605417,
            2261.25
          ],
          [
            -99.18649,
            19.605732,
            2262.25
          ],
          [
            -99.186481,
            19.606035,
            2262
          ],
          [
            -99.18646,
            19.606326,
            2261
          ],
          [
            -99.186394,
            19.606811,
            2259.75
          ],
          [
            -99.186277,
            19.607411,
            2259.5
          ],
          [
            -99.186197,
            19.607774,
            2259
          ],
          [
            -99.185123,
            19.612803,
            2260
          ],
          [
            -99.184611,
            19.615297,
            2260.25
          ],
          [
            -99.184283,
            19.61686,
            2259.75
          ],
          [
            -99.184235,
            19.617098,
            2259.75
          ],
          [
            -99.184073,
            19.617901,
            2259.75
          ],
          [
            -99.183786,
            19.61925,
            2256.75
          ],
          [
            -99.183155,
            19.622212,
            2256.75
          ],
          [
            -99.181232,
            19.631345,
            2254.75
          ],
          [
            -99.180356,
            19.635496,
            2254.5
          ],
          [
            -99.17972,
            19.63851,
            2254
          ],
          [
            -99.179458,
            19.639765,
            2254.25
          ],
          [
            -99.178262,
            19.645437,
            2259.25
          ],
          [
            -99.178117,
            19.646007,
            2258.75
          ],
          [
            -99.178012,
            19.646644,
            2257.5
          ],
          [
            -99.177957,
            19.647487,
            2256.5
          ],
          [
            -99.177748,
            19.650157,
            2256.25
          ],
          [
            -99.177144,
            19.657493,
            2256.75
          ],
          [
            -99.176794,
            19.661785,
            2257.25
          ],
          [
            -99.17674,
            19.662448,
            2257.25
          ],
          [
            -99.176677,
            19.663158,
            2256
          ],
          [
            -99.176608,
            19.663923,
            2255
          ],
          [
            -99.176501,
            19.66452,
            2255
          ],
          [
            -99.176415,
            19.665477,
            2254.5
          ],
          [
            -99.176334,
            19.666154,
            2254
          ],
          [
            -99.176236,
            19.667415,
            2256.5
          ],
          [
            -99.176334,
            19.666154,
            2254
          ],
          [
            -99.176415,
            19.665477,
            2254.5
          ],
          [
            -99.176501,
            19.66452,
            2255
          ],
          [
            -99.176608,
            19.663923,
            2255
          ],
          [
            -99.176677,
            19.663158,
            2256
          ],
          [
            -99.17674,
            19.662448,
            2257.25
          ],
          [
            -99.176833,
            19.661783,
            2258.75
          ],
          [
            -99.176882,
            19.661194,
            2256.75
          ],
          [
            -99.177159,
            19.657853,
            2256.75
          ],
          [
            -99.177791,
            19.650158,
            2256.25
          ],
          [
            -99.17807,
            19.646621,
            2258
          ],
          [
            -99.178157,
            19.646027,
            2259
          ],
          [
            -99.178302,
            19.645444,
            2259.25
          ],
          [
            -99.178517,
            19.644428,
            2256.75
          ],
          [
            -99.179387,
            19.640309,
            2254.5
          ],
          [
            -99.179788,
            19.638401,
            2254.5
          ],
          [
            -99.179988,
            19.637742,
            2254.5
          ],
          [
            -99.180032,
            19.637557,
            2254
          ],
          [
            -99.18046,
            19.635509,
            2254.25
          ],
          [
            -99.180656,
            19.634585,
            2254.25
          ],
          [
            -99.18069,
            19.634387,
            2254.5
          ],
          [
            -99.180812,
            19.633549,
            2257
          ],
          [
            -99.180869,
            19.633255,
            2257.75
          ],
          [
            -99.181387,
            19.630854,
            2255.25
          ],
          [
            -99.1832,
            19.622219,
            2256.75
          ],
          [
            -99.184011,
            19.61838,
            2259.75
          ],
          [
            -99.184281,
            19.617084,
            2259.75
          ],
          [
            -99.184329,
            19.616849,
            2259.75
          ],
          [
            -99.184655,
            19.615297,
            2260.25
          ],
          [
            -99.18516,
            19.612809,
            2260
          ],
          [
            -99.186234,
            19.60778,
            2258.75
          ],
          [
            -99.186318,
            19.607417,
            2259.5
          ],
          [
            -99.186433,
            19.606816,
            2259.75
          ],
          [
            -99.186481,
            19.606521,
            2260.25
          ],
          [
            -99.186531,
            19.606035,
            2262
          ],
          [
            -99.186537,
            19.605734,
            2262.5
          ],
          [
            -99.186533,
            19.605417,
            2261.25
          ],
          [
            -99.186472,
            19.604367,
            2262.5
          ],
          [
            -99.186172,
            19.600607,
            2267.75
          ],
          [
            -99.186087,
            19.59957,
            2267.25
          ],
          [
            -99.186031,
            19.598684,
            2267.25
          ],
          [
            -99.185976,
            19.597977,
            2266.75
          ],
          [
            -99.185757,
            19.595491,
            2269.5
          ],
          [
            -99.185714,
            19.594903,
            2269.5
          ],
          [
            -99.185709,
            19.59461,
            2269
          ],
          [
            -99.185714,
            19.594347,
            2268.5
          ],
          [
            -99.185731,
            19.594039,
            2268.25
          ],
          [
            -99.185775,
            19.593671,
            2268.25
          ],
          [
            -99.185843,
            19.593261,
            2267.75
          ],
          [
            -99.185935,
            19.592881,
            2268.25
          ],
          [
            -99.186029,
            19.592552,
            2269
          ],
          [
            -99.186149,
            19.592212,
            2269.25
          ],
          [
            -99.186303,
            19.591858,
            2269.5
          ],
          [
            -99.186462,
            19.591533,
            2270
          ],
          [
            -99.186627,
            19.591237,
            2270.5
          ],
          [
            -99.186803,
            19.590947,
            2270.75
          ],
          [
            -99.186977,
            19.590687,
            2270.75
          ],
          [
            -99.187161,
            19.59043,
            2270.75
          ],
          [
            -99.187441,
            19.590068,
            2270
          ],
          [
            -99.188987,
            19.588261,
            2270
          ],
          [
            -99.19054,
            19.586449,
            2271.25
          ],
          [
            -99.190915,
            19.585917,
            2273
          ],
          [
            -99.191452,
            19.585107,
            2274.75
          ],
          [
            -99.191909,
            19.584433,
            2283.5
          ],
          [
            -99.192199,
            19.584042,
            2290
          ],
          [
            -99.195039,
            19.58087,
            2283
          ],
          [
            -99.196037,
            19.580013,
            2276.25
          ],
          [
            -99.19663,
            19.579387,
            2274
          ],
          [
            -99.196769,
            19.579205,
            2273.5
          ],
          [
            -99.196917,
            19.578991,
            2272.75
          ],
          [
            -99.197025,
            19.578822,
            2272
          ],
          [
            -99.197198,
            19.57851,
            2270.75
          ],
          [
            -99.197276,
            19.57835,
            2270
          ],
          [
            -99.197415,
            19.578022,
            2270
          ],
          [
            -99.197506,
            19.577762,
            2270.25
          ],
          [
            -99.19757,
            19.577542,
            2270.75
          ],
          [
            -99.197627,
            19.577313,
            2271
          ],
          [
            -99.19767,
            19.577085,
            2271.25
          ],
          [
            -99.197713,
            19.576779,
            2271.25
          ],
          [
            -99.197735,
            19.576472,
            2270.75
          ],
          [
            -99.197737,
            19.57614,
            2269.75
          ],
          [
            -99.197722,
            19.575867,
            2269.25
          ],
          [
            -99.197691,
            19.575575,
            2268.75
          ],
          [
            -99.197633,
            19.575238,
            2268.25
          ],
          [
            -99.197537,
            19.574764,
            2268
          ],
          [
            -99.196866,
            19.571724,
            2262.5
          ],
          [
            -99.195341,
            19.564788,
            2257.5
          ],
          [
            -99.194835,
            19.562459,
            2261
          ],
          [
            -99.19474,
            19.561978,
            2262
          ],
          [
            -99.19465,
            19.561578,
            2262.75
          ],
          [
            -99.194508,
            19.561126,
            2264.25
          ],
          [
            -99.194427,
            19.560918,
            2265.25
          ],
          [
            -99.194268,
            19.560578,
            2265
          ],
          [
            -99.194128,
            19.560302,
            2264
          ],
          [
            -99.193934,
            19.559961,
            2263.75
          ],
          [
            -99.193784,
            19.559711,
            2263.5
          ],
          [
            -99.193651,
            19.559518,
            2263.25
          ],
          [
            -99.193361,
            19.559144,
            2261.75
          ],
          [
            -99.193178,
            19.558919,
            2261.25
          ],
          [
            -99.192988,
            19.558702,
            2260.75
          ],
          [
            -99.192544,
            19.558231,
            2260.25
          ],
          [
            -99.191757,
            19.557465,
            2258.75
          ],
          [
            -99.191554,
            19.557286,
            2258.25
          ],
          [
            -99.191364,
            19.557138,
            2258
          ],
          [
            -99.190113,
            19.556204,
            2258.5
          ],
          [
            -99.189919,
            19.55605,
            2258.25
          ],
          [
            -99.18974,
            19.555895,
            2257.75
          ],
          [
            -99.189576,
            19.555739,
            2257.25
          ],
          [
            -99.189426,
            19.555585,
            2256.75
          ],
          [
            -99.189225,
            19.555357,
            2256.25
          ],
          [
            -99.189,
            19.555062,
            2256.25
          ],
          [
            -99.188861,
            19.554853,
            2256.5
          ],
          [
            -99.188735,
            19.554646,
            2257.25
          ],
          [
            -99.188618,
            19.554435,
            2258
          ],
          [
            -99.188509,
            19.554212,
            2258.5
          ],
          [
            -99.188439,
            19.554048,
            2259
          ],
          [
            -99.188336,
            19.553772,
            2260.25
          ],
          [
            -99.188254,
            19.553512,
            2260.75
          ],
          [
            -99.188183,
            19.553257,
            2260.25
          ],
          [
            -99.188112,
            19.55297,
            2258
          ],
          [
            -99.188092,
            19.552893,
            2258
          ],
          [
            -99.1879,
            19.552132,
            2256.25
          ],
          [
            -99.187876,
            19.552042,
            2256.5
          ],
          [
            -99.18676,
            19.547615,
            2254.5
          ],
          [
            -99.185535,
            19.542754,
            2254.25
          ],
          [
            -99.184451,
            19.538472,
            2252.25
          ],
          [
            -99.184005,
            19.536612,
            2253.5
          ],
          [
            -99.183356,
            19.533891,
            2254.25
          ],
          [
            -99.183188,
            19.533239,
            2254.75
          ],
          [
            -99.182924,
            19.532406,
            2253.5
          ],
          [
            -99.182794,
            19.532055,
            2252.5
          ],
          [
            -99.182659,
            19.531714,
            2251.75
          ],
          [
            -99.182376,
            19.531077,
            2251.25
          ],
          [
            -99.181372,
            19.529002,
            2249.5
          ],
          [
            -99.181034,
            19.528303,
            2248.75
          ],
          [
            -99.180114,
            19.526367,
            2249.5
          ],
          [
            -99.179864,
            19.525746,
            2248.75
          ],
          [
            -99.179718,
            19.525323,
            2249
          ],
          [
            -99.179581,
            19.524902,
            2249.25
          ],
          [
            -99.179262,
            19.523855,
            2248.75
          ],
          [
            -99.179119,
            19.523305,
            2249.75
          ],
          [
            -99.178987,
            19.522712,
            2247.5
          ],
          [
            -99.17887,
            19.522136,
            2247.75
          ],
          [
            -99.178772,
            19.521559,
            2249
          ],
          [
            -99.178691,
            19.520973,
            2249.25
          ],
          [
            -99.178623,
            19.520317,
            2249
          ],
          [
            -99.178575,
            19.519703,
            2248.5
          ],
          [
            -99.178262,
            19.515162,
            2250.25
          ],
          [
            -99.178058,
            19.512321,
            2252
          ],
          [
            -99.178009,
            19.511814,
            2250.25
          ],
          [
            -99.177962,
            19.511473,
            2249.5
          ],
          [
            -99.177902,
            19.511107,
            2248.75
          ],
          [
            -99.17785,
            19.510837,
            2248.25
          ],
          [
            -99.177782,
            19.510531,
            2248.5
          ],
          [
            -99.177426,
            19.509098,
            2249
          ],
          [
            -99.176988,
            19.507365,
            2250.75
          ],
          [
            -99.176648,
            19.506211,
            2249.25
          ],
          [
            -99.176527,
            19.505799,
            2249
          ],
          [
            -99.176355,
            19.505265,
            2248.25
          ],
          [
            -99.176191,
            19.504819,
            2247.75
          ],
          [
            -99.175204,
            19.502318,
            2245
          ],
          [
            -99.17466,
            19.501113,
            2243.75
          ],
          [
            -99.174512,
            19.500783,
            2243.75
          ],
          [
            -99.174082,
            19.499749,
            2245
          ],
          [
            -99.173769,
            19.498884,
            2245
          ],
          [
            -99.173431,
            19.497842,
            2244.25
          ],
          [
            -99.173221,
            19.497249,
            2244.75
          ],
          [
            -99.173054,
            19.496809,
            2246.25
          ],
          [
            -99.172277,
            19.494847,
            2244.75
          ],
          [
            -99.171766,
            19.493417,
            2244.25
          ],
          [
            -99.171114,
            19.4917,
            2245.5
          ],
          [
            -99.168973,
            19.486221,
            2242.75
          ],
          [
            -99.168714,
            19.485541,
            2243
          ],
          [
            -99.167962,
            19.48366,
            2243
          ],
          [
            -99.166987,
            19.481161,
            2241.5
          ],
          [
            -99.166775,
            19.480636,
            2242
          ],
          [
            -99.16606,
            19.478799,
            2242.25
          ],
          [
            -99.165587,
            19.477617,
            2244.5
          ],
          [
            -99.165541,
            19.477504,
            2244.5
          ],
          [
            -99.165287,
            19.476837,
            2243.75
          ],
          [
            -99.165054,
            19.476249,
            2244.25
          ],
          [
            -99.164217,
            19.474136,
            2243.75
          ],
          [
            -99.163954,
            19.473461,
            2244.75
          ],
          [
            -99.163602,
            19.472524,
            2244.75
          ],
          [
            -99.163448,
            19.472126,
            2245.75
          ],
          [
            -99.162781,
            19.470426,
            2243
          ],
          [
            -99.162501,
            19.469779,
            2241.25
          ],
          [
            -99.162196,
            19.469144,
            2239.5
          ],
          [
            -99.161861,
            19.468515,
            2240.75
          ],
          [
            -99.161621,
            19.468102,
            2241.5
          ],
          [
            -99.161328,
            19.467628,
            2242.25
          ],
          [
            -99.16087,
            19.466945,
            2243
          ],
          [
            -99.160604,
            19.466583,
            2243.75
          ],
          [
            -99.160326,
            19.466214,
            2243.25
          ],
          [
            -99.15605,
            19.460661,
            2241.25
          ],
          [
            -99.153079,
            19.456726,
            2240
          ],
          [
            -99.152853,
            19.456378,
            2239.25
          ],
          [
            -99.152524,
            19.455813,
            2238
          ],
          [
            -99.15238,
            19.455529,
            2237.5
          ],
          [
            -99.152243,
            19.455234,
            2237
          ],
          [
            -99.152109,
            19.454907,
            2236.75
          ],
          [
            -99.151977,
            19.454562,
            2238.25
          ],
          [
            -99.151796,
            19.453991,
            2240.25
          ],
          [
            -99.151784,
            19.453955,
            2240.25
          ],
          [
            -99.151657,
            19.453581,
            2239.5
          ],
          [
            -99.151496,
            19.453213,
            2239.5
          ],
          [
            -99.151446,
            19.453069,
            2240
          ],
          [
            -99.151291,
            19.452698,
            2240.75
          ],
          [
            -99.151256,
            19.452598,
            2240.75
          ],
          [
            -99.151191,
            19.452292,
            2240.75
          ],
          [
            -99.151179,
            19.452118,
            2240.5
          ],
          [
            -99.151191,
            19.45195,
            2240.25
          ],
          [
            -99.15125,
            19.451624,
            2239.75
          ],
          [
            -99.151656,
            19.449431,
            2240
          ],
          [
            -99.15189,
            19.448198,
            2239.5
          ]
        ]
      }
    }
  ]
}