{
  "type": "FeatureCollection",
  "features": [
    {
      "type": "Feature",
      "properties": {
        "creator": "BRouter-1.7.9",
        "name": "[Ferrocarril Suburbano] Tren Suburbano (NLU)",
        "track-length": "83315",
        "filtered ascend": "98",
        "plain-ascend": "-4",
        "total-time": "6666",
        "total-energy": "3662730",
        "cost": "83315",
        "messages": [
          [
            "Longitude",
            "Latitude",
            "Elevation",
            "Distance",
            "CostPerKm",
            "ElevCost",
            "TurnCost",
            "NodeCost",
            "InitialCost",
            "WayTags",
            "NodeTags",
            "Time",
            "Energy"
          ],
          [
            "-99151887",
            "19449467",
            "2239",
            "138",
            "1000",
            "0",
            "0",
            "0",
            "0",
            "reversedirection=yes railway=rail",
            "railway=halt",
            "11",
            "6565"
          ],
          [
            "-99151557",
            "19453243",
            "2239",
            "426",
            "1000",
            "0",
            "0",
            "0",
            "0",
            "reversedirection=yes railway=rail",
            "railway=switch",
            "45",
            "25535"
          ],
          [
            "-99151657",
            "19453581",
            "2239",
            "39",
            "1000",
            "0",
            "0",
            "0",
            "0",
            "reversedirection=yes railway=rail",
            "railway=switch",
            "48",
            "27158"
          ],
          [
            "-99151784",
            "19453955",
            "2240",
            "43",
            "1000",
            "0",
            "0",
            "0",
            "0",
            "reversedirection=yes railway=rail",
            "railway=switch",
            "51",
            "29213"
          ],
          [
            "-99165054",
            "19476249",
            "2244",
            "2856",
            "1000",
            "0",
            "0",
            "0",
            "0",
            "reversedirection=yes railway=rail",
            "railway=switch",
            "280",
            "158653"
          ],
          [
            "-99165308",
            "19477004",
            "2243",
            "88",
            "1000",
            "0",
            "0",
            "0",
            "0",
            "reversedirection=yes railway=rail",
            "railway=switch",
            "287",
            "162276"
          ],
          [
            "-99165698",
            "19478004",
            "2243",
            "118",
            "1000",
            "0",
            "0",
            "0",
            "0",
            "railway=rail",
            "railway=switch",
            "296",
            "167415"
          ],
          [
            "-99165814",
            "19478432",
            "2243",
            "49",
            "1000",
            "0",
            "0",
            "0",
            "0",
            "railway=rail",
            "railway=switch",
            "300",
            "169300"
          ],
          [
            "-99168163",
            "19484428",
            "2243",
            "707",
            "1000",
            "0",
            "0",
            "0",
            "0",
            "railway=rail",
            "railway=switch",
            "357",
            "199712"
          ],
          [
            "-99168455",
            "19485005",
            "2244",
            "71",
            "1000",
            "0",
            "0",
            "0",
            "0",
            "railway=rail",
            "railway=switch",
            "362",
            "203370"
          ],
          [
            "-99168777",
            "19485825",
            "2242",
            "97",
            "1000",
            "0",
            "0",
            "0",
            "0",
            "railway=rail",
            "railway=switch",
            "370",
            "207135"
          ],
          [
            "-99168973",
            "19486221",
            "2242",
            "48",
            "1000",
            "0",
            "0",
            "0",
            "0",
            "railway=rail",
            "railway=switch",
            "374",
            "209214"
          ],
          [
            "-99171114",
            "19491700",
            "2245",
            "647",
            "1000",
            "0",
            "0",
            "0",
            "0",
            "reversedirection=yes railway=rail",
            "railway=halt",
            "426",
            "240044"
          ],
          [
            "-99172277",
            "19494847",
            "2244",
            "369",
            "1000",
            "0",
            "0",
            "0",
            "0",
            "reversedirection=yes railway=rail",
            "railway=switch",
            "455",
            "255560"
          ],
          [
            "-99181372",
            "19529002",
            "2249",
            "3931",
            "1000",
            "0",
            "0",
            "0",
            "0",
            "reversedirection=yes railway=rail",
            "railway=switch",
            "770",
            "432450"
          ],
          [
            "-99184005",
            "19536612",
            "2253",
            "890",
            "1000",
            "0",
            "0",
            "0",
            "0",
            "reversedirection=yes railway=rail",
            "railway=halt",
            "841",
            "475417"
          ],
          [
            "-99185535",
            "19542754",
            "2254",
            "698",
            "1000",
            "0",
            "0",
            "0",
            "0",
            "reversedirection=yes railway=rail",
            "railway=switch",
            "897",
            "506746"
          ],
          [
            "-99187900",
            "19552132",
            "2256",
            "1067",
            "1000",
            "0",
            "0",
            "0",
            "0",
            "reversedirection=yes railway=rail",
            "railway=switch",
            "982",
            "555646"
          ],
          [
            "-99188016",
            "19552809",
            "2259",
            "75",
            "1000",
            "0",
            "0",
            "0",
            "0",
            "railway=rail",
            "railway=switch",
            "988",
            "558845"
          ],
          [
            "-99193933",
            "19560169",
            "2265",
            "1048",
            "1000",
            "0",
            "0",
            "0",
            "0",
            "railway=rail",
            "railway=switch",
            "1072",
            "611407"
          ],
          [
            "-99195237",
            "19564803",
            "2257",
            "534",
            "1000",
            "0",
            "0",
            "0",
            "0",
            "railway=rail",
            "railway=halt",
            "1115",
            "631890"
          ],
          [
            "-99196589",
            "19570715",
            "2261",
            "670",
            "1000",
            "0",
            "0",
            "0",
            "0",
            "railway=rail",
            "railway=switch",
            "1168",
            "662468"
          ],
          [
            "-99185967",
            "19599589",
            "2267",
            "3618",
            "1000",
            "0",
            "0",
            "0",
            "0",
            "railway=rail",
            "railway=halt",
            "1458",
            "827783"
          ],
          [
            "-99170433",
            "19625256",
            "2253",
            "3525",
            "1000",
            "0",
            "0",
            "0",
            "0",
            "railway=rail",
            "railway=switch",
            "1740",
            "973540"
          ],
          [
            "-99152937",
            "19640469",
            "2254",
            "2489",
            "1000",
            "0",
            "0",
            "0",
            "0",
            "railway=rail",
            "railway=level_crossing",
            "1939",
            "1080463"
          ],
          [
            "-99139454",
            "19652149",
            "2246",
            "1916",
            "1000",
            "0",
            "0",
            "0",
            "0",
            "railway=rail",
            "railway=switch",
            "2092",
            "1158245"
          ],
          [
            "-99132510",
            "19658293",
            "2252",
            "997",
            "1000",
            "0",
            "0",
            "0",
            "0",
            "railway=rail",
            "railway=switch",
            "2172",
            "1204655"
          ],
          [
            "-99112072",
            "19676037",
            "2245",
            "2907",
            "1000",
            "0",
            "0",
            "0",
            "0",
            "railway=rail",
            "",
            "2404",
            "1330620"
          ],
          [
            "-99110191",
            "19677714",
            "2245",
            "271",
            "1000",
            "0",
            "0",
            "0",
            "0",
            "railway=rail",
            "railway=switch",
            "21",
            "10683"
          ],
          [
            "-99104270",
            "19682769",
            "2245",
            "837",
            "1000",
            "0",
            "0",
            "0",
            "0",
            "railway=rail",
            "railway=switch",
            "88",
            "46808"
          ],
          [
            "-99084435",
            "19699991",
            "2248",
            "2821",
            "1000",
            "0",
            "0",
            "0",
            "0",
            "railway=rail",
            "railway=switch",
            "314",
            "173118"
          ],
          [
            "-99068224",
            "19714162",
            "2243",
            "2313",
            "1000",
            "0",
            "0",
            "0",
            "0",
            "railway=rail",
            "railway=switch",
            "499",
            "271686"
          ],
          [
            "-99067145",
            "19715183",
            "2244",
            "160",
            "1000",
            "0",
            "0",
            "0",
            "0",
            "reversedirection=yes railway=rail",
            "railway=switch",
            "512",
            "278900"
          ],
          [
            "-99066747",
            "19715509",
            "2244",
            "55",
            "1000",
            "0",
            "0",
            "0",
            "0",
            "reversedirection=yes railway=rail",
            "railway=switch",
            "516",
            "281431"
          ],
          [
            "-99065957",
            "19716273",
            "2244",
            "118",
            "1000",
            "0",
            "0",
            "0",
            "0",
            "railway=rail",
            "railway=switch",
            "526",
            "286952"
          ],
          [
            "-99063222",
            "19718649",
            "2244",
            "389",
            "1000",
            "0",
            "0",
            "0",
            "0",
            "railway=rail",
            "railway=switch",
            "557",
            "304749"
          ],
          [
            "-99062282",
            "19719382",
            "2243",
            "127",
            "1000",
            "0",
            "0",
            "0",
            "0",
            "railway=rail",
            "railway=switch",
            "567",
            "309352"
          ],
          [
            "-99061903",
            "19719717",
            "2243",
            "54",
            "1000",
            "0",
            "0",
            "0",
            "0",
            "reversedirection=yes railway=rail",
            "railway=switch",
            "571",
            "311501"
          ],
          [
            "-99060939",
            "19720491",
            "2243",
            "132",
            "1000",
            "0",
            "0",
            "0",
            "0",
            "railway=rail",
            "railway=switch",
            "582",
            "317236"
          ],
          [
            "-99054881",
            "19725879",
            "2245",
            "871",
            "1000",
            "0",
            "0",
            "0",
            "0",
            "railway=rail",
            "railway=switch",
            "651",
            "357174"
          ],
          [
            "-99027802",
            "19734008",
            "-8192",
            "3117",
            "1000",
            "0",
            "0",
            "0",
            "0",
            "railway=rail",
            "railway=switch",
            "901",
            "492845"
          ],
          [
            "-99025306",
            "19735800",
            "-8192",
            "331",
            "1000",
            "0",
            "0",
            "0",
            "0",
            "reversedirection=yes railway=rail",
            "",
            "927",
            "507404"
          ],
          [
            "-99027802",
            "19734008",
            "-8192",
            "331",
            "1000",
            "0",
            "0",
            "0",
            "0",
            "railway=rail",
            "railway=switch",
            "26",
            "14559"
          ],
          [
            "-99054881",
            "19725879",
            "2245",
            "3117",
            "1000",
            "0",
            "0",
            "0",
            "0",
            "reversedirection=yes railway=rail",
            "railway=switch",
            "275",
            "153145"
          ],
          [
            "-99060939",
            "19720491",
            "2243",
            "871",
            "1000",
            "0",
            "0",
            "0",
            "0",
            "reversedirection=yes railway=rail",
            "railway=switch",
            "345",
            "189571"
          ],
          [
            "-99061903",
            "19719717",
            "2243",
            "132",
            "1000",
            "0",
            "0",
            "0",
            "0",
            "reversedirection=yes railway=rail",
            "railway=switch",
            "356",
            "195347"
          ],
          [
            "-99062282",
            "19719382",
            "2243",
            "54",
            "1000",
            "0",
            "0",
            "0",
            "0",
            "railway=rail",
            "railway=switch",
            "360",
            "197718"
          ],
          [
            "-99063222",
            "19718649",
            "2244",
            "127",
            "1000",
            "0",
            "0",
            "0",
            "0",
            "reversedirection=yes railway=rail",
            "railway=switch",
            "370",
            "203731"
          ],
          [
            "-99065957",
            "19716273",
            "2244",
            "389",
            "1000",
            "0",
            "0",
            "0",
            "0",
            "reversedirection=yes railway=rail",
            "railway=switch",
            "401",
            "221332"
          ],
          [
            "-99066747",
            "19715509",
            "2244",
            "118",
            "1000",
            "0",
            "0",
            "0",
            "0",
            "reversedirection=yes railway=rail",
            "railway=switch",
            "411",
            "226420"
          ],
          [
            "-99067145",
            "19715183",
            "2244",
            "55",
            "1000",
            "0",
            "0",
            "0",
            "0",
            "railway=rail",
            "railway=switch",
            "415",
            "228678"
          ],
          [
            "-99083382",
            "19701012",
            "2245",
            "2315",
            "1000",
            "0",
            "0",
            "0",
            "0",
            "railway=rail",
            "railway=switch",
            "600",
            "330953"
          ],
          [
            "-99084435",
            "19699991",
            "2248",
            "158",
            "1000",
            "0",
            "0",
            "0",
            "0",
            "railway=rail",
            "railway=switch",
            "613",
            "338073"
          ],
          [
            "-99089764",
            "19695365",
            "2243",
            "758",
            "1000",
            "0",
            "0",
            "0",
            "0",
            "reversedirection=yes railway=rail",
            "",
            "674",
            "369808"
          ],
          [
            "-99103650",
            "19683368",
            "2244",
            "1971",
            "1000",
            "0",
            "0",
            "0",
            "0",
            "railway=rail",
            "railway=switch",
            "831",
            "457932"
          ],
          [
            "-99110833",
            "19677199",
            "2245",
            "1016",
            "1000",
            "0",
            "0",
            "0",
            "0",
            "railway=rail",
            "railway=switch",
            "912",
            "503170"
          ],
          [
            "-99131728",
            "19659020",
            "2250",
            "2975",
            "1000",
            "0",
            "0",
            "0",
            "0",
            "railway=rail",
            "railway=switch",
            "1150",
            "635882"
          ],
          [
            "-99132510",
            "19658293",
            "2252",
            "115",
            "1000",
            "0",
            "0",
            "0",
            "0",
            "railway=rail",
            "railway=switch",
            "1160",
            "642314"
          ],
          [
            "-99139454",
            "19652149",
            "2246",
            "997",
            "1000",
            "0",
            "0",
            "0",
            "0",
            "reversedirection=yes railway=rail",
            "railway=switch",
            "1239",
            "684001"
          ],
          [
            "-99152937",
            "19640469",
            "2254",
            "1916",
            "1000",
            "0",
            "0",
            "0",
            "0",
            "reversedirection=yes railway=rail",
            "railway=level_crossing",
            "1393",
            "771466"
          ],
          [
            "-99170433",
            "19625256",
            "2253",
            "2489",
            "1000",
            "0",
            "0",
            "0",
            "0",
            "reversedirection=yes railway=rail",
            "railway=switch",
            "1592",
            "884442"
          ],
          [
            "-99185967",
            "19599589",
            "2267",
            "3525",
            "1000",
            "0",
            "0",
            "0",
            "0",
            "reversedirection=yes railway=rail",
            "railway=halt",
            "1874",
            "1050537"
          ],
          [
            "-99185757",
            "19595491",
            "2269",
            "455",
            "1000",
            "0",
            "0",
            "0",
            "0",
            "reversedirection=yes railway=rail",
            "",
            "1910",
            "1072502"
          ],
          [
            "-99193028",
            "19583117",
            "2283",
            "1611",
            "1000",
            "0",
            "0",
            "0",
            "0",
            "railway=rail",
            "",
            "2039",
            "1156645"
          ],
          [
            "-99196866",
            "19571724",
            "2262",
            "1442",
            "1000",
            "0",
            "0",
            "0",
            "0",
            "railway=rail",
            "railway=switch",
            "115",
            "43880"
          ],
          [
            "-99195341",
            "19564788",
            "2257",
            "784",
            "1000",
            "0",
            "0",
            "0",
            "0",
            "railway=rail",
            "railway=halt",
            "178",
            "73853"
          ],
          [
            "-99187900",
            "19552132",
            "2256",
            "1655",
            "1000",
            "0",
            "0",
            "0",
            "0",
            "railway=rail",
            "railway=switch",
            "310",
            "143875"
          ],
          [
            "-99185535",
            "19542754",
            "2254",
            "1067",
            "1000",
            "0",
            "0",
            "0",
            "0",
            "railway=rail",
            "railway=switch",
            "395",
            "188062"
          ],
          [
            "-99184005",
            "19536612",
            "2253",
            "698",
            "1000",
            "0",
            "0",
            "0",
            "0",
            "railway=rail",
            "railway=halt",
            "451",
            "217969"
          ],
          [
            "-99181372",
            "19529002",
            "2249",
            "890",
            "1000",
            "0",
            "0",
            "0",
            "0",
            "railway=rail",
            "railway=switch",
            "522",
            "253892"
          ],
          [
            "-99172277",
            "19494847",
            "2244",
            "3931",
            "1000",
            "0",
            "0",
            "0",
            "0",
            "railway=rail",
            "railway=switch",
            "837",
            "422476"
          ],
          [
            "-99171114",
            "19491700",
            "2245",
            "369",
            "1000",
            "0",
            "0",
            "0",
            "0",
            "railway=rail",
            "railway=halt",
            "866",
            "439187"
          ],
          [
            "-99168973",
            "19486221",
            "2242",
            "647",
            "1000",
            "0",
            "0",
            "0",
            "0",
            "railway=rail",
            "railway=switch",
            "918",
            "465355"
          ],
          [
            "-99168777",
            "19485825",
            "2242",
            "48",
            "1000",
            "0",
            "0",
            "0",
            "0",
            "reversedirection=yes railway=rail",
            "railway=switch",
            "922",
            "467381"
          ],
          [
            "-99168455",
            "19485005",
            "2244",
            "97",
            "1000",
            "0",
            "0",
            "0",
            "0",
            "reversedirection=yes railway=rail",
            "railway=switch",
            "930",
            "472384"
          ],
          [
            "-99168163",
            "19484428",
            "2243",
            "71",
            "1000",
            "0",
            "0",
            "0",
            "0",
            "reversedirection=yes railway=rail",
            "railway=switch",
            "935",
            "475286"
          ],
          [
            "-99165814",
            "19478432",
            "2243",
            "707",
            "1000",
            "0",
            "0",
            "0",
            "0",
            "reversedirection=yes railway=rail",
            "railway=switch",
            "992",
            "505778"
          ],
          [
            "-99165698",
            "19478004",
            "2243",
            "49",
            "1000",
            "0",
            "0",
            "0",
            "0",
            "reversedirection=yes railway=rail",
            "railway=switch",
            "996",
            "508216"
          ],
          [
            "-99165308",
            "19477004",
            "2243",
            "118",
            "1000",
            "0",
            "0",
            "0",
            "0",
            "reversedirection=yes railway=rail",
            "railway=switch",
            "1005",
            "514101"
          ],
          [
            "-99165054",
            "19476249",
            "2244",
            "88",
            "1000",
            "0",
            "0",
            "0",
            "0",
            "railway=rail",
            "railway=switch",
            "1012",
            "518275"
          ],
          [
            "-99151784",
            "19453955",
            "2240",
            "2856",
            "1000",
            "0",
            "0",
            "0",
            "0",
            "railway=rail",
            "railway=switch",
            "1241",
            "639516"
          ],
          [
            "-99151657",
            "19453581",
            "2239",
            "43",
            "1000",
            "0",
            "0",
            "0",
            "0",
            "railway=rail",
            "railway=switch",
            "1244",
            "641548"
          ],
          [
            "-99151557",
            "19453243",
            "2239",
            "39",
            "1000",
            "0",
            "0",
            "0",
            "0",
            "railway=rail",
            "railway=switch",
            "1247",
            "643277"
          ],
          [
            "-99151887",
            "19449467",
            "2239",
            "426",
            "1000",
            "0",
            "0",
            "0",
            "0",
            "railway=rail",
            "railway=halt",
            "1282",
            "662495"
          ],
          [
            "-99152110",
            "19448239",
            "2239",
            "138",
            "1000",
            "0",
            "0",
            "0",
            "0",
            "railway=rail",
            "",
            "1293",
            "668061"
          ]
        ],
        "times": [
          0,
          11.04,
          30.8,
          35.36,
          36.8,
          38.08,
          39.28,
          41.76,
          45.12,
          48.24,
          51.68,
          57.28,
          60.56,
          63.68,
          66.56,
          69.36,
          75.04,
          78.64,
          121.52,
          182.4,
          186.4,
          190.32,
          197.52,
          202.4,
          206.56,
          212.8,
          218.96,
          225.12,
          241.2,
          244.96,
          253.76,
          260.16,
          280.16,
          287.2,
          292,
          296.64,
          298.48,
          300.56,
          305.12,
          314.32,
          338.32,
          351.12,
          354.8,
          357.12,
          362.8,
          370.56,
          374.4,
          426.16,
          442.32,
          455.68,
          474.24,
          478.4,
          483.92,
          493.6,
          501.68,
          511.52,
          514.72,
          526.32,
          550,
          554.16,
          559.12,
          562.88,
          573.52,
          589.28,
          602.32,
          605.12,
          607.52,
          610.8,
          613.84,
          618.32,
          643.52,
          683.84,
          689.28,
          695.12,
          700.32,
          705.52,
          710.72,
          716.08,
          721.12,
          730.8,
          734.72,
          738.64,
          744.56,
          763.36,
          770.16,
          790.4,
          796.56,
          799.76,
          803.04,
          810.72,
          816.64,
          841.36,
          858.24,
          897.2,
          941.44,
          981.76,
          982.56,
          987.28,
          988.56,
          990,
          994.48,
          997.04,
          1000.4,
          1002.32,
          1004.08,
          1006.48,
          1010.64,
          1012.64,
          1014.8,
          1016.32,
          1018.72,
          1021.2,
          1023.76,
          1025.44,
          1034.08,
          1042.16,
          1044.48,
          1052.56,
          1057.2,
          1059.84,
          1062.24,
          1066.24,
          1070.08,
          1072.4,
          1075.44,
          1077.84,
          1080.8,
          1082.08,
          1084.08,
          1086.16,
          1090.48,
          1093.84,
          1095.36,
          1098.08,
          1100.56,
          1115.12,
          1131.36,
          1132.72,
          1137.2,
          1138.88,
          1154.72,
          1168.72,
          1184.64,
          1195.04,
          1205.44,
          1209.68,
          1212.64,
          1215.2,
          1217.6,
          1220.56,
          1223.2,
          1225.84,
          1227.92,
          1230,
          1231.92,
          1234.4,
          1235.84,
          1237.36,
          1238.96,
          1242.08,
          1243.76,
          1246,
          1248,
          1254.88,
          1266.64,
          1303.52,
          1307.36,
          1314.96,
          1323.44,
          1326.4,
          1329.12,
          1332.479,
          1370.4,
          1377.12,
          1379.839,
          1382.799,
          1385.759,
          1389.039,
          1392.399,
          1395.599,
          1398.799,
          1400.559,
          1402.159,
          1405.679,
          1408.959,
          1411.679,
          1413.999,
          1416.559,
          1419.679,
          1432.159,
          1437.359,
          1440.719,
          1444.399,
          1450.159,
          1458.159,
          1467.279,
          1477.359,
          1483.759,
          1499.999,
          1504.079,
          1509.839,
          1512.159,
          1514.639,
          1518.879,
          1522.159,
          1524.399,
          1534.719,
          1536.239,
          1539.039,
          1552.159,
          1555.039,
          1560.159,
          1562.639,
          1569.199,
          1571.119,
          1573.519,
          1575.199,
          1575.999,
          1577.999,
          1580.319,
          1581.919,
          1584.479,
          1599.439,
          1610.799,
          1664.159,
          1668.799,
          1678.959,
          1740.159,
          1744.239,
          1746.559,
          1757.519,
          1760.239,
          1771.119,
          1788.319,
          1793.679,
          1805.679,
          1811.599,
          1824.399,
          1839.519,
          1929.359,
          1939.279,
          1941.919,
          1948.319,
          1951.039,
          1962.399,
          1991.039,
          2092.559,
          2113.199,
          2145.039,
          2147.279,
          2155.839,
          2157.919,
          2159.919,
          2172.319,
          2192.479,
          2201.519,
          2237.199,
          2247.279,
          2300.799,
          2338.799,
          2349.599,
          2385.759,
          2395.119,
          2404.879,
          2426.559,
          2430.719,
          2433.359,
          2436.719,
          2442.479,
          2445.679,
          2476.559,
          2482.959,
          2493.519,
          2646.399,
          2658.559,
          2678.159,
          2712.479,
          2719.199,
          2733.119,
          2736.879,
          2761.279,
          2767.759,
          2904.239,
          2917.039,
          2921.439,
          2927.199,
          2930.879,
          2944.159,
          2953.759,
          2961.999,
          2966.239,
          2967.839,
          2970.399,
          2972.159,
          2976.479,
          2987.039,
          2994.799,
          3007.519,
          3037.839,
          3041.439,
          3047.359,
          3049.519,
          3056.719,
          3070.479,
          3072.639,
          3074.399,
          3077.039,
          3079.999,
          3082.479,
          3084.319,
          3086.159,
          3088.799,
          3091.359,
          3094.639,
          3097.119,
          3099.679,
          3119.359,
          3138.159,
          3167.039,
          3180.079,
          3213.999,
          3230.799,
          3232.799,
          3234.879,
          3236.879,
          3238.719,
          3240.719,
          3242.959,
          3303.359,
          3306.079,
          3307.999,
          3311.519,
          3312.159,
          3312.799,
          3323.519,
          3332.559,
          3341.599,
          3352.319,
          3352.959,
          3353.599,
          3357.119,
          3359.039,
          3361.759,
          3422.159,
          3424.399,
          3426.399,
          3428.239,
          3430.239,
          3432.319,
          3434.319,
          3451.119,
          3485.039,
          3498.079,
          3526.959,
          3545.759,
          3565.439,
          3567.999,
          3570.479,
          3573.759,
          3576.319,
          3578.959,
          3580.799,
          3582.639,
          3585.119,
          3588.079,
          3590.719,
          3592.479,
          3594.639,
          3608.399,
          3615.599,
          3617.759,
          3623.679,
          3627.279,
          3657.599,
          3670.319,
          3678.079,
          3688.639,
          3692.959,
          3694.719,
          3697.279,
          3698.879,
          3703.119,
          3711.359,
          3720.959,
          3734.239,
          3737.919,
          3743.679,
          3748.079,
          3828.479,
          3897.279,
          3903.759,
          3928.159,
          3931.919,
          3933.279,
          3945.919,
          3952.639,
          3986.959,
          4006.559,
          4016.319,
          4164.239,
          4171.519,
          4183.679,
          4188.479,
          4219.359,
          4234.319,
          4245.519,
          4269.919,
          4279.279,
          4315.519,
          4326.319,
          4364.319,
          4417.759,
          4427.839,
          4463.519,
          4472.559,
          4483.519,
          4492.719,
          4505.119,
          4507.119,
          4509.199,
          4517.759,
          4519.999,
          4551.839,
          4572.479,
          4673.999,
          4702.639,
          4713.999,
          4716.719,
          4723.119,
          4725.759,
          4735.679,
          4825.519,
          4840.639,
          4853.439,
          4859.359,
          4871.359,
          4876.719,
          4893.919,
          4904.799,
          4907.519,
          4918.479,
          4920.799,
          4924.879,
          4986.079,
          4996.239,
          5000.879,
          5054.239,
          5065.599,
          5080.559,
          5083.119,
          5084.719,
          5087.039,
          5089.039,
          5089.839,
          5091.519,
          5093.919,
          5095.839,
          5102.399,
          5104.879,
          5109.999,
          5112.879,
          5125.999,
          5128.799,
          5130.319,
          5140.639,
          5142.879,
          5146.159,
          5150.399,
          5152.879,
          5155.199,
          5160.959,
          5165.039,
          5181.279,
          5187.679,
          5197.759,
          5206.879,
          5214.879,
          5220.639,
          5224.319,
          5227.679,
          5232.879,
          5243.279,
          5248.479,
          5251.039,
          5253.359,
          5256.079,
          5259.359,
          5263.039,
          5266.479,
          5269.519,
          5272.719,
          5276.079,
          5279.279,
          5282.239,
          5285.199,
          5287.919,
          5290.639,
          5294.639,
          5315.279,
          5335.919,
          5341.599,
          5350.079,
          5357.199,
          5361.439,
          5372.159,
          5398.239,
          5409.519,
          5416.959,
          5418.959,
          5421.199,
          5422.959,
          5426.079,
          5427.679,
          5430.799,
          5433.199,
          5435.199,
          5437.279,
          5439.359,
          5442.079,
          5444.799,
          5447.759,
          5450.159,
          5452.719,
          5455.759,
          5459.999,
          5487.519,
          5550.239,
          5571.279,
          5575.599,
          5579.199,
          5583.359,
          5585.359,
          5588.639,
          5591.359,
          5594.799,
          5597.359,
          5599.439,
          5603.519,
          5605.999,
          5608.479,
          5614.079,
          5623.519,
          5625.839,
          5627.919,
          5641.279,
          5643.439,
          5645.439,
          5647.359,
          5649.199,
          5651.839,
          5655.039,
          5657.199,
          5659.279,
          5661.359,
          5663.519,
          5665.119,
          5667.679,
          5670.079,
          5672.399,
          5675.679,
          5682.639,
          5683.439,
          5723.759,
          5767.999,
          5806.959,
          5823.839,
          5848.559,
          5854.479,
          5862.159,
          5865.439,
          5868.639,
          5874.799,
          5895.039,
          5901.839,
          5920.639,
          5926.559,
          5930.479,
          5934.399,
          5944.079,
          5949.119,
          5954.479,
          5959.679,
          5964.879,
          5970.079,
          5975.919,
          5981.359,
          6021.679,
          6046.879,
          6051.359,
          6054.399,
          6057.679,
          6060.079,
          6062.879,
          6075.919,
          6091.679,
          6102.319,
          6106.079,
          6111.039,
          6115.199,
          6138.879,
          6150.479,
          6153.679,
          6163.519,
          6171.599,
          6181.279,
          6186.799,
          6190.959,
          6209.519,
          6222.879,
          6239.039,
          6290.799,
          6294.639,
          6302.399,
          6308.079,
          6310.399,
          6314.079,
          6326.879,
          6350.879,
          6360.079,
          6364.639,
          6366.719,
          6368.559,
          6373.199,
          6377.999,
          6385.039,
          6405.039,
          6411.439,
          6420.239,
          6423.999,
          6440.079,
          6446.239,
          6452.399,
          6458.639,
          6462.799,
          6467.679,
          6474.879,
          6478.799,
          6482.799,
          6543.679,
          6586.559,
          6590.159,
          6595.839,
          6598.639,
          6601.519,
          6604.639,
          6607.919,
          6613.519,
          6616.959,
          6620.079,
          6623.439,
          6625.919,
          6627.119,
          6628.399,
          6629.839,
          6634.399,
          6654.159,
          6665.199
        ]
      },
      "geometry": {
        "type": "LineString",
        "coordinates": [
          [
            -99.15211,
            19.448239,
            2239
          ],
          [
            -99.151887,
            19.449467,
            2239.75
          ],
          [
            -99.151491,
            19.451665,
            2239.75
          ],
          [
            -99.151401,
            19.452173,
            2240.25
          ],
          [
            -99.151378,
            19.452332,
            2240.5
          ],
          [
            -99.15137,
            19.452476,
            2240.5
          ],
          [
            -99.151381,
            19.452613,
            2240.5
          ],
          [
            -99.151436,
            19.452886,
            2240
          ],
          [
            -99.151557,
            19.453243,
            2239.25
          ],
          [
            -99.151657,
            19.453581,
            2239.5
          ],
          [
            -99.151784,
            19.453955,
            2240.25
          ],
          [
            -99.151977,
            19.454562,
            2238.25
          ],
          [
            -99.152109,
            19.454907,
            2236.75
          ],
          [
            -99.152243,
            19.455234,
            2237
          ],
          [
            -99.15238,
            19.455529,
            2237.5
          ],
          [
            -99.152524,
            19.455813,
            2238
          ],
          [
            -99.152853,
            19.456378,
            2239.25
          ],
          [
            -99.153079,
            19.456726,
            2240
          ],
          [
            -99.15605,
            19.460661,
            2241.25
          ],
          [
            -99.160326,
            19.466214,
            2243.25
          ],
          [
            -99.160604,
            19.466583,
            2243.75
          ],
          [
            -99.16087,
            19.466945,
            2243
          ],
          [
            -99.161328,
            19.467628,
            2242.25
          ],
          [
            -99.161621,
            19.468102,
            2241.5
          ],
          [
            -99.161861,
            19.468515,
            2240.75
          ],
          [
            -99.162196,
            19.469144,
            2239.5
          ],
          [
            -99.162501,
            19.469779,
            2241.25
          ],
          [
            -99.162781,
            19.470426,
            2243
          ],
          [
            -99.163448,
            19.472126,
            2245.75
          ],
          [
            -99.163602,
            19.472524,
            2244.75
          ],
          [
            -99.163954,
            19.473461,
            2244.75
          ],
          [
            -99.164217,
            19.474136,
            2243.75
          ],
          [
            -99.165054,
            19.476249,
            2244.25
          ],
          [
            -99.165308,
            19.477004,
            2243.75
          ],
          [
            -99.165501,
            19.477518,
            2244.5
          ],
          [
            -99.165698,
            19.478004,
            2243.5
          ],
          [
            -99.165757,
            19.478206,
            2243.25
          ],
          [
            -99.165814,
            19.478432,
            2243
          ],
          [
            -99.165995,
            19.47892,
            2242.5
          ],
          [
            -99.166375,
            19.479898,
            2241.5
          ],
          [
            -99.16738,
            19.482438,
            2243.5
          ],
          [
            -99.167907,
            19.483798,
            2242.75
          ],
          [
            -99.168065,
            19.484187,
            2242.5
          ],
          [
            -99.168163,
            19.484428,
            2243
          ],
          [
            -99.168455,
            19.485005,
            2244
          ],
          [
            -99.168777,
            19.485825,
            2242.5
          ],
          [
            -99.168973,
            19.486221,
            2242.75
          ],
          [
            -99.171114,
            19.4917,
            2245.5
          ],
          [
            -99.171766,
            19.493417,
            2244.25
          ],
          [
            -99.172277,
            19.494847,
            2244.75
          ],
          [
            -99.173054,
            19.496809,
            2246.25
          ],
          [
            -99.173221,
            19.497249,
            2244.75
          ],
          [
            -99.173431,
            19.497842,
            2244.25
          ],
          [
            -99.173769,
            19.498884,
            2245
          ],
          [
            -99.174082,
            19.499749,
            2245
          ],
          [
            -99.174512,
            19.500783,
            2243.75
          ],
          [
            -99.17466,
            19.501113,
            2244
          ],
          [
            -99.175204,
            19.502318,
            2245.75
          ],
          [
            -99.176191,
            19.504819,
            2248.75
          ],
          [
            -99.176355,
            19.505265,
            2249.5
          ],
          [
            -99.176527,
            19.505799,
            2250
          ],
          [
            -99.176648,
            19.506211,
            2250.75
          ],
          [
            -99.176988,
            19.507365,
            2250.75
          ],
          [
            -99.177426,
            19.509098,
            2249
          ],
          [
            -99.177782,
            19.510531,
            2248.5
          ],
          [
            -99.17785,
            19.510837,
            2248.25
          ],
          [
            -99.177902,
            19.511107,
            2248.75
          ],
          [
            -99.177962,
            19.511473,
            2249.5
          ],
          [
            -99.178009,
            19.511814,
            2250.25
          ],
          [
            -99.178058,
            19.512321,
            2252
          ],
          [
            -99.178262,
            19.515162,
            2250.25
          ],
          [
            -99.178575,
            19.519703,
            2248.5
          ],
          [
            -99.178623,
            19.520317,
            2249
          ],
          [
            -99.178691,
            19.520973,
            2249.25
          ],
          [
            -99.178772,
            19.521559,
            2249
          ],
          [
            -99.17887,
            19.522136,
            2247.75
          ],
          [
            -99.178987,
            19.522712,
            2247.5
          ],
          [
            -99.179119,
            19.523305,
            2249.75
          ],
          [
            -99.179262,
            19.523855,
            2248.75
          ],
          [
            -99.179581,
            19.524902,
            2249.25
          ],
          [
            -99.179718,
            19.525323,
            2249
          ],
          [
            -99.179864,
            19.525746,
            2248.75
          ],
          [
            -99.180114,
            19.526367,
            2249.5
          ],
          [
            -99.181034,
            19.528303,
            2248.75
          ],
          [
            -99.181372,
            19.529002,
            2249.5
          ],
          [
            -99.182376,
            19.531077,
            2251.25
          ],
          [
            -99.182659,
            19.531714,
            2251.75
          ],
          [
            -99.182794,
            19.532055,
            2252.5
          ],
          [
            -99.182924,
            19.532406,
            2253.5
          ],
          [
            -99.183188,
            19.533239,
            2254.75
          ],
          [
            -99.183356,
            19.533891,
            2254.25
          ],
          [
            -99.184005,
            19.536612,
            2253.5
          ],
          [
            -99.184451,
            19.538472,
            2252.25
          ],
          [
            -99.185535,
            19.542754,
            2254.25
          ],
          [
            -99.18676,
            19.547615,
            2254.5
          ],
          [
            -99.187876,
            19.552042,
            2256.5
          ],
          [
            -99.1879,
            19.552132,
            2256.75
          ],
          [
            -99.187987,
            19.552663,
            2259
          ],
          [
            -99.188016,
            19.552809,
            2259.5
          ],
          [
            -99.188057,
            19.552971,
            2260.25
          ],
          [
            -99.188188,
            19.553464,
            2260.25
          ],
          [
            -99.188274,
            19.553739,
            2260
          ],
          [
            -99.188412,
            19.554096,
            2259
          ],
          [
            -99.188501,
            19.554297,
            2258.25
          ],
          [
            -99.188589,
            19.554476,
            2257.75
          ],
          [
            -99.188722,
            19.554711,
            2257
          ],
          [
            -99.188981,
            19.555108,
            2256.25
          ],
          [
            -99.18912,
            19.555292,
            2256.25
          ],
          [
            -99.189281,
            19.555483,
            2256.5
          ],
          [
            -99.189399,
            19.555612,
            2256.75
          ],
          [
            -99.189592,
            19.555807,
            2257.25
          ],
          [
            -99.189803,
            19.556,
            2258
          ],
          [
            -99.190028,
            19.55619,
            2258.75
          ],
          [
            -99.190187,
            19.556312,
            2258.5
          ],
          [
            -99.190999,
            19.556906,
            2257.75
          ],
          [
            -99.191736,
            19.557491,
            2258.75
          ],
          [
            -99.191928,
            19.557675,
            2259.25
          ],
          [
            -99.192581,
            19.558341,
            2260.5
          ],
          [
            -99.192942,
            19.558738,
            2261.25
          ],
          [
            -99.193138,
            19.55897,
            2261.75
          ],
          [
            -99.193308,
            19.559191,
            2262.25
          ],
          [
            -99.193566,
            19.559569,
            2264
          ],
          [
            -99.193798,
            19.559938,
            2264.75
          ],
          [
            -99.193933,
            19.560169,
            2265
          ],
          [
            -99.194107,
            19.560466,
            2265.25
          ],
          [
            -99.19423,
            19.560715,
            2265.75
          ],
          [
            -99.194377,
            19.56102,
            2265.25
          ],
          [
            -99.194436,
            19.561156,
            2264.5
          ],
          [
            -99.194515,
            19.561365,
            2263.75
          ],
          [
            -99.194587,
            19.561594,
            2263
          ],
          [
            -99.194711,
            19.562071,
            2262
          ],
          [
            -99.19479,
            19.56244,
            2261.5
          ],
          [
            -99.194811,
            19.562609,
            2261.25
          ],
          [
            -99.194841,
            19.562916,
            2261
          ],
          [
            -99.194884,
            19.56319,
            2260.75
          ],
          [
            -99.195237,
            19.564803,
            2257
          ],
          [
            -99.195629,
            19.566603,
            2259.5
          ],
          [
            -99.19567,
            19.566756,
            2260
          ],
          [
            -99.195832,
            19.567239,
            2262
          ],
          [
            -99.195877,
            19.56742,
            2262.5
          ],
          [
            -99.19626,
            19.569169,
            2261.75
          ],
          [
            -99.196589,
            19.570715,
            2261.5
          ],
          [
            -99.196969,
            19.57248,
            2265.25
          ],
          [
            -99.197232,
            19.573629,
            2268
          ],
          [
            -99.197483,
            19.574778,
            2268
          ],
          [
            -99.19758,
            19.575248,
            2268.5
          ],
          [
            -99.197634,
            19.575578,
            2269
          ],
          [
            -99.197666,
            19.57587,
            2269.25
          ],
          [
            -99.197679,
            19.576143,
            2270
          ],
          [
            -99.197677,
            19.576473,
            2271
          ],
          [
            -99.197653,
            19.576774,
            2271.5
          ],
          [
            -99.197611,
            19.577071,
            2271.25
          ],
          [
            -99.197568,
            19.5773,
            2271
          ],
          [
            -99.197512,
            19.577527,
            2270.75
          ],
          [
            -99.19745,
            19.577738,
            2270.5
          ],
          [
            -99.197356,
            19.578006,
            2270.25
          ],
          [
            -99.197294,
            19.578162,
            2270.25
          ],
          [
            -99.197226,
            19.57832,
            2270.25
          ],
          [
            -99.197147,
            19.578483,
            2270.75
          ],
          [
            -99.196973,
            19.578796,
            2272.25
          ],
          [
            -99.196869,
            19.578963,
            2272.75
          ],
          [
            -99.196722,
            19.579177,
            2273.75
          ],
          [
            -99.196586,
            19.57936,
            2274.25
          ],
          [
            -99.196027,
            19.579923,
            2276.25
          ],
          [
            -99.194997,
            19.580823,
            2283
          ],
          [
            -99.192158,
            19.584005,
            2290.75
          ],
          [
            -99.191909,
            19.58437,
            2284.25
          ],
          [
            -99.191407,
            19.585081,
            2274.75
          ],
          [
            -99.190872,
            19.585889,
            2273
          ],
          [
            -99.190674,
            19.58617,
            2271.75
          ],
          [
            -99.190486,
            19.586419,
            2271.5
          ],
          [
            -99.190244,
            19.586716,
            2272.25
          ],
          [
            -99.1874,
            19.590042,
            2269.75
          ],
          [
            -99.186933,
            19.590663,
            2270.25
          ],
          [
            -99.186758,
            19.590926,
            2270.25
          ],
          [
            -99.186577,
            19.591217,
            2270
          ],
          [
            -99.186411,
            19.591514,
            2269.5
          ],
          [
            -99.186246,
            19.591845,
            2268.75
          ],
          [
            -99.186107,
            19.592199,
            2268.75
          ],
          [
            -99.185985,
            19.592544,
            2268.25
          ],
          [
            -99.185875,
            19.592893,
            2267.5
          ],
          [
            -99.185823,
            19.593089,
            2267.25
          ],
          [
            -99.185789,
            19.59327,
            2267.75
          ],
          [
            -99.185731,
            19.593668,
            2268
          ],
          [
            -99.185689,
            19.594036,
            2268
          ],
          [
            -99.185673,
            19.594347,
            2268.5
          ],
          [
            -99.185668,
            19.594612,
            2269
          ],
          [
            -99.185673,
            19.594903,
            2269.5
          ],
          [
            -99.185696,
            19.595259,
            2269.75
          ],
          [
            -99.185807,
            19.596663,
            2268
          ],
          [
            -99.185849,
            19.597252,
            2266.5
          ],
          [
            -99.185836,
            19.597628,
            2266
          ],
          [
            -99.18584,
            19.598044,
            2266.5
          ],
          [
            -99.185899,
            19.598692,
            2267
          ],
          [
            -99.185967,
            19.599589,
            2267.5
          ],
          [
            -99.186046,
            19.600615,
            2268
          ],
          [
            -99.186132,
            19.60175,
            2267.75
          ],
          [
            -99.186266,
            19.602458,
            2267.75
          ],
          [
            -99.186418,
            19.604285,
            2262.5
          ],
          [
            -99.186408,
            19.604748,
            2260.75
          ],
          [
            -99.18642,
            19.605401,
            2261.25
          ],
          [
            -99.186419,
            19.60566,
            2262
          ],
          [
            -99.186409,
            19.605936,
            2262.25
          ],
          [
            -99.186373,
            19.606411,
            2260.75
          ],
          [
            -99.186329,
            19.606778,
            2259.75
          ],
          [
            -99.186289,
            19.607031,
            2259.75
          ],
          [
            -99.186046,
            19.608178,
            2258.5
          ],
          [
            -99.18599,
            19.608337,
            2258.5
          ],
          [
            -99.185897,
            19.608639,
            2258.75
          ],
          [
            -99.185576,
            19.610085,
            2259.75
          ],
          [
            -99.185487,
            19.610401,
            2259.75
          ],
          [
            -99.185292,
            19.610948,
            2260.25
          ],
          [
            -99.185223,
            19.61122,
            2259.5
          ],
          [
            -99.18507,
            19.611947,
            2258.75
          ],
          [
            -99.18501,
            19.612152,
            2259
          ],
          [
            -99.184908,
            19.612405,
            2259.75
          ],
          [
            -99.184821,
            19.612572,
            2259.75
          ],
          [
            -99.184771,
            19.612653,
            2259.75
          ],
          [
            -99.184634,
            19.612842,
            2259.75
          ],
          [
            -99.184454,
            19.613039,
            2259.5
          ],
          [
            -99.184321,
            19.613163,
            2259.25
          ],
          [
            -99.184097,
            19.613357,
            2258.75
          ],
          [
            -99.182766,
            19.614486,
            2259.75
          ],
          [
            -99.181769,
            19.61536,
            2259
          ],
          [
            -99.177102,
            19.619453,
            2255.75
          ],
          [
            -99.176695,
            19.619802,
            2255.5
          ],
          [
            -99.175803,
            19.620581,
            2255.5
          ],
          [
            -99.170433,
            19.625256,
            2253.75
          ],
          [
            -99.170076,
            19.625568,
            2254.25
          ],
          [
            -99.169874,
            19.625745,
            2254.25
          ],
          [
            -99.168873,
            19.626542,
            2254.75
          ],
          [
            -99.168626,
            19.626746,
            2255.75
          ],
          [
            -99.167671,
            19.627575,
            2254
          ],
          [
            -99.166158,
            19.628889,
            2252.25
          ],
          [
            -99.165688,
            19.629296,
            2252.75
          ],
          [
            -99.164681,
            19.630264,
            2254.25
          ],
          [
            -99.164158,
            19.630718,
            2251.25
          ],
          [
            -99.163034,
            19.631701,
            2252.75
          ],
          [
            -99.161709,
            19.632859,
            2252.25
          ],
          [
            -99.153814,
            19.639713,
            2253.5
          ],
          [
            -99.152937,
            19.640469,
            2254
          ],
          [
            -99.152704,
            19.640665,
            2253
          ],
          [
            -99.152124,
            19.641129,
            2250.5
          ],
          [
            -99.151882,
            19.64133,
            2249.75
          ],
          [
            -99.150882,
            19.642201,
            2248.25
          ],
          [
            -99.148368,
            19.644392,
            2249
          ],
          [
            -99.139454,
            19.652149,
            2246.5
          ],
          [
            -99.137638,
            19.653715,
            2247.5
          ],
          [
            -99.134843,
            19.65615,
            2247.5
          ],
          [
            -99.134651,
            19.656324,
            2247
          ],
          [
            -99.133953,
            19.657024,
            2247.75
          ],
          [
            -99.133774,
            19.657191,
            2248.5
          ],
          [
            -99.133595,
            19.657346,
            2249
          ],
          [
            -99.13251,
            19.658293,
            2252.75
          ],
          [
            -99.130739,
            19.659829,
            2246.25
          ],
          [
            -99.129933,
            19.660511,
            2247.5
          ],
          [
            -99.126799,
            19.663238,
            2249.75
          ],
          [
            -99.125912,
            19.664,
            2248.25
          ],
          [
            -99.121217,
            19.668093,
            2248.5
          ],
          [
            -99.11787,
            19.67098,
            2245.75
          ],
          [
            -99.116926,
            19.671805,
            2247.25
          ],
          [
            -99.113746,
            19.674567,
            2248
          ],
          [
            -99.11292,
            19.675282,
            2247.75
          ],
          [
            -99.112072,
            19.676037,
            2245.5
          ],
          [
            -99.110191,
            19.677714,
            2245.5
          ],
          [
            -99.109824,
            19.67803,
            2245.75
          ],
          [
            -99.109593,
            19.678228,
            2245.5
          ],
          [
            -99.10929,
            19.678472,
            2245.25
          ],
          [
            -99.108752,
            19.678879,
            2244.75
          ],
          [
            -99.108465,
            19.679123,
            2245.75
          ],
          [
            -99.105746,
            19.681471,
            2242
          ],
          [
            -99.105185,
            19.681955,
            2243.75
          ],
          [
            -99.10427,
            19.682769,
            2245
          ],
          [
            -99.09083,
            19.694432,
            2242.5
          ],
          [
            -99.089764,
            19.695365,
            2243
          ],
          [
            -99.088044,
            19.696858,
            2244.5
          ],
          [
            -99.085028,
            19.699475,
            2246.5
          ],
          [
            -99.084435,
            19.699991,
            2248
          ],
          [
            -99.083226,
            19.70107,
            2244.75
          ],
          [
            -99.082895,
            19.70136,
            2244.75
          ],
          [
            -99.080773,
            19.70324,
            2243
          ],
          [
            -99.080211,
            19.703738,
            2244
          ],
          [
            -99.068224,
            19.714162,
            2243.75
          ],
          [
            -99.067145,
            19.715183,
            2244
          ],
          [
            -99.066747,
            19.715509,
            2244.25
          ],
          [
            -99.066278,
            19.715984,
            2244.75
          ],
          [
            -99.065957,
            19.716273,
            2244.5
          ],
          [
            -99.06479,
            19.717289,
            2245
          ],
          [
            -99.063952,
            19.718029,
            2247.25
          ],
          [
            -99.063222,
            19.718649,
            2244.5
          ],
          [
            -99.06284,
            19.718969,
            2243.75
          ],
          [
            -99.06269,
            19.719086,
            2243.75
          ],
          [
            -99.062444,
            19.719258,
            2243.75
          ],
          [
            -99.062282,
            19.719382,
            2243.5
          ],
          [
            -99.061903,
            19.719717,
            2243.5
          ],
          [
            -99.060939,
            19.720491,
            2243.75
          ],
          [
            -99.060257,
            19.721084,
            2243
          ],
          [
            -99.059139,
            19.722056,
            2244
          ],
          [
            -99.056474,
            19.724364,
            2245.5
          ],
          [
            -99.056168,
            19.724646,
            2245.5
          ],
          [
            -99.055695,
            19.725148,
            2245.5
          ],
          [
            -99.055515,
            19.725327,
            2245.25
          ],
          [
            -99.054881,
            19.725879,
            2245.75
          ],
          [
            -99.053664,
            19.72692,
            2245.5
          ],
          [
            -99.053464,
            19.72708,
            2245.25
          ],
          [
            -99.053296,
            19.727203,
            2245
          ],
          [
            -99.053039,
            19.727369,
            2245.25
          ],
          [
            -99.052734,
            19.727536,
            2245.5
          ],
          [
            -99.052467,
            19.727661,
            2245.75
          ],
          [
            -99.052268,
            19.727743,
            2245.5
          ],
          [
            -99.052062,
            19.727818,
            2245.25
          ],
          [
            -99.051762,
            19.727911,
            2245.25
          ],
          [
            -99.051468,
            19.727981,
            2245.75
          ],
          [
            -99.051079,
            19.728047,
            2246
          ],
          [
            -99.050784,
            19.728079,
            2246.25
          ],
          [
            -99.050481,
            19.728101,
            2246
          ],
          [
            -99.048136,
            19.728208,
            2244.25
          ],
          [
            -99.045893,
            19.728327,
            2246.75
          ],
          [
            -99.04245,
            19.728486,
            2245.25
          ],
          [
            -99.040892,
            19.728557,
            2245.5
          ],
          [
            -99.036856,
            19.728751,
            2244
          ],
          [
            -99.034854,
            19.728884
          ],
          [
            -99.034616,
            19.728912
          ],
          [
            -99.034375,
            19.728955
          ],
          [
            -99.034146,
            19.729029
          ],
          [
            -99.033942,
            19.729116
          ],
          [
            -99.033744,
            19.729237
          ],
          [
            -99.033533,
            19.729387
          ],
          [
            -99.028053,
            19.733809
          ],
          [
            -99.027802,
            19.734008
          ],
          [
            -99.02761,
            19.734119
          ],
          [
            -99.027218,
            19.734267
          ],
          [
            -99.027145,
            19.734299
          ],
          [
            -99.027083,
            19.734336
          ],
          [
            -99.026116,
            19.735121
          ],
          [
            -99.025306,
            19.7358,
            2244
          ],
          [
            -99.026116,
            19.735121,
            2244
          ],
          [
            -99.027083,
            19.734336,
            2244
          ],
          [
            -99.027145,
            19.734299,
            2244
          ],
          [
            -99.027218,
            19.734267,
            2244
          ],
          [
            -99.02761,
            19.734119,
            2244
          ],
          [
            -99.027802,
            19.734008,
            2244
          ],
          [
            -99.028053,
            19.733809,
            2244
          ],
          [
            -99.033533,
            19.729387,
            2244
          ],
          [
            -99.033744,
            19.729237,
            2244
          ],
          [
            -99.033942,
            19.729116,
            2244
          ],
          [
            -99.034146,
            19.729029,
            2244
          ],
          [
            -99.034375,
            19.728955,
            2244
          ],
          [
            -99.034616,
            19.728912,
            2244
          ],
          [
            -99.034854,
            19.728884,
            2244
          ],
          [
            -99.036856,
            19.728751,
            2244
          ],
          [
            -99.040892,
            19.728557,
            2245.5
          ],
          [
            -99.04245,
            19.728486,
            2245.25
          ],
          [
            -99.045893,
            19.728327,
            2246.75
          ],
          [
            -99.048136,
            19.728208,
            2244.25
          ],
          [
            -99.050481,
            19.728101,
            2246
          ],
          [
            -99.050784,
            19.728079,
            2246.25
          ],
          [
            -99.051079,
            19.728047,
            2246
          ],
          [
            -99.051468,
            19.727981,
            2245.75
          ],
          [
            -99.051762,
            19.727911,
            2245.25
          ],
          [
            -99.052062,
            19.727818,
            2245.25
          ],
          [
            -99.052268,
            19.727743,
            2245.5
          ],
          [
            -99.052467,
            19.727661,
            2245.75
          ],
          [
            -99.052734,
            19.727536,
            2245.5
          ],
          [
            -99.053039,
            19.727369,
            2245.25
          ],
          [
            -99.053296,
            19.727203,
            2245
          ],
          [
            -99.053464,
            19.72708,
            2245.25
          ],
          [
            -99.053664,
            19.72692,
            2245.5
          ],
          [
            -99.054881,
            19.725879,
            2245.75
          ],
          [
            -99.055515,
            19.725327,
            2245.25
          ],
          [
            -99.055695,
            19.725148,
            2245.5
          ],
          [
            -99.056168,
            19.724646,
            2245.5
          ],
          [
            -99.056474,
            19.724364,
            2245.5
          ],
          [
            -99.059139,
            19.722056,
            2244
          ],
          [
            -99.060257,
            19.721084,
            2243
          ],
          [
            -99.060939,
            19.720491,
            2243.75
          ],
          [
            -99.061903,
            19.719717,
            2243.5
          ],
          [
            -99.062282,
            19.719382,
            2243.5
          ],
          [
            -99.062444,
            19.719258,
            2243.75
          ],
          [
            -99.06269,
            19.719086,
            2243.75
          ],
          [
            -99.06284,
            19.718969,
            2243.75
          ],
          [
            -99.063222,
            19.718649,
            2244.5
          ],
          [
            -99.063952,
            19.718029,
            2247.25
          ],
          [
            -99.06479,
            19.717289,
            2245
          ],
          [
            -99.065957,
            19.716273,
            2244.5
          ],
          [
            -99.066278,
            19.715984,
            2244.75
          ],
          [
            -99.066747,
            19.715509,
            2244.25
          ],
          [
            -99.067145,
            19.715183,
            2244
          ],
          [
            -99.074211,
            19.709043,
            2244
          ],
          [
            -99.080255,
            19.703791,
            2244
          ],
          [
            -99.080812,
            19.703287,
            2243
          ],
          [
            -99.082927,
            19.7014,
            2244.75
          ],
          [
            -99.083261,
            19.701115,
            2244.75
          ],
          [
            -99.083382,
            19.701012,
            2245
          ],
          [
            -99.084435,
            19.699991,
            2248
          ],
          [
            -99.085028,
            19.699475,
            2246.5
          ],
          [
            -99.088044,
            19.696858,
            2244.5
          ],
          [
            -99.089764,
            19.695365,
            2243
          ],
          [
            -99.090642,
            19.694647,
            2242.5
          ],
          [
            -99.10365,
            19.683368,
            2244.75
          ],
          [
            -99.104289,
            19.682809,
            2245
          ],
          [
            -99.105398,
            19.681919,
            2243
          ],
          [
            -99.105825,
            19.681556,
            2242
          ],
          [
            -99.108538,
            19.679196,
            2245.75
          ],
          [
            -99.109853,
            19.678052,
            2245.75
          ],
          [
            -99.110833,
            19.677199,
            2245.25
          ],
          [
            -99.112955,
            19.675314,
            2247.75
          ],
          [
            -99.113778,
            19.674602,
            2248.25
          ],
          [
            -99.116961,
            19.67184,
            2247.25
          ],
          [
            -99.117908,
            19.671014,
            2245.75
          ],
          [
            -99.121252,
            19.66812,
            2248.25
          ],
          [
            -99.125948,
            19.664038,
            2248.5
          ],
          [
            -99.126836,
            19.663275,
            2249.75
          ],
          [
            -99.129961,
            19.660541,
            2247.5
          ],
          [
            -99.130765,
            19.659858,
            2246.25
          ],
          [
            -99.131728,
            19.65902,
            2250.75
          ],
          [
            -99.13251,
            19.658293,
            2252.75
          ],
          [
            -99.133595,
            19.657346,
            2249
          ],
          [
            -99.133774,
            19.657191,
            2248.5
          ],
          [
            -99.133953,
            19.657024,
            2247.75
          ],
          [
            -99.134651,
            19.656324,
            2247
          ],
          [
            -99.134843,
            19.65615,
            2247.5
          ],
          [
            -99.137638,
            19.653715,
            2247.5
          ],
          [
            -99.139454,
            19.652149,
            2246.5
          ],
          [
            -99.148368,
            19.644392,
            2249
          ],
          [
            -99.150882,
            19.642201,
            2248.25
          ],
          [
            -99.151882,
            19.64133,
            2249.75
          ],
          [
            -99.152124,
            19.641129,
            2250.5
          ],
          [
            -99.152704,
            19.640665,
            2253
          ],
          [
            -99.152937,
            19.640469,
            2254
          ],
          [
            -99.153814,
            19.639713,
            2253.5
          ],
          [
            -99.161709,
            19.632859,
            2252.25
          ],
          [
            -99.163034,
            19.631701,
            2252.75
          ],
          [
            -99.164158,
            19.630718,
            2251.25
          ],
          [
            -99.164681,
            19.630264,
            2254.25
          ],
          [
            -99.165688,
            19.629296,
            2252.75
          ],
          [
            -99.166158,
            19.628889,
            2252.25
          ],
          [
            -99.167671,
            19.627575,
            2254
          ],
          [
            -99.168626,
            19.626746,
            2255.75
          ],
          [
            -99.168873,
            19.626542,
            2254.75
          ],
          [
            -99.169874,
            19.625745,
            2254.25
          ],
          [
            -99.170076,
            19.625568,
            2254.25
          ],
          [
            -99.170433,
            19.625256,
            2253.75
          ],
          [
            -99.175803,
            19.620581,
            2255.5
          ],
          [
            -99.176695,
            19.619802,
            2256
          ],
          [
            -99.177102,
            19.619453,
            2256.25
          ],
          [
            -99.181769,
            19.61536,
            2259.75
          ],
          [
            -99.182766,
            19.614486,
            2259.75
          ],
          [
            -99.184097,
            19.613357,
            2258.75
          ],
          [
            -99.184321,
            19.613163,
            2259.25
          ],
          [
            -99.184454,
            19.613039,
            2259.5
          ],
          [
            -99.184634,
            19.612842,
            2259.75
          ],
          [
            -99.184771,
            19.612653,
            2259.75
          ],
          [
            -99.184821,
            19.612572,
            2259.75
          ],
          [
            -99.184908,
            19.612405,
            2259.75
          ],
          [
            -99.18501,
            19.612152,
            2259
          ],
          [
            -99.18507,
            19.611947,
            2258.75
          ],
          [
            -99.185223,
            19.61122,
            2259.5
          ],
          [
            -99.185292,
            19.610948,
            2260.25
          ],
          [
            -99.185487,
            19.610401,
            2259.75
          ],
          [
            -99.185576,
            19.610085,
            2259.75
          ],
          [
            -99.185897,
            19.608639,
            2258.75
          ],
          [
            -99.18599,
            19.608337,
            2258.5
          ],
          [
            -99.186046,
            19.608178,
            2258.5
          ],
          [
            -99.186289,
            19.607031,
            2259.75
          ],
          [
            -99.186329,
            19.606778,
            2259.75
          ],
          [
            -99.186373,
            19.606411,
            2260.75
          ],
          [
            -99.186409,
            19.605936,
            2262.25
          ],
          [
            -99.186419,
            19.60566,
            2262
          ],
          [
            -99.18642,
            19.605401,
            2261.25
          ],
          [
            -99.186408,
            19.604748,
            2260.75
          ],
          [
            -99.186418,
            19.604285,
            2262.5
          ],
          [
            -99.186266,
            19.602458,
            2267.75
          ],
          [
            -99.186132,
            19.60175,
            2267.75
          ],
          [
            -99.186046,
            19.600615,
            2268
          ],
          [
            -99.185967,
            19.599589,
            2267.5
          ],
          [
            -99.185899,
            19.598692,
            2267
          ],
          [
            -99.18584,
            19.598044,
            2266.5
          ],
          [
            -99.185836,
            19.597628,
            2266
          ],
          [
            -99.185849,
            19.597252,
            2266.5
          ],
          [
            -99.185807,
            19.596663,
            2268
          ],
          [
            -99.185757,
            19.595491,
            2269.5
          ],
          [
            -99.185714,
            19.594903,
            2269.5
          ],
          [
            -99.185709,
            19.59461,
            2269
          ],
          [
            -99.185714,
            19.594347,
            2268.5
          ],
          [
            -99.185731,
            19.594039,
            2268.25
          ],
          [
            -99.185775,
            19.593671,
            2268.25
          ],
          [
            -99.185843,
            19.593261,
            2267.75
          ],
          [
            -99.185935,
            19.592881,
            2268.25
          ],
          [
            -99.186029,
            19.592552,
            2269
          ],
          [
            -99.186149,
            19.592212,
            2269.25
          ],
          [
            -99.186303,
            19.591858,
            2269.5
          ],
          [
            -99.186462,
            19.591533,
            2270
          ],
          [
            -99.186627,
            19.591237,
            2270.5
          ],
          [
            -99.186803,
            19.590947,
            2270.75
          ],
          [
            -99.186977,
            19.590687,
            2270.75
          ],
          [
            -99.187161,
            19.59043,
            2270.75
          ],
          [
            -99.187441,
            19.590068,
            2270
          ],
          [
            -99.188987,
            19.588261,
            2270
          ],
          [
            -99.19054,
            19.586449,
            2271.25
          ],
          [
            -99.190915,
            19.585917,
            2273
          ],
          [
            -99.191452,
            19.585107,
            2274.75
          ],
          [
            -99.191909,
            19.584433,
            2283.5
          ],
          [
            -99.192199,
            19.584042,
            2290
          ],
          [
            -99.193028,
            19.583117,
            2283
          ],
          [
            -99.195039,
            19.58087,
            2283
          ],
          [
            -99.196037,
            19.580013,
            2276.25
          ],
          [
            -99.19663,
            19.579387,
            2274
          ],
          [
            -99.196769,
            19.579205,
            2273.5
          ],
          [
            -99.196917,
            19.578991,
            2272.75
          ],
          [
            -99.197025,
            19.578822,
            2272
          ],
          [
            -99.197198,
            19.57851,
            2270.75
          ],
          [
            -99.197276,
            19.57835,
            2270
          ],
          [
            -99.197415,
            19.578022,
            2270
          ],
          [
            -99.197506,
            19.577762,
            2270.25
          ],
          [
            -99.19757,
            19.577542,
            2270.75
          ],
          [
            -99.197627,
            19.577313,
            2271
          ],
          [
            -99.19767,
            19.577085,
            2271.25
          ],
          [
            -99.197713,
            19.576779,
            2271.25
          ],
          [
            -99.197735,
            19.576472,
            2270.75
          ],
          [
            -99.197737,
            19.57614,
            2269.75
          ],
          [
            -99.197722,
            19.575867,
            2269.25
          ],
          [
            -99.197691,
            19.575575,
            2268.75
          ],
          [
            -99.197633,
            19.575238,
            2268.25
          ],
          [
            -99.197537,
            19.574764,
            2268
          ],
          [
            -99.196866,
            19.571724,
            2262.5
          ],
          [
            -99.195341,
            19.564788,
            2257.5
          ],
          [
            -99.194835,
            19.562459,
            2261
          ],
          [
            -99.19474,
            19.561978,
            2262
          ],
          [
            -99.19465,
            19.561578,
            2262.75
          ],
          [
            -99.194508,
            19.561126,
            2264.25
          ],
          [
            -99.194427,
            19.560918,
            2265.25
          ],
          [
            -99.194268,
            19.560578,
            2265
          ],
          [
            -99.194128,
            19.560302,
            2264
          ],
          [
            -99.193934,
            19.559961,
            2263.75
          ],
          [
            -99.193784,
            19.559711,
            2263.5
          ],
          [
            -99.193651,
            19.559518,
            2263.25
          ],
          [
            -99.193361,
            19.559144,
            2261.75
          ],
          [
            -99.193178,
            19.558919,
            2261.25
          ],
          [
            -99.192988,
            19.558702,
            2260.75
          ],
          [
            -99.192544,
            19.558231,
            2260.25
          ],
          [
            -99.191757,
            19.557465,
            2258.75
          ],
          [
            -99.191554,
            19.557286,
            2258.25
          ],
          [
            -99.191364,
            19.557138,
            2258
          ],
          [
            -99.190113,
            19.556204,
            2258.5
          ],
          [
            -99.189919,
            19.55605,
            2258.25
          ],
          [
            -99.18974,
            19.555895,
            2257.75
          ],
          [
            -99.189576,
            19.555739,
            2257.25
          ],
          [
            -99.189426,
            19.555585,
            2256.75
          ],
          [
            -99.189225,
            19.555357,
            2256.25
          ],
          [
            -99.189,
            19.555062,
            2256.25
          ],
          [
            -99.188861,
            19.554853,
            2256.5
          ],
          [
            -99.188735,
            19.554646,
            2257.25
          ],
          [
            -99.188618,
            19.554435,
            2258
          ],
          [
            -99.188509,
            19.554212,
            2258.5
          ],
          [
            -99.188439,
            19.554048,
            2259
          ],
          [
            -99.188336,
            19.553772,
            2260.25
          ],
          [
            -99.188254,
            19.553512,
            2260.75
          ],
          [
            -99.188183,
            19.553257,
            2260.25
          ],
          [
            -99.188092,
            19.552893,
            2258
          ],
          [
            -99.1879,
            19.552132,
            2256.25
          ],
          [
            -99.187876,
            19.552042,
            2256.5
          ],
          [
            -99.18676,
            19.547615,
            2254.5
          ],
          [
            -99.185535,
            19.542754,
            2254.25
          ],
          [
            -99.184451,
            19.538472,
            2252.25
          ],
          [
            -99.184005,
            19.536612,
            2253.5
          ],
          [
            -99.183356,
            19.533891,
            2254.25
          ],
          [
            -99.183188,
            19.533239,
            2254.75
          ],
          [
            -99.182924,
            19.532406,
            2253.5
          ],
          [
            -99.182794,
            19.532055,
            2252.5
          ],
          [
            -99.182659,
            19.531714,
            2251.75
          ],
          [
            -99.182376,
            19.531077,
            2251.25
          ],
          [
            -99.181372,
            19.529002,
            2249.5
          ],
          [
            -99.181034,
            19.528303,
            2248.75
          ],
          [
            -99.180114,
            19.526367,
            2249.5
          ],
          [
            -99.179864,
            19.525746,
            2248.75
          ],
          [
            -99.179718,
            19.525323,
            2249
          ],
          [
            -99.179581,
            19.524902,
            2249.25
          ],
          [
            -99.179262,
            19.523855,
            2248.75
          ],
          [
            -99.179119,
            19.523305,
            2249.75
          ],
          [
            -99.178987,
            19.522712,
            2247.5
          ],
          [
            -99.17887,
            19.522136,
            2247.75
          ],
          [
            -99.178772,
            19.521559,
            2249
          ],
          [
            -99.178691,
            19.520973,
            2249.25
          ],
          [
            -99.178623,
            19.520317,
            2249
          ],
          [
            -99.178575,
            19.519703,
            2248.5
          ],
          [
            -99.178262,
            19.515162,
            2250.25
          ],
          [
            -99.178058,
            19.512321,
            2252
          ],
          [
            -99.178009,
            19.511814,
            2250.25
          ],
          [
            -99.177962,
            19.511473,
            2249.5
          ],
          [
            -99.177902,
            19.511107,
            2248.75
          ],
          [
            -99.17785,
            19.510837,
            2248.25
          ],
          [
            -99.177782,
            19.510531,
            2248.5
          ],
          [
            -99.177426,
            19.509098,
            2249
          ],
          [
            -99.176988,
            19.507365,
            2250.75
          ],
          [
            -99.176648,
            19.506211,
            2249.25
          ],
          [
            -99.176527,
            19.505799,
            2249
          ],
          [
            -99.176355,
            19.505265,
            2248.25
          ],
          [
            -99.176191,
            19.504819,
            2247.75
          ],
          [
            -99.175204,
            19.502318,
            2245
          ],
          [
            -99.17466,
            19.501113,
            2243.75
          ],
          [
            -99.174512,
            19.500783,
            2243.75
          ],
          [
            -99.174082,
            19.499749,
            2245
          ],
          [
            -99.173769,
            19.498884,
            2245
          ],
          [
            -99.173431,
            19.497842,
            2244.25
          ],
          [
            -99.173221,
            19.497249,
            2244.75
          ],
          [
            -99.173054,
            19.496809,
            2246.25
          ],
          [
            -99.172277,
            19.494847,
            2244.75
          ],
          [
            -99.171766,
            19.493417,
            2244.25
          ],
          [
            -99.171114,
            19.4917,
            2245.5
          ],
          [
            -99.168973,
            19.486221,
            2242.75
          ],
          [
            -99.168777,
            19.485825,
            2242.5
          ],
          [
            -99.168455,
            19.485005,
            2244
          ],
          [
            -99.168163,
            19.484428,
            2243
          ],
          [
            -99.168065,
            19.484187,
            2242.5
          ],
          [
            -99.167907,
            19.483798,
            2242.75
          ],
          [
            -99.16738,
            19.482438,
            2243.5
          ],
          [
            -99.166375,
            19.479898,
            2241.5
          ],
          [
            -99.165995,
            19.47892,
            2242.5
          ],
          [
            -99.165814,
            19.478432,
            2243
          ],
          [
            -99.165757,
            19.478206,
            2243.25
          ],
          [
            -99.165698,
            19.478004,
            2243.5
          ],
          [
            -99.165501,
            19.477518,
            2244.5
          ],
          [
            -99.165308,
            19.477004,
            2243.75
          ],
          [
            -99.165054,
            19.476249,
            2244.25
          ],
          [
            -99.164217,
            19.474136,
            2243.75
          ],
          [
            -99.163954,
            19.473461,
            2244.75
          ],
          [
            -99.163602,
            19.472524,
            2244.75
          ],
          [
            -99.163448,
            19.472126,
            2245.75
          ],
          [
            -99.162781,
            19.470426,
            2243
          ],
          [
            -99.162501,
            19.469779,
            2241.25
          ],
          [
            -99.162196,
            19.469144,
            2239.5
          ],
          [
            -99.161861,
            19.468515,
            2240.75
          ],
          [
            -99.161621,
            19.468102,
            2241.5
          ],
          [
            -99.161328,
            19.467628,
            2242.25
          ],
          [
            -99.16087,
            19.466945,
            2243
          ],
          [
            -99.160604,
            19.466583,
            2243.75
          ],
          [
            -99.160326,
            19.466214,
            2243.25
          ],
          [
            -99.15605,
            19.460661,
            2241.25
          ],
          [
            -99.153079,
            19.456726,
            2240
          ],
          [
            -99.152853,
            19.456378,
            2239.25
          ],
          [
            -99.152524,
            19.455813,
            2238
          ],
          [
            -99.15238,
            19.455529,
            2237.5
          ],
          [
            -99.152243,
            19.455234,
            2237
          ],
          [
            -99.152109,
            19.454907,
            2236.75
          ],
          [
            -99.151977,
            19.454562,
            2238.25
          ],
          [
            -99.151784,
            19.453955,
            2240.25
          ],
          [
            -99.151657,
            19.453581,
            2239.5
          ],
          [
            -99.151557,
            19.453243,
            2239.25
          ],
          [
            -99.151436,
            19.452886,
            2240
          ],
          [
            -99.151381,
            19.452613,
            2240.5
          ],
          [
            -99.15137,
            19.452476,
            2240.5
          ],
          [
            -99.151378,
            19.452332,
            2240.5
          ],
          [
            -99.151401,
            19.452173,
            2240.25
          ],
          [
            -99.151491,
            19.451665,
            2239.75
          ],
          [
            -99.151887,
            19.449467,
            2239.75
          ],
          [
            -99.15211,
            19.448239,
            2239
          ]
        ]
      }
    }
  ]
}