{
  "type": "FeatureCollection",
  "features": [
    {
      "type": "Feature",
      "properties": {
        "creator": "BRouter-1.7.9",
        "name": "[JTA] Skyway (LaVilla)",
        "track-length": "3894",
        "filtered ascend": "0",
        "plain-ascend": "0",
        "total-time": "312",
        "total-energy": "171276",
        "cost": "3894",
        "messages": [
          [
            "Longitude",
            "Latitude",
            "Elevation",
            "Distance",
            "CostPerKm",
            "ElevCost",
            "TurnCost",
            "NodeCost",
            "InitialCost",
            "WayTags",
            "NodeTags",
            "Time",
            "Energy"
          ],
          [
            "-81658864",
            "30333213",
            "-8192",
            "28",
            "1000",
            "0",
            "0",
            "0",
            "0",
            "railway=monorail",
            "railway=halt",
            "2",
            "1231"
          ],
          [
            "-81659082",
            "30332225",
            "-8192",
            "112",
            "1000",
            "0",
            "0",
            "0",
            "0",
            "railway=monorail",
            "railway=switch",
            "11",
            "6157"
          ],
          [
            "-81659905",
            "30329459",
            "-8192",
            "317",
            "1000",
            "0",
            "0",
            "0",
            "0",
            "railway=monorail",
            "railway=halt",
            "36",
            "20101"
          ],
          [
            "-81662342",
            "30327131",
            "-8192",
            "455",
            "1000",
            "0",
            "0",
            "0",
            "0",
            "railway=monorail",
            "railway=halt",
            "72",
            "40114"
          ],
          [
            "-81663101",
            "30327258",
            "-8192",
            "74",
            "1000",
            "0",
            "0",
            "0",
            "0",
            "railway=monorail",
            "railway=switch",
            "78",
            "43369"
          ],
          [
            "-81665518",
            "30327295",
            "-8192",
            "233",
            "1000",
            "0",
            "0",
            "0",
            "0",
            "railway=monorail",
            "railway=switch",
            "97",
            "53618"
          ],
          [
            "-81667477",
            "30327648",
            "-8192",
            "194",
            "1000",
            "0",
            "0",
            "0",
            "0",
            "railway=monorail",
            "railway=halt",
            "113",
            "62151"
          ],
          [
            "-81670966",
            "30328538",
            "-8192",
            "352",
            "1000",
            "0",
            "0",
            "0",
            "0",
            "railway=monorail",
            "railway=switch",
            "141",
            "77633"
          ],
          [
            "-81671328",
            "30328712",
            "-8192",
            "40",
            "1000",
            "0",
            "0",
            "0",
            "0",
            "reversedirection=yes railway=monorail",
            "railway=switch",
            "144",
            "79393"
          ],
          [
            "-81672214",
            "30328982",
            "-8192",
            "91",
            "1000",
            "0",
            "0",
            "0",
            "0",
            "reversedirection=yes railway=monorail",
            "railway=halt",
            "151",
            "83396"
          ],
          [
            "-81672700",
            "30329089",
            "-8192",
            "48",
            "1000",
            "0",
            "0",
            "0",
            "0",
            "reversedirection=yes railway=monorail",
            "",
            "155",
            "85507"
          ],
          [
            "-81672214",
            "30328982",
            "-8192",
            "48",
            "1000",
            "0",
            "0",
            "0",
            "0",
            "railway=monorail",
            "railway=halt",
            "3",
            "2111"
          ],
          [
            "-81671328",
            "30328712",
            "-8192",
            "91",
            "1000",
            "0",
            "0",
            "0",
            "0",
            "railway=monorail",
            "railway=switch",
            "11",
            "6113"
          ],
          [
            "-81668743",
            "30327876",
            "-8192",
            "269",
            "1000",
            "0",
            "0",
            "0",
            "0",
            "railway=monorail",
            "",
            "32",
            "17945"
          ],
          [
            "-81667504",
            "30327555",
            "-8192",
            "124",
            "1000",
            "0",
            "0",
            "0",
            "0",
            "railway=monorail",
            "railway=halt",
            "9",
            "5454"
          ],
          [
            "-81665731",
            "30327257",
            "-8192",
            "174",
            "1000",
            "0",
            "0",
            "0",
            "0",
            "railway=monorail",
            "railway=unknown",
            "23",
            "13107"
          ],
          [
            "-81665409",
            "30327255",
            "-8192",
            "31",
            "1000",
            "0",
            "0",
            "0",
            "0",
            "railway=monorail",
            "railway=switch",
            "26",
            "14471"
          ],
          [
            "-81662657",
            "30327077",
            "-8192",
            "266",
            "1000",
            "0",
            "0",
            "0",
            "0",
            "railway=monorail",
            "railway=switch",
            "47",
            "26171"
          ],
          [
            "-81662375",
            "30327015",
            "-8192",
            "28",
            "1000",
            "0",
            "0",
            "0",
            "0",
            "railway=monorail",
            "railway=halt",
            "49",
            "27402"
          ],
          [
            "-81659784",
            "30329432",
            "-8192",
            "462",
            "1000",
            "0",
            "0",
            "0",
            "0",
            "railway=monorail",
            "railway=halt",
            "86",
            "47724"
          ],
          [
            "-81659628",
            "30330109",
            "-8192",
            "77",
            "1000",
            "0",
            "0",
            "0",
            "0",
            "railway=monorail",
            "",
            "92",
            "51110"
          ],
          [
            "-81659126",
            "30331911",
            "-8192",
            "205",
            "1000",
            "0",
            "0",
            "0",
            "0",
            "railway=monorail",
            "railway=switch",
            "16",
            "9016"
          ],
          [
            "-81659082",
            "30332225",
            "-8192",
            "35",
            "1000",
            "0",
            "0",
            "0",
            "0",
            "reversedirection=yes railway=monorail",
            "railway=switch",
            "19",
            "10556"
          ],
          [
            "-81658864",
            "30333213",
            "-8192",
            "112",
            "1000",
            "0",
            "0",
            "0",
            "0",
            "reversedirection=yes railway=monorail",
            "railway=halt",
            "28",
            "15482"
          ],
          [
            "-81658795",
            "30333451",
            "-8192",
            "28",
            "1000",
            "0",
            "0",
            "0",
            "0",
            "reversedirection=yes railway=monorail",
            "",
            "30",
            "16714"
          ]
        ],
        "times": [
          0,
          0.64,
          2.24,
          3.84,
          5.36,
          6.64,
          9.28,
          10.16,
          11.2,
          29.36,
          32.24,
          34.96,
          36.56,
          38.16,
          39.36,
          43.44,
          57.44,
          58.08,
          58.72,
          59.2,
          60.24,
          60.8,
          61.36,
          62.32,
          62.88,
          68.64,
          71.44,
          72.96,
          74.56,
          76.56,
          78.88,
          81.12,
          82,
          97.52,
          100.96,
          102.32,
          109.28,
          111.52,
          113.04,
          114.56,
          118.8,
          136.8,
          138.08,
          138.56,
          141.2,
          144.4,
          145.92,
          146.64,
          147.36,
          150.4,
          151.68,
          151.76,
          153.92,
          155.44,
          155.52,
          155.6,
          157.12,
          159.28,
          159.36,
          160.64,
          163.68,
          164.4,
          165.12,
          166.64,
          172.48,
          173.52,
          188.16,
          194.32,
          196.56,
          198.08,
          199.6,
          208.72,
          210.16,
          212,
          214.48,
          226.4,
          228.88,
          231.2,
          235.76,
          236.4,
          238,
          239.52,
          241.28,
          242.72,
          244.56,
          245.28,
          248.16,
          248.8,
          249.84,
          250.48,
          251.12,
          251.76,
          252.24,
          252.8,
          253.44,
          268.08,
          269.04,
          271.2,
          272.24,
          273.36,
          274.96,
          276.56,
          277.68,
          279.12,
          281.12,
          281.84,
          282.88,
          290.08,
          297.52,
          300.32,
          301.36,
          302.24,
          304.88,
          306.16,
          307.68,
          309.28,
          310.88,
          311.52
        ]
      },
      "geometry": {
        "type": "LineString",
        "coordinates": [
          [
            -81.658795,
            30.333451
          ],
          [
            -81.658815,
            30.333384
          ],
          [
            -81.658864,
            30.333213
          ],
          [
            -81.658914,
            30.333042
          ],
          [
            -81.658962,
            30.332879
          ],
          [
            -81.658989,
            30.33274
          ],
          [
            -81.65903,
            30.332441
          ],
          [
            -81.659049,
            30.33234
          ],
          [
            -81.659082,
            30.332225
          ],
          [
            -81.659653,
            30.330236
          ],
          [
            -81.659762,
            30.329927
          ],
          [
            -81.659855,
            30.329632
          ],
          [
            -81.659905,
            30.329459
          ],
          [
            -81.659955,
            30.329286
          ],
          [
            -81.659994,
            30.329156
          ],
          [
            -81.6601,
            30.328703
          ],
          [
            -81.660542,
            30.327175
          ],
          [
            -81.660564,
            30.327105
          ],
          [
            -81.660594,
            30.32704
          ],
          [
            -81.660629,
            30.326991
          ],
          [
            -81.660727,
            30.326914
          ],
          [
            -81.660795,
            30.326881
          ],
          [
            -81.660869,
            30.32686
          ],
          [
            -81.660997,
            30.326854
          ],
          [
            -81.661067,
            30.326864
          ],
          [
            -81.661793,
            30.32701
          ],
          [
            -81.66215,
            30.327088
          ],
          [
            -81.662342,
            30.327131
          ],
          [
            -81.662539,
            30.327174
          ],
          [
            -81.662797,
            30.327225
          ],
          [
            -81.663101,
            30.327258
          ],
          [
            -81.663389,
            30.327287
          ],
          [
            -81.663503,
            30.327291
          ],
          [
            -81.665518,
            30.327295
          ],
          [
            -81.665962,
            30.3273
          ],
          [
            -81.666134,
            30.327325
          ],
          [
            -81.666998,
            30.327549
          ],
          [
            -81.667282,
            30.32761
          ],
          [
            -81.667477,
            30.327648
          ],
          [
            -81.667672,
            30.327686
          ],
          [
            -81.668211,
            30.327794
          ],
          [
            -81.670473,
            30.328298
          ],
          [
            -81.670625,
            30.328345
          ],
          [
            -81.670684,
            30.328373
          ],
          [
            -81.670966,
            30.328538
          ],
          [
            -81.671328,
            30.328712
          ],
          [
            -81.671498,
            30.328804
          ],
          [
            -81.671581,
            30.328837
          ],
          [
            -81.671669,
            30.328862
          ],
          [
            -81.672057,
            30.328947
          ],
          [
            -81.672214,
            30.328982
          ],
          [
            -81.672226,
            30.328984
          ],
          [
            -81.672497,
            30.329044
          ],
          [
            -81.672687,
            30.329086
          ],
          [
            -81.6727,
            30.329089
          ],
          [
            -81.672687,
            30.329086
          ],
          [
            -81.672497,
            30.329044
          ],
          [
            -81.672226,
            30.328984
          ],
          [
            -81.672214,
            30.328982
          ],
          [
            -81.672057,
            30.328947
          ],
          [
            -81.671669,
            30.328862
          ],
          [
            -81.671581,
            30.328837
          ],
          [
            -81.671498,
            30.328804
          ],
          [
            -81.671328,
            30.328712
          ],
          [
            -81.670705,
            30.328341
          ],
          [
            -81.670586,
            30.328293
          ],
          [
            -81.668743,
            30.327876
          ],
          [
            -81.667979,
            30.327651
          ],
          [
            -81.667697,
            30.327592
          ],
          [
            -81.667504,
            30.327555
          ],
          [
            -81.667307,
            30.327516
          ],
          [
            -81.666154,
            30.327286
          ],
          [
            -81.665967,
            30.327261
          ],
          [
            -81.665731,
            30.327257
          ],
          [
            -81.665409,
            30.327255
          ],
          [
            -81.663855,
            30.327256
          ],
          [
            -81.663538,
            30.327243
          ],
          [
            -81.663236,
            30.327201
          ],
          [
            -81.662657,
            30.327077
          ],
          [
            -81.662573,
            30.327059
          ],
          [
            -81.662375,
            30.327015
          ],
          [
            -81.662184,
            30.326973
          ],
          [
            -81.661963,
            30.326923
          ],
          [
            -81.661779,
            30.326909
          ],
          [
            -81.661535,
            30.326913
          ],
          [
            -81.661444,
            30.326904
          ],
          [
            -81.661081,
            30.326829
          ],
          [
            -81.660996,
            30.326818
          ],
          [
            -81.660862,
            30.326826
          ],
          [
            -81.660779,
            30.326846
          ],
          [
            -81.660701,
            30.32688
          ],
          [
            -81.66064,
            30.326924
          ],
          [
            -81.660597,
            30.326968
          ],
          [
            -81.66056,
            30.327021
          ],
          [
            -81.660526,
            30.32709
          ],
          [
            -81.660063,
            30.328695
          ],
          [
            -81.660022,
            30.328798
          ],
          [
            -81.659913,
            30.329021
          ],
          [
            -81.659868,
            30.329136
          ],
          [
            -81.659833,
            30.32926
          ],
          [
            -81.659784,
            30.329432
          ],
          [
            -81.659733,
            30.329606
          ],
          [
            -81.659696,
            30.329726
          ],
          [
            -81.659662,
            30.329885
          ],
          [
            -81.659628,
            30.330109
          ],
          [
            -81.659615,
            30.330189
          ],
          [
            -81.659589,
            30.330304
          ],
          [
            -81.659354,
            30.331092
          ],
          [
            -81.659126,
            30.331911
          ],
          [
            -81.659082,
            30.332225
          ],
          [
            -81.659049,
            30.33234
          ],
          [
            -81.65903,
            30.332441
          ],
          [
            -81.658989,
            30.33274
          ],
          [
            -81.658962,
            30.332879
          ],
          [
            -81.658914,
            30.333042
          ],
          [
            -81.658864,
            30.333213
          ],
          [
            -81.658815,
            30.333384
          ],
          [
            -81.658795,
            30.333451
          ]
        ]
      }
    }
  ]
}