{
  "type": "FeatureCollection",
  "features": [
    {
      "type": "Feature",
      "properties": {
        "creator": "BRouter-1.7.9",
        "name": "[JTA] Skyway (Kings Ave)",
        "track-length": "6939",
        "filtered ascend": "3",
        "plain-ascend": "1",
        "total-time": "554",
        "total-energy": "305651",
        "cost": "6939",
        "messages": [
          [
            "Longitude",
            "Latitude",
            "Elevation",
            "Distance",
            "CostPerKm",
            "ElevCost",
            "TurnCost",
            "NodeCost",
            "InitialCost",
            "WayTags",
            "NodeTags",
            "Time",
            "Energy"
          ],
          [
            "-81658864",
            "30333213",
            "-8192",
            "28",
            "1000",
            "0",
            "0",
            "0",
            "0",
            "railway=monorail",
            "railway=halt",
            "2",
            "1231"
          ],
          [
            "-81659082",
            "30332225",
            "-8192",
            "112",
            "1000",
            "0",
            "0",
            "0",
            "0",
            "railway=monorail",
            "railway=switch",
            "11",
            "6157"
          ],
          [
            "-81659905",
            "30329459",
            "-8192",
            "317",
            "1000",
            "0",
            "0",
            "0",
            "0",
            "railway=monorail",
            "railway=halt",
            "36",
            "20101"
          ],
          [
            "-81662342",
            "30327131",
            "-8192",
            "455",
            "1000",
            "0",
            "0",
            "0",
            "0",
            "railway=monorail",
            "railway=halt",
            "72",
            "40114"
          ],
          [
            "-81663101",
            "30327258",
            "-8192",
            "74",
            "1000",
            "0",
            "0",
            "0",
            "0",
            "railway=monorail",
            "railway=switch",
            "78",
            "43369"
          ],
          [
            "-81665518",
            "30327295",
            "-8192",
            "233",
            "1000",
            "0",
            "0",
            "0",
            "0",
            "railway=monorail",
            "railway=switch",
            "97",
            "53618"
          ],
          [
            "-81665731",
            "30327257",
            "-8192",
            "21",
            "1000",
            "0",
            "0",
            "0",
            "0",
            "railway=monorail",
            "railway=unknown",
            "99",
            "54541"
          ],
          [
            "-81666387",
            "30326758",
            "-8192",
            "85",
            "1000",
            "0",
            "0",
            "0",
            "0",
            "railway=monorail",
            "railway=switch",
            "106",
            "58280"
          ],
          [
            "-81660841",
            "30317664",
            "-8192",
            "1230",
            "1000",
            "0",
            "0",
            "0",
            "0",
            "railway=monorail",
            "railway=halt",
            "204",
            "115030"
          ],
          [
            "-81659598",
            "30317770",
            "-8192",
            "120",
            "1000",
            "0",
            "0",
            "0",
            "0",
            "railway=monorail",
            "railway=switch",
            "214",
            "120309"
          ],
          [
            "-81656641",
            "30317641",
            "-8192",
            "287",
            "1000",
            "0",
            "0",
            "0",
            "0",
            "railway=monorail",
            "railway=halt",
            "236",
            "132933"
          ],
          [
            "-81653927",
            "30316710",
            "-8192",
            "294",
            "1000",
            "0",
            "0",
            "0",
            "0",
            "railway=monorail",
            "",
            "260",
            "145864"
          ],
          [
            "-81653220",
            "30315932",
            "-8192",
            "117",
            "1000",
            "0",
            "0",
            "0",
            "0",
            "railway=monorail",
            "railway=switch",
            "9",
            "5146"
          ],
          [
            "-81653096",
            "30315575",
            "-8192",
            "41",
            "1000",
            "0",
            "0",
            "0",
            "0",
            "railway=monorail",
            "railway=switch",
            "12",
            "6949"
          ],
          [
            "-81653096",
            "30315293",
            "-8192",
            "31",
            "1000",
            "0",
            "0",
            "0",
            "0",
            "railway=monorail",
            "railway=halt",
            "15",
            "8313"
          ],
          [
            "-81653095",
            "30314994",
            "-8192",
            "33",
            "1000",
            "0",
            "0",
            "0",
            "0",
            "railway=monorail",
            "",
            "17",
            "9764"
          ],
          [
            "-81653096",
            "30315293",
            "-8192",
            "33",
            "1000",
            "0",
            "0",
            "0",
            "0",
            "reversedirection=yes railway=monorail",
            "railway=halt",
            "2",
            "1451"
          ],
          [
            "-81653096",
            "30315575",
            "-8192",
            "31",
            "1000",
            "0",
            "0",
            "0",
            "0",
            "reversedirection=yes railway=monorail",
            "railway=switch",
            "5",
            "2815"
          ],
          [
            "-81654859",
            "30317352",
            "-8192",
            "277",
            "1000",
            "0",
            "0",
            "0",
            "0",
            "reversedirection=yes railway=monorail",
            "",
            "27",
            "14998"
          ],
          [
            "-81656642",
            "30317751",
            "-8192",
            "182",
            "1000",
            "0",
            "0",
            "0",
            "0",
            "reversedirection=yes railway=monorail",
            "railway=halt",
            "14",
            "8005"
          ],
          [
            "-81659235",
            "30317810",
            "-8192",
            "249",
            "1000",
            "0",
            "0",
            "0",
            "0",
            "reversedirection=yes railway=monorail",
            "railway=switch",
            "34",
            "18957"
          ],
          [
            "-81660842",
            "30317773",
            "-8192",
            "155",
            "1000",
            "0",
            "0",
            "0",
            "0",
            "reversedirection=yes railway=monorail",
            "railway=halt",
            "46",
            "25775"
          ],
          [
            "-81666280",
            "30326681",
            "-8192",
            "1212",
            "1000",
            "0",
            "0",
            "0",
            "0",
            "reversedirection=yes railway=monorail",
            "railway=switch",
            "143",
            "77381"
          ],
          [
            "-81665409",
            "30327255",
            "-8192",
            "108",
            "1000",
            "0",
            "0",
            "0",
            "0",
            "reversedirection=yes railway=monorail",
            "railway=switch",
            "152",
            "81799"
          ],
          [
            "-81662657",
            "30327077",
            "-8192",
            "266",
            "1000",
            "0",
            "0",
            "0",
            "0",
            "railway=monorail",
            "railway=switch",
            "173",
            "93340"
          ],
          [
            "-81662375",
            "30327015",
            "-8192",
            "28",
            "1000",
            "0",
            "0",
            "0",
            "0",
            "railway=monorail",
            "railway=halt",
            "175",
            "94569"
          ],
          [
            "-81659784",
            "30329432",
            "-8192",
            "462",
            "1000",
            "0",
            "0",
            "0",
            "0",
            "railway=monorail",
            "railway=halt",
            "212",
            "114881"
          ],
          [
            "-81659199",
            "30331650",
            "-8192",
            "253",
            "1000",
            "0",
            "0",
            "0",
            "0",
            "railway=monorail",
            "",
            "233",
            "126009"
          ],
          [
            "-81659126",
            "30331911",
            "-8192",
            "30",
            "1000",
            "0",
            "0",
            "0",
            "0",
            "railway=monorail",
            "railway=switch",
            "2",
            "1319"
          ],
          [
            "-81659082",
            "30332225",
            "-8192",
            "35",
            "1000",
            "0",
            "0",
            "0",
            "0",
            "reversedirection=yes railway=monorail",
            "railway=switch",
            "5",
            "2859"
          ],
          [
            "-81658864",
            "30333213",
            "-8192",
            "112",
            "1000",
            "0",
            "0",
            "0",
            "0",
            "reversedirection=yes railway=monorail",
            "railway=halt",
            "14",
            "7785"
          ],
          [
            "-81658795",
            "30333451",
            "-8192",
            "28",
            "1000",
            "0",
            "0",
            "0",
            "0",
            "reversedirection=yes railway=monorail",
            "",
            "16",
            "9016"
          ]
        ],
        "times": [
          0,
          0.64,
          2.24,
          3.84,
          5.36,
          6.64,
          9.28,
          10.16,
          11.2,
          29.36,
          32.24,
          34.96,
          36.56,
          38.16,
          39.36,
          43.44,
          57.44,
          58.08,
          58.72,
          59.2,
          60.24,
          60.8,
          61.36,
          62.32,
          62.88,
          68.64,
          71.44,
          72.96,
          74.56,
          76.56,
          78.88,
          81.12,
          82,
          97.52,
          98.24,
          99.2,
          99.92,
          100.56,
          106,
          107.04,
          109.12,
          113.04,
          114.48,
          115.52,
          116.56,
          117.36,
          118.24,
          119.12,
          120,
          120.88,
          122.4,
          124.08,
          126,
          127.04,
          128.8,
          134.8,
          138.24,
          179.52,
          185.76,
          189.84,
          196.16,
          196.8,
          197.44,
          198.4,
          199.12,
          199.76,
          200.4,
          201.04,
          202.8,
          204.4,
          206,
          206.96,
          207.84,
          211.28,
          212.16,
          214,
          221.28,
          230.56,
          231.12,
          233.2,
          233.6,
          235.36,
          236.96,
          238.56,
          244,
          245.2,
          245.76,
          247.04,
          248.32,
          249.68,
          260.48,
          265.6,
          266.56,
          267.12,
          267.6,
          268.4,
          269.84,
          270.4,
          270.8,
          271.12,
          271.84,
          272.32,
          273.12,
          273.92,
          275.6,
          277.04,
          278.24,
          279.44,
          280.88,
          282.56,
          283.36,
          286.24,
          286.96,
          287.6,
          288.16,
          288.8,
          289.44,
          290.64,
          291.68,
          305.52,
          307.2,
          308.56,
          309.92,
          311.28,
          315.6,
          316.72,
          318.48,
          320.08,
          321.68,
          323.84,
          326.8,
          335.44,
          340,
          344.88,
          348.88,
          350.8,
          352.4,
          354,
          355.52,
          356.32,
          356.72,
          357.44,
          358.24,
          359.2,
          360.4,
          365.92,
          368.64,
          370,
          372,
          379.6,
          412.24,
          423.92,
          427.84,
          428.56,
          430.48,
          432.24,
          433.52,
          435.04,
          436.24,
          436.96,
          437.6,
          438.56,
          439.2,
          440.24,
          441.04,
          442.16,
          445.44,
          446.32,
          449.36,
          455.2,
          455.6,
          456.56,
          457.12,
          458,
          469.92,
          472.4,
          474.72,
          479.28,
          479.92,
          481.52,
          483.04,
          484.8,
          486.24,
          488.08,
          488.8,
          491.68,
          492.32,
          493.36,
          494,
          494.64,
          495.28,
          495.76,
          496.32,
          496.96,
          511.6,
          512.56,
          514.72,
          515.76,
          516.88,
          518.48,
          520.08,
          521.2,
          522.64,
          525.36,
          526.4,
          533.6,
          538.72,
          541.12,
          543.92,
          544.96,
          545.84,
          548.48,
          549.76,
          551.28,
          552.88,
          554.48,
          555.12
        ]
      },
      "geometry": {
        "type": "LineString",
        "coordinates": [
          [
            -81.658795,
            30.333451,
            6.25
          ],
          [
            -81.658815,
            30.333384,
            6.25
          ],
          [
            -81.658864,
            30.333213,
            6.25
          ],
          [
            -81.658914,
            30.333042,
            6.25
          ],
          [
            -81.658962,
            30.332879,
            6.25
          ],
          [
            -81.658989,
            30.33274,
            6.25
          ],
          [
            -81.65903,
            30.332441,
            6.25
          ],
          [
            -81.659049,
            30.33234,
            6.25
          ],
          [
            -81.659082,
            30.332225,
            6.25
          ],
          [
            -81.659653,
            30.330236,
            6.25
          ],
          [
            -81.659762,
            30.329927,
            6.25
          ],
          [
            -81.659855,
            30.329632,
            6.25
          ],
          [
            -81.659905,
            30.329459,
            6.25
          ],
          [
            -81.659955,
            30.329286,
            6.25
          ],
          [
            -81.659994,
            30.329156,
            6.25
          ],
          [
            -81.6601,
            30.328703,
            6.25
          ],
          [
            -81.660542,
            30.327175,
            6.25
          ],
          [
            -81.660564,
            30.327105,
            6.25
          ],
          [
            -81.660594,
            30.32704,
            6.25
          ],
          [
            -81.660629,
            30.326991,
            6.25
          ],
          [
            -81.660727,
            30.326914,
            6.25
          ],
          [
            -81.660795,
            30.326881,
            6.25
          ],
          [
            -81.660869,
            30.32686,
            6.25
          ],
          [
            -81.660997,
            30.326854,
            6.25
          ],
          [
            -81.661067,
            30.326864,
            6.25
          ],
          [
            -81.661793,
            30.32701,
            6.25
          ],
          [
            -81.66215,
            30.327088,
            6.25
          ],
          [
            -81.662342,
            30.327131,
            6.25
          ],
          [
            -81.662539,
            30.327174,
            6.25
          ],
          [
            -81.662797,
            30.327225,
            6.25
          ],
          [
            -81.663101,
            30.327258,
            6.25
          ],
          [
            -81.663389,
            30.327287,
            6.25
          ],
          [
            -81.663503,
            30.327291,
            6.25
          ],
          [
            -81.665518,
            30.327295,
            6.25
          ],
          [
            -81.66561,
            30.327286,
            6.25
          ],
          [
            -81.665731,
            30.327257,
            6.25
          ],
          [
            -81.665815,
            30.32723,
            6.25
          ],
          [
            -81.665887,
            30.327192,
            6.25
          ],
          [
            -81.666387,
            30.326758,
            6.25
          ],
          [
            -81.666463,
            30.326658,
            6.25
          ],
          [
            -81.666595,
            30.326456,
            6.25
          ],
          [
            -81.666847,
            30.326076,
            6.25
          ],
          [
            -81.666928,
            30.325927,
            6.25
          ],
          [
            -81.666963,
            30.325817,
            6.5
          ],
          [
            -81.666975,
            30.325699,
            7.25
          ],
          [
            -81.666962,
            30.325605,
            7.75
          ],
          [
            -81.666932,
            30.325511,
            8
          ],
          [
            -81.66688,
            30.325418,
            8.5
          ],
          [
            -81.666814,
            30.325336,
            8.75
          ],
          [
            -81.666741,
            30.325262,
            9
          ],
          [
            -81.666603,
            30.325139,
            9.25
          ],
          [
            -81.666455,
            30.325004
          ],
          [
            -81.666292,
            30.324838
          ],
          [
            -81.66621,
            30.324741
          ],
          [
            -81.66609,
            30.324575
          ],
          [
            -81.665699,
            30.323987
          ],
          [
            -81.665483,
            30.323643
          ],
          [
            -81.662807,
            30.319612
          ],
          [
            -81.662392,
            30.31901
          ],
          [
            -81.662135,
            30.318611
          ],
          [
            -81.661769,
            30.317973
          ],
          [
            -81.661729,
            30.317914
          ],
          [
            -81.661676,
            30.317853
          ],
          [
            -81.661584,
            30.317777
          ],
          [
            -81.661506,
            30.317732
          ],
          [
            -81.661431,
            30.317702
          ],
          [
            -81.661352,
            30.317681
          ],
          [
            -81.661274,
            30.317668
          ],
          [
            -81.661047,
            30.317663
          ],
          [
            -81.660841,
            30.317664
          ],
          [
            -81.660634,
            30.317665
          ],
          [
            -81.660509,
            30.317664
          ],
          [
            -81.660391,
            30.317674
          ],
          [
            -81.659953,
            30.317757
          ],
          [
            -81.659837,
            30.317768
          ],
          [
            -81.659598,
            30.31777
          ],
          [
            -81.658647,
            30.317772
          ],
          [
            -81.657442,
            30.317745
          ],
          [
            -81.657374,
            30.317736
          ],
          [
            -81.657121,
            30.317652
          ],
          [
            -81.65707,
            30.317643
          ],
          [
            -81.656845,
            30.317641
          ],
          [
            -81.656641,
            30.317641
          ],
          [
            -81.656436,
            30.317642
          ],
          [
            -81.655731,
            30.317643
          ],
          [
            -81.655579,
            30.317634
          ],
          [
            -81.655511,
            30.317624
          ],
          [
            -81.655352,
            30.317585
          ],
          [
            -81.655203,
            30.317522
          ],
          [
            -81.655053,
            30.317435
          ],
          [
            -81.653927,
            30.31671
          ],
          [
            -81.653392,
            30.316366
          ],
          [
            -81.653307,
            30.316282
          ],
          [
            -81.65327,
            30.316229
          ],
          [
            -81.653248,
            30.316182
          ],
          [
            -81.653226,
            30.316092
          ],
          [
            -81.65322,
            30.315932
          ],
          [
            -81.653213,
            30.315867
          ],
          [
            -81.6532,
            30.315819
          ],
          [
            -81.653184,
            30.315784
          ],
          [
            -81.653132,
            30.315716
          ],
          [
            -81.653111,
            30.315668
          ],
          [
            -81.653096,
            30.315575
          ],
          [
            -81.653097,
            30.315485
          ],
          [
            -81.653096,
            30.315293
          ],
          [
            -81.653095,
            30.31513
          ],
          [
            -81.653095,
            30.314994
          ],
          [
            -81.653095,
            30.31513
          ],
          [
            -81.653096,
            30.315293
          ],
          [
            -81.653097,
            30.315485
          ],
          [
            -81.653096,
            30.315575
          ],
          [
            -81.653098,
            30.315901
          ],
          [
            -81.653105,
            30.315979
          ],
          [
            -81.65312,
            30.31605
          ],
          [
            -81.653141,
            30.316115
          ],
          [
            -81.653173,
            30.316183
          ],
          [
            -81.653218,
            30.316248
          ],
          [
            -81.653314,
            30.31635
          ],
          [
            -81.653414,
            30.316426
          ],
          [
            -81.654859,
            30.317352,
            9
          ],
          [
            -81.655031,
            30.317463,
            9
          ],
          [
            -81.655181,
            30.317551,
            9
          ],
          [
            -81.655337,
            30.317614,
            9
          ],
          [
            -81.655503,
            30.317655,
            9
          ],
          [
            -81.65606,
            30.317736,
            9
          ],
          [
            -81.656202,
            30.317749,
            9
          ],
          [
            -81.656436,
            30.317751,
            9
          ],
          [
            -81.656642,
            30.317751,
            9
          ],
          [
            -81.656846,
            30.317751,
            9
          ],
          [
            -81.657128,
            30.317756,
            9
          ],
          [
            -81.657516,
            30.31778,
            9
          ],
          [
            -81.658644,
            30.317807,
            9
          ],
          [
            -81.659235,
            30.31781,
            9
          ],
          [
            -81.659865,
            30.317806,
            9
          ],
          [
            -81.660387,
            30.317776,
            9
          ],
          [
            -81.660634,
            30.317774,
            9
          ],
          [
            -81.660842,
            30.317773,
            9
          ],
          [
            -81.661048,
            30.317772,
            9
          ],
          [
            -81.661249,
            30.317773,
            9
          ],
          [
            -81.661357,
            30.317786,
            9
          ],
          [
            -81.661411,
            30.317798,
            9
          ],
          [
            -81.661502,
            30.31783,
            9
          ],
          [
            -81.661592,
            30.317877,
            9
          ],
          [
            -81.661687,
            30.317952,
            9
          ],
          [
            -81.66178,
            30.318066,
            9
          ],
          [
            -81.662101,
            30.31862,
            9
          ],
          [
            -81.662269,
            30.318893,
            9
          ],
          [
            -81.662359,
            30.319027,
            9
          ],
          [
            -81.662489,
            30.319225,
            9
          ],
          [
            -81.662957,
            30.319977,
            9
          ],
          [
            -81.665078,
            30.323163,
            9
          ],
          [
            -81.665857,
            30.324291,
            9
          ],
          [
            -81.666111,
            30.324671,
            9
          ],
          [
            -81.666161,
            30.32474,
            9
          ],
          [
            -81.66631,
            30.324909,
            9
          ],
          [
            -81.666459,
            30.325055,
            9
          ],
          [
            -81.666576,
            30.32516,
            9
          ],
          [
            -81.666712,
            30.325285,
            9
          ],
          [
            -81.666813,
            30.325389,
            8.5
          ],
          [
            -81.666863,
            30.325459,
            8.25
          ],
          [
            -81.666899,
            30.325528,
            8
          ],
          [
            -81.666931,
            30.325637,
            7.5
          ],
          [
            -81.666939,
            30.325713,
            7
          ],
          [
            -81.666921,
            30.325831,
            6.5
          ],
          [
            -81.666892,
            30.325916,
            6.5
          ],
          [
            -81.666833,
            30.32603
          ],
          [
            -81.66662,
            30.326354
          ],
          [
            -81.666554,
            30.326436
          ],
          [
            -81.66628,
            30.326681
          ],
          [
            -81.665742,
            30.327152
          ],
          [
            -81.665704,
            30.327179
          ],
          [
            -81.665591,
            30.327229
          ],
          [
            -81.665521,
            30.327244
          ],
          [
            -81.665409,
            30.327255
          ],
          [
            -81.663855,
            30.327256
          ],
          [
            -81.663538,
            30.327243
          ],
          [
            -81.663236,
            30.327201
          ],
          [
            -81.662657,
            30.327077
          ],
          [
            -81.662573,
            30.327059
          ],
          [
            -81.662375,
            30.327015
          ],
          [
            -81.662184,
            30.326973
          ],
          [
            -81.661963,
            30.326923
          ],
          [
            -81.661779,
            30.326909
          ],
          [
            -81.661535,
            30.326913
          ],
          [
            -81.661444,
            30.326904
          ],
          [
            -81.661081,
            30.326829
          ],
          [
            -81.660996,
            30.326818
          ],
          [
            -81.660862,
            30.326826
          ],
          [
            -81.660779,
            30.326846
          ],
          [
            -81.660701,
            30.32688
          ],
          [
            -81.66064,
            30.326924
          ],
          [
            -81.660597,
            30.326968
          ],
          [
            -81.66056,
            30.327021
          ],
          [
            -81.660526,
            30.32709
          ],
          [
            -81.660063,
            30.328695
          ],
          [
            -81.660022,
            30.328798
          ],
          [
            -81.659913,
            30.329021
          ],
          [
            -81.659868,
            30.329136
          ],
          [
            -81.659833,
            30.32926
          ],
          [
            -81.659784,
            30.329432
          ],
          [
            -81.659733,
            30.329606
          ],
          [
            -81.659696,
            30.329726
          ],
          [
            -81.659662,
            30.329885
          ],
          [
            -81.659615,
            30.330189
          ],
          [
            -81.659589,
            30.330304
          ],
          [
            -81.659354,
            30.331092
          ],
          [
            -81.659199,
            30.33165
          ],
          [
            -81.659126,
            30.331911
          ],
          [
            -81.659082,
            30.332225
          ],
          [
            -81.659049,
            30.33234
          ],
          [
            -81.65903,
            30.332441
          ],
          [
            -81.658989,
            30.33274
          ],
          [
            -81.658962,
            30.332879
          ],
          [
            -81.658914,
            30.333042
          ],
          [
            -81.658864,
            30.333213
          ],
          [
            -81.658815,
            30.333384
          ],
          [
            -81.658795,
            30.333451
          ]
        ]
      }
    }
  ]
}