{
  "type": "FeatureCollection",
  "features": [
    {
      "type": "Feature",
      "properties": {
        "creator": "BRouter-1.7.9",
        "name": "[King County Metro] South Lake Union Streetcar",
        "track-length": "4169",
        "filtered ascend": "74",
        "plain-ascend": "6",
        "total-time": "334",
        "total-energy": "195917",
        "cost": "8338",
        "messages": [
          [
            "Longitude",
            "Latitude",
            "Elevation",
            "Distance",
            "CostPerKm",
            "ElevCost",
            "TurnCost",
            "NodeCost",
            "InitialCost",
            "WayTags",
            "NodeTags",
            "Time",
            "Energy"
          ],
          [
            "-122337314",
            "47612974",
            "69",
            "9",
            "2000",
            "0",
            "0",
            "0",
            "0",
            "reversedirection=yes railway=tram",
            "wheelchair=yes railway=tram_stop",
            "0",
            "433"
          ],
          [
            "-122337354",
            "47613161",
            "71",
            "21",
            "2000",
            "0",
            "0",
            "0",
            "0",
            "reversedirection=yes railway=tram",
            "wheelchair=yes railway=tram_stop",
            "2",
            "1726"
          ],
          [
            "-122337370",
            "47613239",
            "72",
            "9",
            "2000",
            "0",
            "0",
            "0",
            "0",
            "reversedirection=yes railway=tram",
            "highway=crossing railway=unknown surface=asphalt",
            "3",
            "2315"
          ],
          [
            "-122337386",
            "47613346",
            "72",
            "12",
            "2000",
            "0",
            "0",
            "0",
            "0",
            "reversedirection=yes railway=tram",
            "railway=unknown",
            "4",
            "2850"
          ],
          [
            "-122337407",
            "47613449",
            "70",
            "12",
            "2000",
            "0",
            "0",
            "0",
            "0",
            "reversedirection=yes railway=tram",
            "railway=unknown",
            "5",
            "3434"
          ],
          [
            "-122337452",
            "47613668",
            "64",
            "25",
            "2000",
            "0",
            "0",
            "0",
            "0",
            "reversedirection=yes railway=tram",
            "railway=switch",
            "7",
            "4094"
          ],
          [
            "-122337475",
            "47613785",
            "61",
            "13",
            "2000",
            "0",
            "0",
            "0",
            "0",
            "railway=tram",
            "railway=unknown",
            "8",
            "4127"
          ],
          [
            "-122337499",
            "47613898",
            "58",
            "13",
            "2000",
            "0",
            "0",
            "0",
            "0",
            "railway=tram",
            "railway=unknown",
            "9",
            "4127"
          ],
          [
            "-122337530",
            "47614048",
            "54",
            "17",
            "2000",
            "0",
            "0",
            "0",
            "0",
            "railway=tram",
            "railway=unknown",
            "10",
            "4127"
          ],
          [
            "-122337611",
            "47614445",
            "45",
            "45",
            "2000",
            "0",
            "0",
            "0",
            "0",
            "railway=tram",
            "railway=unknown",
            "14",
            "4127"
          ],
          [
            "-122337680",
            "47614781",
            "39",
            "38",
            "2000",
            "0",
            "0",
            "0",
            "0",
            "railway=tram",
            "railway=unknown",
            "17",
            "4127"
          ],
          [
            "-122337697",
            "47614860",
            "38",
            "9",
            "2000",
            "0",
            "0",
            "0",
            "0",
            "railway=tram",
            "",
            "17",
            "4127"
          ],
          [
            "-122337697",
            "47614863",
            "38",
            "1",
            "2000",
            "0",
            "0",
            "0",
            "0",
            "railway=tram",
            "railway=unknown",
            "0",
            "43"
          ],
          [
            "-122337757",
            "47615145",
            "35",
            "32",
            "2000",
            "0",
            "0",
            "0",
            "0",
            "railway=tram",
            "crossing=traffic_signals railway=crossing",
            "2",
            "1391"
          ],
          [
            "-122337767",
            "47615194",
            "34",
            "5",
            "2000",
            "0",
            "0",
            "0",
            "0",
            "railway=tram",
            "railway=unknown",
            "3",
            "1592"
          ],
          [
            "-122337781",
            "47615257",
            "34",
            "7",
            "2000",
            "0",
            "0",
            "0",
            "0",
            "railway=tram",
            "railway=unknown",
            "3",
            "1860"
          ],
          [
            "-122337795",
            "47615326",
            "34",
            "8",
            "2000",
            "0",
            "0",
            "0",
            "0",
            "railway=tram",
            "crossing=traffic_signals railway=crossing",
            "4",
            "2137"
          ],
          [
            "-122337799",
            "47615346",
            "34",
            "2",
            "2000",
            "0",
            "0",
            "0",
            "0",
            "railway=tram",
            "crossing=traffic_signals railway=crossing",
            "4",
            "2206"
          ],
          [
            "-122337850",
            "47615606",
            "32",
            "29",
            "2000",
            "0",
            "0",
            "0",
            "0",
            "railway=tram",
            "wheelchair=yes railway=tram_stop",
            "6",
            "2924"
          ],
          [
            "-122337901",
            "47615857",
            "30",
            "28",
            "2000",
            "0",
            "0",
            "0",
            "0",
            "railway=tram",
            "railway=unknown",
            "8",
            "3374"
          ],
          [
            "-122337988",
            "47616276",
            "28",
            "47",
            "2000",
            "0",
            "0",
            "0",
            "0",
            "railway=tram",
            "highway=traffic_signals traffic_signals:direction=forward traffic_signals=signal",
            "12",
            "3705"
          ],
          [
            "-122337999",
            "47616331",
            "28",
            "6",
            "2000",
            "0",
            "0",
            "0",
            "0",
            "railway=tram",
            "crossing=traffic_signals railway=unknown",
            "13",
            "3788"
          ],
          [
            "-122338014",
            "47616402",
            "27",
            "8",
            "2000",
            "0",
            "0",
            "0",
            "0",
            "railway=tram",
            "railway=unknown",
            "13",
            "3898"
          ],
          [
            "-122338055",
            "47616605",
            "26",
            "23",
            "2000",
            "0",
            "0",
            "0",
            "0",
            "railway=tram",
            "railway=unknown",
            "15",
            "4084"
          ],
          [
            "-122338057",
            "47616614",
            "26",
            "1",
            "2000",
            "0",
            "0",
            "0",
            "0",
            "railway=tram",
            "railway=unknown",
            "15",
            "4097"
          ],
          [
            "-122338082",
            "47616735",
            "26",
            "14",
            "2000",
            "0",
            "0",
            "0",
            "0",
            "railway=tram",
            "railway=unknown",
            "16",
            "4271"
          ],
          [
            "-122338094",
            "47616792",
            "26",
            "6",
            "2000",
            "0",
            "0",
            "0",
            "0",
            "railway=tram",
            "crossing=traffic_signals railway=unknown",
            "17",
            "4351"
          ],
          [
            "-122338277",
            "47617707",
            "25",
            "103",
            "2000",
            "0",
            "0",
            "0",
            "0",
            "railway=tram",
            "crossing=traffic_signals railway=unknown",
            "25",
            "6402"
          ],
          [
            "-122338285",
            "47617767",
            "25",
            "7",
            "2000",
            "0",
            "0",
            "0",
            "0",
            "railway=tram",
            "railway=unknown",
            "26",
            "6617"
          ],
          [
            "-122338297",
            "47617844",
            "25",
            "9",
            "2000",
            "0",
            "0",
            "0",
            "0",
            "railway=tram",
            "crossing=traffic_signals railway=unknown",
            "26",
            "6902"
          ],
          [
            "-122338385",
            "47618288",
            "24",
            "50",
            "2000",
            "0",
            "0",
            "0",
            "0",
            "railway=tram",
            "highway=bus_stop wheelchair=yes railway=tram_stop",
            "30",
            "8553"
          ],
          [
            "-122338401",
            "47618423",
            "24",
            "15",
            "2000",
            "0",
            "0",
            "0",
            "0",
            "railway=tram",
            "crossing=traffic_signals railway=unknown",
            "32",
            "9064"
          ],
          [
            "-122338408",
            "47618541",
            "24",
            "13",
            "2000",
            "0",
            "0",
            "0",
            "0",
            "railway=tram",
            "railway=unknown",
            "33",
            "9470"
          ],
          [
            "-122338407",
            "47618637",
            "23",
            "11",
            "2000",
            "0",
            "0",
            "0",
            "0",
            "railway=tram",
            "crossing=traffic_signals railway=unknown",
            "34",
            "9807"
          ],
          [
            "-122338423",
            "47619628",
            "21",
            "110",
            "2000",
            "0",
            "0",
            "0",
            "0",
            "railway=tram",
            "crossing=unmarked railway=unknown",
            "42",
            "12653"
          ],
          [
            "-122338422",
            "47619709",
            "21",
            "9",
            "2000",
            "0",
            "0",
            "0",
            "0",
            "railway=tram",
            "railway=unknown",
            "43",
            "12921"
          ],
          [
            "-122338421",
            "47619824",
            "21",
            "13",
            "2000",
            "0",
            "0",
            "0",
            "0",
            "railway=tram",
            "crossing=unmarked railway=unknown",
            "44",
            "13328"
          ],
          [
            "-122338353",
            "47620800",
            "19",
            "110",
            "2000",
            "0",
            "0",
            "0",
            "0",
            "railway=tram",
            "crossing=traffic_signals railway=unknown",
            "53",
            "16182"
          ],
          [
            "-122338313",
            "47620827",
            "19",
            "4",
            "2000",
            "0",
            "0",
            "0",
            "0",
            "railway=tram",
            "crossing=traffic_signals railway=unknown",
            "53",
            "16311"
          ],
          [
            "-122337818",
            "47620856",
            "19",
            "38",
            "2000",
            "0",
            "0",
            "0",
            "0",
            "railway=tram",
            "railway=unknown",
            "56",
            "17715"
          ],
          [
            "-122337349",
            "47620867",
            "20",
            "36",
            "2000",
            "0",
            "0",
            "0",
            "0",
            "railway=tram",
            "railway=unknown",
            "59",
            "18950"
          ],
          [
            "-122337332",
            "47620877",
            "20",
            "2",
            "2000",
            "0",
            "0",
            "0",
            "0",
            "railway=tram",
            "crossing=unmarked railway=unknown",
            "59",
            "19001"
          ],
          [
            "-122337230",
            "47620973",
            "20",
            "14",
            "2000",
            "0",
            "0",
            "0",
            "0",
            "railway=tram",
            "railway=unknown",
            "60",
            "19409"
          ],
          [
            "-122337212",
            "47621421",
            "19",
            "50",
            "2000",
            "0",
            "0",
            "0",
            "0",
            "railway=tram",
            "wheelchair=yes railway=tram_stop",
            "64",
            "20582"
          ],
          [
            "-122337207",
            "47621952",
            "18",
            "59",
            "2000",
            "0",
            "0",
            "0",
            "0",
            "railway=tram",
            "railway=unknown",
            "69",
            "23115"
          ],
          [
            "-122337206",
            "47622033",
            "17",
            "9",
            "2000",
            "0",
            "0",
            "0",
            "0",
            "railway=tram",
            "railway=unknown",
            "70",
            "23485"
          ],
          [
            "-122337205",
            "47622124",
            "17",
            "10",
            "2000",
            "0",
            "0",
            "0",
            "0",
            "railway=tram",
            "railway=unknown",
            "71",
            "23899"
          ],
          [
            "-122337206",
            "47622158",
            "17",
            "4",
            "2000",
            "0",
            "0",
            "0",
            "0",
            "railway=tram",
            "railway=signal",
            "71",
            "24065"
          ],
          [
            "-122337206",
            "47622270",
            "17",
            "12",
            "2000",
            "0",
            "0",
            "0",
            "0",
            "railway=tram",
            "railway=switch",
            "72",
            "24541"
          ],
          [
            "-122337203",
            "47622737",
            "17",
            "52",
            "2000",
            "0",
            "0",
            "0",
            "0",
            "railway=tram",
            "",
            "76",
            "26664"
          ],
          [
            "-122337199",
            "47623119",
            "17",
            "42",
            "2000",
            "0",
            "0",
            "0",
            "0",
            "railway=tram",
            "railway=unknown",
            "3",
            "1847"
          ],
          [
            "-122337198",
            "47623214",
            "17",
            "11",
            "2000",
            "0",
            "0",
            "0",
            "0",
            "railway=tram",
            "railway=unknown",
            "4",
            "2331"
          ],
          [
            "-122337197",
            "47623307",
            "17",
            "10",
            "2000",
            "0",
            "0",
            "0",
            "0",
            "railway=tram",
            "railway=unknown",
            "5",
            "2771"
          ],
          [
            "-122337197",
            "47623419",
            "17",
            "12",
            "2000",
            "0",
            "0",
            "0",
            "0",
            "railway=tram",
            "wheelchair=yes railway=tram_stop",
            "6",
            "3248"
          ],
          [
            "-122337185",
            "47624464",
            "11",
            "116",
            "2000",
            "0",
            "0",
            "0",
            "0",
            "railway=tram",
            "railway=unknown",
            "15",
            "6415"
          ],
          [
            "-122337168",
            "47624553",
            "11",
            "10",
            "2000",
            "0",
            "0",
            "0",
            "0",
            "railway=tram",
            "railway=unknown",
            "16",
            "6750"
          ],
          [
            "-122337156",
            "47624602",
            "11",
            "6",
            "2000",
            "0",
            "0",
            "0",
            "0",
            "railway=tram",
            "railway=unknown",
            "16",
            "6956"
          ],
          [
            "-122337139",
            "47624711",
            "10",
            "12",
            "2000",
            "0",
            "0",
            "0",
            "0",
            "railway=tram",
            "railway=unknown",
            "17",
            "7327"
          ],
          [
            "-122337137",
            "47624789",
            "10",
            "9",
            "2000",
            "0",
            "0",
            "0",
            "0",
            "railway=tram",
            "railway=unknown",
            "18",
            "7617"
          ],
          [
            "-122337125",
            "47625208",
            "8",
            "47",
            "2000",
            "0",
            "0",
            "0",
            "0",
            "railway=tram",
            "railway=unknown",
            "21",
            "8685"
          ],
          [
            "-122337114",
            "47625672",
            "6",
            "52",
            "2000",
            "0",
            "0",
            "0",
            "0",
            "railway=tram",
            "railway=unknown",
            "26",
            "9402"
          ],
          [
            "-122337061",
            "47625763",
            "5",
            "11",
            "2000",
            "0",
            "0",
            "0",
            "0",
            "railway=tram",
            "railway=unknown",
            "27",
            "9614"
          ],
          [
            "-122336928",
            "47625853",
            "5",
            "14",
            "2000",
            "0",
            "0",
            "0",
            "0",
            "railway=tram",
            "railway=unknown",
            "28",
            "9886"
          ],
          [
            "-122336595",
            "47625884",
            "6",
            "26",
            "2000",
            "0",
            "0",
            "0",
            "0",
            "railway=tram",
            "railway=unknown",
            "30",
            "10575"
          ],
          [
            "-122336329",
            "47625884",
            "7",
            "20",
            "2000",
            "0",
            "0",
            "0",
            "0",
            "railway=tram",
            "wheelchair=yes railway=tram_stop",
            "31",
            "11351"
          ],
          [
            "-122336290",
            "47625883",
            "7",
            "3",
            "2000",
            "0",
            "0",
            "0",
            "0",
            "railway=tram",
            "railway=unknown",
            "32",
            "11469"
          ],
          [
            "-122336221",
            "47625883",
            "7",
            "5",
            "2000",
            "0",
            "0",
            "0",
            "0",
            "railway=tram",
            "railway=unknown",
            "32",
            "11678"
          ],
          [
            "-122335827",
            "47625882",
            "8",
            "30",
            "2000",
            "0",
            "0",
            "0",
            "0",
            "railway=tram",
            "railway=unknown",
            "34",
            "12597"
          ],
          [
            "-122334633",
            "47625878",
            "11",
            "90",
            "2000",
            "0",
            "0",
            "0",
            "0",
            "railway=tram",
            "railway=unknown",
            "42",
            "17448"
          ],
          [
            "-122334585",
            "47625882",
            "12",
            "4",
            "2000",
            "0",
            "0",
            "0",
            "0",
            "railway=tram",
            "railway=signal",
            "42",
            "17656"
          ],
          [
            "-122334360",
            "47625980",
            "12",
            "21",
            "2000",
            "0",
            "0",
            "0",
            "0",
            "railway=tram",
            "railway=unknown",
            "44",
            "18833"
          ],
          [
            "-122334208",
            "47626099",
            "12",
            "17",
            "2000",
            "0",
            "0",
            "0",
            "0",
            "railway=tram",
            "railway=unknown",
            "45",
            "19735"
          ],
          [
            "-122333779",
            "47626436",
            "12",
            "49",
            "2000",
            "0",
            "0",
            "0",
            "0",
            "railway=tram",
            "railway=unknown",
            "49",
            "22128"
          ],
          [
            "-122333302",
            "47626811",
            "12",
            "55",
            "2000",
            "0",
            "0",
            "0",
            "0",
            "railway=tram",
            "railway=unknown",
            "53",
            "24612"
          ],
          [
            "-122332881",
            "47627141",
            "10",
            "48",
            "2000",
            "0",
            "0",
            "0",
            "0",
            "railway=tram",
            "railway=unknown",
            "57",
            "26085"
          ],
          [
            "-122332778",
            "47627222",
            "9",
            "12",
            "2000",
            "0",
            "0",
            "0",
            "0",
            "railway=tram",
            "railway=unknown",
            "58",
            "26420"
          ],
          [
            "-122332691",
            "47627290",
            "8",
            "10",
            "2000",
            "0",
            "0",
            "0",
            "0",
            "railway=tram",
            "railway=unknown",
            "59",
            "26675"
          ],
          [
            "-122332505",
            "47627436",
            "7",
            "21",
            "2000",
            "0",
            "0",
            "0",
            "0",
            "railway=tram",
            "railway=unknown",
            "61",
            "27557"
          ],
          [
            "-122332182",
            "47627690",
            "8",
            "37",
            "2000",
            "0",
            "0",
            "0",
            "0",
            "railway=tram",
            "",
            "64",
            "28447"
          ],
          [
            "-122332178",
            "47627693",
            "8",
            "1",
            "2000",
            "0",
            "0",
            "0",
            "0",
            "railway=tram",
            "wheelchair=yes railway=tram_stop",
            "0",
            "46"
          ],
          [
            "-122332156",
            "47627710",
            "8",
            "3",
            "2000",
            "0",
            "0",
            "0",
            "0",
            "railway=tram",
            "railway=unknown",
            "0",
            "184"
          ],
          [
            "-122332080",
            "47627770",
            "8",
            "9",
            "2000",
            "0",
            "0",
            "0",
            "0",
            "railway=tram",
            "railway=unknown",
            "1",
            "617"
          ],
          [
            "-122331994",
            "47627840",
            "8",
            "10",
            "2000",
            "0",
            "0",
            "0",
            "0",
            "railway=tram",
            "railway=unknown",
            "1",
            "1116"
          ],
          [
            "-122331485",
            "47628276",
            "10",
            "62",
            "2000",
            "0",
            "0",
            "0",
            "0",
            "railway=tram",
            "railway=switch",
            "6",
            "4724"
          ],
          [
            "-122332049",
            "47627870",
            "8",
            "62",
            "2000",
            "0",
            "0",
            "0",
            "0",
            "railway=tram",
            "railway=unknown",
            "11",
            "7324"
          ],
          [
            "-122332140",
            "47627803",
            "8",
            "10",
            "2000",
            "0",
            "0",
            "0",
            "0",
            "railway=tram",
            "railway=unknown",
            "12",
            "7703"
          ],
          [
            "-122332216",
            "47627744",
            "8",
            "9",
            "2000",
            "0",
            "0",
            "0",
            "0",
            "railway=tram",
            "railway=unknown",
            "13",
            "8031"
          ],
          [
            "-122332430",
            "47627581",
            "7",
            "24",
            "2000",
            "0",
            "0",
            "0",
            "0",
            "railway=tram",
            "wheelchair=yes railway=tram_stop",
            "15",
            "8742"
          ],
          [
            "-122332557",
            "47627481",
            "7",
            "15",
            "2000",
            "0",
            "0",
            "0",
            "0",
            "railway=tram",
            "railway=unknown",
            "16",
            "9225"
          ],
          [
            "-122332752",
            "47627328",
            "8",
            "22",
            "2000",
            "0",
            "0",
            "0",
            "0",
            "railway=tram",
            "railway=unknown",
            "18",
            "10239"
          ],
          [
            "-122332931",
            "47627187",
            "9",
            "21",
            "2000",
            "0",
            "0",
            "0",
            "0",
            "railway=tram",
            "railway=unknown",
            "19",
            "11365"
          ],
          [
            "-122332989",
            "47627142",
            "9",
            "7",
            "2000",
            "0",
            "0",
            "0",
            "0",
            "railway=tram",
            "railway=unknown",
            "20",
            "11747"
          ],
          [
            "-122334013",
            "47626304",
            "12",
            "121",
            "2000",
            "0",
            "0",
            "0",
            "0",
            "railway=tram",
            "railway=level_crossing",
            "30",
            "18949"
          ],
          [
            "-122334192",
            "47626164",
            "12",
            "21",
            "2000",
            "0",
            "0",
            "0",
            "0",
            "railway=tram",
            "railway=signal",
            "31",
            "20085"
          ],
          [
            "-122334633",
            "47625915",
            "11",
            "44",
            "2000",
            "0",
            "0",
            "0",
            "0",
            "railway=tram",
            "railway=unknown",
            "35",
            "22380"
          ],
          [
            "-122335828",
            "47625915",
            "8",
            "90",
            "2000",
            "0",
            "0",
            "0",
            "0",
            "railway=tram",
            "railway=unknown",
            "42",
            "24881"
          ],
          [
            "-122335903",
            "47625915",
            "7",
            "6",
            "2000",
            "0",
            "0",
            "0",
            "0",
            "railway=tram",
            "",
            "42",
            "25069"
          ],
          [
            "-122336220",
            "47625916",
            "7",
            "24",
            "2000",
            "0",
            "0",
            "0",
            "0",
            "railway=tram",
            "railway=unknown",
            "1",
            "867"
          ],
          [
            "-122336290",
            "47625916",
            "7",
            "5",
            "2000",
            "0",
            "0",
            "0",
            "0",
            "railway=tram",
            "railway=unknown",
            "2",
            "1042"
          ],
          [
            "-122336565",
            "47625917",
            "6",
            "21",
            "2000",
            "0",
            "0",
            "0",
            "0",
            "railway=tram",
            "wheelchair=yes railway=tram_stop",
            "4",
            "1634"
          ],
          [
            "-122336595",
            "47625917",
            "6",
            "2",
            "2000",
            "0",
            "0",
            "0",
            "0",
            "railway=tram",
            "railway=unknown",
            "4",
            "1693"
          ],
          [
            "-122337141",
            "47625919",
            "5",
            "41",
            "2000",
            "0",
            "0",
            "0",
            "0",
            "railway=tram",
            "crossing=traffic_signals bicycle=yes railway=unknown",
            "7",
            "2880"
          ],
          [
            "-122337207",
            "47625920",
            "5",
            "5",
            "2000",
            "0",
            "0",
            "0",
            "0",
            "railway=tram",
            "railway=unknown",
            "7",
            "3040"
          ],
          [
            "-122338467",
            "47625885",
            "7",
            "95",
            "2000",
            "0",
            "0",
            "0",
            "0",
            "railway=tram",
            "railway=unknown",
            "15",
            "7338"
          ],
          [
            "-122338604",
            "47625761",
            "7",
            "17",
            "2000",
            "0",
            "0",
            "0",
            "0",
            "railway=tram",
            "railway=unknown",
            "16",
            "8173"
          ],
          [
            "-122338613",
            "47625730",
            "8",
            "4",
            "2000",
            "0",
            "0",
            "0",
            "0",
            "railway=tram",
            "railway=unknown",
            "17",
            "8382"
          ],
          [
            "-122338600",
            "47625616",
            "8",
            "13",
            "2000",
            "0",
            "0",
            "0",
            "0",
            "railway=tram",
            "railway=unknown",
            "18",
            "9071"
          ],
          [
            "-122338536",
            "47624795",
            "10",
            "92",
            "2000",
            "0",
            "0",
            "0",
            "0",
            "railway=tram",
            "railway=unknown",
            "25",
            "14550"
          ],
          [
            "-122338537",
            "47624716",
            "10",
            "9",
            "2000",
            "0",
            "0",
            "0",
            "0",
            "railway=tram",
            "railway=unknown",
            "26",
            "15053"
          ],
          [
            "-122338539",
            "47624565",
            "10",
            "17",
            "2000",
            "0",
            "0",
            "0",
            "0",
            "railway=tram",
            "railway=unknown",
            "27",
            "15979"
          ],
          [
            "-122338540",
            "47624468",
            "10",
            "11",
            "2000",
            "0",
            "0",
            "0",
            "0",
            "railway=tram",
            "railway=unknown",
            "28",
            "16563"
          ],
          [
            "-122338542",
            "47624270",
            "10",
            "22",
            "2000",
            "0",
            "0",
            "0",
            "0",
            "railway=tram",
            "highway=bus_stop wheelchair=yes railway=tram_stop",
            "30",
            "17701"
          ],
          [
            "-122338546",
            "47623655",
            "13",
            "68",
            "2000",
            "0",
            "0",
            "0",
            "0",
            "railway=tram",
            "railway=unknown",
            "35",
            "21141"
          ],
          [
            "-122338549",
            "47623299",
            "15",
            "40",
            "2000",
            "0",
            "0",
            "0",
            "0",
            "railway=tram",
            "railway=unknown",
            "38",
            "23708"
          ],
          [
            "-122338550",
            "47623215",
            "15",
            "9",
            "2000",
            "0",
            "0",
            "0",
            "0",
            "railway=tram",
            "railway=unknown",
            "39",
            "24245"
          ],
          [
            "-122338551",
            "47623129",
            "16",
            "10",
            "2000",
            "0",
            "0",
            "0",
            "0",
            "railway=tram",
            "railway=unknown",
            "40",
            "24849"
          ],
          [
            "-122338547",
            "47622712",
            "16",
            "46",
            "2000",
            "0",
            "0",
            "0",
            "0",
            "railway=tram",
            "railway=unknown",
            "44",
            "27609"
          ],
          [
            "-122338532",
            "47622121",
            "17",
            "66",
            "2000",
            "0",
            "0",
            "0",
            "0",
            "railway=tram",
            "railway=unknown",
            "49",
            "31382"
          ],
          [
            "-122338532",
            "47622049",
            "17",
            "8",
            "2000",
            "0",
            "0",
            "0",
            "0",
            "railway=tram",
            "railway=unknown",
            "49",
            "31832"
          ],
          [
            "-122338533",
            "47621961",
            "17",
            "10",
            "2000",
            "0",
            "0",
            "0",
            "0",
            "railway=tram",
            "railway=unknown",
            "50",
            "32384"
          ],
          [
            "-122338536",
            "47621412",
            "18",
            "61",
            "2000",
            "0",
            "0",
            "0",
            "0",
            "railway=tram",
            "highway=bus_stop wheelchair=yes railway=tram_stop",
            "55",
            "35856"
          ],
          [
            "-122338542",
            "47620970",
            "19",
            "49",
            "2000",
            "0",
            "0",
            "0",
            "0",
            "railway=tram",
            "crossing=traffic_signals railway=unknown",
            "59",
            "38631"
          ],
          [
            "-122338543",
            "47620878",
            "19",
            "10",
            "2000",
            "0",
            "0",
            "0",
            "0",
            "railway=tram",
            "railway=unknown",
            "60",
            "39164"
          ],
          [
            "-122338544",
            "47620787",
            "19",
            "10",
            "2000",
            "0",
            "0",
            "0",
            "0",
            "railway=tram",
            "crossing=traffic_signals railway=unknown",
            "61",
            "39709"
          ],
          [
            "-122338546",
            "47620594",
            "19",
            "21",
            "2000",
            "0",
            "0",
            "0",
            "0",
            "railway=tram",
            "railway=unknown",
            "62",
            "40906"
          ],
          [
            "-122338552",
            "47619822",
            "21",
            "86",
            "2000",
            "0",
            "0",
            "0",
            "0",
            "railway=tram",
            "crossing=unmarked railway=unknown",
            "69",
            "46255"
          ],
          [
            "-122338553",
            "47619711",
            "21",
            "12",
            "2000",
            "0",
            "0",
            "0",
            "0",
            "railway=tram",
            "railway=unknown",
            "70",
            "46913"
          ],
          [
            "-122338554",
            "47619640",
            "21",
            "8",
            "2000",
            "0",
            "0",
            "0",
            "0",
            "railway=tram",
            "crossing=unmarked railway=unknown",
            "71",
            "47343"
          ],
          [
            "-122338557",
            "47619283",
            "21",
            "40",
            "2000",
            "0",
            "0",
            "0",
            "0",
            "railway=tram",
            "railway=unknown",
            "74",
            "49413"
          ],
          [
            "-122338589",
            "47618635",
            "23",
            "72",
            "2000",
            "0",
            "0",
            "0",
            "0",
            "railway=tram",
            "crossing=traffic_signals railway=unknown",
            "80",
            "53592"
          ],
          [
            "-122338590",
            "47618541",
            "23",
            "10",
            "2000",
            "0",
            "0",
            "0",
            "0",
            "railway=tram",
            "railway=unknown",
            "81",
            "54185"
          ],
          [
            "-122338579",
            "47618448",
            "24",
            "10",
            "2000",
            "0",
            "0",
            "0",
            "0",
            "railway=tram",
            "crossing=traffic_signals railway=unknown",
            "81",
            "54805"
          ],
          [
            "-122338507",
            "47618126",
            "24",
            "36",
            "2000",
            "0",
            "0",
            "0",
            "0",
            "railway=tram",
            "railway=unknown",
            "84",
            "57040"
          ],
          [
            "-122338455",
            "47617897",
            "25",
            "26",
            "2000",
            "0",
            "0",
            "0",
            "0",
            "railway=tram",
            "highway=bus_stop wheelchair=yes railway=tram_stop",
            "86",
            "58578"
          ],
          [
            "-122338437",
            "47617819",
            "25",
            "9",
            "2000",
            "0",
            "0",
            "0",
            "0",
            "railway=tram",
            "crossing=traffic_signals railway=unknown",
            "87",
            "59088"
          ],
          [
            "-122338419",
            "47617743",
            "25",
            "9",
            "2000",
            "0",
            "0",
            "0",
            "0",
            "railway=tram",
            "railway=unknown",
            "88",
            "59589"
          ],
          [
            "-122338405",
            "47617684",
            "25",
            "7",
            "2000",
            "0",
            "0",
            "0",
            "0",
            "railway=tram",
            "crossing=traffic_signals railway=unknown",
            "88",
            "59972"
          ],
          [
            "-122338337",
            "47617353",
            "25",
            "37",
            "2000",
            "0",
            "0",
            "0",
            "0",
            "railway=tram",
            "railway=unknown",
            "91",
            "61919"
          ],
          [
            "-122338235",
            "47616853",
            "25",
            "56",
            "2000",
            "0",
            "0",
            "0",
            "0",
            "railway=tram",
            "highway=traffic_signals traffic_signals:direction=forward traffic_signals=signal",
            "96",
            "64973"
          ],
          [
            "-122338228",
            "47616818",
            "25",
            "4",
            "2000",
            "0",
            "0",
            "0",
            "0",
            "railway=tram",
            "crossing=traffic_signals railway=unknown",
            "96",
            "65180"
          ],
          [
            "-122338220",
            "47616781",
            "26",
            "4",
            "2000",
            "0",
            "0",
            "0",
            "0",
            "railway=tram",
            "railway=unknown",
            "96",
            "65394"
          ],
          [
            "-122338204",
            "47616700",
            "26",
            "9",
            "2000",
            "0",
            "0",
            "0",
            "0",
            "railway=tram",
            "railway=unknown",
            "97",
            "65871"
          ],
          [
            "-122338182",
            "47616595",
            "26",
            "12",
            "2000",
            "0",
            "0",
            "0",
            "0",
            "railway=tram",
            "railway=unknown",
            "98",
            "66545"
          ],
          [
            "-122338125",
            "47616316",
            "28",
            "31",
            "2000",
            "0",
            "0",
            "0",
            "0",
            "railway=tram",
            "railway=unknown",
            "101",
            "68569"
          ],
          [
            "-122338108",
            "47616231",
            "28",
            "10",
            "2000",
            "0",
            "0",
            "0",
            "0",
            "railway=tram",
            "crossing=traffic_signals railway=unknown",
            "101",
            "69224"
          ],
          [
            "-122337949",
            "47615456",
            "33",
            "87",
            "2000",
            "0",
            "0",
            "0",
            "0",
            "railway=tram",
            "crossing=traffic_signals railway=crossing",
            "108",
            "76803"
          ],
          [
            "-122337927",
            "47615344",
            "34",
            "13",
            "2000",
            "0",
            "0",
            "0",
            "0",
            "railway=tram",
            "railway=unknown",
            "109",
            "77758"
          ],
          [
            "-122337919",
            "47615308",
            "34",
            "4",
            "2000",
            "0",
            "0",
            "0",
            "0",
            "railway=tram",
            "crossing=traffic_signals railway=crossing",
            "110",
            "78051"
          ],
          [
            "-122337909",
            "47615260",
            "34",
            "5",
            "2000",
            "0",
            "0",
            "0",
            "0",
            "railway=tram",
            "railway=unknown",
            "110",
            "78432"
          ],
          [
            "-122337902",
            "47615226",
            "34",
            "4",
            "2000",
            "0",
            "0",
            "0",
            "0",
            "railway=tram",
            "crossing=traffic_signals railway=crossing",
            "110",
            "78732"
          ],
          [
            "-122337852",
            "47614995",
            "36",
            "26",
            "2000",
            "0",
            "0",
            "0",
            "0",
            "railway=tram",
            "wheelchair=yes railway=tram_stop",
            "113",
            "80871"
          ],
          [
            "-122337844",
            "47614947",
            "40",
            "5",
            "2000",
            "0",
            "0",
            "0",
            "0",
            "railway=tram",
            "",
            "113",
            "81286"
          ],
          [
            "-122337813",
            "47614778",
            "40",
            "19",
            "2000",
            "0",
            "0",
            "0",
            "0",
            "railway=tram",
            "railway=unknown",
            "1",
            "873"
          ],
          [
            "-122337797",
            "47614687",
            "41",
            "10",
            "2000",
            "0",
            "0",
            "0",
            "0",
            "railway=tram",
            "railway=unknown",
            "2",
            "1457"
          ],
          [
            "-122337681",
            "47614134",
            "52",
            "62",
            "2000",
            "0",
            "0",
            "0",
            "0",
            "railway=tram",
            "railway=unknown",
            "7",
            "8995"
          ],
          [
            "-122337621",
            "47613972",
            "55",
            "19",
            "2000",
            "0",
            "0",
            "0",
            "0",
            "railway=tram",
            "railway=unknown",
            "8",
            "11246"
          ],
          [
            "-122337582",
            "47613898",
            "57",
            "9",
            "2000",
            "0",
            "0",
            "0",
            "0",
            "railway=tram",
            "railway=unknown",
            "9",
            "12439"
          ],
          [
            "-122337527",
            "47613813",
            "60",
            "10",
            "2000",
            "0",
            "0",
            "0",
            "0",
            "railway=tram",
            "railway=unknown",
            "10",
            "13916"
          ],
          [
            "-122337452",
            "47613668",
            "64",
            "17",
            "2000",
            "0",
            "0",
            "0",
            "0",
            "railway=tram",
            "railway=switch",
            "11",
            "16757"
          ],
          [
            "-122337407",
            "47613449",
            "70",
            "25",
            "2000",
            "0",
            "0",
            "0",
            "0",
            "railway=tram",
            "railway=unknown",
            "13",
            "21478"
          ],
          [
            "-122337386",
            "47613346",
            "72",
            "12",
            "2000",
            "0",
            "0",
            "0",
            "0",
            "railway=tram",
            "railway=unknown",
            "14",
            "23697"
          ],
          [
            "-122337370",
            "47613239",
            "72",
            "12",
            "2000",
            "0",
            "0",
            "0",
            "0",
            "railway=tram",
            "highway=crossing railway=unknown surface=asphalt",
            "15",
            "25650"
          ],
          [
            "-122337354",
            "47613161",
            "71",
            "9",
            "2000",
            "0",
            "0",
            "0",
            "0",
            "railway=tram",
            "wheelchair=yes railway=tram_stop",
            "16",
            "26951"
          ],
          [
            "-122337314",
            "47612974",
            "69",
            "21",
            "2000",
            "0",
            "0",
            "0",
            "0",
            "railway=tram",
            "wheelchair=yes railway=tram_stop",
            "18",
            "29403"
          ],
          [
            "-122337298",
            "47612896",
            "69",
            "9",
            "2000",
            "0",
            "0",
            "0",
            "0",
            "railway=tram",
            "",
            "18",
            "30324"
          ]
        ],
        "times": [
          0,
          0.72,
          2.4,
          3.12,
          4.08,
          5.04,
          7.04,
          8.08,
          9.12,
          10.48,
          14.08,
          17.12,
          17.84,
          17.92,
          20.48,
          20.88,
          21.44,
          22.08,
          22.24,
          24.56,
          26.8,
          30.56,
          31.04,
          31.68,
          33.52,
          33.6,
          34.72,
          35.2,
          43.44,
          44,
          44.72,
          48.72,
          49.92,
          50.96,
          51.84,
          54.88,
          57.52,
          60.64,
          61.36,
          62.4,
          70.08,
          70.72,
          71.2,
          71.52,
          72,
          72.64,
          74.56,
          76.32,
          76.64,
          76.96,
          77.44,
          77.6,
          78,
          78.32,
          78.72,
          79.2,
          82.72,
          87.44,
          88.16,
          88.96,
          89.28,
          90.24,
          94.4,
          97.76,
          98.64,
          99.44,
          100.4,
          109.68,
          110.48,
          110.96,
          111.92,
          112.64,
          116.4,
          120.56,
          121.12,
          121.44,
          121.76,
          122.08,
          122.56,
          123.04,
          123.36,
          124.64,
          126.24,
          126.48,
          126.88,
          129.28,
          136.48,
          136.8,
          137.12,
          137.52,
          137.92,
          138.48,
          139.84,
          143.76,
          148.16,
          152,
          152.96,
          153.76,
          155.44,
          158.4,
          158.48,
          158.72,
          159.44,
          160.24,
          162.96,
          165.2,
          167.6,
          170.16,
          170.96,
          171.68,
          173.6,
          174.8,
          176.56,
          178.24,
          178.8,
          185.92,
          186.8,
          188.48,
          190.16,
          192.16,
          192.88,
          193.68,
          194.08,
          200.88,
          201.36,
          203.28,
          203.68,
          205.36,
          205.52,
          208.8,
          209.2,
          215.84,
          216.16,
          216.8,
          217.44,
          217.76,
          218.16,
          218.48,
          218.8,
          219.52,
          221.12,
          222,
          226.88,
          227.6,
          228.96,
          229.84,
          231.6,
          237.04,
          240.24,
          240.96,
          241.76,
          244.4,
          245.44,
          247.28,
          250.72,
          251.36,
          252.16,
          257.04,
          260.96,
          261.76,
          262.56,
          264.24,
          271.12,
          272.08,
          272.72,
          275.92,
          278.64,
          281.68,
          282.48,
          283.28,
          286.16,
          288.24,
          288.96,
          289.68,
          290.24,
          293.2,
          297.68,
          298,
          298.32,
          299.04,
          300,
          302.48,
          303.28,
          310.24,
          311.28,
          311.6,
          312,
          312.32,
          314.4,
          314.8,
          316.32,
          317.12,
          322.08,
          322.96,
          323.6,
          324.32,
          325.12,
          326.48,
          328.48,
          329.44,
          330.4,
          331.12,
          332.8,
          333.52
        ]
      },
      "geometry": {
        "type": "LineString",
        "coordinates": [
          [
            -122.337298,
            47.612896,
            69
          ],
          [
            -122.337314,
            47.612974,
            69.5
          ],
          [
            -122.337354,
            47.613161,
            71.25
          ],
          [
            -122.33737,
            47.613239,
            72
          ],
          [
            -122.337386,
            47.613346,
            72.75
          ],
          [
            -122.337407,
            47.613449,
            70.25
          ],
          [
            -122.337452,
            47.613668,
            64.5
          ],
          [
            -122.337475,
            47.613785,
            61.25
          ],
          [
            -122.337499,
            47.613898,
            58.25
          ],
          [
            -122.33753,
            47.614048,
            54
          ],
          [
            -122.337611,
            47.614445,
            45.75
          ],
          [
            -122.33768,
            47.614781,
            39.75
          ],
          [
            -122.337697,
            47.61486,
            38.25
          ],
          [
            -122.337697,
            47.614863,
            38.25
          ],
          [
            -122.337757,
            47.615145,
            35
          ],
          [
            -122.337767,
            47.615194,
            34.75
          ],
          [
            -122.337781,
            47.615257,
            34.5
          ],
          [
            -122.337795,
            47.615326,
            34
          ],
          [
            -122.337799,
            47.615346,
            34
          ],
          [
            -122.33785,
            47.615606,
            32.5
          ],
          [
            -122.337901,
            47.615857,
            30.75
          ],
          [
            -122.337988,
            47.616276,
            28.25
          ],
          [
            -122.337999,
            47.616331,
            28
          ],
          [
            -122.338014,
            47.616402,
            27.75
          ],
          [
            -122.338055,
            47.616605,
            26.5
          ],
          [
            -122.338057,
            47.616614,
            26.5
          ],
          [
            -122.338082,
            47.616735,
            26.25
          ],
          [
            -122.338094,
            47.616792,
            26
          ],
          [
            -122.338277,
            47.617707,
            25
          ],
          [
            -122.338285,
            47.617767,
            25
          ],
          [
            -122.338297,
            47.617844,
            25
          ],
          [
            -122.338385,
            47.618288,
            24.75
          ],
          [
            -122.338401,
            47.618423,
            24.5
          ],
          [
            -122.338408,
            47.618541,
            24
          ],
          [
            -122.338407,
            47.618637,
            23.75
          ],
          [
            -122.338405,
            47.618979,
            22.5
          ],
          [
            -122.338425,
            47.619274,
            21.75
          ],
          [
            -122.338423,
            47.619628,
            21.5
          ],
          [
            -122.338422,
            47.619709,
            21.25
          ],
          [
            -122.338421,
            47.619824,
            21.25
          ],
          [
            -122.338416,
            47.620686,
            19.25
          ],
          [
            -122.338393,
            47.620756,
            19.25
          ],
          [
            -122.338353,
            47.6208,
            19
          ],
          [
            -122.338313,
            47.620827,
            19
          ],
          [
            -122.338245,
            47.620857,
            19
          ],
          [
            -122.33814,
            47.620873,
            19
          ],
          [
            -122.337818,
            47.620856,
            19.5
          ],
          [
            -122.337523,
            47.620836,
            19.75
          ],
          [
            -122.337468,
            47.620837,
            20
          ],
          [
            -122.337415,
            47.620844,
            20.25
          ],
          [
            -122.337349,
            47.620867,
            20.5
          ],
          [
            -122.337332,
            47.620877,
            20.5
          ],
          [
            -122.337282,
            47.620905,
            20.75
          ],
          [
            -122.337251,
            47.620935,
            20.75
          ],
          [
            -122.33723,
            47.620973,
            20.75
          ],
          [
            -122.337215,
            47.621022,
            20.5
          ],
          [
            -122.337212,
            47.621421,
            19.25
          ],
          [
            -122.337207,
            47.621952,
            18
          ],
          [
            -122.337206,
            47.622033,
            17.75
          ],
          [
            -122.337205,
            47.622124,
            17.75
          ],
          [
            -122.337206,
            47.622158,
            17.75
          ],
          [
            -122.337206,
            47.62227,
            17.5
          ],
          [
            -122.337203,
            47.622737,
            17.5
          ],
          [
            -122.337199,
            47.623119,
            17.5
          ],
          [
            -122.337198,
            47.623214,
            17.5
          ],
          [
            -122.337197,
            47.623307,
            17.5
          ],
          [
            -122.337197,
            47.623419,
            17
          ],
          [
            -122.337185,
            47.624464,
            11.25
          ],
          [
            -122.337168,
            47.624553,
            11
          ],
          [
            -122.337156,
            47.624602,
            11
          ],
          [
            -122.337139,
            47.624711,
            10.5
          ],
          [
            -122.337137,
            47.624789,
            10.5
          ],
          [
            -122.337125,
            47.625208,
            8.75
          ],
          [
            -122.337114,
            47.625672,
            6.25
          ],
          [
            -122.337087,
            47.625736,
            6
          ],
          [
            -122.337061,
            47.625763,
            5.75
          ],
          [
            -122.337031,
            47.625796,
            5.75
          ],
          [
            -122.336995,
            47.625822,
            5.5
          ],
          [
            -122.336928,
            47.625853,
            5.5
          ],
          [
            -122.336858,
            47.625874,
            5.75
          ],
          [
            -122.336807,
            47.625882,
            5.75
          ],
          [
            -122.336595,
            47.625884,
            6
          ],
          [
            -122.336329,
            47.625884,
            7
          ],
          [
            -122.33629,
            47.625883,
            7
          ],
          [
            -122.336221,
            47.625883,
            7.25
          ],
          [
            -122.335827,
            47.625882,
            8.75
          ],
          [
            -122.334633,
            47.625878,
            11.75
          ],
          [
            -122.334585,
            47.625882,
            12
          ],
          [
            -122.334528,
            47.625893,
            12.25
          ],
          [
            -122.334474,
            47.625911,
            12.5
          ],
          [
            -122.334425,
            47.625935,
            12.75
          ],
          [
            -122.33436,
            47.62598,
            12.75
          ],
          [
            -122.334208,
            47.626099,
            12.5
          ],
          [
            -122.333779,
            47.626436,
            12.25
          ],
          [
            -122.333302,
            47.626811,
            12
          ],
          [
            -122.332881,
            47.627141,
            10
          ],
          [
            -122.332778,
            47.627222,
            9.25
          ],
          [
            -122.332691,
            47.62729,
            8.75
          ],
          [
            -122.332505,
            47.627436,
            7.5
          ],
          [
            -122.332182,
            47.62769,
            8.25
          ],
          [
            -122.332178,
            47.627693,
            8.25
          ],
          [
            -122.332156,
            47.62771,
            8.25
          ],
          [
            -122.33208,
            47.62777,
            8.5
          ],
          [
            -122.331994,
            47.62784,
            8.75
          ],
          [
            -122.331694,
            47.628071,
            9.75
          ],
          [
            -122.331485,
            47.628276,
            10.75
          ],
          [
            -122.331774,
            47.628088,
            9.25
          ],
          [
            -122.332049,
            47.62787,
            8.5
          ],
          [
            -122.33214,
            47.627803,
            8.25
          ],
          [
            -122.332216,
            47.627744,
            8
          ],
          [
            -122.33243,
            47.627581,
            7
          ],
          [
            -122.332557,
            47.627481,
            7
          ],
          [
            -122.332752,
            47.627328,
            8.5
          ],
          [
            -122.332931,
            47.627187,
            9.5
          ],
          [
            -122.332989,
            47.627142,
            9.75
          ],
          [
            -122.333765,
            47.626533,
            11.5
          ],
          [
            -122.333856,
            47.626457,
            11.5
          ],
          [
            -122.334013,
            47.626304,
            12
          ],
          [
            -122.334192,
            47.626164,
            12
          ],
          [
            -122.33441,
            47.62599,
            12.25
          ],
          [
            -122.334512,
            47.625941,
            12.25
          ],
          [
            -122.334633,
            47.625915,
            11.75
          ],
          [
            -122.334693,
            47.625911,
            11.25
          ],
          [
            -122.335828,
            47.625915,
            8.5
          ],
          [
            -122.335903,
            47.625915,
            7.25
          ],
          [
            -122.33622,
            47.625916,
            7.25
          ],
          [
            -122.33629,
            47.625916,
            7
          ],
          [
            -122.336565,
            47.625917,
            6
          ],
          [
            -122.336595,
            47.625917,
            6
          ],
          [
            -122.337141,
            47.625919,
            5.5
          ],
          [
            -122.337207,
            47.62592,
            5.5
          ],
          [
            -122.338314,
            47.625923,
            7
          ],
          [
            -122.338369,
            47.625916,
            7
          ],
          [
            -122.338467,
            47.625885,
            7.25
          ],
          [
            -122.33855,
            47.625834,
            7.5
          ],
          [
            -122.33858,
            47.625802,
            7.5
          ],
          [
            -122.338604,
            47.625761,
            7.75
          ],
          [
            -122.338613,
            47.62573,
            8
          ],
          [
            -122.338619,
            47.625694,
            8
          ],
          [
            -122.3386,
            47.625616,
            8.25
          ],
          [
            -122.338548,
            47.625443,
            8.75
          ],
          [
            -122.338534,
            47.625344,
            9
          ],
          [
            -122.338536,
            47.624795,
            10.25
          ],
          [
            -122.338537,
            47.624716,
            10.25
          ],
          [
            -122.338539,
            47.624565,
            10.25
          ],
          [
            -122.33854,
            47.624468,
            10.25
          ],
          [
            -122.338542,
            47.62427,
            10.25
          ],
          [
            -122.338546,
            47.623655,
            13.5
          ],
          [
            -122.338549,
            47.623299,
            15.75
          ],
          [
            -122.33855,
            47.623215,
            15.75
          ],
          [
            -122.338551,
            47.623129,
            16
          ],
          [
            -122.338554,
            47.622828,
            16.5
          ],
          [
            -122.338547,
            47.622712,
            16.5
          ],
          [
            -122.338531,
            47.622507,
            16.75
          ],
          [
            -122.338532,
            47.622121,
            17.25
          ],
          [
            -122.338532,
            47.622049,
            17.5
          ],
          [
            -122.338533,
            47.621961,
            17.5
          ],
          [
            -122.338536,
            47.621412,
            18.25
          ],
          [
            -122.338542,
            47.62097,
            19
          ],
          [
            -122.338543,
            47.620878,
            19
          ],
          [
            -122.338544,
            47.620787,
            19.25
          ],
          [
            -122.338546,
            47.620594,
            19.75
          ],
          [
            -122.338552,
            47.619822,
            21.5
          ],
          [
            -122.338553,
            47.619711,
            21.5
          ],
          [
            -122.338554,
            47.61964,
            21.5
          ],
          [
            -122.338557,
            47.619283,
            21.5
          ],
          [
            -122.338584,
            47.618977,
            22.25
          ],
          [
            -122.338589,
            47.618635,
            23.5
          ],
          [
            -122.33859,
            47.618541,
            23.75
          ],
          [
            -122.338579,
            47.618448,
            24.25
          ],
          [
            -122.338507,
            47.618126,
            24.75
          ],
          [
            -122.338455,
            47.617897,
            25
          ],
          [
            -122.338437,
            47.617819,
            25
          ],
          [
            -122.338419,
            47.617743,
            25
          ],
          [
            -122.338405,
            47.617684,
            25
          ],
          [
            -122.338337,
            47.617353,
            25
          ],
          [
            -122.338235,
            47.616853,
            25.75
          ],
          [
            -122.338228,
            47.616818,
            25.75
          ],
          [
            -122.33822,
            47.616781,
            26
          ],
          [
            -122.338204,
            47.6167,
            26
          ],
          [
            -122.338182,
            47.616595,
            26.5
          ],
          [
            -122.338125,
            47.616316,
            28
          ],
          [
            -122.338108,
            47.616231,
            28.5
          ],
          [
            -122.337949,
            47.615456,
            33.5
          ],
          [
            -122.337927,
            47.615344,
            34
          ],
          [
            -122.337919,
            47.615308,
            34.25
          ],
          [
            -122.337909,
            47.61526,
            34.75
          ],
          [
            -122.337902,
            47.615226,
            34.75
          ],
          [
            -122.337852,
            47.614995,
            36.25
          ],
          [
            -122.337844,
            47.614947,
            40.25
          ],
          [
            -122.337813,
            47.614778,
            40.25
          ],
          [
            -122.337797,
            47.614687,
            41.75
          ],
          [
            -122.337681,
            47.614134,
            52
          ],
          [
            -122.337652,
            47.61404,
            54.25
          ],
          [
            -122.337621,
            47.613972,
            55.75
          ],
          [
            -122.337582,
            47.613898,
            57.75
          ],
          [
            -122.337527,
            47.613813,
            60.5
          ],
          [
            -122.337452,
            47.613668,
            64.5
          ],
          [
            -122.337407,
            47.613449,
            70.25
          ],
          [
            -122.337386,
            47.613346,
            72.75
          ],
          [
            -122.33737,
            47.613239,
            72
          ],
          [
            -122.337354,
            47.613161,
            71.25
          ],
          [
            -122.337314,
            47.612974,
            69.5
          ],
          [
            -122.337298,
            47.612896,
            69
          ]
        ]
      }
    }
  ]
}