{
  "type": "FeatureCollection",
  "features": [
    {
      "type": "Feature",
      "properties": {
        "creator": "BRouter-1.7.0",
        "name": "[LA Metro] B Line",
        "track-length": "48456",
        "filtered ascend": "0",
        "plain-ascend": "0",
        "total-time": "3878",
        "total-energy": "2131343",
        "cost": "96912",
        "messages": [
          [
            "Longitude",
            "Latitude",
            "Elevation",
            "Distance",
            "CostPerKm",
            "ElevCost",
            "TurnCost",
            "NodeCost",
            "InitialCost",
            "WayTags",
            "NodeTags",
            "Time",
            "Energy"
          ],
          [
            "-118234942",
            "34056332",
            "-8192",
            "166",
            "2000",
            "0",
            "0",
            "0",
            "0",
            "railway=subway",
            "railway=unknown",
            "13",
            "7301"
          ],
          [
            "-118235515",
            "34056881",
            "-8192",
            "81",
            "2000",
            "0",
            "0",
            "0",
            "0",
            "railway=subway",
            "railway=switch",
            "19",
            "10864"
          ],
          [
            "-118235784",
            "34057139",
            "-8192",
            "15",
            "2000",
            "0",
            "0",
            "0",
            "0",
            "railway=subway",
            "",
            "20",
            "11524"
          ],
          [
            "-118235784",
            "34057139",
            "-8192",
            "23",
            "2000",
            "0",
            "0",
            "0",
            "0",
            "railway=subway",
            "railway=switch",
            "1",
            "1011"
          ],
          [
            "-118246596",
            "34054449",
            "-8192",
            "1206",
            "2000",
            "0",
            "0",
            "0",
            "0",
            "railway=subway",
            "railway=unknown",
            "98",
            "54057"
          ],
          [
            "-118251519",
            "34049177",
            "-8192",
            "741",
            "2000",
            "0",
            "0",
            "0",
            "0",
            "railway=subway",
            "railway=unknown",
            "157",
            "86650"
          ],
          [
            "-118259331",
            "34049100",
            "-8192",
            "879",
            "2000",
            "0",
            "0",
            "0",
            "0",
            "railway=subway",
            "railway=unknown",
            "227",
            "125313"
          ],
          [
            "-118274448",
            "34056052",
            "-8192",
            "1602",
            "2000",
            "0",
            "0",
            "0",
            "0",
            "railway=subway",
            "railway=switch",
            "356",
            "195778"
          ],
          [
            "-118274662",
            "34056208",
            "-8192",
            "26",
            "2000",
            "0",
            "0",
            "0",
            "0",
            "railway=subway",
            "railway=switch",
            "358",
            "196921"
          ],
          [
            "-118275995",
            "34057185",
            "-8192",
            "164",
            "2000",
            "0",
            "0",
            "0",
            "0",
            "railway=subway",
            "railway=unknown",
            "371",
            "204135"
          ],
          [
            "-118276270",
            "34057386",
            "-8192",
            "34",
            "2000",
            "0",
            "0",
            "0",
            "0",
            "railway=subway",
            "railway=switch",
            "374",
            "205631"
          ],
          [
            "-118276652",
            "34057666",
            "-8192",
            "47",
            "2000",
            "0",
            "0",
            "0",
            "0",
            "railway=subway",
            "railway=switch",
            "377",
            "207698"
          ],
          [
            "-118291144",
            "34063124",
            "-8192",
            "1516",
            "2000",
            "0",
            "0",
            "0",
            "0",
            "railway=subway",
            "railway=unknown",
            "499",
            "274379"
          ],
          [
            "-118291306",
            "34063214",
            "-8192",
            "18",
            "2000",
            "0",
            "0",
            "0",
            "0",
            "railway=subway",
            "railway=switch",
            "500",
            "275171"
          ],
          [
            "-118291676",
            "34077872",
            "-8192",
            "1682",
            "2000",
            "0",
            "0",
            "0",
            "0",
            "railway=subway",
            "railway=unknown",
            "635",
            "349154"
          ],
          [
            "-118291703",
            "34088692",
            "-8192",
            "1200",
            "2000",
            "0",
            "0",
            "0",
            "0",
            "railway=subway",
            "railway=switch",
            "731",
            "401937"
          ],
          [
            "-118291704",
            "34088983",
            "-8192",
            "32",
            "2000",
            "0",
            "0",
            "0",
            "0",
            "railway=subway",
            "railway=switch",
            "733",
            "403344"
          ],
          [
            "-118291703",
            "34090696",
            "-8192",
            "190",
            "2000",
            "0",
            "0",
            "0",
            "0",
            "railway=subway",
            "railway=unknown",
            "748",
            "411701"
          ],
          [
            "-118291732",
            "34099742",
            "-8192",
            "1003",
            "2000",
            "0",
            "0",
            "0",
            "0",
            "railway=subway",
            "railway=unknown",
            "829",
            "455819"
          ],
          [
            "-118309127",
            "34101782",
            "-8192",
            "1783",
            "2000",
            "0",
            "0",
            "0",
            "0",
            "railway=subway",
            "wheelchair=yes railway=unknown",
            "971",
            "534244"
          ],
          [
            "-118323023",
            "34101703",
            "-8192",
            "936",
            "2000",
            "0",
            "0",
            "0",
            "0",
            "railway=subway",
            "",
            "1046",
            "575414"
          ],
          [
            "-118323023",
            "34101703",
            "-8192",
            "345",
            "2000",
            "0",
            "0",
            "0",
            "0",
            "railway=subway",
            "railway=switch",
            "27",
            "15174"
          ],
          [
            "-118323469",
            "34101700",
            "-8192",
            "41",
            "2000",
            "0",
            "0",
            "0",
            "0",
            "railway=subway",
            "railway=switch",
            "30",
            "16978"
          ],
          [
            "-118325674",
            "34101688",
            "-8192",
            "203",
            "2000",
            "0",
            "0",
            "0",
            "0",
            "railway=subway",
            "railway=unknown",
            "47",
            "25907"
          ],
          [
            "-118340697",
            "34101581",
            "-8192",
            "1386",
            "2000",
            "0",
            "0",
            "0",
            "0",
            "railway=subway",
            "wheelchair=yes railway=unknown",
            "158",
            "86870"
          ],
          [
            "-118362382",
            "34138534",
            "-8192",
            "5047",
            "2000",
            "0",
            "0",
            "0",
            "0",
            "railway=subway",
            "railway=switch",
            "561",
            "308864"
          ],
          [
            "-118362222",
            "34138818",
            "-8192",
            "35",
            "2000",
            "0",
            "0",
            "0",
            "0",
            "railway=subway",
            "railway=switch",
            "564",
            "310403"
          ],
          [
            "-118361245",
            "34140526",
            "-8192",
            "210",
            "2000",
            "0",
            "0",
            "0",
            "0",
            "railway=subway",
            "railway=unknown",
            "581",
            "319640"
          ],
          [
            "-118376086",
            "34167442",
            "-8192",
            "3320",
            "2000",
            "0",
            "0",
            "0",
            "0",
            "railway=subway",
            "railway=switch",
            "846",
            "465671"
          ],
          [
            "-118376321",
            "34167824",
            "-8192",
            "20",
            "2000",
            "0",
            "0",
            "0",
            "0",
            "railway=subway",
            "",
            "848",
            "466551"
          ],
          [
            "-118376321",
            "34167824",
            "-8192",
            "28",
            "2000",
            "0",
            "0",
            "0",
            "0",
            "railway=subway",
            "railway=switch",
            "2",
            "1231"
          ],
          [
            "-118377318",
            "34169468",
            "-8192",
            "204",
            "2000",
            "0",
            "0",
            "0",
            "0",
            "railway=subway",
            "railway=unknown",
            "18",
            "10204"
          ],
          [
            "-118377515",
            "34169799",
            "-8192",
            "41",
            "2000",
            "0",
            "0",
            "0",
            "0",
            "railway=subway",
            "railway=switch",
            "21",
            "12007"
          ],
          [
            "-118378120",
            "34170815",
            "-8192",
            "1",
            "2000",
            "0",
            "0",
            "0",
            "0",
            "railway=subway",
            "",
            "21",
            "12051"
          ],
          [
            "-118377515",
            "34169799",
            "-8192",
            "1",
            "2000",
            "0",
            "0",
            "0",
            "0",
            "reversedirection=yes railway=subway",
            "railway=switch",
            "0",
            "43"
          ],
          [
            "-118377318",
            "34169468",
            "-8192",
            "41",
            "2000",
            "0",
            "0",
            "0",
            "0",
            "reversedirection=yes railway=subway",
            "railway=unknown",
            "3",
            "1847"
          ],
          [
            "-118376321",
            "34167824",
            "-8192",
            "204",
            "2000",
            "0",
            "0",
            "0",
            "0",
            "reversedirection=yes railway=subway",
            "railway=switch",
            "19",
            "10820"
          ],
          [
            "-118376225",
            "34167619",
            "-8192",
            "24",
            "2000",
            "0",
            "0",
            "0",
            "0",
            "railway=subway",
            "railway=unknown",
            "21",
            "11876"
          ],
          [
            "-118376133",
            "34167422",
            "-8192",
            "23",
            "2000",
            "0",
            "0",
            "0",
            "0",
            "railway=subway",
            "railway=switch",
            "23",
            "12887"
          ],
          [
            "-118362088",
            "34139242",
            "-8192",
            "3473",
            "2000",
            "0",
            "0",
            "0",
            "0",
            "railway=subway",
            "railway=unknown",
            "301",
            "165648"
          ],
          [
            "-118362311",
            "34138852",
            "-8192",
            "48",
            "2000",
            "0",
            "0",
            "0",
            "0",
            "railway=subway",
            "railway=switch",
            "305",
            "167759"
          ],
          [
            "-118362469",
            "34138569",
            "-8192",
            "35",
            "2000",
            "0",
            "0",
            "0",
            "0",
            "railway=subway",
            "railway=switch",
            "307",
            "169299"
          ],
          [
            "-118364350",
            "34135218",
            "-8192",
            "108",
            "2000",
            "0",
            "0",
            "0",
            "0",
            "railway=subway",
            "",
            "316",
            "174049"
          ],
          [
            "-118338949",
            "34101520",
            "-8192",
            "5117",
            "2000",
            "0",
            "0",
            "0",
            "0",
            "railway=subway",
            "wheelchair=yes railway=unknown",
            "409",
            "225072"
          ],
          [
            "-118323920",
            "34101628",
            "-8192",
            "1386",
            "2000",
            "0",
            "0",
            "0",
            "0",
            "railway=subway",
            "railway=unknown",
            "520",
            "286036"
          ],
          [
            "-118323468",
            "34101631",
            "-8192",
            "42",
            "2000",
            "0",
            "0",
            "0",
            "0",
            "railway=subway",
            "railway=switch",
            "523",
            "287883"
          ],
          [
            "-118323023",
            "34101633",
            "-8192",
            "41",
            "2000",
            "0",
            "0",
            "0",
            "0",
            "railway=subway",
            "railway=switch",
            "526",
            "289686"
          ],
          [
            "-118307363",
            "34101719",
            "-8192",
            "1444",
            "2000",
            "0",
            "0",
            "0",
            "0",
            "railway=subway",
            "wheelchair=yes railway=unknown",
            "642",
            "353201"
          ],
          [
            "-118291786",
            "34098279",
            "-8192",
            "1769",
            "2000",
            "0",
            "0",
            "0",
            "0",
            "railway=subway",
            "railway=unknown",
            "783",
            "431011"
          ],
          [
            "-118291787",
            "34089236",
            "-8192",
            "1003",
            "2000",
            "0",
            "0",
            "0",
            "0",
            "railway=subway",
            "railway=unknown",
            "864",
            "475128"
          ],
          [
            "-118291787",
            "34088987",
            "-8192",
            "28",
            "2000",
            "0",
            "0",
            "0",
            "0",
            "railway=subway",
            "railway=switch",
            "866",
            "476360"
          ],
          [
            "-118291788",
            "34088692",
            "-8192",
            "33",
            "2000",
            "0",
            "0",
            "0",
            "0",
            "railway=subway",
            "railway=switch",
            "869",
            "477811"
          ],
          [
            "-118291804",
            "34076433",
            "-8192",
            "1360",
            "2000",
            "0",
            "0",
            "0",
            "0",
            "railway=subway",
            "railway=unknown",
            "977",
            "537631"
          ],
          [
            "-118291312",
            "34063208",
            "-8192",
            "1526",
            "2000",
            "0",
            "0",
            "0",
            "0",
            "railway=subway",
            "railway=switch",
            "1099",
            "604753"
          ],
          [
            "-118289930",
            "34062417",
            "-8192",
            "155",
            "2000",
            "0",
            "0",
            "0",
            "0",
            "railway=subway",
            "railway=unknown",
            "1112",
            "611571"
          ],
          [
            "-118277592",
            "34058218",
            "-8192",
            "1227",
            "2000",
            "0",
            "0",
            "0",
            "0",
            "railway=subway",
            "",
            "1210",
            "665541"
          ],
          [
            "-118276733",
            "34057589",
            "-8192",
            "149",
            "2000",
            "0",
            "0",
            "0",
            "0",
            "railway=subway",
            "railway=switch",
            "11",
            "6553"
          ],
          [
            "-118276345",
            "34057305",
            "-8192",
            "48",
            "2000",
            "0",
            "0",
            "0",
            "0",
            "railway=subway",
            "railway=switch",
            "15",
            "8665"
          ],
          [
            "-118274965",
            "34056294",
            "-8192",
            "170",
            "2000",
            "0",
            "0",
            "0",
            "0",
            "railway=subway",
            "railway=unknown",
            "29",
            "16142"
          ],
          [
            "-118274742",
            "34056130",
            "-8192",
            "27",
            "2000",
            "0",
            "0",
            "0",
            "0",
            "railway=subway",
            "railway=switch",
            "31",
            "17330"
          ],
          [
            "-118274531",
            "34055976",
            "-8192",
            "26",
            "2000",
            "0",
            "0",
            "0",
            "0",
            "railway=subway",
            "railway=switch",
            "33",
            "18473"
          ],
          [
            "-118265994",
            "34051508",
            "-8192",
            "357",
            "2000",
            "0",
            "0",
            "0",
            "0",
            "railway=subway",
            "",
            "62",
            "34176"
          ],
          [
            "-118258201",
            "34048234",
            "-8192",
            "1388",
            "2000",
            "0",
            "0",
            "0",
            "0",
            "railway=subway",
            "railway=unknown",
            "111",
            "61051"
          ],
          [
            "-118256974",
            "34047446",
            "-8192",
            "131",
            "2000",
            "0",
            "0",
            "0",
            "0",
            "railway=subway",
            "",
            "121",
            "66813"
          ],
          [
            "-118250498",
            "34050082",
            "-8192",
            "773",
            "2000",
            "0",
            "0",
            "0",
            "0",
            "railway=subway",
            "railway=unknown",
            "61",
            "34000"
          ],
          [
            "-118245586",
            "34055343",
            "-8192",
            "63",
            "2000",
            "0",
            "0",
            "0",
            "0",
            "railway=subway",
            "",
            "66",
            "36771"
          ],
          [
            "-118245586",
            "34055343",
            "-8192",
            "676",
            "2000",
            "0",
            "0",
            "0",
            "0",
            "railway=subway",
            "railway=unknown",
            "54",
            "29734"
          ],
          [
            "-118239168",
            "34058189",
            "-8192",
            "589",
            "2000",
            "0",
            "0",
            "0",
            "0",
            "railway=subway",
            "",
            "101",
            "55641"
          ],
          [
            "-118235915",
            "34057081",
            "-8192",
            "456",
            "2000",
            "0",
            "0",
            "0",
            "0",
            "railway=subway",
            "railway=switch",
            "36",
            "20057"
          ],
          [
            "-118235708",
            "34056978",
            "-8192",
            "22",
            "2000",
            "0",
            "0",
            "0",
            "0",
            "railway=subway",
            "railway=unknown",
            "38",
            "21024"
          ],
          [
            "-118235515",
            "34056881",
            "-8192",
            "21",
            "2000",
            "0",
            "0",
            "0",
            "0",
            "railway=subway",
            "railway=switch",
            "39",
            "21948"
          ],
          [
            "-118234942",
            "34056332",
            "-8192",
            "81",
            "2000",
            "0",
            "0",
            "0",
            "0",
            "reversedirection=yes railway=subway",
            "railway=unknown",
            "46",
            "25511"
          ],
          [
            "-118233330",
            "34054797",
            "-8192",
            "166",
            "2000",
            "0",
            "0",
            "0",
            "0",
            "reversedirection=yes railway=subway",
            "",
            "59",
            "32812"
          ]
        ],
        "times": [
          0,
          13.28,
          19.76,
          20.96,
          22.8,
          27.52,
          30.24,
          33.92,
          35.44,
          36.4,
          39.12,
          41.76,
          44.24,
          48.08,
          64.4,
          68.56,
          72.72,
          76.88,
          79.36,
          88.24,
          92.48,
          94.8,
          97.04,
          101.6,
          119.28,
          178.56,
          189.76,
          192.64,
          195.52,
          198.4,
          201.28,
          204.16,
          207.04,
          209.92,
          212.8,
          215.68,
          218.56,
          221.44,
          224.32,
          227.2,
          228.64,
          248.88,
          252.16,
          254.64,
          257.12,
          269.12,
          277.52,
          285.92,
          294.24,
          302.56,
          351.76,
          353.6,
          357.28,
          360.96,
          377.04,
          379.12,
          392.24,
          394.96,
          398.72,
          407.12,
          426.24,
          430.32,
          434.4,
          461.52,
          464.88,
          466,
          468,
          470.16,
          493.28,
          496.48,
          498.48,
          502.64,
          505.36,
          520,
          521.44,
          524.32,
          527.2,
          530.08,
          532.96,
          535.84,
          538.72,
          541.6,
          544.48,
          547.36,
          550.24,
          553.12,
          563.12,
          564.4,
          567.28,
          570.16,
          573.04,
          656,
          752,
          754.56,
          769.76,
          834.88,
          837.04,
          850,
          858.24,
          860.4,
          861.52,
          862.56,
          864.08,
          865.76,
          866.96,
          868.08,
          869.2,
          870.32,
          871.36,
          873.52,
          992.64,
          1067.52,
          1095.12,
          1098.4,
          1114.64,
          1225.52,
          1251.76,
          1257.44,
          1261.84,
          1266.24,
          1270.64,
          1275.04,
          1279.44,
          1283.84,
          1288.24,
          1292.64,
          1574.4,
          1579.92,
          1585.44,
          1590.96,
          1596.48,
          1629.28,
          1632.08,
          1648.88,
          1650.88,
          1653.04,
          1654.88,
          1656.24,
          1658.16,
          1660.96,
          1663.36,
          1665.92,
          1680.16,
          1686.24,
          1707.44,
          1763.2,
          1897.44,
          1914.48,
          1916.08,
          1918.32,
          1934.64,
          1937.92,
          1938,
          1938.08,
          1941.36,
          1957.68,
          1959.6,
          1961.44,
          1978.56,
          2112.56,
          2147.6,
          2168.24,
          2191.84,
          2193.84,
          2196.08,
          2198.56,
          2210.56,
          2212.88,
          2214,
          2218.56,
          2220.4,
          2222.24,
          2239.28,
          2243.12,
          2245.92,
          2254.56,
          2278.72,
          2284.32,
          2290,
          2295.68,
          2301.36,
          2583.12,
          2587.6,
          2592.08,
          2596.56,
          2601.04,
          2605.52,
          2610,
          2614.48,
          2618.96,
          2624.72,
          2651.04,
          2663.92,
          2683.84,
          2774.8,
          2778.16,
          2781.44,
          2883.92,
          2896.96,
          3001.44,
          3003.12,
          3004.96,
          3006.72,
          3008.32,
          3010.24,
          3011.6,
          3013.12,
          3014.16,
          3015.2,
          3017.28,
          3025.44,
          3038.48,
          3041.84,
          3105.76,
          3118.72,
          3120.96,
          3123.6,
          3232.4,
          3302.32,
          3305.2,
          3308.08,
          3310.96,
          3312.4,
          3321.36,
          3322.8,
          3325.68,
          3328.56,
          3331.44,
          3334.32,
          3337.2,
          3340.08,
          3342.72,
          3344.4,
          3348.72,
          3351.6,
          3354.48,
          3366.88,
          3370.48,
          3372.64,
          3374.96,
          3378.08,
          3381.04,
          3384.08,
          3402.96,
          3406.24,
          3408.64,
          3410.32,
          3411.68,
          3414.08,
          3441.36,
          3445.44,
          3449.52,
          3465.04,
          3468.48,
          3476.96,
          3480.8,
          3494.4,
          3496.56,
          3498.64,
          3515.36,
          3519.04,
          3522.72,
          3524.56,
          3527.2,
          3573.36,
          3581.68,
          3590.08,
          3598.56,
          3607.04,
          3618.8,
          3621.28,
          3623.76,
          3638.24,
          3648.24,
          3648.72,
          3649.68,
          3652.56,
          3655.44,
          3658.32,
          3661.2,
          3664.08,
          3666.96,
          3669.52,
          3670.16,
          3672.88,
          3675.76,
          3678.56,
          3681.6,
          3684.48,
          3687.36,
          3710.56,
          3715.6,
          3769.68,
          3776.08,
          3780.24,
          3784.4,
          3788.56,
          3792.72,
          3796.88,
          3801.28,
          3805.12,
          3809.28,
          3813.44,
          3816.8,
          3825.68,
          3829.68,
          3832.64,
          3835.44,
          3838.72,
          3840.4,
          3841.92,
          3844.08,
          3846.64,
          3849.36,
          3853.28,
          3855.04,
          3856.72,
          3863.2,
          3876.48
        ]
      },
      "geometry": {
        "type": "LineString",
        "coordinates": [
          [
            -118.233762,
            34.055207
          ],
          [
            -118.234942,
            34.056332
          ],
          [
            -118.235515,
            34.056881
          ],
          [
            -118.235619,
            34.05698
          ],
          [
            -118.235784,
            34.057139
          ],
          [
            -118.236199,
            34.057538
          ],
          [
            -118.236467,
            34.057746
          ],
          [
            -118.236873,
            34.057988
          ],
          [
            -118.237032,
            34.058095
          ],
          [
            -118.23715,
            34.058141
          ],
          [
            -118.237502,
            34.058239
          ],
          [
            -118.237848,
            34.058316
          ],
          [
            -118.238177,
            34.058345
          ],
          [
            -118.238694,
            34.058334
          ],
          [
            -118.240877,
            34.058069
          ],
          [
            -118.241427,
            34.057983
          ],
          [
            -118.241967,
            34.057858
          ],
          [
            -118.242491,
            34.057696
          ],
          [
            -118.242796,
            34.05757
          ],
          [
            -118.243813,
            34.05704
          ],
          [
            -118.24427,
            34.056757
          ],
          [
            -118.244508,
            34.056585
          ],
          [
            -118.244729,
            34.056415
          ],
          [
            -118.24512,
            34.056015
          ],
          [
            -118.246596,
            34.054449
          ],
          [
            -118.251519,
            34.049177
          ],
          [
            -118.252448,
            34.048182
          ],
          [
            -118.252703,
            34.047936
          ],
          [
            -118.252991,
            34.047717
          ],
          [
            -118.253308,
            34.047527
          ],
          [
            -118.253651,
            34.047369
          ],
          [
            -118.254013,
            34.047247
          ],
          [
            -118.25439,
            34.04716
          ],
          [
            -118.254777,
            34.047112
          ],
          [
            -118.255169,
            34.047101
          ],
          [
            -118.255559,
            34.047129
          ],
          [
            -118.255942,
            34.047195
          ],
          [
            -118.256313,
            34.047298
          ],
          [
            -118.256667,
            34.047437
          ],
          [
            -118.256999,
            34.047609
          ],
          [
            -118.257155,
            34.047707
          ],
          [
            -118.259331,
            34.0491
          ],
          [
            -118.25968,
            34.049332
          ],
          [
            -118.259962,
            34.049488
          ],
          [
            -118.260266,
            34.04961
          ],
          [
            -118.261793,
            34.050067
          ],
          [
            -118.262854,
            34.050417
          ],
          [
            -118.263902,
            34.050792
          ],
          [
            -118.264924,
            34.051189
          ],
          [
            -118.265929,
            34.051611
          ],
          [
            -118.271785,
            34.054257
          ],
          [
            -118.272004,
            34.054361
          ],
          [
            -118.272423,
            34.054592
          ],
          [
            -118.272814,
            34.054854
          ],
          [
            -118.274448,
            34.056052
          ],
          [
            -118.274662,
            34.056208
          ],
          [
            -118.275995,
            34.057185
          ],
          [
            -118.27627,
            34.057386
          ],
          [
            -118.276652,
            34.057666
          ],
          [
            -118.277506,
            34.058292
          ],
          [
            -118.279527,
            34.05964
          ],
          [
            -118.279972,
            34.059912
          ],
          [
            -118.280444,
            34.060151
          ],
          [
            -118.283685,
            34.061582
          ],
          [
            -118.2841,
            34.06174
          ],
          [
            -118.284244,
            34.061777
          ],
          [
            -118.284511,
            34.061831
          ],
          [
            -118.284806,
            34.061858
          ],
          [
            -118.287939,
            34.06187
          ],
          [
            -118.288368,
            34.061883
          ],
          [
            -118.288639,
            34.061916
          ],
          [
            -118.289165,
            34.062075
          ],
          [
            -118.289494,
            34.062216
          ],
          [
            -118.291144,
            34.063124
          ],
          [
            -118.291306,
            34.063214
          ],
          [
            -118.291605,
            34.063423
          ],
          [
            -118.291874,
            34.063659
          ],
          [
            -118.292106,
            34.06392
          ],
          [
            -118.2923,
            34.064202
          ],
          [
            -118.292452,
            34.064501
          ],
          [
            -118.29256,
            34.064812
          ],
          [
            -118.292624,
            34.065133
          ],
          [
            -118.292641,
            34.065457
          ],
          [
            -118.292611,
            34.06578
          ],
          [
            -118.292535,
            34.066099
          ],
          [
            -118.292415,
            34.066407
          ],
          [
            -118.29187,
            34.067437
          ],
          [
            -118.291808,
            34.067571
          ],
          [
            -118.291697,
            34.067882
          ],
          [
            -118.291632,
            34.068202
          ],
          [
            -118.291613,
            34.068526
          ],
          [
            -118.291676,
            34.077872
          ],
          [
            -118.291703,
            34.088692
          ],
          [
            -118.291704,
            34.088983
          ],
          [
            -118.291703,
            34.090696
          ],
          [
            -118.291702,
            34.098035
          ],
          [
            -118.291715,
            34.098279
          ],
          [
            -118.291732,
            34.099742
          ],
          [
            -118.291726,
            34.10067
          ],
          [
            -118.291753,
            34.100913
          ],
          [
            -118.291791,
            34.101033
          ],
          [
            -118.291841,
            34.101146
          ],
          [
            -118.291937,
            34.101293
          ],
          [
            -118.292068,
            34.101443
          ],
          [
            -118.292183,
            34.101541
          ],
          [
            -118.292299,
            34.101616
          ],
          [
            -118.292422,
            34.101685
          ],
          [
            -118.292555,
            34.101741
          ],
          [
            -118.292691,
            34.101784
          ],
          [
            -118.29298,
            34.101834
          ],
          [
            -118.309127,
            34.101782
          ],
          [
            -118.319279,
            34.101724
          ],
          [
            -118.323023,
            34.101703
          ],
          [
            -118.323469,
            34.1017
          ],
          [
            -118.325674,
            34.101688
          ],
          [
            -118.340697,
            34.101581
          ],
          [
            -118.344256,
            34.101585
          ],
          [
            -118.345029,
            34.10162
          ],
          [
            -118.345624,
            34.101675
          ],
          [
            -118.346202,
            34.101799
          ],
          [
            -118.346754,
            34.101991
          ],
          [
            -118.347266,
            34.102246
          ],
          [
            -118.347729,
            34.102559
          ],
          [
            -118.348133,
            34.102924
          ],
          [
            -118.348469,
            34.103333
          ],
          [
            -118.348732,
            34.103778
          ],
          [
            -118.364333,
            34.132756
          ],
          [
            -118.364531,
            34.133358
          ],
          [
            -118.364588,
            34.133979
          ],
          [
            -118.364501,
            34.134598
          ],
          [
            -118.364273,
            34.135193
          ],
          [
            -118.362382,
            34.138534
          ],
          [
            -118.362222,
            34.138818
          ],
          [
            -118.361245,
            34.140526
          ],
          [
            -118.36113,
            34.140732
          ],
          [
            -118.361017,
            34.140957
          ],
          [
            -118.360937,
            34.141156
          ],
          [
            -118.360901,
            34.141306
          ],
          [
            -118.360882,
            34.141521
          ],
          [
            -118.360889,
            34.141835
          ],
          [
            -118.36096,
            34.142095
          ],
          [
            -118.361075,
            34.142367
          ],
          [
            -118.361851,
            34.143838
          ],
          [
            -118.362208,
            34.144456
          ],
          [
            -118.363475,
            34.146596
          ],
          [
            -118.366882,
            34.152206
          ],
          [
            -118.375032,
            34.165729
          ],
          [
            -118.376086,
            34.167442
          ],
          [
            -118.376185,
            34.167601
          ],
          [
            -118.376321,
            34.167824
          ],
          [
            -118.377318,
            34.169468
          ],
          [
            -118.377515,
            34.169799
          ],
          [
            -118.377518,
            34.169802
          ],
          [
            -118.377515,
            34.169799
          ],
          [
            -118.377318,
            34.169468
          ],
          [
            -118.376321,
            34.167824
          ],
          [
            -118.376225,
            34.167619
          ],
          [
            -118.376133,
            34.167422
          ],
          [
            -118.375068,
            34.165712
          ],
          [
            -118.366942,
            34.152204
          ],
          [
            -118.364799,
            34.148685
          ],
          [
            -118.363543,
            34.146608
          ],
          [
            -118.362113,
            34.144224
          ],
          [
            -118.361998,
            34.144024
          ],
          [
            -118.361908,
            34.143781
          ],
          [
            -118.361797,
            34.143521
          ],
          [
            -118.361149,
            34.142277
          ],
          [
            -118.361057,
            34.142029
          ],
          [
            -118.361026,
            34.141903
          ],
          [
            -118.361024,
            34.141385
          ],
          [
            -118.361053,
            34.141179
          ],
          [
            -118.361126,
            34.140984
          ],
          [
            -118.362088,
            34.139242
          ],
          [
            -118.362311,
            34.138852
          ],
          [
            -118.362469,
            34.138569
          ],
          [
            -118.362966,
            34.137684
          ],
          [
            -118.36435,
            34.135218
          ],
          [
            -118.364582,
            34.134613
          ],
          [
            -118.364671,
            34.133981
          ],
          [
            -118.364613,
            34.133346
          ],
          [
            -118.364411,
            34.132733
          ],
          [
            -118.348807,
            34.103749
          ],
          [
            -118.348541,
            34.103298
          ],
          [
            -118.348198,
            34.102881
          ],
          [
            -118.347786,
            34.102509
          ],
          [
            -118.347314,
            34.10219
          ],
          [
            -118.346791,
            34.101929
          ],
          [
            -118.346229,
            34.101734
          ],
          [
            -118.345639,
            34.101607
          ],
          [
            -118.345036,
            34.101552
          ],
          [
            -118.344258,
            34.101516
          ],
          [
            -118.340696,
            34.101513
          ],
          [
            -118.338949,
            34.10152
          ],
          [
            -118.336249,
            34.101548
          ],
          [
            -118.32392,
            34.101628
          ],
          [
            -118.323468,
            34.101631
          ],
          [
            -118.323023,
            34.101633
          ],
          [
            -118.309132,
            34.10171
          ],
          [
            -118.307363,
            34.101719
          ],
          [
            -118.293202,
            34.101762
          ],
          [
            -118.29298,
            34.101746
          ],
          [
            -118.292735,
            34.101699
          ],
          [
            -118.292514,
            34.101626
          ],
          [
            -118.292329,
            34.101528
          ],
          [
            -118.292124,
            34.10139
          ],
          [
            -118.292009,
            34.101269
          ],
          [
            -118.291918,
            34.101119
          ],
          [
            -118.291872,
            34.101011
          ],
          [
            -118.291834,
            34.1009
          ],
          [
            -118.291808,
            34.100667
          ],
          [
            -118.291809,
            34.099744
          ],
          [
            -118.291786,
            34.098279
          ],
          [
            -118.291802,
            34.0979
          ],
          [
            -118.291787,
            34.090699
          ],
          [
            -118.291787,
            34.089236
          ],
          [
            -118.291787,
            34.088987
          ],
          [
            -118.291788,
            34.088692
          ],
          [
            -118.291804,
            34.076433
          ],
          [
            -118.291737,
            34.06855
          ],
          [
            -118.291756,
            34.068226
          ],
          [
            -118.291821,
            34.067906
          ],
          [
            -118.291932,
            34.067595
          ],
          [
            -118.292003,
            34.067444
          ],
          [
            -118.292494,
            34.066516
          ],
          [
            -118.292564,
            34.066365
          ],
          [
            -118.292671,
            34.066053
          ],
          [
            -118.292732,
            34.065732
          ],
          [
            -118.292747,
            34.065408
          ],
          [
            -118.292715,
            34.065085
          ],
          [
            -118.292638,
            34.064767
          ],
          [
            -118.292516,
            34.064458
          ],
          [
            -118.292361,
            34.064188
          ],
          [
            -118.292261,
            34.064013
          ],
          [
            -118.2919,
            34.063635
          ],
          [
            -118.291621,
            34.063407
          ],
          [
            -118.291312,
            34.063208
          ],
          [
            -118.28993,
            34.062417
          ],
          [
            -118.28952,
            34.062192
          ],
          [
            -118.289268,
            34.062067
          ],
          [
            -118.288981,
            34.061961
          ],
          [
            -118.288577,
            34.061862
          ],
          [
            -118.288185,
            34.061798
          ],
          [
            -118.287777,
            34.061763
          ],
          [
            -118.285226,
            34.061771
          ],
          [
            -118.284785,
            34.061759
          ],
          [
            -118.284464,
            34.061728
          ],
          [
            -118.284248,
            34.061677
          ],
          [
            -118.284076,
            34.061629
          ],
          [
            -118.283781,
            34.061512
          ],
          [
            -118.280516,
            34.060066
          ],
          [
            -118.280044,
            34.059827
          ],
          [
            -118.279599,
            34.059555
          ],
          [
            -118.277956,
            34.05846
          ],
          [
            -118.277592,
            34.058218
          ],
          [
            -118.276733,
            34.057589
          ],
          [
            -118.276345,
            34.057305
          ],
          [
            -118.274965,
            34.056294
          ],
          [
            -118.274742,
            34.05613
          ],
          [
            -118.274531,
            34.055976
          ],
          [
            -118.27283,
            34.054729
          ],
          [
            -118.272439,
            34.054467
          ],
          [
            -118.272021,
            34.054236
          ],
          [
            -118.271802,
            34.054132
          ],
          [
            -118.271491,
            34.053991
          ],
          [
            -118.265994,
            34.051508
          ],
          [
            -118.264983,
            34.051085
          ],
          [
            -118.263954,
            34.050686
          ],
          [
            -118.2629,
            34.050309
          ],
          [
            -118.261833,
            34.049959
          ],
          [
            -118.260337,
            34.049508
          ],
          [
            -118.260032,
            34.049386
          ],
          [
            -118.259751,
            34.049231
          ],
          [
            -118.258201,
            34.048234
          ],
          [
            -118.25713,
            34.047544
          ],
          [
            -118.257075,
            34.047509,
            102.5
          ],
          [
            -118.256974,
            34.047446,
            102.5
          ],
          [
            -118.256642,
            34.047274,
            102.5
          ],
          [
            -118.256288,
            34.047135,
            102.5
          ],
          [
            -118.255917,
            34.047032,
            102.5
          ],
          [
            -118.255534,
            34.046966,
            102.5
          ],
          [
            -118.255144,
            34.046938,
            102.5
          ],
          [
            -118.254752,
            34.046925,
            102.5
          ],
          [
            -118.254402,
            34.046951,
            102.5
          ],
          [
            -118.254321,
            34.046964,
            102.5
          ],
          [
            -118.253988,
            34.047084,
            102.5
          ],
          [
            -118.253626,
            34.047206,
            102.5
          ],
          [
            -118.253298,
            34.047357,
            102.5
          ],
          [
            -118.252966,
            34.047553
          ],
          [
            -118.252678,
            34.047773
          ],
          [
            -118.252423,
            34.048019
          ],
          [
            -118.250498,
            34.050082
          ],
          [
            -118.250079,
            34.05053
          ],
          [
            -118.245586,
            34.055343
          ],
          [
            -118.245054,
            34.055912
          ],
          [
            -118.244692,
            34.056266
          ],
          [
            -118.244294,
            34.056592
          ],
          [
            -118.243865,
            34.05689
          ],
          [
            -118.243406,
            34.057156
          ],
          [
            -118.242922,
            34.05739
          ],
          [
            -118.24237,
            34.057577
          ],
          [
            -118.241891,
            34.05775
          ],
          [
            -118.241352,
            34.057875
          ],
          [
            -118.240802,
            34.057961
          ],
          [
            -118.240353,
            34.058023
          ],
          [
            -118.239168,
            34.058189
          ],
          [
            -118.238626,
            34.058216
          ],
          [
            -118.238225,
            34.058224
          ],
          [
            -118.237847,
            34.058222
          ],
          [
            -118.237415,
            34.05813
          ],
          [
            -118.237202,
            34.058061
          ],
          [
            -118.237019,
            34.057975
          ],
          [
            -118.236787,
            34.057825
          ],
          [
            -118.236531,
            34.057631
          ],
          [
            -118.236265,
            34.057414
          ],
          [
            -118.235915,
            34.057081
          ],
          [
            -118.235708,
            34.056978
          ],
          [
            -118.235515,
            34.056881
          ],
          [
            -118.234942,
            34.056332
          ],
          [
            -118.233759,
            34.055205
          ]
        ]
      }
    }
  ]
}