{
  "type": "FeatureCollection",
  "features": [
    {
      "type": "Feature",
      "properties": {
        "creator": "BRouter-1.7.9",
        "name": "[LAS Airport] T3 - D Gates",
        "track-length": "452",
        "filtered ascend": "0",
        "plain-ascend": "0",
        "total-time": "36",
        "total-energy": "19881",
        "cost": "452",
        "messages": [
          [
            "Longitude",
            "Latitude",
            "Elevation",
            "Distance",
            "CostPerKm",
            "ElevCost",
            "TurnCost",
            "NodeCost",
            "InitialCost",
            "WayTags",
            "NodeTags",
            "Time",
            "Energy"
          ],
          [
            "-115137050",
            "36086048",
            "-8192",
            "11",
            "1000",
            "0",
            "0",
            "0",
            "0",
            "reversedirection=yes railway=light_rail",
            "railway=halt",
            "0",
            "483"
          ],
          [
            "-115137731",
            "36082266",
            "-8192",
            "426",
            "1000",
            "0",
            "0",
            "0",
            "0",
            "reversedirection=yes railway=light_rail",
            "railway=halt",
            "34",
            "19221"
          ],
          [
            "-115137730",
            "36082128",
            "634",
            "15",
            "1000",
            "0",
            "0",
            "0",
            "0",
            "reversedirection=yes railway=light_rail",
            "",
            "36",
            "19881"
          ]
        ],
        "times": [
          0,
          0.88,
          2.64,
          29.12,
          34.96,
          36.16
        ]
      },
      "geometry": {
        "type": "LineString",
        "coordinates": [
          [
            -115.137049,
            36.086145,
            634.75
          ],
          [
            -115.13705,
            36.086048,
            634.75
          ],
          [
            -115.137055,
            36.085847,
            634.75
          ],
          [
            -115.137786,
            36.082919,
            634.75
          ],
          [
            -115.137731,
            36.082266,
            634.75
          ],
          [
            -115.13773,
            36.082128,
            634.75
          ]
        ]
      }
    }
  ]
}