{
  "type": "FeatureCollection",
  "features": [
    {
      "type": "Feature",
      "properties": {
        "creator": "BRouter-1.7.9",
        "name": "[LAS Airport] T1 - D Gates",
        "track-length": "1106",
        "filtered ascend": "0",
        "plain-ascend": "0",
        "total-time": "88",
        "total-energy": "47766",
        "cost": "1106",
        "messages": [
          [
            "Longitude",
            "Latitude",
            "Elevation",
            "Distance",
            "CostPerKm",
            "ElevCost",
            "TurnCost",
            "NodeCost",
            "InitialCost",
            "WayTags",
            "NodeTags",
            "Time",
            "Energy"
          ],
          [
            "-115148735",
            "36084671",
            "-8192",
            "22",
            "1000",
            "0",
            "0",
            "0",
            "0",
            "reversedirection=yes railway=light_rail",
            "railway=halt",
            "1",
            "967"
          ],
          [
            "-115138039",
            "36082004",
            "-8192",
            "1084",
            "1000",
            "0",
            "0",
            "0",
            "0",
            "reversedirection=yes railway=light_rail",
            "",
            "88",
            "47766"
          ]
        ],
        "times": [
          0,
          1.76,
          5.84,
          9.2,
          12.96,
          16.96,
          22.72,
          38.16,
          39.44,
          40.24,
          42,
          43.76,
          51.92,
          88.48
        ]
      },
      "geometry": {
        "type": "LineString",
        "coordinates": [
          [
            -115.148842,
            36.084847,
            638.5
          ],
          [
            -115.148735,
            36.084671,
            638.5
          ],
          [
            -115.148486,
            36.084262,
            638.5
          ],
          [
            -115.148282,
            36.083925,
            638.5
          ],
          [
            -115.14795,
            36.083601,
            638.5
          ],
          [
            -115.147493,
            36.083342,
            638.5
          ],
          [
            -115.146806,
            36.083019,
            638.5
          ],
          [
            -115.144952,
            36.082156,
            638.5
          ],
          [
            -115.144793,
            36.082098,
            638.5
          ],
          [
            -115.144686,
            36.082074,
            638.5
          ],
          [
            -115.144456,
            36.082018,
            637.5
          ],
          [
            -115.144217,
            36.081971
          ],
          [
            -115.143102,
            36.081839
          ],
          [
            -115.138039,
            36.082004
          ]
        ]
      }
    }
  ]
}