{
  "type": "FeatureCollection",
  "features": [
    {
      "type": "Feature",
      "properties": {
        "creator": "BRouter-1.7.9",
        "name": "[Mandalay Bay] Tram",
        "track-length": "812",
        "filtered ascend": "0",
        "plain-ascend": "0",
        "total-time": "65",
        "total-energy": "35716",
        "cost": "812",
        "messages": [
          [
            "Longitude",
            "Latitude",
            "Elevation",
            "Distance",
            "CostPerKm",
            "ElevCost",
            "TurnCost",
            "NodeCost",
            "InitialCost",
            "WayTags",
            "NodeTags",
            "Time",
            "Energy"
          ],
          [
            "-115174660",
            "36093035",
            "-8192",
            "3",
            "1000",
            "0",
            "0",
            "0",
            "0",
            "reversedirection=yes railway=funicular",
            "railway=tram_stop",
            "0",
            "131"
          ],
          [
            "-115173484",
            "36099907",
            "-8192",
            "807",
            "1000",
            "0",
            "0",
            "0",
            "0",
            "reversedirection=yes railway=funicular",
            "railway=tram_stop",
            "64",
            "35628"
          ],
          [
            "-115173473",
            "36099927",
            "-8192",
            "2",
            "1000",
            "0",
            "0",
            "0",
            "0",
            "reversedirection=yes railway=funicular",
            "",
            "64",
            "35716"
          ]
        ],
        "times": [
          0,
          0.24,
          1.68,
          5.12,
          8.24,
          9.84,
          11.04,
          12.08,
          13.2,
          14.72,
          15.92,
          18.96,
          21.2,
          27.6,
          28.88,
          30.16,
          32.16,
          39.12,
          43.28,
          44.24,
          45.6,
          50.16,
          52.88,
          54.08,
          55.76,
          56.72,
          58.4,
          60.48,
          61.84,
          63.04,
          64.8,
          64.96
        ]
      },
      "geometry": {
        "type": "LineString",
        "coordinates": [
          [
            -115.174677,
            36.093017
          ],
          [
            -115.17466,
            36.093035
          ],
          [
            -115.174538,
            36.093169
          ],
          [
            -115.174279,
            36.093491
          ],
          [
            -115.174025,
            36.09378
          ],
          [
            -115.173904,
            36.093931
          ],
          [
            -115.173828,
            36.094053
          ],
          [
            -115.173772,
            36.094163
          ],
          [
            -115.173726,
            36.094285
          ],
          [
            -115.173688,
            36.094456
          ],
          [
            -115.173673,
            36.09459
          ],
          [
            -115.173676,
            36.094933
          ],
          [
            -115.173671,
            36.095185
          ],
          [
            -115.173674,
            36.095906
          ],
          [
            -115.173678,
            36.096051
          ],
          [
            -115.173699,
            36.096194
          ],
          [
            -115.173762,
            36.096413
          ],
          [
            -115.174021,
            36.097173
          ],
          [
            -115.17415,
            36.097626
          ],
          [
            -115.174174,
            36.09773
          ],
          [
            -115.174189,
            36.097885
          ],
          [
            -115.174183,
            36.098401
          ],
          [
            -115.174177,
            36.098706
          ],
          [
            -115.174152,
            36.098838
          ],
          [
            -115.174093,
            36.099019
          ],
          [
            -115.174044,
            36.099123
          ],
          [
            -115.173936,
            36.09929
          ],
          [
            -115.173795,
            36.099491
          ],
          [
            -115.17369,
            36.099614
          ],
          [
            -115.173601,
            36.099732
          ],
          [
            -115.173484,
            36.099907
          ],
          [
            -115.173473,
            36.099927
          ]
        ]
      }
    }
  ]
}