{
  "type": "FeatureCollection",
  "features": [
    {
      "type": "Feature",
      "properties": {
        "creator": "BRouter-1.7.9",
        "name": "[MDT] Orange Line",
        "track-length": "55159",
        "filtered ascend": "3",
        "plain-ascend": "1",
        "total-time": "4412",
        "total-energy": "2426592",
        "cost": "110318",
        "messages": [
          [
            "Longitude",
            "Latitude",
            "Elevation",
            "Distance",
            "CostPerKm",
            "ElevCost",
            "TurnCost",
            "NodeCost",
            "InitialCost",
            "WayTags",
            "NodeTags",
            "Time",
            "Energy"
          ],
          [
            "-80314046",
            "25684805",
            "-8192",
            "47",
            "2000",
            "0",
            "0",
            "0",
            "0",
            "reversedirection=yes railway=subway",
            "railway=halt",
            "3",
            "2067"
          ],
          [
            "-80312568",
            "25686009",
            "-8192",
            "200",
            "2000",
            "0",
            "0",
            "0",
            "0",
            "reversedirection=yes railway=subway",
            "railway=switch",
            "19",
            "10864"
          ],
          [
            "-80312049",
            "25686363",
            "-8192",
            "65",
            "2000",
            "0",
            "0",
            "0",
            "0",
            "railway=subway",
            "railway=unknown",
            "24",
            "13723"
          ],
          [
            "-80311549",
            "25686704",
            "-8192",
            "63",
            "2000",
            "0",
            "0",
            "0",
            "0",
            "railway=subway",
            "railway=switch",
            "30",
            "16494"
          ],
          [
            "-80306890",
            "25690494",
            "-8192",
            "628",
            "2000",
            "0",
            "0",
            "0",
            "0",
            "railway=subway",
            "",
            "80",
            "44117"
          ],
          [
            "-80304541",
            "25692351",
            "-8192",
            "314",
            "2000",
            "0",
            "0",
            "0",
            "0",
            "railway=subway",
            "railway=halt",
            "25",
            "13811"
          ],
          [
            "-80288554",
            "25705412",
            "-8192",
            "2162",
            "2000",
            "0",
            "0",
            "0",
            "0",
            "railway=subway",
            "railway=halt",
            "198",
            "108907"
          ],
          [
            "-80276525",
            "25715116",
            "-8192",
            "1616",
            "2000",
            "0",
            "0",
            "0",
            "0",
            "railway=subway",
            "railway=halt",
            "327",
            "179987"
          ],
          [
            "-80259325",
            "25729087",
            "-8192",
            "2318",
            "2000",
            "0",
            "0",
            "0",
            "0",
            "railway=subway",
            "railway=switch",
            "512",
            "281945"
          ],
          [
            "-80256770",
            "25731159",
            "-8192",
            "344",
            "2000",
            "0",
            "0",
            "0",
            "0",
            "railway=subway",
            "railway=switch",
            "540",
            "297076"
          ],
          [
            "-80254439",
            "25733054",
            "-8192",
            "314",
            "2000",
            "0",
            "0",
            "0",
            "0",
            "railway=subway",
            "railway=halt",
            "565",
            "310887"
          ],
          [
            "-80238435",
            "25739921",
            "-8192",
            "1790",
            "2000",
            "0",
            "0",
            "0",
            "0",
            "railway=subway",
            "railway=halt",
            "708",
            "389621"
          ],
          [
            "-80211340",
            "25749809",
            "-8192",
            "2931",
            "2000",
            "0",
            "0",
            "0",
            "0",
            "railway=subway",
            "railway=halt",
            "943",
            "518542"
          ],
          [
            "-80202018",
            "25755602",
            "12",
            "1138",
            "2000",
            "0",
            "0",
            "0",
            "0",
            "railway=subway",
            "railway=switch",
            "1034",
            "567352"
          ],
          [
            "-80200943",
            "25756340",
            "10",
            "135",
            "2000",
            "0",
            "0",
            "0",
            "0",
            "railway=subway",
            "",
            "1044",
            "572741"
          ],
          [
            "-80199282",
            "25757480",
            "10",
            "209",
            "2000",
            "0",
            "0",
            "0",
            "0",
            "railway=subway",
            "railway=switch",
            "16",
            "8419"
          ],
          [
            "-80195417",
            "25764242",
            "13",
            "905",
            "2000",
            "0",
            "0",
            "0",
            "0",
            "railway=subway",
            "railway=halt",
            "89",
            "49439"
          ],
          [
            "-80196050",
            "25776662",
            "11",
            "1377",
            "2000",
            "0",
            "0",
            "0",
            "0",
            "railway=subway",
            "railway=halt",
            "199",
            "112628"
          ],
          [
            "-80196248",
            "25781385",
            "11",
            "523",
            "2000",
            "0",
            "0",
            "0",
            "0",
            "railway=subway",
            "railway=halt",
            "241",
            "135661"
          ],
          [
            "-80200172",
            "25784776",
            "11",
            "638",
            "2000",
            "0",
            "0",
            "0",
            "0",
            "railway=subway",
            "railway=switch",
            "292",
            "162778"
          ],
          [
            "-80200480",
            "25784745",
            "12",
            "31",
            "2000",
            "0",
            "0",
            "0",
            "0",
            "reversedirection=yes railway=subway",
            "railway=unknown",
            "294",
            "163805"
          ],
          [
            "-80200790",
            "25784754",
            "12",
            "31",
            "2000",
            "0",
            "0",
            "0",
            "0",
            "reversedirection=yes railway=subway",
            "railway=switch",
            "297",
            "165040"
          ],
          [
            "-80208114",
            "25784526",
            "-8192",
            "738",
            "2000",
            "0",
            "0",
            "0",
            "0",
            "railway=subway",
            "railway=halt",
            "356",
            "197146"
          ],
          [
            "-80215022",
            "25790113",
            "-8192",
            "1099",
            "2000",
            "0",
            "0",
            "0",
            "0",
            "railway=subway",
            "railway=halt",
            "444",
            "245486"
          ],
          [
            "-80215199",
            "25796201",
            "-8192",
            "674",
            "2000",
            "0",
            "0",
            "0",
            "0",
            "railway=subway",
            "railway=halt",
            "498",
            "275132"
          ],
          [
            "-80215433",
            "25809171",
            "-8192",
            "1437",
            "2000",
            "0",
            "0",
            "0",
            "0",
            "railway=subway",
            "railway=halt",
            "612",
            "338339"
          ],
          [
            "-80230585",
            "25812497",
            "-8192",
            "1780",
            "2000",
            "0",
            "0",
            "0",
            "0",
            "railway=subway",
            "railway=halt",
            "755",
            "416633"
          ],
          [
            "-80231253",
            "25812481",
            "-8192",
            "67",
            "2000",
            "0",
            "0",
            "0",
            "0",
            "railway=subway",
            "railway=switch",
            "760",
            "419580"
          ],
          [
            "-80233667",
            "25812443",
            "-8192",
            "242",
            "2000",
            "0",
            "0",
            "0",
            "0",
            "railway=subway",
            "railway=switch",
            "780",
            "430224"
          ],
          [
            "-80258615",
            "25803859",
            "-8192",
            "3056",
            "2000",
            "0",
            "0",
            "0",
            "0",
            "railway=subway",
            "",
            "1024",
            "564643"
          ],
          [
            "-80258834",
            "25800771",
            "-8192",
            "343",
            "2000",
            "0",
            "0",
            "0",
            "0",
            "railway=subway",
            "railway=switch",
            "27",
            "15086"
          ],
          [
            "-80258734",
            "25800051",
            "-8192",
            "80",
            "2000",
            "0",
            "0",
            "0",
            "0",
            "railway=subway",
            "railway=unknown",
            "33",
            "18605"
          ],
          [
            "-80258636",
            "25799351",
            "-8192",
            "78",
            "2000",
            "0",
            "0",
            "0",
            "0",
            "railway=subway",
            "railway=switch",
            "40",
            "22036"
          ],
          [
            "-80258579",
            "25797552",
            "-8192",
            "199",
            "2000",
            "0",
            "0",
            "0",
            "0",
            "reversedirection=yes railway=subway",
            "railway=halt",
            "56",
            "30789"
          ],
          [
            "-80258572",
            "25797331",
            "-8192",
            "24",
            "2000",
            "0",
            "0",
            "0",
            "0",
            "reversedirection=yes railway=subway",
            "",
            "57",
            "31845"
          ],
          [
            "-80258579",
            "25797552",
            "-8192",
            "24",
            "2000",
            "0",
            "0",
            "0",
            "0",
            "railway=subway",
            "railway=halt",
            "1",
            "1055"
          ],
          [
            "-80258636",
            "25799351",
            "-8192",
            "199",
            "2000",
            "0",
            "0",
            "0",
            "0",
            "railway=subway",
            "railway=switch",
            "17",
            "9808"
          ],
          [
            "-80258681",
            "25800776",
            "-8192",
            "158",
            "2000",
            "0",
            "0",
            "0",
            "0",
            "railway=subway",
            "railway=switch",
            "30",
            "16758"
          ],
          [
            "-80258622",
            "25803458",
            "-8192",
            "298",
            "2000",
            "0",
            "0",
            "0",
            "0",
            "railway=subway",
            "",
            "54",
            "29865"
          ],
          [
            "-80236158",
            "25812351",
            "-8192",
            "2843",
            "2000",
            "0",
            "0",
            "0",
            "0",
            "railway=subway",
            "railway=switch",
            "227",
            "125050"
          ],
          [
            "-80235384",
            "25812351",
            "-8192",
            "78",
            "2000",
            "0",
            "0",
            "0",
            "0",
            "railway=subway",
            "railway=switch",
            "233",
            "128480"
          ],
          [
            "-80234679",
            "25812399",
            "-8192",
            "71",
            "2000",
            "0",
            "0",
            "0",
            "0",
            "railway=subway",
            "railway=switch",
            "239",
            "131603"
          ],
          [
            "-80231940",
            "25812417",
            "-8192",
            "274",
            "2000",
            "0",
            "0",
            "0",
            "0",
            "reversedirection=yes railway=subway",
            "railway=switch",
            "261",
            "143655"
          ],
          [
            "-80231250",
            "25812383",
            "-8192",
            "69",
            "2000",
            "0",
            "0",
            "0",
            "0",
            "railway=subway",
            "railway=switch",
            "266",
            "146690"
          ],
          [
            "-80229406",
            "25812425",
            "-8192",
            "185",
            "2000",
            "0",
            "0",
            "0",
            "0",
            "railway=subway",
            "railway=halt",
            "281",
            "154828"
          ],
          [
            "-80215507",
            "25808221",
            "-8192",
            "1753",
            "2000",
            "0",
            "0",
            "0",
            "0",
            "railway=subway",
            "railway=halt",
            "421",
            "231934"
          ],
          [
            "-80215208",
            "25795392",
            "-8192",
            "1422",
            "2000",
            "0",
            "0",
            "0",
            "0",
            "railway=subway",
            "railway=halt",
            "535",
            "294481"
          ],
          [
            "-80215048",
            "25789276",
            "-8192",
            "678",
            "2000",
            "0",
            "0",
            "0",
            "0",
            "railway=subway",
            "railway=halt",
            "589",
            "324303"
          ],
          [
            "-80207158",
            "25784563",
            "-8192",
            "1114",
            "2000",
            "0",
            "0",
            "0",
            "0",
            "railway=subway",
            "railway=halt",
            "678",
            "373302"
          ],
          [
            "-80200787",
            "25784714",
            "12",
            "642",
            "2000",
            "0",
            "0",
            "0",
            "0",
            "railway=subway",
            "railway=switch",
            "730",
            "401604"
          ],
          [
            "-80200171",
            "25784734",
            "11",
            "62",
            "2000",
            "0",
            "0",
            "0",
            "0",
            "railway=subway",
            "railway=switch",
            "735",
            "403996"
          ],
          [
            "-80196319",
            "25780513",
            "11",
            "719",
            "2000",
            "0",
            "0",
            "0",
            "0",
            "railway=subway",
            "railway=halt",
            "792",
            "434129"
          ],
          [
            "-80196129",
            "25775354",
            "11",
            "572",
            "2000",
            "0",
            "0",
            "0",
            "0",
            "railway=subway",
            "railway=halt",
            "838",
            "459287"
          ],
          [
            "-80195510",
            "25763362",
            "12",
            "1330",
            "2000",
            "0",
            "0",
            "0",
            "0",
            "railway=subway",
            "railway=halt",
            "944",
            "517787"
          ],
          [
            "-80199346",
            "25757560",
            "10",
            "798",
            "2000",
            "0",
            "0",
            "0",
            "0",
            "railway=subway",
            "railway=switch",
            "1008",
            "552778"
          ],
          [
            "-80202089",
            "25755682",
            "12",
            "345",
            "2000",
            "0",
            "0",
            "0",
            "0",
            "railway=subway",
            "railway=switch",
            "1036",
            "569341"
          ],
          [
            "-80212272",
            "25749575",
            "-8192",
            "1233",
            "2000",
            "0",
            "0",
            "0",
            "0",
            "railway=subway",
            "railway=halt",
            "1135",
            "624945"
          ],
          [
            "-80239357",
            "25739693",
            "-8192",
            "2930",
            "2000",
            "0",
            "0",
            "0",
            "0",
            "railway=subway",
            "railway=halt",
            "1369",
            "753822"
          ],
          [
            "-80255292",
            "25732492",
            "-8192",
            "1802",
            "2000",
            "0",
            "0",
            "0",
            "0",
            "railway=subway",
            "railway=halt",
            "1513",
            "833083"
          ],
          [
            "-80256844",
            "25731235",
            "-8192",
            "209",
            "2000",
            "0",
            "0",
            "0",
            "0",
            "railway=subway",
            "railway=switch",
            "1530",
            "842276"
          ],
          [
            "-80259394",
            "25729155",
            "-8192",
            "345",
            "2000",
            "0",
            "0",
            "0",
            "0",
            "railway=subway",
            "railway=switch",
            "1557",
            "857451"
          ],
          [
            "-80277355",
            "25714575",
            "-8192",
            "2420",
            "2000",
            "0",
            "0",
            "0",
            "0",
            "railway=subway",
            "railway=halt",
            "1751",
            "963895"
          ],
          [
            "-80289434",
            "25704829",
            "-8192",
            "1624",
            "2000",
            "0",
            "0",
            "0",
            "0",
            "railway=subway",
            "railway=halt",
            "1881",
            "1035327"
          ],
          [
            "-80305494",
            "25691710",
            "-8192",
            "2171",
            "2000",
            "0",
            "0",
            "0",
            "0",
            "railway=subway",
            "railway=halt",
            "2055",
            "1130819"
          ],
          [
            "-80306821",
            "25690656",
            "-8192",
            "177",
            "2000",
            "0",
            "0",
            "0",
            "0",
            "railway=subway",
            "",
            "2069",
            "1138605"
          ],
          [
            "-80311622",
            "25686775",
            "-8192",
            "645",
            "2000",
            "0",
            "0",
            "0",
            "0",
            "railway=subway",
            "railway=switch",
            "51",
            "28370"
          ],
          [
            "-80312568",
            "25686009",
            "-8192",
            "127",
            "2000",
            "0",
            "0",
            "0",
            "0",
            "railway=subway",
            "railway=switch",
            "61",
            "33956"
          ],
          [
            "-80314046",
            "25684805",
            "-8192",
            "200",
            "2000",
            "0",
            "0",
            "0",
            "0",
            "railway=subway",
            "railway=halt",
            "77",
            "42753"
          ],
          [
            "-80314391",
            "25684526",
            "-8192",
            "46",
            "2000",
            "0",
            "0",
            "0",
            "0",
            "railway=subway",
            "",
            "81",
            "44776"
          ]
        ],
        "times": [
          0,
          3.76,
          12.16,
          19.76,
          24.96,
          30,
          38.4,
          48.08,
          56.48,
          64.72,
          69.68,
          74.24,
          80.24,
          83.2,
          87.36,
          92.88,
          105.36,
          106.72,
          115.2,
          119.36,
          127.28,
          130.64,
          278.32,
          305.44,
          312.64,
          367.68,
          378.56,
          388.56,
          393.44,
          407.6,
          464.96,
          528.16,
          573.84,
          582,
          593.04,
          620.56,
          645.68,
          660.24,
          662.48,
          665.12,
          668.32,
          670.64,
          673.04,
          675.28,
          677.6,
          679.76,
          696.32,
          762.08,
          771.12,
          788.88,
          810.88,
          982.48,
          1023.36,
          1032.4,
          1036.4,
          1039.6,
          1042.8,
          1046.24,
          1091.92,
          1114.4,
          1125.2,
          1141.92,
          1160.64,
          1163.68,
          1166.08,
          1168.32,
          1171.04,
          1173.12,
          1175.04,
          1176.72,
          1178.88,
          1180.88,
          1182.72,
          1184.72,
          1186.72,
          1188.96,
          1191.68,
          1193.6,
          1195.04,
          1196.8,
          1200.96,
          1214.32,
          1222.24,
          1225.52,
          1230.8,
          1241.36,
          1251.04,
          1276.32,
          1281.68,
          1288.32,
          1290.8,
          1293.68,
          1297.44,
          1299.12,
          1324.48,
          1332,
          1343.2,
          1352,
          1366.32,
          1370.16,
          1374.56,
          1376.56,
          1378.64,
          1380.72,
          1382.56,
          1384.88,
          1386.64,
          1388.64,
          1390.72,
          1392.48,
          1394.24,
          1395.92,
          1397.76,
          1399.36,
          1400.96,
          1402.56,
          1404.16,
          1406.96,
          1408.56,
          1410.16,
          1413.52,
          1415.04,
          1417.36,
          1419.84,
          1422.32,
          1425.36,
          1429.44,
          1431.92,
          1440.16,
          1446.08,
          1449.92,
          1463.52,
          1465.76,
          1468.32,
          1481.36,
          1492.56,
          1494,
          1495.68,
          1497.04,
          1498.16,
          1499.76,
          1501.36,
          1502.96,
          1504.4,
          1506.56,
          1508.4,
          1510.32,
          1513.04,
          1515.36,
          1533.04,
          1535.28,
          1537.36,
          1538.56,
          1541.2,
          1542.88,
          1544.4,
          1545.68,
          1547.2,
          1549.12,
          1550.88,
          1552.72,
          1555.2,
          1569.28,
          1614.08,
          1623.2,
          1651.04,
          1656.64,
          1670.24,
          1674.08,
          1677.52,
          1699.76,
          1706.88,
          1713.52,
          1716.56,
          1738.16,
          1744.96,
          1747.04,
          1749.2,
          1751.36,
          1753.52,
          1756.32,
          1758.32,
          1760.4,
          1762.4,
          1764.24,
          1765.84,
          1767.76,
          1769.6,
          1771.2,
          1773.04,
          1774.8,
          1776.48,
          1778.4,
          1780,
          1781.92,
          1783.92,
          1786.72,
          1833.68,
          1848.64,
          1859.2,
          1863.04,
          1869.04,
          1880.56,
          1885.92,
          1898.24,
          1905.28,
          1910.16,
          1931.2,
          1934.48,
          1944.16,
          1951.6,
          1956.08,
          1959.28,
          1964.88,
          2018.56,
          2021.44,
          2022.8,
          2025.52,
          2027.84,
          2029.36,
          2031.2,
          2034.4,
          2036.48,
          2038.16,
          2045.12,
          2047.84,
          2048.88,
          2050.96,
          2052.72,
          2054.8,
          2057.2,
          2060.16,
          2078.8,
          2080.8,
          2084.16,
          2086.08,
          2087.92,
          2090,
          2092.72,
          2095.04,
          2096.72,
          2098.4,
          2100.24,
          2101.44,
          2103.28,
          2105.12,
          2107.28,
          2108.64,
          2110.88,
          2113.04,
          2115.36,
          2116.56,
          2118.88,
          2121.04,
          2149.76,
          2160.4,
          2163.28,
          2167.12,
          2169.52,
          2177.2,
          2183.6,
          2189.84,
          2205.76,
          2207.68,
          2209.6,
          2225.52,
          2238.16,
          2249.04,
          2252.24,
          2255.2,
          2257.44,
          2262,
          2294.24,
          2297.36,
          2299.92,
          2302.24,
          2304.4,
          2306.64,
          2307.92,
          2310,
          2312.8,
          2314.8,
          2316.72,
          2318.4,
          2320.88,
          2323.04,
          2325.04,
          2327.04,
          2328.88,
          2330.72,
          2334,
          2336,
          2353.6,
          2356.8,
          2358.4,
          2360.08,
          2361.36,
          2363.84,
          2365.28,
          2367.04,
          2369.76,
          2374.88,
          2377.6,
          2379.92,
          2382,
          2383.68,
          2385.52,
          2387.76,
          2389.28,
          2391.92,
          2393.28,
          2395.12,
          2398.48,
          2449.68,
          2453.36,
          2455.68,
          2458.4,
          2476.64,
          2479.36,
          2482.4,
          2489.44,
          2495.68,
          2501.36,
          2514,
          2523.28,
          2528.8,
          2543.6,
          2545.76,
          2581.04,
          2628,
          2630.8,
          2632.8,
          2634.56,
          2636.16,
          2638.16,
          2639.84,
          2641.44,
          2643.2,
          2644.8,
          2646.48,
          2648.48,
          2650,
          2651.68,
          2653.68,
          2655.68,
          2657.76,
          2660.4,
          2662.48,
          2664.56,
          2666.56,
          2668.56,
          2683.84,
          2736.16,
          2739.52,
          2743.36,
          2754.4,
          2756.96,
          2760.16,
          2762.64,
          2797.6,
          2834,
          2851.84,
          2858.48,
          2861.04,
          2862.88,
          2864.64,
          2866.48,
          2868.08,
          2869.44,
          2870.96,
          2872.72,
          2875.36,
          2877.68,
          2878.8,
          2881.04,
          2898.72,
          2901.04,
          2903.84,
          2905.76,
          2907.68,
          2909.92,
          2911.44,
          2913.12,
          2914.72,
          2916.48,
          2917.68,
          2918.96,
          2920.64,
          2922.08,
          2940.96,
          2949.04,
          2953.52,
          2955.2,
          2964.72,
          2966.56,
          2968.56,
          2974.4,
          2982.64,
          2985.2,
          2989.28,
          2992.32,
          2997.28,
          2999.68,
          3001.2,
          3004.48,
          3006,
          3007.6,
          3009.04,
          3010.24,
          3011.84,
          3013.36,
          3014.96,
          3016.48,
          3018.24,
          3019.84,
          3021.52,
          3023.2,
          3025.2,
          3027.2,
          3028.88,
          3031.12,
          3032.96,
          3034.8,
          3036.88,
          3038.8,
          3040.8,
          3043.2,
          3054.8,
          3070.24,
          3100.56,
          3114.24,
          3116.08,
          3119.76,
          3125.68,
          3130.16,
          3131.84,
          3133.6,
          3137.2,
          3150.64,
          3170.56,
          3176.32,
          3188,
          3191.04,
          3206.96,
          3214.4,
          3216.64,
          3219.68,
          3221.6,
          3224.32,
          3226.4,
          3228.4,
          3230.32,
          3232.24,
          3234.24,
          3236.24,
          3237.92,
          3239.84,
          3242,
          3244.56,
          3246.8,
          3249.12,
          3252.16,
          3270.8,
          3298.4,
          3312.64,
          3320.88,
          3330.8,
          3361.92,
          3366.56,
          3369.92,
          3373.2,
          3376.32,
          3380.32,
          3388.08,
          3397.04,
          3403.84,
          3408.16,
          3415.92,
          3419.44,
          3464.8,
          3584.32,
          3601.84,
          3604.96,
          3613.12,
          3617.2,
          3631.44,
          3641.44,
          3650.64,
          3689.52,
          3708,
          3716.48,
          3729.92,
          3732.96,
          3735.12,
          3739.68,
          3744.4,
          3747.68,
          3750.32,
          3752.64,
          3757.6,
          3775.6,
          3782.08,
          3792.32,
          3809.92,
          3819.92,
          3827.04,
          3836.08,
          3839.12,
          3861.44,
          3981.12,
          3985.68,
          3990.16,
          3997.84,
          4013.52,
          4038,
          4066.96,
          4114.96,
          4124.96,
          4128.48,
          4143.44,
          4152.88,
          4163.68,
          4170.24,
          4306.24,
          4317.12,
          4320.16,
          4325.2,
          4329.68,
          4331.28,
          4334.64,
          4338,
          4343.12,
          4364.72,
          4382.88,
          4393.04,
          4400.64,
          4409.04,
          4412.72
        ]
      },
      "geometry": {
        "type": "LineString",
        "coordinates": [
          [
            -80.314392,
            25.684525
          ],
          [
            -80.314046,
            25.684805
          ],
          [
            -80.313273,
            25.68544
          ],
          [
            -80.312568,
            25.686009
          ],
          [
            -80.312049,
            25.686363
          ],
          [
            -80.311549,
            25.686704
          ],
          [
            -80.310781,
            25.687345
          ],
          [
            -80.309914,
            25.68811
          ],
          [
            -80.309138,
            25.688752
          ],
          [
            -80.30837,
            25.689375
          ],
          [
            -80.30791,
            25.68975
          ],
          [
            -80.30748,
            25.690079
          ],
          [
            -80.30689,
            25.690494,
            13.5
          ],
          [
            -80.3066,
            25.690699,
            13.5
          ],
          [
            -80.306206,
            25.690998,
            13.5
          ],
          [
            -80.305697,
            25.691412,
            13.5
          ],
          [
            -80.304541,
            25.692351,
            13.5
          ],
          [
            -80.304415,
            25.692453,
            13.5
          ],
          [
            -80.303628,
            25.693094,
            13.5
          ],
          [
            -80.303254,
            25.693414,
            13.5
          ],
          [
            -80.302548,
            25.694034,
            13.5
          ],
          [
            -80.302239,
            25.694288,
            13.5
          ],
          [
            -80.288554,
            25.705412,
            13.5
          ],
          [
            -80.286045,
            25.707456,
            13.5
          ],
          [
            -80.285373,
            25.707996,
            13.5
          ],
          [
            -80.280268,
            25.712146,
            13.5
          ],
          [
            -80.279257,
            25.71296,
            13.5
          ],
          [
            -80.278303,
            25.713686,
            13.5
          ],
          [
            -80.277842,
            25.714048,
            13.5
          ],
          [
            -80.276525,
            25.715116,
            13.5
          ],
          [
            -80.271205,
            25.719438,
            13.5
          ],
          [
            -80.265344,
            25.724202,
            13.5
          ],
          [
            -80.261108,
            25.727641,
            13.5
          ],
          [
            -80.260347,
            25.72825,
            13.5
          ],
          [
            -80.259325,
            25.729087,
            13.5
          ],
          [
            -80.25677,
            25.731159,
            13.5
          ],
          [
            -80.254439,
            25.733054,
            13.5
          ],
          [
            -80.25309,
            25.734149,
            13.5
          ],
          [
            -80.252877,
            25.734315,
            13.5
          ],
          [
            -80.25262,
            25.734503,
            13.5
          ],
          [
            -80.252294,
            25.734717,
            13.5
          ],
          [
            -80.252056,
            25.734859,
            13.5
          ],
          [
            -80.2518,
            25.735,
            13.5
          ],
          [
            -80.25155,
            25.735121,
            13.5
          ],
          [
            -80.251296,
            25.735238,
            13.5
          ],
          [
            -80.251052,
            25.735339,
            13.5
          ],
          [
            -80.249145,
            25.736046,
            13.5
          ],
          [
            -80.241542,
            25.738818,
            13.5
          ],
          [
            -80.240485,
            25.739178,
            13.5
          ],
          [
            -80.238435,
            25.739921,
            13.5
          ],
          [
            -80.235894,
            25.740853,
            13.5
          ],
          [
            -80.21606,
            25.748087,
            13.5
          ],
          [
            -80.21134,
            25.749809,
            13.5
          ],
          [
            -80.210294,
            25.750193,
            13.5
          ],
          [
            -80.209844,
            25.750381,
            13.5
          ],
          [
            -80.209488,
            25.750551,
            13.5
          ],
          [
            -80.209148,
            25.75074,
            13.5
          ],
          [
            -80.208795,
            25.750956,
            13.5
          ],
          [
            -80.204253,
            25.754068,
            13.5
          ],
          [
            -80.202018,
            25.755602,
            12
          ],
          [
            -80.200943,
            25.75634,
            10.25
          ],
          [
            -80.199282,
            25.75748,
            10.25
          ],
          [
            -80.197426,
            25.758756,
            13.75
          ],
          [
            -80.197131,
            25.758977,
            13.5
          ],
          [
            -80.196915,
            25.75916,
            13.5
          ],
          [
            -80.19672,
            25.759339,
            13.5
          ],
          [
            -80.196499,
            25.759576,
            13.5
          ],
          [
            -80.19634,
            25.759765,
            13.5
          ],
          [
            -80.196204,
            25.759948,
            13.5
          ],
          [
            -80.196093,
            25.76011,
            13.5
          ],
          [
            -80.195964,
            25.760324,
            13.5
          ],
          [
            -80.195856,
            25.760531,
            13.5
          ],
          [
            -80.195763,
            25.760724,
            13.5
          ],
          [
            -80.195678,
            25.760934,
            13.25
          ],
          [
            -80.195599,
            25.761152,
            13.25
          ],
          [
            -80.195527,
            25.761397,
            13.25
          ],
          [
            -80.195462,
            25.761695,
            13.25
          ],
          [
            -80.195427,
            25.761912,
            13.25
          ],
          [
            -80.19541,
            25.76207,
            13.25
          ],
          [
            -80.1954,
            25.762264,
            13.25
          ],
          [
            -80.195392,
            25.762731,
            13.25
          ],
          [
            -80.195417,
            25.764242,
            13
          ],
          [
            -80.195427,
            25.765138,
            13
          ],
          [
            -80.195437,
            25.76551,
            13
          ],
          [
            -80.195476,
            25.766108,
            12.75
          ],
          [
            -80.195583,
            25.767299,
            12.75
          ],
          [
            -80.195634,
            25.768389,
            12.75
          ],
          [
            -80.195743,
            25.771236,
            12.25
          ],
          [
            -80.195781,
            25.771841,
            12.25
          ],
          [
            -80.195846,
            25.772592,
            12.25
          ],
          [
            -80.195877,
            25.772869,
            12.25
          ],
          [
            -80.195904,
            25.773189,
            12.25
          ],
          [
            -80.195938,
            25.77361,
            12
          ],
          [
            -80.195947,
            25.773803,
            12
          ],
          [
            -80.19605,
            25.776662,
            11.75
          ],
          [
            -80.196084,
            25.777511,
            11.75
          ],
          [
            -80.196151,
            25.778774,
            11.5
          ],
          [
            -80.196183,
            25.779769,
            11.5
          ],
          [
            -80.196248,
            25.781385,
            11.25
          ],
          [
            -80.19626,
            25.781822,
            11.25
          ],
          [
            -80.196288,
            25.782318,
            11.25
          ],
          [
            -80.196327,
            25.782544,
            11.25
          ],
          [
            -80.196382,
            25.782772,
            11.25
          ],
          [
            -80.196458,
            25.782993,
            11.25
          ],
          [
            -80.196547,
            25.783188,
            11.25
          ],
          [
            -80.196679,
            25.78342,
            11.25
          ],
          [
            -80.196798,
            25.783592,
            11.25
          ],
          [
            -80.196946,
            25.783771,
            11
          ],
          [
            -80.197121,
            25.783949,
            11
          ],
          [
            -80.197277,
            25.784085,
            11
          ],
          [
            -80.19744,
            25.784212,
            11
          ],
          [
            -80.197605,
            25.784322,
            11
          ],
          [
            -80.197797,
            25.784434,
            11
          ],
          [
            -80.197973,
            25.784515,
            11
          ],
          [
            -80.198159,
            25.78459,
            11
          ],
          [
            -80.198344,
            25.784653,
            11
          ],
          [
            -80.198533,
            25.784705,
            11
          ],
          [
            -80.198874,
            25.784769,
            11
          ],
          [
            -80.199076,
            25.78479,
            11
          ],
          [
            -80.199276,
            25.784798,
            11
          ],
          [
            -80.19969,
            25.784792,
            11
          ],
          [
            -80.199879,
            25.784786,
            11.25
          ],
          [
            -80.200172,
            25.784776,
            11.75
          ],
          [
            -80.20048,
            25.784745,
            12.25
          ],
          [
            -80.20079,
            25.784754,
            12.75
          ],
          [
            -80.201167,
            25.784742,
            12.5
          ],
          [
            -80.201677,
            25.784742,
            12.25
          ],
          [
            -80.201987,
            25.784752,
            12.5
          ],
          [
            -80.203009,
            25.784802,
            12.75
          ],
          [
            -80.203744,
            25.78484
          ],
          [
            -80.204223,
            25.784847
          ],
          [
            -80.205914,
            25.784811
          ],
          [
            -80.206188,
            25.784793
          ],
          [
            -80.206509,
            25.784756
          ],
          [
            -80.208114,
            25.784526
          ],
          [
            -80.20949,
            25.784329
          ],
          [
            -80.209673,
            25.784309
          ],
          [
            -80.209878,
            25.784298
          ],
          [
            -80.210044,
            25.784296
          ],
          [
            -80.210184,
            25.784301
          ],
          [
            -80.210384,
            25.784321
          ],
          [
            -80.210576,
            25.784351
          ],
          [
            -80.210772,
            25.784391
          ],
          [
            -80.210948,
            25.784439
          ],
          [
            -80.211197,
            25.784522
          ],
          [
            -80.211404,
            25.784614
          ],
          [
            -80.211609,
            25.784723
          ],
          [
            -80.21189,
            25.784902
          ],
          [
            -80.212118,
            25.785066
          ],
          [
            -80.213812,
            25.786342
          ],
          [
            -80.214022,
            25.786515
          ],
          [
            -80.214205,
            25.786687
          ],
          [
            -80.214303,
            25.786789
          ],
          [
            -80.214497,
            25.787026
          ],
          [
            -80.214604,
            25.787191
          ],
          [
            -80.214686,
            25.787342
          ],
          [
            -80.21475,
            25.787479
          ],
          [
            -80.214816,
            25.787642
          ],
          [
            -80.214886,
            25.787846
          ],
          [
            -80.214933,
            25.788042
          ],
          [
            -80.214965,
            25.788245
          ],
          [
            -80.214988,
            25.788527
          ],
          [
            -80.215022,
            25.790113
          ],
          [
            -80.215156,
            25.795169
          ],
          [
            -80.215199,
            25.796201
          ],
          [
            -80.215334,
            25.799339
          ],
          [
            -80.215328,
            25.799974
          ],
          [
            -80.215241,
            25.801507
          ],
          [
            -80.215225,
            25.80194
          ],
          [
            -80.215231,
            25.802325
          ],
          [
            -80.215331,
            25.804837
          ],
          [
            -80.215341,
            25.805641
          ],
          [
            -80.215334,
            25.80639
          ],
          [
            -80.215337,
            25.806732
          ],
          [
            -80.215433,
            25.809171
          ],
          [
            -80.215466,
            25.80994
          ],
          [
            -80.215482,
            25.810174
          ],
          [
            -80.215514,
            25.810415
          ],
          [
            -80.215569,
            25.81065
          ],
          [
            -80.215645,
            25.810883
          ],
          [
            -80.215777,
            25.811176
          ],
          [
            -80.215896,
            25.811376
          ],
          [
            -80.216041,
            25.811576
          ],
          [
            -80.216192,
            25.811755
          ],
          [
            -80.216345,
            25.811908
          ],
          [
            -80.216492,
            25.812036
          ],
          [
            -80.216681,
            25.812176
          ],
          [
            -80.216864,
            25.812294
          ],
          [
            -80.21703,
            25.812388
          ],
          [
            -80.217231,
            25.812483
          ],
          [
            -80.217431,
            25.81256
          ],
          [
            -80.217631,
            25.812625
          ],
          [
            -80.217863,
            25.812684
          ],
          [
            -80.218057,
            25.812718
          ],
          [
            -80.218291,
            25.812745
          ],
          [
            -80.218537,
            25.812755
          ],
          [
            -80.218891,
            25.812751
          ],
          [
            -80.224741,
            25.812564
          ],
          [
            -80.226608,
            25.812527
          ],
          [
            -80.22792,
            25.812543
          ],
          [
            -80.228401,
            25.812541
          ],
          [
            -80.22915,
            25.812528
          ],
          [
            -80.230585,
            25.812497
          ],
          [
            -80.231253,
            25.812481
          ],
          [
            -80.232788,
            25.812445
          ],
          [
            -80.233667,
            25.812443
          ],
          [
            -80.234278,
            25.812475
          ],
          [
            -80.236893,
            25.812642
          ],
          [
            -80.237303,
            25.812666
          ],
          [
            -80.238507,
            25.812718
          ],
          [
            -80.239433,
            25.812736
          ],
          [
            -80.239994,
            25.812736
          ],
          [
            -80.240389,
            25.812737
          ],
          [
            -80.241089,
            25.812725
          ],
          [
            -80.247774,
            25.812521
          ],
          [
            -80.248131,
            25.812495
          ],
          [
            -80.248295,
            25.812476
          ],
          [
            -80.248625,
            25.812419
          ],
          [
            -80.248901,
            25.812351
          ],
          [
            -80.249077,
            25.812298
          ],
          [
            -80.249291,
            25.812223
          ],
          [
            -80.249652,
            25.812065
          ],
          [
            -80.24988,
            25.811944
          ],
          [
            -80.250056,
            25.811836
          ],
          [
            -80.250752,
            25.811364
          ],
          [
            -80.251034,
            25.81119
          ],
          [
            -80.251142,
            25.811129
          ],
          [
            -80.251369,
            25.811014
          ],
          [
            -80.251563,
            25.810931
          ],
          [
            -80.251801,
            25.810843
          ],
          [
            -80.252089,
            25.810759
          ],
          [
            -80.252442,
            25.810678
          ],
          [
            -80.254716,
            25.810252
          ],
          [
            -80.25496,
            25.810201
          ],
          [
            -80.255359,
            25.810099
          ],
          [
            -80.255583,
            25.810025
          ],
          [
            -80.255792,
            25.809946
          ],
          [
            -80.256021,
            25.809842
          ],
          [
            -80.256312,
            25.809686
          ],
          [
            -80.256547,
            25.809537
          ],
          [
            -80.25671,
            25.809418
          ],
          [
            -80.256867,
            25.809293
          ],
          [
            -80.257036,
            25.809146
          ],
          [
            -80.257137,
            25.809047
          ],
          [
            -80.257286,
            25.808887
          ],
          [
            -80.257421,
            25.808723
          ],
          [
            -80.25757,
            25.80852
          ],
          [
            -80.257655,
            25.808392
          ],
          [
            -80.257783,
            25.808166
          ],
          [
            -80.257892,
            25.807945
          ],
          [
            -80.257989,
            25.807694
          ],
          [
            -80.258032,
            25.807566
          ],
          [
            -80.258099,
            25.807311
          ],
          [
            -80.258149,
            25.807069
          ],
          [
            -80.258615,
            25.803859
          ],
          [
            -80.258787,
            25.802665
          ],
          [
            -80.258825,
            25.802343
          ],
          [
            -80.258857,
            25.801912
          ],
          [
            -80.258862,
            25.801639
          ],
          [
            -80.258834,
            25.800771
          ],
          [
            -80.258734,
            25.800051
          ],
          [
            -80.258636,
            25.799351
          ],
          [
            -80.258579,
            25.797552
          ],
          [
            -80.258572,
            25.797331
          ],
          [
            -80.258579,
            25.797552
          ],
          [
            -80.258636,
            25.799351
          ],
          [
            -80.258681,
            25.800776
          ],
          [
            -80.258724,
            25.802004
          ],
          [
            -80.25873,
            25.802364
          ],
          [
            -80.258718,
            25.802694
          ],
          [
            -80.258696,
            25.802944
          ],
          [
            -80.258622,
            25.803458,
            12.5
          ],
          [
            -80.258102,
            25.807061,
            12.5
          ],
          [
            -80.258029,
            25.807404,
            12.5
          ],
          [
            -80.257943,
            25.80768,
            12.5
          ],
          [
            -80.257847,
            25.807926,
            12.5
          ],
          [
            -80.257739,
            25.808147,
            12.5
          ],
          [
            -80.257611,
            25.808371,
            12.5
          ],
          [
            -80.257528,
            25.808497,
            12.5
          ],
          [
            -80.257383,
            25.808696,
            12.5
          ],
          [
            -80.257169,
            25.808942,
            12.5
          ],
          [
            -80.257,
            25.809112,
            12.5
          ],
          [
            -80.256831,
            25.809262,
            12.5
          ],
          [
            -80.256677,
            25.809384,
            12.5
          ],
          [
            -80.256432,
            25.809558,
            12.5
          ],
          [
            -80.25621,
            25.809693,
            12.5
          ],
          [
            -80.255997,
            25.809804,
            12.5
          ],
          [
            -80.255771,
            25.809905,
            12.5
          ],
          [
            -80.255561,
            25.809985,
            12.5
          ],
          [
            -80.255343,
            25.810058,
            12.5
          ],
          [
            -80.254946,
            25.810161,
            12.5
          ],
          [
            -80.254705,
            25.810211,
            12.5
          ],
          [
            -80.252557,
            25.810612,
            12.5
          ],
          [
            -80.252169,
            25.810693,
            12.5
          ],
          [
            -80.251973,
            25.810744,
            12.5
          ],
          [
            -80.251779,
            25.810804,
            12.5
          ],
          [
            -80.251626,
            25.810857,
            12.5
          ],
          [
            -80.251349,
            25.810973,
            12.5
          ],
          [
            -80.251193,
            25.811048,
            12.5
          ],
          [
            -80.251005,
            25.81115,
            12.5
          ],
          [
            -80.250722,
            25.811326,
            12.5
          ],
          [
            -80.250215,
            25.811676,
            12.5
          ],
          [
            -80.249937,
            25.811856,
            12.5
          ],
          [
            -80.249695,
            25.811993,
            12.5
          ],
          [
            -80.249465,
            25.812102,
            12.5
          ],
          [
            -80.24927,
            25.812182,
            12.5
          ],
          [
            -80.24906,
            25.812257,
            12.5
          ],
          [
            -80.248798,
            25.812334,
            12.5
          ],
          [
            -80.248612,
            25.812378,
            12.5
          ],
          [
            -80.248291,
            25.812435,
            12.5
          ],
          [
            -80.248122,
            25.812455,
            12.5
          ],
          [
            -80.247895,
            25.812472,
            12.5
          ],
          [
            -80.247475,
            25.812488,
            12.5
          ],
          [
            -80.241094,
            25.812683,
            12.5
          ],
          [
            -80.240634,
            25.812678,
            12.5
          ],
          [
            -80.240349,
            25.812666,
            12.5
          ],
          [
            -80.240007,
            25.81264,
            12.5
          ],
          [
            -80.237752,
            25.812382,
            12.5
          ],
          [
            -80.23741,
            25.812348,
            12.5
          ],
          [
            -80.237033,
            25.812336,
            12.5
          ],
          [
            -80.236158,
            25.812351,
            12.5
          ],
          [
            -80.235384,
            25.812351,
            12.5
          ],
          [
            -80.234679,
            25.812399,
            12.5
          ],
          [
            -80.233101,
            25.812395,
            12.5
          ],
          [
            -80.23194,
            25.812417,
            12.5
          ],
          [
            -80.23125,
            25.812383,
            12.5
          ],
          [
            -80.229406,
            25.812425,
            12.5
          ],
          [
            -80.229138,
            25.812431,
            12.5
          ],
          [
            -80.224738,
            25.812523,
            12.5
          ],
          [
            -80.21889,
            25.812715,
            12.5
          ],
          [
            -80.218542,
            25.812715,
            12.5
          ],
          [
            -80.218291,
            25.812697,
            12.5
          ],
          [
            -80.218075,
            25.812667,
            12.5
          ],
          [
            -80.217885,
            25.812627,
            12.5
          ],
          [
            -80.21765,
            25.812565,
            12.5
          ],
          [
            -80.217454,
            25.812493,
            12.5
          ],
          [
            -80.21727,
            25.812417,
            12.5
          ],
          [
            -80.21708,
            25.812323,
            12.5
          ],
          [
            -80.216911,
            25.812226,
            12.5
          ],
          [
            -80.216742,
            25.81211,
            12.5
          ],
          [
            -80.216552,
            25.811968,
            12.5
          ],
          [
            -80.216415,
            25.811845,
            12.5
          ],
          [
            -80.216275,
            25.811699,
            12.5
          ],
          [
            -80.216128,
            25.811522,
            12.5
          ],
          [
            -80.215993,
            25.811329,
            12.5
          ],
          [
            -80.215872,
            25.811121,
            12.5
          ],
          [
            -80.215751,
            25.810845,
            12.5
          ],
          [
            -80.21568,
            25.810622,
            12.5
          ],
          [
            -80.215624,
            25.810396,
            12.5
          ],
          [
            -80.215592,
            25.810168,
            12.5
          ],
          [
            -80.215575,
            25.80994,
            12.5
          ],
          [
            -80.215507,
            25.808221,
            12.5
          ],
          [
            -80.215273,
            25.802322,
            12.5
          ],
          [
            -80.215269,
            25.801941,
            12.5
          ],
          [
            -80.215282,
            25.80151,
            12.5
          ],
          [
            -80.21536,
            25.80027,
            12.5
          ],
          [
            -80.215374,
            25.799977,
            12.5
          ],
          [
            -80.215381,
            25.799615,
            12.5
          ],
          [
            -80.215376,
            25.799337,
            12.5
          ],
          [
            -80.215208,
            25.795392,
            12.5
          ],
          [
            -80.215096,
            25.791286,
            12.5
          ],
          [
            -80.215048,
            25.789276,
            12.5
          ],
          [
            -80.215033,
            25.788525,
            12.5
          ],
          [
            -80.21501,
            25.788239,
            12.5
          ],
          [
            -80.214979,
            25.78803,
            12.5
          ],
          [
            -80.214933,
            25.787833,
            12.5
          ],
          [
            -80.214869,
            25.787633,
            12.5
          ],
          [
            -80.214798,
            25.787463,
            12.5
          ],
          [
            -80.214732,
            25.787326,
            12.5
          ],
          [
            -80.214647,
            25.787172,
            12.5
          ],
          [
            -80.214539,
            25.787001,
            12.5
          ],
          [
            -80.214341,
            25.786763,
            12.5
          ],
          [
            -80.214151,
            25.78657,
            12.5
          ],
          [
            -80.214054,
            25.786482,
            12.5
          ],
          [
            -80.213843,
            25.786314,
            12.5
          ],
          [
            -80.212148,
            25.785034,
            12.5
          ],
          [
            -80.211921,
            25.784867,
            12.5
          ],
          [
            -80.211641,
            25.784681,
            12.5
          ],
          [
            -80.211436,
            25.784565,
            12.5
          ],
          [
            -80.211227,
            25.784466,
            12.5
          ],
          [
            -80.210974,
            25.78437,
            12.5
          ],
          [
            -80.210797,
            25.784318,
            12.5
          ],
          [
            -80.210598,
            25.784271,
            12.5
          ],
          [
            -80.210406,
            25.784239,
            12.5
          ],
          [
            -80.210188,
            25.784214,
            12.5
          ],
          [
            -80.21004,
            25.784208,
            12.5
          ],
          [
            -80.209876,
            25.784206,
            12.5
          ],
          [
            -80.209663,
            25.784215,
            12.5
          ],
          [
            -80.209481,
            25.784233,
            12.5
          ],
          [
            -80.207158,
            25.784563,
            12.5
          ],
          [
            -80.206168,
            25.784708,
            12.5
          ],
          [
            -80.205614,
            25.784769,
            12.5
          ],
          [
            -80.205401,
            25.784784,
            12.5
          ],
          [
            -80.20422,
            25.784807,
            12.5
          ],
          [
            -80.203988,
            25.784807,
            12.5
          ],
          [
            -80.203739,
            25.784798,
            12.5
          ],
          [
            -80.203015,
            25.784756,
            12.5
          ],
          [
            -80.201992,
            25.784705,
            12.25
          ],
          [
            -80.201675,
            25.784696,
            12.25
          ],
          [
            -80.201167,
            25.784701,
            12.75
          ],
          [
            -80.200787,
            25.784714,
            12.75
          ],
          [
            -80.200171,
            25.784734,
            11.75
          ],
          [
            -80.199877,
            25.784744,
            11.25
          ],
          [
            -80.199689,
            25.78475,
            11
          ],
          [
            -80.199276,
            25.784752,
            11
          ],
          [
            -80.199084,
            25.784738,
            11
          ],
          [
            -80.198883,
            25.784711,
            11
          ],
          [
            -80.198711,
            25.784678,
            11
          ],
          [
            -80.198563,
            25.784642,
            11
          ],
          [
            -80.198376,
            25.784586,
            11
          ],
          [
            -80.198199,
            25.784521,
            11
          ],
          [
            -80.198015,
            25.784444,
            11
          ],
          [
            -80.19785,
            25.78436,
            11
          ],
          [
            -80.197668,
            25.78425,
            11
          ],
          [
            -80.197508,
            25.784141,
            11
          ],
          [
            -80.197346,
            25.784014,
            11
          ],
          [
            -80.197201,
            25.783881,
            11
          ],
          [
            -80.19704,
            25.78371,
            11
          ],
          [
            -80.196897,
            25.783529,
            11
          ],
          [
            -80.196782,
            25.783367,
            11.25
          ],
          [
            -80.196656,
            25.783144,
            11.25
          ],
          [
            -80.196568,
            25.782949,
            11.25
          ],
          [
            -80.196497,
            25.78275,
            11.25
          ],
          [
            -80.196439,
            25.782524,
            11.25
          ],
          [
            -80.196402,
            25.78231,
            11.25
          ],
          [
            -80.196381,
            25.782087,
            11.25
          ],
          [
            -80.196368,
            25.781818,
            11.25
          ],
          [
            -80.196319,
            25.780513,
            11.25
          ],
          [
            -80.196255,
            25.778772,
            11.5
          ],
          [
            -80.196129,
            25.775354,
            11.75
          ],
          [
            -80.196073,
            25.773807,
            12
          ],
          [
            -80.196059,
            25.773599,
            12
          ],
          [
            -80.196015,
            25.773188,
            12
          ],
          [
            -80.195925,
            25.772527,
            12
          ],
          [
            -80.195851,
            25.772026,
            12
          ],
          [
            -80.195829,
            25.771836,
            12
          ],
          [
            -80.19581,
            25.771638,
            12
          ],
          [
            -80.195784,
            25.771234,
            12
          ],
          [
            -80.195725,
            25.769716,
            12.25
          ],
          [
            -80.195648,
            25.767466,
            12.5
          ],
          [
            -80.195621,
            25.766816,
            12.5
          ],
          [
            -80.195553,
            25.7655,
            12.5
          ],
          [
            -80.195541,
            25.765155,
            12.5
          ],
          [
            -80.19551,
            25.763362,
            12.75
          ],
          [
            -80.195504,
            25.762518,
            12.75
          ],
          [
            -80.195509,
            25.762265,
            12.75
          ],
          [
            -80.195536,
            25.761921,
            12.75
          ],
          [
            -80.195569,
            25.761704,
            13
          ],
          [
            -80.195634,
            25.761407,
            13
          ],
          [
            -80.195701,
            25.761181,
            13
          ],
          [
            -80.195775,
            25.760965,
            13
          ],
          [
            -80.195859,
            25.760764,
            13
          ],
          [
            -80.195953,
            25.760569,
            13
          ],
          [
            -80.196063,
            25.760363,
            13
          ],
          [
            -80.19618,
            25.760165,
            13
          ],
          [
            -80.196292,
            25.760005,
            13
          ],
          [
            -80.196425,
            25.759829,
            13
          ],
          [
            -80.196588,
            25.759636,
            13
          ],
          [
            -80.196795,
            25.759413,
            13
          ],
          [
            -80.196989,
            25.759229,
            13
          ],
          [
            -80.197205,
            25.75905,
            13.25
          ],
          [
            -80.197492,
            25.758832,
            13.25
          ],
          [
            -80.199346,
            25.75756,
            10.25
          ],
          [
            -80.202089,
            25.755682,
            12
          ],
          [
            -80.203488,
            25.754694,
            13
          ],
          [
            -80.204287,
            25.754106,
            13.5
          ],
          [
            -80.205269,
            25.753419
          ],
          [
            -80.20836,
            25.751299
          ],
          [
            -80.208825,
            25.750994
          ],
          [
            -80.209179,
            25.750796
          ],
          [
            -80.209539,
            25.750618
          ],
          [
            -80.209884,
            25.750464
          ],
          [
            -80.210343,
            25.750282
          ],
          [
            -80.211237,
            25.749954
          ],
          [
            -80.212272,
            25.749575
          ],
          [
            -80.213057,
            25.74929
          ],
          [
            -80.21355,
            25.749098
          ],
          [
            -80.214432,
            25.748733
          ],
          [
            -80.214838,
            25.748576
          ],
          [
            -80.220079,
            25.746663
          ],
          [
            -80.233887,
            25.741623
          ],
          [
            -80.235908,
            25.740888
          ],
          [
            -80.236269,
            25.740764
          ],
          [
            -80.237233,
            25.740459
          ],
          [
            -80.237712,
            25.740293
          ],
          [
            -80.239357,
            25.739693
          ],
          [
            -80.240511,
            25.739267
          ],
          [
            -80.24156,
            25.738856
          ],
          [
            -80.246048,
            25.737217
          ],
          [
            -80.248185,
            25.73643
          ],
          [
            -80.249163,
            25.73608
          ],
          [
            -80.250719,
            25.735508
          ],
          [
            -80.251072,
            25.735378
          ],
          [
            -80.251319,
            25.73528
          ],
          [
            -80.251833,
            25.735053
          ],
          [
            -80.252339,
            25.73478
          ],
          [
            -80.252676,
            25.734567
          ],
          [
            -80.252936,
            25.734387
          ],
          [
            -80.253158,
            25.734221
          ],
          [
            -80.253623,
            25.733852
          ],
          [
            -80.255292,
            25.732492
          ],
          [
            -80.255893,
            25.732
          ],
          [
            -80.256844,
            25.731235
          ],
          [
            -80.258474,
            25.729912
          ],
          [
            -80.259394,
            25.729155
          ],
          [
            -80.260056,
            25.728614
          ],
          [
            -80.260862,
            25.727902
          ],
          [
            -80.261135,
            25.727669
          ],
          [
            -80.263207,
            25.725988
          ],
          [
            -80.274309,
            25.716972
          ],
          [
            -80.274739,
            25.716632
          ],
          [
            -80.275164,
            25.716308
          ],
          [
            -80.275899,
            25.715757
          ],
          [
            -80.277355,
            25.714575
          ],
          [
            -80.279622,
            25.712733
          ],
          [
            -80.282307,
            25.710553
          ],
          [
            -80.286758,
            25.706936
          ],
          [
            -80.287718,
            25.706213
          ],
          [
            -80.288045,
            25.705955
          ],
          [
            -80.289434,
            25.704829
          ],
          [
            -80.290308,
            25.704115
          ],
          [
            -80.291276,
            25.703272
          ],
          [
            -80.29188,
            25.702775
          ],
          [
            -80.304485,
            25.692528
          ],
          [
            -80.305494,
            25.69171
          ],
          [
            -80.305779,
            25.691479
          ],
          [
            -80.306245,
            25.691102
          ],
          [
            -80.306665,
            25.690773
          ],
          [
            -80.306821,
            25.690656
          ],
          [
            -80.307146,
            25.690412
          ],
          [
            -80.307466,
            25.690161
          ],
          [
            -80.30794,
            25.689777
          ],
          [
            -80.309937,
            25.688139
          ],
          [
            -80.311622,
            25.686775
          ],
          [
            -80.312568,
            25.686009
          ],
          [
            -80.313273,
            25.68544
          ],
          [
            -80.314046,
            25.684805
          ],
          [
            -80.314391,
            25.684526
          ]
        ]
      }
    }
  ]
}