{
  "type": "FeatureCollection",
  "features": [
    {
      "type": "Feature",
      "properties": {
        "creator": "BRouter-1.7.9",
        "name": "[Metrorrey] 3 Train",
        "track-length": "14531",
        "filtered ascend": "0",
        "plain-ascend": "0",
        "total-time": "1163",
        "total-energy": "639148",
        "cost": "29062",
        "messages": [
          [
            "Longitude",
            "Latitude",
            "Elevation",
            "Distance",
            "CostPerKm",
            "ElevCost",
            "TurnCost",
            "NodeCost",
            "InitialCost",
            "WayTags",
            "NodeTags",
            "Time",
            "Energy"
          ],
          [
            "-100298424",
            "25671852",
            "-8192",
            "1511",
            "2000",
            "0",
            "0",
            "0",
            "0",
            "railway=subway",
            "railway=halt",
            "120",
            "66680"
          ],
          [
            "-100297694",
            "25677466",
            "-8192",
            "627",
            "2000",
            "0",
            "0",
            "0",
            "0",
            "railway=subway",
            "railway=switch",
            "171",
            "94261"
          ],
          [
            "-100297529",
            "25678740",
            "-8192",
            "142",
            "2000",
            "0",
            "0",
            "0",
            "0",
            "railway=subway",
            "railway=halt",
            "182",
            "100507"
          ],
          [
            "-100296749",
            "25684361",
            "-8192",
            "627",
            "2000",
            "0",
            "0",
            "0",
            "0",
            "railway=subway",
            "railway=halt",
            "232",
            "128085"
          ],
          [
            "-100296421",
            "25686713",
            "-8192",
            "263",
            "2000",
            "0",
            "0",
            "0",
            "0",
            "railway=subway",
            "railway=switch",
            "253",
            "139653"
          ],
          [
            "-100288214",
            "25703507",
            "-8192",
            "2175",
            "2000",
            "0",
            "0",
            "0",
            "0",
            "railway=subway",
            "railway=halt",
            "427",
            "235321"
          ],
          [
            "-100282654",
            "25707445",
            "-8192",
            "709",
            "2000",
            "0",
            "0",
            "0",
            "0",
            "railway=subway",
            "railway=halt",
            "484",
            "266507"
          ],
          [
            "-100277329",
            "25711129",
            "-8192",
            "672",
            "2000",
            "0",
            "0",
            "0",
            "0",
            "railway=subway",
            "",
            "538",
            "296065"
          ],
          [
            "-100276381",
            "25711783",
            "-8192",
            "119",
            "2000",
            "0",
            "0",
            "0",
            "0",
            "railway=subway",
            "railway=switch",
            "9",
            "5234"
          ],
          [
            "-100275864",
            "25712206",
            "-8192",
            "70",
            "2000",
            "0",
            "0",
            "0",
            "0",
            "railway=subway",
            "railway=switch",
            "15",
            "8313"
          ],
          [
            "-100273595",
            "25713763",
            "-8192",
            "286",
            "2000",
            "0",
            "0",
            "0",
            "0",
            "reversedirection=yes railway=subway",
            "railway=halt",
            "38",
            "20892"
          ],
          [
            "-100273075",
            "25714115",
            "-8192",
            "65",
            "2000",
            "0",
            "0",
            "0",
            "0",
            "reversedirection=yes railway=subway",
            "",
            "43",
            "23752"
          ],
          [
            "-100273595",
            "25713763",
            "-8192",
            "65",
            "2000",
            "0",
            "0",
            "0",
            "0",
            "railway=subway",
            "railway=halt",
            "5",
            "2859"
          ],
          [
            "-100275864",
            "25712206",
            "-8192",
            "286",
            "2000",
            "0",
            "0",
            "0",
            "0",
            "railway=subway",
            "railway=switch",
            "28",
            "15438"
          ],
          [
            "-100278581",
            "25710320",
            "-8192",
            "343",
            "2000",
            "0",
            "0",
            "0",
            "0",
            "railway=subway",
            "",
            "55",
            "30525"
          ],
          [
            "-100283406",
            "25706968",
            "-8192",
            "610",
            "2000",
            "0",
            "0",
            "0",
            "0",
            "railway=subway",
            "railway=halt",
            "48",
            "26831"
          ],
          [
            "-100288958",
            "25703023",
            "-8192",
            "709",
            "2000",
            "0",
            "0",
            "0",
            "0",
            "railway=subway",
            "railway=halt",
            "105",
            "58016"
          ],
          [
            "-100296550",
            "25686135",
            "-8192",
            "2154",
            "2000",
            "0",
            "0",
            "0",
            "0",
            "railway=subway",
            "railway=switch",
            "277",
            "152760"
          ],
          [
            "-100296570",
            "25685999",
            "-8192",
            "15",
            "2000",
            "0",
            "0",
            "0",
            "0",
            "railway=subway",
            "railway=switch",
            "279",
            "153420"
          ],
          [
            "-100296893",
            "25683609",
            "-8192",
            "267",
            "2000",
            "0",
            "0",
            "0",
            "0",
            "railway=subway",
            "railway=halt",
            "300",
            "165164"
          ],
          [
            "-100297683",
            "25677975",
            "-8192",
            "629",
            "2000",
            "0",
            "0",
            "0",
            "0",
            "railway=subway",
            "railway=halt",
            "350",
            "192831"
          ],
          [
            "-100297752",
            "25677475",
            "-8192",
            "56",
            "2000",
            "0",
            "0",
            "0",
            "0",
            "railway=subway",
            "railway=switch",
            "355",
            "195294"
          ],
          [
            "-100297822",
            "25676951",
            "-8192",
            "58",
            "2000",
            "0",
            "0",
            "0",
            "0",
            "railway=subway",
            "railway=switch",
            "359",
            "197845"
          ],
          [
            "-100298616",
            "25671123",
            "-8192",
            "651",
            "2000",
            "0",
            "0",
            "0",
            "0",
            "railway=subway",
            "railway=halt",
            "411",
            "226480"
          ],
          [
            "-100309774",
            "25667692",
            "-8192",
            "1422",
            "2000",
            "0",
            "0",
            "0",
            "0",
            "railway=subway",
            "",
            "525",
            "288806"
          ]
        ],
        "times": [
          0,
          40.16,
          50.64,
          52.64,
          53.36,
          54.08,
          54.88,
          56.56,
          63.92,
          74.72,
          78.8,
          83.68,
          85.6,
          87.28,
          89.04,
          90.64,
          92.24,
          94.08,
          95.92,
          97.2,
          98.96,
          100.8,
          103.2,
          107.12,
          112.4,
          120.88,
          146.4,
          171.04,
          173.84,
          182.4,
          208.88,
          216.88,
          224.24,
          232.56,
          253.6,
          267.28,
          288.88,
          306,
          319.12,
          324.4,
          335.6,
          341.44,
          350.72,
          353.76,
          356.48,
          358,
          359.6,
          361.52,
          363.52,
          365.2,
          366.88,
          370.08,
          373.28,
          386.8,
          398.56,
          418.64,
          427.6,
          437.52,
          442.08,
          484.32,
          498.88,
          531.36,
          538.08,
          546.88,
          547.6,
          553.2,
          576.08,
          581.28,
          586.48,
          609.36,
          636.8,
          676.8,
          685.6,
          696.24,
          725.04,
          733.44,
          742.32,
          775.76,
          784.64,
          789.28,
          792.64,
          796,
          799.28,
          801.28,
          803.28,
          806.48,
          809.2,
          821.52,
          827.36,
          843.92,
          874.16,
          895.76,
          914.64,
          915.84,
          926.96,
          937.2,
          938.8,
          946.16,
          954.24,
          979.36,
          987.52,
          992,
          996.64,
          1007.52,
          1016.64,
          1040.48,
          1048.72,
          1050.64,
          1055.92,
          1059.84,
          1062.16,
          1064.24,
          1065.76,
          1067.04,
          1068.88,
          1070.56,
          1072.08,
          1075.36,
          1076.96,
          1078.96,
          1083.92,
          1088,
          1098.88,
          1106.24,
          1107.84,
          1109.12,
          1109.92,
          1111.76,
          1114.08,
          1122.32,
          1162.48
        ]
      },
      "geometry": {
        "type": "LineString",
        "coordinates": [
          [
            -100.309781,
            25.667659,
            524.25
          ],
          [
            -100.304903,
            25.666671,
            524.25
          ],
          [
            -100.303621,
            25.666459,
            524.25
          ],
          [
            -100.303374,
            25.666441,
            524.25
          ],
          [
            -100.303286,
            25.666447,
            524.25
          ],
          [
            -100.303201,
            25.666464,
            524.25
          ],
          [
            -100.303109,
            25.666491,
            524.25
          ],
          [
            -100.302921,
            25.666564,
            524.25
          ],
          [
            -100.302125,
            25.666978,
            524.25
          ],
          [
            -100.300962,
            25.667596,
            523.75
          ],
          [
            -100.300519,
            25.667824,
            524.5
          ],
          [
            -100.29999,
            25.668102
          ],
          [
            -100.299789,
            25.668216
          ],
          [
            -100.299617,
            25.668331
          ],
          [
            -100.299449,
            25.66846
          ],
          [
            -100.299309,
            25.66859
          ],
          [
            -100.299189,
            25.66873
          ],
          [
            -100.299063,
            25.668901
          ],
          [
            -100.298958,
            25.66909
          ],
          [
            -100.298897,
            25.669223
          ],
          [
            -100.298825,
            25.669408
          ],
          [
            -100.298772,
            25.669613
          ],
          [
            -100.298723,
            25.669876
          ],
          [
            -100.298668,
            25.670312
          ],
          [
            -100.298582,
            25.670907
          ],
          [
            -100.298424,
            25.671852
          ],
          [
            -100.298086,
            25.674711
          ],
          [
            -100.297694,
            25.677466
          ],
          [
            -100.297649,
            25.677781
          ],
          [
            -100.297529,
            25.67874
          ],
          [
            -100.297118,
            25.681702
          ],
          [
            -100.297014,
            25.682604
          ],
          [
            -100.296867,
            25.683424
          ],
          [
            -100.296749,
            25.684361
          ],
          [
            -100.296421,
            25.686713
          ],
          [
            -100.296218,
            25.688244
          ],
          [
            -100.295859,
            25.690657
          ],
          [
            -100.295561,
            25.692571
          ],
          [
            -100.295341,
            25.694035
          ],
          [
            -100.29526,
            25.694628
          ],
          [
            -100.295089,
            25.695884
          ],
          [
            -100.295004,
            25.696542
          ],
          [
            -100.294869,
            25.697581
          ],
          [
            -100.294825,
            25.697921
          ],
          [
            -100.294766,
            25.698221
          ],
          [
            -100.294712,
            25.698388
          ],
          [
            -100.294645,
            25.698562
          ],
          [
            -100.294537,
            25.698754
          ],
          [
            -100.294412,
            25.698948
          ],
          [
            -100.294286,
            25.699104
          ],
          [
            -100.294153,
            25.699255
          ],
          [
            -100.293876,
            25.699518
          ],
          [
            -100.29357,
            25.699754
          ],
          [
            -100.292238,
            25.700695
          ],
          [
            -100.291071,
            25.7015
          ],
          [
            -100.289091,
            25.702885
          ],
          [
            -100.288214,
            25.703507
          ],
          [
            -100.28726,
            25.704213
          ],
          [
            -100.286813,
            25.70453
          ],
          [
            -100.282654,
            25.707445
          ],
          [
            -100.281213,
            25.708442
          ],
          [
            -100.277994,
            25.71067
          ],
          [
            -100.277329,
            25.711129
          ],
          [
            -100.276453,
            25.711733
          ],
          [
            -100.276381,
            25.711783
          ],
          [
            -100.275864,
            25.712206
          ],
          [
            -100.273595,
            25.713763
          ],
          [
            -100.273075,
            25.714115
          ],
          [
            -100.273595,
            25.713763
          ],
          [
            -100.275864,
            25.712206
          ],
          [
            -100.278581,
            25.71032,
            524.75
          ],
          [
            -100.282537,
            25.707576,
            524.75
          ],
          [
            -100.283406,
            25.706968,
            524.75
          ],
          [
            -100.284458,
            25.706239,
            524.75
          ],
          [
            -100.287288,
            25.704244,
            524.75
          ],
          [
            -100.28809,
            25.703642,
            524.75
          ],
          [
            -100.288958,
            25.703023,
            524.75
          ],
          [
            -100.292266,
            25.700722,
            524.75
          ],
          [
            -100.293136,
            25.7001,
            524.75
          ],
          [
            -100.293597,
            25.699779,
            524.75
          ],
          [
            -100.293916,
            25.699538,
            524.75
          ],
          [
            -100.294202,
            25.699263,
            524.75
          ],
          [
            -100.29445,
            25.698965,
            524.75
          ],
          [
            -100.294574,
            25.69877,
            524.75
          ],
          [
            -100.294688,
            25.698573,
            524.75
          ],
          [
            -100.294808,
            25.698231,
            524.75
          ],
          [
            -100.29487,
            25.697925,
            524.75
          ],
          [
            -100.295049,
            25.696546,
            524.75
          ],
          [
            -100.295127,
            25.695889,
            524.75
          ],
          [
            -100.295378,
            25.694037,
            524.75
          ],
          [
            -100.295896,
            25.690661,
            524.75
          ],
          [
            -100.296257,
            25.688249,
            524.75
          ],
          [
            -100.29655,
            25.686135,
            524.75
          ],
          [
            -100.29657,
            25.685999,
            524.75
          ],
          [
            -100.29675,
            25.684758,
            524.75
          ],
          [
            -100.296893,
            25.683609,
            524.75
          ],
          [
            -100.296918,
            25.683431,
            524.75
          ],
          [
            -100.297062,
            25.68261,
            524.75
          ],
          [
            -100.297177,
            25.681707,
            524.75
          ],
          [
            -100.297567,
            25.678894,
            524.75
          ],
          [
            -100.297683,
            25.677975,
            524.75
          ],
          [
            -100.297752,
            25.677475,
            524.75
          ],
          [
            -100.297822,
            25.676951,
            524.75
          ],
          [
            -100.29799,
            25.675732,
            524.75
          ],
          [
            -100.29814,
            25.674716,
            524.75
          ],
          [
            -100.298467,
            25.672046,
            524.75
          ],
          [
            -100.298616,
            25.671123,
            524.75
          ],
          [
            -100.298652,
            25.670911,
            524.75
          ],
          [
            -100.298732,
            25.670322,
            524.75
          ],
          [
            -100.298791,
            25.669886,
            524.75
          ],
          [
            -100.298841,
            25.669625,
            524.75
          ],
          [
            -100.298895,
            25.669395,
            524.75
          ],
          [
            -100.298955,
            25.669231,
            524.75
          ],
          [
            -100.299016,
            25.669102,
            524.75
          ],
          [
            -100.299121,
            25.668916,
            524.75
          ],
          [
            -100.299227,
            25.668752,
            524.75
          ],
          [
            -100.299341,
            25.668613,
            524.75
          ],
          [
            -100.299639,
            25.668363,
            524.75
          ],
          [
            -100.299801,
            25.668255,
            524.75
          ],
          [
            -100.300006,
            25.668135,
            524.75
          ],
          [
            -100.300536,
            25.667853,
            524.75
          ],
          [
            -100.300979,
            25.667625,
            523.75
          ],
          [
            -100.302151,
            25.667008,
            524.5
          ],
          [
            -100.302947,
            25.666593
          ],
          [
            -100.303129,
            25.666521
          ],
          [
            -100.303279,
            25.666487
          ],
          [
            -100.303374,
            25.66648
          ],
          [
            -100.303602,
            25.666496
          ],
          [
            -100.303883,
            25.666534
          ],
          [
            -100.304895,
            25.666707
          ],
          [
            -100.309774,
            25.667692
          ]
        ]
      }
    }
  ]
}