{
  "type": "FeatureCollection",
  "features": [
    {
      "type": "Feature",
      "properties": {
        "creator": "BRouter-1.7.9",
        "name": "[Metrorrey] 2 Train",
        "track-length": "24609",
        "filtered ascend": "12",
        "plain-ascend": "1",
        "total-time": "1969",
        "total-energy": "1082868",
        "cost": "49218",
        "messages": [
          [
            "Longitude",
            "Latitude",
            "Elevation",
            "Distance",
            "CostPerKm",
            "ElevCost",
            "TurnCost",
            "NodeCost",
            "InitialCost",
            "WayTags",
            "NodeTags",
            "Time",
            "Energy"
          ],
          [
            "-100310525",
            "25667823",
            "-8192",
            "33",
            "2000",
            "0",
            "0",
            "0",
            "0",
            "railway=subway",
            "railway=halt",
            "2",
            "1451"
          ],
          [
            "-100315907",
            "25668666",
            "-8192",
            "548",
            "2000",
            "0",
            "0",
            "0",
            "0",
            "railway=subway",
            "railway=halt",
            "46",
            "25555"
          ],
          [
            "-100318933",
            "25671150",
            "-8192",
            "500",
            "2000",
            "0",
            "0",
            "0",
            "0",
            "railway=subway",
            "",
            "86",
            "47548"
          ],
          [
            "-100318728",
            "25672600",
            "-8192",
            "162",
            "2000",
            "0",
            "0",
            "0",
            "0",
            "railway=subway",
            "railway=halt",
            "12",
            "7125"
          ],
          [
            "-100318172",
            "25676774",
            "-8192",
            "466",
            "2000",
            "0",
            "0",
            "0",
            "0",
            "railway=subway",
            "railway=halt",
            "50",
            "27622"
          ],
          [
            "-100316929",
            "25685812",
            "-8192",
            "1010",
            "2000",
            "0",
            "0",
            "0",
            "0",
            "railway=subway",
            "railway=halt",
            "131",
            "72047"
          ],
          [
            "-100316721",
            "25690827",
            "-8192",
            "556",
            "2000",
            "0",
            "0",
            "0",
            "0",
            "railway=subway",
            "railway=switch",
            "175",
            "96503"
          ],
          [
            "-100316848",
            "25696941",
            "-8192",
            "678",
            "2000",
            "0",
            "0",
            "0",
            "0",
            "railway=subway",
            "railway=halt",
            "229",
            "126325"
          ],
          [
            "-100313895",
            "25708440",
            "-8192",
            "1320",
            "2000",
            "0",
            "0",
            "0",
            "0",
            "railway=subway",
            "railway=halt",
            "335",
            "184386"
          ],
          [
            "-100312025",
            "25713689",
            "528",
            "611",
            "2000",
            "0",
            "0",
            "0",
            "0",
            "railway=subway",
            "",
            "384",
            "210621"
          ],
          [
            "-100310638",
            "25717445",
            "526",
            "439",
            "2000",
            "0",
            "0",
            "0",
            "0",
            "reversedirection=yes railway=subway",
            "railway=halt",
            "419",
            "229908"
          ],
          [
            "-100308021",
            "25724831",
            "519",
            "860",
            "2000",
            "0",
            "0",
            "0",
            "0",
            "reversedirection=yes railway=subway",
            "railway=halt",
            "488",
            "262788"
          ],
          [
            "-100307979",
            "25724946",
            "519",
            "13",
            "2000",
            "0",
            "0",
            "0",
            "0",
            "reversedirection=yes railway=subway",
            "",
            "489",
            "263102"
          ],
          [
            "-100307296",
            "25726824",
            "-8192",
            "219",
            "2000",
            "0",
            "0",
            "0",
            "0",
            "railway=subway",
            "railway=switch",
            "506",
            "271085"
          ],
          [
            "-100304333",
            "25734982",
            "-8192",
            "952",
            "2000",
            "0",
            "0",
            "0",
            "0",
            "railway=subway",
            "railway=switch",
            "582",
            "312751"
          ],
          [
            "-100302439",
            "25740295",
            "-8192",
            "618",
            "2000",
            "0",
            "0",
            "0",
            "0",
            "railway=subway",
            "railway=halt",
            "632",
            "338099"
          ],
          [
            "-100297855",
            "25753111",
            "-8192",
            "1492",
            "2000",
            "0",
            "0",
            "0",
            "0",
            "railway=subway",
            "railway=halt",
            "751",
            "402911"
          ],
          [
            "-100295499",
            "25759684",
            "-8192",
            "765",
            "2000",
            "0",
            "0",
            "0",
            "0",
            "railway=subway",
            "railway=halt",
            "812",
            "436560"
          ],
          [
            "-100292769",
            "25769201",
            "-8192",
            "1092",
            "2000",
            "0",
            "0",
            "0",
            "0",
            "railway=subway",
            "railway=halt",
            "900",
            "484592"
          ],
          [
            "-100292746",
            "25769349",
            "-8192",
            "17",
            "2000",
            "0",
            "0",
            "0",
            "0",
            "railway=subway",
            "",
            "901",
            "485339"
          ],
          [
            "-100292651",
            "25769960",
            "-8192",
            "68",
            "2000",
            "0",
            "0",
            "0",
            "0",
            "railway=subway",
            "railway=switch",
            "5",
            "2990"
          ],
          [
            "-100292782",
            "25769530",
            "-8192",
            "49",
            "2000",
            "0",
            "0",
            "0",
            "0",
            "reversedirection=yes railway=subway",
            "railway=switch",
            "9",
            "5146"
          ],
          [
            "-100292973",
            "25768395",
            "-8192",
            "127",
            "2000",
            "0",
            "0",
            "0",
            "0",
            "railway=subway",
            "railway=halt",
            "19",
            "10732"
          ],
          [
            "-100293931",
            "25763951",
            "-8192",
            "502",
            "2000",
            "0",
            "0",
            "0",
            "0",
            "railway=subway",
            "",
            "59",
            "32812"
          ],
          [
            "-100295840",
            "25758933",
            "-8192",
            "588",
            "2000",
            "0",
            "0",
            "0",
            "0",
            "railway=subway",
            "railway=halt",
            "47",
            "25863"
          ],
          [
            "-100298217",
            "25752247",
            "-8192",
            "779",
            "2000",
            "0",
            "0",
            "0",
            "0",
            "railway=subway",
            "railway=halt",
            "109",
            "60127"
          ],
          [
            "-100302811",
            "25739459",
            "-8192",
            "1490",
            "2000",
            "0",
            "0",
            "0",
            "0",
            "railway=subway",
            "railway=halt",
            "228",
            "125665"
          ],
          [
            "-100304548",
            "25734555",
            "-8192",
            "571",
            "2000",
            "0",
            "0",
            "0",
            "0",
            "railway=subway",
            "railway=switch",
            "274",
            "150781"
          ],
          [
            "-100304850",
            "25733726",
            "-8192",
            "97",
            "2000",
            "0",
            "0",
            "0",
            "0",
            "railway=subway",
            "railway=switch",
            "282",
            "155048"
          ],
          [
            "-100305751",
            "25731249",
            "-8192",
            "289",
            "2000",
            "0",
            "0",
            "0",
            "0",
            "railway=subway",
            "railway=switch",
            "305",
            "167759"
          ],
          [
            "-100307175",
            "25727294",
            "-8192",
            "461",
            "2000",
            "0",
            "0",
            "0",
            "0",
            "railway=subway",
            "railway=switch",
            "342",
            "188036"
          ],
          [
            "-100308383",
            "25723964",
            "521",
            "389",
            "2000",
            "0",
            "0",
            "0",
            "0",
            "railway=subway",
            "railway=halt",
            "373",
            "205147"
          ],
          [
            "-100310981",
            "25716614",
            "526",
            "855",
            "2000",
            "0",
            "0",
            "0",
            "0",
            "railway=subway",
            "railway=halt",
            "441",
            "244961"
          ],
          [
            "-100314206",
            "25707781",
            "-8192",
            "1032",
            "2000",
            "0",
            "0",
            "0",
            "0",
            "railway=subway",
            "railway=halt",
            "524",
            "296304"
          ],
          [
            "-100316893",
            "25696376",
            "-8192",
            "1306",
            "2000",
            "0",
            "0",
            "0",
            "0",
            "railway=subway",
            "railway=halt",
            "628",
            "354996"
          ],
          [
            "-100316774",
            "25690933",
            "-8192",
            "604",
            "2000",
            "0",
            "0",
            "0",
            "0",
            "railway=subway",
            "",
            "676",
            "382971"
          ],
          [
            "-100316766",
            "25690416",
            "-8192",
            "57",
            "2000",
            "0",
            "0",
            "0",
            "0",
            "railway=subway",
            "railway=switch",
            "4",
            "2507"
          ],
          [
            "-100316768",
            "25690173",
            "-8192",
            "27",
            "2000",
            "0",
            "0",
            "0",
            "0",
            "railway=subway",
            "railway=switch",
            "6",
            "3694"
          ],
          [
            "-100316901",
            "25686347",
            "-8192",
            "424",
            "2000",
            "0",
            "0",
            "0",
            "0",
            "railway=subway",
            "railway=halt",
            "40",
            "22344"
          ],
          [
            "-100318150",
            "25677238",
            "-8192",
            "1016",
            "2000",
            "0",
            "0",
            "0",
            "0",
            "railway=subway",
            "railway=halt",
            "121",
            "67033"
          ],
          [
            "-100318837",
            "25672081",
            "-8192",
            "575",
            "2000",
            "0",
            "0",
            "0",
            "0",
            "railway=subway",
            "railway=halt",
            "167",
            "92325"
          ],
          [
            "-100315205",
            "25668560",
            "-8192",
            "675",
            "2000",
            "0",
            "0",
            "0",
            "0",
            "railway=subway",
            "railway=halt",
            "221",
            "122015"
          ],
          [
            "-100312493",
            "25668129",
            "-8192",
            "277",
            "2000",
            "0",
            "0",
            "0",
            "0",
            "railway=subway",
            "",
            "244",
            "134198"
          ]
        ],
        "times": [
          0,
          2.64,
          19.76,
          36.96,
          46.48,
          54.88,
          59.28,
          61.04,
          62.8,
          64.56,
          66.32,
          68.08,
          69.84,
          71.6,
          73.36,
          75.12,
          76.88,
          78.64,
          80.4,
          82.16,
          86.48,
          94.8,
          99.44,
          113.2,
          136.72,
          173.6,
          182.32,
          196.48,
          217.52,
          222.24,
          231.76,
          245.2,
          256.16,
          262,
          274.96,
          311.2,
          316.24,
          343.2,
          347.92,
          351.2,
          366.24,
          392.16,
          421.84,
          428.88,
          433.52,
          450.16,
          457.92,
          460.96,
          470.72,
          477.6,
          496.64,
          505.84,
          507.36,
          524.72,
          545.28,
          565.44,
          574.64,
          575.68,
          585.84,
          593.2,
          597.44,
          606.08,
          634.4,
          657.92,
          669.36,
          681.68,
          702.08,
          709.36,
          718.8,
          728.24,
          750.24,
          793.28,
          808.48,
          822.08,
          838.16,
          883.04,
          899.36,
          909.44,
          923.36,
          935.44,
          947.92,
          953.04,
          961.76,
          968.4,
          986.72,
          988.08,
          993.52,
          997.44,
          1007.6,
          1018.48,
          1025.2,
          1033.92,
          1039.04,
          1047.76,
          1051.52,
          1063.6,
          1077.6,
          1085.84,
          1094.8,
          1104,
          1126.32,
          1157.12,
          1178.56,
          1193.84,
          1207.52,
          1220.88,
          1258.88,
          1267.28,
          1276.32,
          1285.12,
          1305.52,
          1317.84,
          1322,
          1329.76,
          1352.88,
          1381.2,
          1389.76,
          1401.36,
          1411.6,
          1420.88,
          1421.84,
          1442,
          1462.56,
          1479.92,
          1489.28,
          1503.68,
          1516.56,
          1526.4,
          1529.44,
          1537.2,
          1553.84,
          1558.56,
          1565.52,
          1571.84,
          1595.2,
          1621.2,
          1636.24,
          1639.52,
          1644.32,
          1671.28,
          1676.32,
          1705.52,
          1712.64,
          1724.64,
          1725.6,
          1729.2,
          1731.36,
          1755.76,
          1765.28,
          1774.48,
          1791.04,
          1813.84,
          1846.56,
          1874.24,
          1887.92,
          1892.56,
          1905.2,
          1906.96,
          1908.72,
          1910.48,
          1912.24,
          1914,
          1915.76,
          1917.52,
          1919.28,
          1921.04,
          1922.8,
          1924.56,
          1926.32,
          1928.08,
          1932.48,
          1946.56,
          1950.4,
          1967.6,
          1968.72
        ]
      },
      "geometry": {
        "type": "LineString",
        "coordinates": [
          [
            -100.310201,
            25.667766
          ],
          [
            -100.310525,
            25.667823
          ],
          [
            -100.312623,
            25.668179
          ],
          [
            -100.314728,
            25.668533
          ],
          [
            -100.315907,
            25.668666
          ],
          [
            -100.316945,
            25.668783
          ],
          [
            -100.317482,
            25.668857
          ],
          [
            -100.317693,
            25.668895
          ],
          [
            -100.317899,
            25.668953
          ],
          [
            -100.318095,
            25.669035
          ],
          [
            -100.318279,
            25.669138
          ],
          [
            -100.318447,
            25.66926
          ],
          [
            -100.318597,
            25.669399
          ],
          [
            -100.318727,
            25.669555
          ],
          [
            -100.318836,
            25.669723
          ],
          [
            -100.31892,
            25.669902
          ],
          [
            -100.31898,
            25.670089
          ],
          [
            -100.319014,
            25.670281
          ],
          [
            -100.319022,
            25.670476
          ],
          [
            -100.319003,
            25.67067
          ],
          [
            -100.318933,
            25.67115,
            531
          ],
          [
            -100.318797,
            25.67208,
            531
          ],
          [
            -100.318728,
            25.6726,
            531
          ],
          [
            -100.318559,
            25.674142,
            531
          ],
          [
            -100.318172,
            25.676774,
            531
          ],
          [
            -100.317601,
            25.680902,
            531
          ],
          [
            -100.317481,
            25.681877,
            531
          ],
          [
            -100.317264,
            25.683459,
            531
          ],
          [
            -100.316929,
            25.685812,
            531
          ],
          [
            -100.316853,
            25.686341,
            531
          ],
          [
            -100.316765,
            25.687415,
            531
          ],
          [
            -100.316753,
            25.688933,
            531
          ],
          [
            -100.31672,
            25.690171,
            531
          ],
          [
            -100.316721,
            25.690827,
            531
          ],
          [
            -100.316787,
            25.692285,
            531
          ],
          [
            -100.316846,
            25.696375,
            531
          ],
          [
            -100.316848,
            25.696941,
            531
          ],
          [
            -100.316828,
            25.699984,
            531
          ],
          [
            -100.316777,
            25.700516,
            531
          ],
          [
            -100.316706,
            25.700882,
            531
          ],
          [
            -100.316186,
            25.702516,
            531
          ],
          [
            -100.315097,
            25.705271,
            531
          ],
          [
            -100.313895,
            25.70844,
            531
          ],
          [
            -100.313623,
            25.709194,
            531
          ],
          [
            -100.313405,
            25.709678,
            531
          ],
          [
            -100.312803,
            25.711477,
            531
          ],
          [
            -100.312516,
            25.712315,
            530
          ],
          [
            -100.312403,
            25.71264,
            529.75
          ],
          [
            -100.312025,
            25.713689,
            528.75
          ],
          [
            -100.311746,
            25.714424,
            528.25
          ],
          [
            -100.310993,
            25.716457,
            526.75
          ],
          [
            -100.310638,
            25.717445,
            526
          ],
          [
            -100.310581,
            25.717605,
            526
          ],
          [
            -100.309946,
            25.719475,
            524.5
          ],
          [
            -100.309144,
            25.721678,
            523
          ],
          [
            -100.308375,
            25.723844,
            520.5
          ],
          [
            -100.308021,
            25.724831,
            519.25
          ],
          [
            -100.307979,
            25.724946,
            519.25
          ],
          [
            -100.307588,
            25.726038
          ],
          [
            -100.307296,
            25.726824
          ],
          [
            -100.307127,
            25.727276
          ],
          [
            -100.306807,
            25.728206
          ],
          [
            -100.305691,
            25.731236
          ],
          [
            -100.304781,
            25.733759
          ],
          [
            -100.304333,
            25.734982
          ],
          [
            -100.303881,
            25.736314
          ],
          [
            -100.303104,
            25.738507
          ],
          [
            -100.302824,
            25.739289
          ],
          [
            -100.302439,
            25.740295
          ],
          [
            -100.302088,
            25.741316
          ],
          [
            -100.301237,
            25.743678
          ],
          [
            -100.299586,
            25.748296
          ],
          [
            -100.298993,
            25.749928
          ],
          [
            -100.298477,
            25.751389
          ],
          [
            -100.297855,
            25.753111
          ],
          [
            -100.296134,
            25.757933
          ],
          [
            -100.295499,
            25.759684
          ],
          [
            -100.295086,
            25.760761
          ],
          [
            -100.294472,
            25.76223
          ],
          [
            -100.294005,
            25.763526
          ],
          [
            -100.293562,
            25.764879
          ],
          [
            -100.293405,
            25.765443
          ],
          [
            -100.293213,
            25.766414
          ],
          [
            -100.293109,
            25.767153
          ],
          [
            -100.292769,
            25.769201
          ],
          [
            -100.292746,
            25.769349
          ],
          [
            -100.292651,
            25.76996
          ],
          [
            -100.292782,
            25.76953
          ],
          [
            -100.292973,
            25.768395
          ],
          [
            -100.293176,
            25.767181
          ],
          [
            -100.293283,
            25.766426
          ],
          [
            -100.293475,
            25.765455
          ],
          [
            -100.293629,
            25.764896
          ],
          [
            -100.293931,
            25.763951,
            519
          ],
          [
            -100.294061,
            25.763543,
            519
          ],
          [
            -100.294531,
            25.762247,
            519
          ],
          [
            -100.295155,
            25.760771,
            519
          ],
          [
            -100.295498,
            25.759898,
            519
          ],
          [
            -100.29584,
            25.758933,
            519
          ],
          [
            -100.2962,
            25.757948,
            519
          ],
          [
            -100.297053,
            25.755555,
            519
          ],
          [
            -100.298217,
            25.752247,
            519
          ],
          [
            -100.299048,
            25.749948,
            519
          ],
          [
            -100.299635,
            25.748312,
            519
          ],
          [
            -100.300171,
            25.746847,
            519
          ],
          [
            -100.300671,
            25.745413,
            519
          ],
          [
            -100.302145,
            25.741336,
            519
          ],
          [
            -100.302449,
            25.740425,
            519
          ],
          [
            -100.302811,
            25.739459,
            519
          ],
          [
            -100.303152,
            25.73852,
            519
          ],
          [
            -100.303929,
            25.736327,
            519
          ],
          [
            -100.304388,
            25.734998,
            519
          ],
          [
            -100.304548,
            25.734555,
            519
          ],
          [
            -100.30485,
            25.733726,
            519
          ],
          [
            -100.305751,
            25.731249,
            519
          ],
          [
            -100.306853,
            25.728218,
            519
          ],
          [
            -100.307175,
            25.727294,
            519
          ],
          [
            -100.307636,
            25.726055,
            519
          ],
          [
            -100.308025,
            25.724959,
            520.25
          ],
          [
            -100.308383,
            25.723964,
            521.25
          ],
          [
            -100.308422,
            25.723858,
            521.25
          ],
          [
            -100.309187,
            25.721694,
            523
          ],
          [
            -100.30999,
            25.719487,
            524.5
          ],
          [
            -100.310622,
            25.717615,
            526
          ],
          [
            -100.310981,
            25.716614,
            526.75
          ],
          [
            -100.311546,
            25.715075,
            528
          ],
          [
            -100.312064,
            25.713701,
            529
          ],
          [
            -100.312454,
            25.712651,
            530
          ],
          [
            -100.312567,
            25.712327,
            530
          ],
          [
            -100.312874,
            25.711495,
            531.25
          ],
          [
            -100.313478,
            25.709699
          ],
          [
            -100.313695,
            25.709206
          ],
          [
            -100.313955,
            25.708456
          ],
          [
            -100.314206,
            25.707781
          ],
          [
            -100.315157,
            25.705288
          ],
          [
            -100.316251,
            25.702526
          ],
          [
            -100.316756,
            25.700888
          ],
          [
            -100.316823,
            25.700519
          ],
          [
            -100.316875,
            25.699982
          ],
          [
            -100.316896,
            25.696943
          ],
          [
            -100.316893,
            25.696376
          ],
          [
            -100.316848,
            25.693083
          ],
          [
            -100.31683,
            25.692283
          ],
          [
            -100.316774,
            25.690933
          ],
          [
            -100.316769,
            25.690826
          ],
          [
            -100.316766,
            25.690416
          ],
          [
            -100.316768,
            25.690173
          ],
          [
            -100.316806,
            25.687419
          ],
          [
            -100.316901,
            25.686347
          ],
          [
            -100.317039,
            25.685317
          ],
          [
            -100.317305,
            25.683462
          ],
          [
            -100.317647,
            25.680904
          ],
          [
            -100.31815,
            25.677238
          ],
          [
            -100.318598,
            25.674141
          ],
          [
            -100.318771,
            25.672605
          ],
          [
            -100.318837,
            25.672081
          ],
          [
            -100.319042,
            25.670671
          ],
          [
            -100.319064,
            25.670474
          ],
          [
            -100.31906,
            25.670275
          ],
          [
            -100.319023,
            25.670078
          ],
          [
            -100.31896,
            25.66989
          ],
          [
            -100.31887,
            25.669704
          ],
          [
            -100.318756,
            25.669533
          ],
          [
            -100.318629,
            25.669376
          ],
          [
            -100.318473,
            25.669232
          ],
          [
            -100.3183,
            25.669105
          ],
          [
            -100.318111,
            25.669005
          ],
          [
            -100.317909,
            25.668919
          ],
          [
            -100.317701,
            25.668864
          ],
          [
            -100.317486,
            25.668827
          ],
          [
            -100.316948,
            25.668754
          ],
          [
            -100.315205,
            25.66856
          ],
          [
            -100.314732,
            25.668505
          ],
          [
            -100.312629,
            25.668153
          ],
          [
            -100.312493,
            25.668129
          ]
        ]
      }
    }
  ]
}