{
  "type": "FeatureCollection",
  "features": [
    {
      "type": "Feature",
      "properties": {
        "creator": "BRouter-1.7.9",
        "name": "[Metrorrey] 1 Train",
        "track-length": "37515",
        "filtered ascend": "3",
        "plain-ascend": "1",
        "total-time": "3000",
        "total-energy": "1650360",
        "cost": "75030",
        "messages": [
          [
            "Longitude",
            "Latitude",
            "Elevation",
            "Distance",
            "CostPerKm",
            "ElevCost",
            "TurnCost",
            "NodeCost",
            "InitialCost",
            "WayTags",
            "NodeTags",
            "Time",
            "Energy"
          ],
          [
            "-100367822",
            "25758358",
            "554",
            "172",
            "2000",
            "0",
            "0",
            "0",
            "0",
            "reversedirection=yes railway=subway",
            "railway=switch",
            "13",
            "7732"
          ],
          [
            "-100367811",
            "25758341",
            "554",
            "2",
            "2000",
            "0",
            "0",
            "0",
            "0",
            "reversedirection=yes railway=subway",
            "railway=switch",
            "13",
            "7812"
          ],
          [
            "-100367695",
            "25758137",
            "554",
            "25",
            "2000",
            "0",
            "0",
            "0",
            "0",
            "reversedirection=yes railway=subway",
            "railway=switch",
            "15",
            "8828"
          ],
          [
            "-100366936",
            "25756862",
            "556",
            "160",
            "2000",
            "0",
            "0",
            "0",
            "0",
            "reversedirection=yes railway=subway",
            "railway=switch",
            "28",
            "16686"
          ],
          [
            "-100366599",
            "25756299",
            "556",
            "71",
            "2000",
            "0",
            "0",
            "0",
            "0",
            "reversedirection=yes railway=subway",
            "railway=switch",
            "34",
            "20139"
          ],
          [
            "-100365910",
            "25755152",
            "555",
            "145",
            "2000",
            "0",
            "0",
            "0",
            "0",
            "reversedirection=yes railway=subway",
            "railway=switch",
            "46",
            "25579"
          ],
          [
            "-100362325",
            "25749006",
            "-8192",
            "782",
            "2000",
            "0",
            "0",
            "0",
            "0",
            "railway=subway",
            "railway=switch",
            "108",
            "59688"
          ],
          [
            "-100361393",
            "25748115",
            "-8192",
            "136",
            "2000",
            "0",
            "0",
            "0",
            "0",
            "railway=subway",
            "railway=halt",
            "119",
            "65670"
          ],
          [
            "-100354642",
            "25741570",
            "-8192",
            "992",
            "2000",
            "0",
            "0",
            "0",
            "0",
            "railway=subway",
            "railway=halt",
            "198",
            "109303"
          ],
          [
            "-100347032",
            "25731732",
            "-8192",
            "1337",
            "2000",
            "0",
            "0",
            "0",
            "0",
            "railway=subway",
            "railway=halt",
            "305",
            "168111"
          ],
          [
            "-100342562",
            "25722910",
            "-8192",
            "1095",
            "2000",
            "0",
            "0",
            "0",
            "0",
            "railway=subway",
            "railway=halt",
            "393",
            "216275"
          ],
          [
            "-100342494",
            "25715392",
            "-8192",
            "832",
            "2000",
            "0",
            "0",
            "0",
            "0",
            "railway=subway",
            "railway=halt",
            "459",
            "252871"
          ],
          [
            "-100342426",
            "25706497",
            "-8192",
            "985",
            "2000",
            "0",
            "0",
            "0",
            "0",
            "railway=subway",
            "railway=switch",
            "538",
            "296196"
          ],
          [
            "-100342419",
            "25705451",
            "-8192",
            "116",
            "2000",
            "0",
            "0",
            "0",
            "0",
            "railway=subway",
            "railway=halt",
            "548",
            "301298"
          ],
          [
            "-100343255",
            "25698376",
            "-8192",
            "787",
            "2000",
            "0",
            "0",
            "0",
            "0",
            "railway=subway",
            "railway=halt",
            "610",
            "335915"
          ],
          [
            "-100344168",
            "25691540",
            "-8192",
            "762",
            "2000",
            "0",
            "0",
            "0",
            "0",
            "railway=subway",
            "railway=halt",
            "671",
            "369432"
          ],
          [
            "-100336180",
            "25687209",
            "-8192",
            "1069",
            "2000",
            "0",
            "0",
            "0",
            "0",
            "railway=subway",
            "railway=switch",
            "757",
            "416452"
          ],
          [
            "-100334448",
            "25687023",
            "-8192",
            "175",
            "2000",
            "0",
            "0",
            "0",
            "0",
            "railway=subway",
            "railway=switch",
            "771",
            "424149"
          ],
          [
            "-100333021",
            "25686873",
            "-8192",
            "144",
            "2000",
            "0",
            "0",
            "0",
            "0",
            "railway=subway",
            "railway=halt",
            "782",
            "430483"
          ],
          [
            "-100323796",
            "25686945",
            "-8192",
            "940",
            "2000",
            "0",
            "0",
            "0",
            "0",
            "railway=subway",
            "railway=halt",
            "858",
            "471829"
          ],
          [
            "-100319953",
            "25686510",
            "-8192",
            "388",
            "2000",
            "0",
            "0",
            "0",
            "0",
            "railway=subway",
            "railway=switch",
            "889",
            "488896"
          ],
          [
            "-100318821",
            "25686358",
            "-8192",
            "115",
            "2000",
            "0",
            "0",
            "0",
            "0",
            "railway=subway",
            "",
            "898",
            "493954"
          ],
          [
            "-100316385",
            "25686071",
            "-8192",
            "247",
            "2000",
            "0",
            "0",
            "0",
            "0",
            "railway=subway",
            "railway=halt",
            "19",
            "10864"
          ],
          [
            "-100315528",
            "25685984",
            "-8192",
            "87",
            "2000",
            "0",
            "0",
            "0",
            "0",
            "railway=subway",
            "railway=switch",
            "26",
            "14691"
          ],
          [
            "-100306102",
            "25684996",
            "-8192",
            "954",
            "2000",
            "0",
            "0",
            "0",
            "0",
            "railway=subway",
            "railway=halt",
            "103",
            "56652"
          ],
          [
            "-100301407",
            "25684476",
            "-8192",
            "475",
            "2000",
            "0",
            "0",
            "0",
            "0",
            "railway=subway",
            "railway=switch",
            "141",
            "77545"
          ],
          [
            "-100300499",
            "25684374",
            "-8192",
            "92",
            "2000",
            "0",
            "0",
            "0",
            "0",
            "railway=subway",
            "",
            "148",
            "81592"
          ],
          [
            "-100295083",
            "25683867",
            "-8192",
            "548",
            "2000",
            "0",
            "0",
            "0",
            "0",
            "railway=subway",
            "railway=switch",
            "43",
            "24103"
          ],
          [
            "-100287699",
            "25683717",
            "-8192",
            "742",
            "2000",
            "0",
            "0",
            "0",
            "0",
            "railway=subway",
            "railway=halt",
            "103",
            "56740"
          ],
          [
            "-100279013",
            "25683057",
            "-8192",
            "896",
            "2000",
            "0",
            "0",
            "0",
            "0",
            "railway=subway",
            "railway=halt",
            "174",
            "96151"
          ],
          [
            "-100273326",
            "25681338",
            "-8192",
            "606",
            "2000",
            "0",
            "0",
            "0",
            "0",
            "railway=subway",
            "railway=switch",
            "223",
            "122806"
          ],
          [
            "-100263752",
            "25679948",
            "-8192",
            "975",
            "2000",
            "0",
            "0",
            "0",
            "0",
            "railway=subway",
            "railway=halt",
            "301",
            "165692"
          ],
          [
            "-100251781",
            "25679807",
            "-8192",
            "1206",
            "2000",
            "0",
            "0",
            "0",
            "0",
            "railway=subway",
            "railway=halt",
            "397",
            "218738"
          ],
          [
            "-100246960",
            "25679684",
            "-8192",
            "484",
            "2000",
            "0",
            "0",
            "0",
            "0",
            "railway=subway",
            "railway=switch",
            "436",
            "240027"
          ],
          [
            "-100246415",
            "25679648",
            "-8192",
            "55",
            "2000",
            "0",
            "0",
            "0",
            "0",
            "reversedirection=yes railway=subway",
            "railway=switch",
            "440",
            "242446"
          ],
          [
            "-100245902",
            "25679589",
            "-8192",
            "52",
            "2000",
            "0",
            "0",
            "0",
            "0",
            "reversedirection=yes railway=subway",
            "railway=halt",
            "445",
            "244733"
          ],
          [
            "-100244836",
            "25679464",
            "-8192",
            "108",
            "2000",
            "0",
            "0",
            "0",
            "0",
            "reversedirection=yes railway=subway",
            "",
            "453",
            "249484"
          ],
          [
            "-100245902",
            "25679589",
            "-8192",
            "108",
            "2000",
            "0",
            "0",
            "0",
            "0",
            "railway=subway",
            "railway=halt",
            "8",
            "4750"
          ],
          [
            "-100246415",
            "25679648",
            "-8192",
            "52",
            "2000",
            "0",
            "0",
            "0",
            "0",
            "railway=subway",
            "railway=switch",
            "12",
            "7037"
          ],
          [
            "-100248478",
            "25679859",
            "-8192",
            "208",
            "2000",
            "0",
            "0",
            "0",
            "0",
            "railway=subway",
            "",
            "29",
            "16186"
          ],
          [
            "-100252724",
            "25679828",
            "-8192",
            "427",
            "2000",
            "0",
            "0",
            "0",
            "0",
            "railway=subway",
            "railway=halt",
            "34",
            "18781"
          ],
          [
            "-100264533",
            "25680199",
            "-8192",
            "1196",
            "2000",
            "0",
            "0",
            "0",
            "0",
            "railway=subway",
            "railway=halt",
            "129",
            "71388"
          ],
          [
            "-100273905",
            "25681424",
            "-8192",
            "952",
            "2000",
            "0",
            "0",
            "0",
            "0",
            "railway=subway",
            "railway=switch",
            "206",
            "113262"
          ],
          [
            "-100279817",
            "25683485",
            "-8192",
            "639",
            "2000",
            "0",
            "0",
            "0",
            "0",
            "railway=subway",
            "railway=halt",
            "257",
            "141368"
          ],
          [
            "-100288603",
            "25683760",
            "-8192",
            "895",
            "2000",
            "0",
            "0",
            "0",
            "0",
            "railway=subway",
            "railway=halt",
            "328",
            "180735"
          ],
          [
            "-100295622",
            "25683932",
            "-8192",
            "704",
            "2000",
            "0",
            "0",
            "0",
            "0",
            "railway=subway",
            "railway=switch",
            "385",
            "211701"
          ],
          [
            "-100298292",
            "25684167",
            "-8192",
            "269",
            "2000",
            "0",
            "0",
            "0",
            "0",
            "railway=subway",
            "railway=switch",
            "406",
            "223533"
          ],
          [
            "-100300830",
            "25684449",
            "-8192",
            "256",
            "2000",
            "0",
            "0",
            "0",
            "0",
            "railway=subway",
            "railway=switch",
            "427",
            "234793"
          ],
          [
            "-100307003",
            "25685132",
            "-8192",
            "624",
            "2000",
            "0",
            "0",
            "0",
            "0",
            "railway=subway",
            "railway=halt",
            "476",
            "262240"
          ],
          [
            "-100316090",
            "25686066",
            "-8192",
            "918",
            "2000",
            "0",
            "0",
            "0",
            "0",
            "railway=subway",
            "railway=switch",
            "550",
            "302618"
          ],
          [
            "-100317358",
            "25686198",
            "-8192",
            "129",
            "2000",
            "0",
            "0",
            "0",
            "0",
            "railway=subway",
            "railway=halt",
            "560",
            "308292"
          ],
          [
            "-100318981",
            "25686409",
            "-8192",
            "165",
            "2000",
            "0",
            "0",
            "0",
            "0",
            "railway=subway",
            "railway=switch",
            "573",
            "315550"
          ],
          [
            "-100319177",
            "25686435",
            "-8192",
            "20",
            "2000",
            "0",
            "0",
            "0",
            "0",
            "railway=subway",
            "railway=switch",
            "575",
            "316429"
          ],
          [
            "-100324695",
            "25687048",
            "-8192",
            "559",
            "2000",
            "0",
            "0",
            "0",
            "0",
            "railway=subway",
            "railway=halt",
            "620",
            "341017"
          ],
          [
            "-100333856",
            "25686990",
            "-8192",
            "932",
            "2000",
            "0",
            "0",
            "0",
            "0",
            "railway=subway",
            "railway=halt",
            "694",
            "382011"
          ],
          [
            "-100334130",
            "25687020",
            "-8192",
            "28",
            "2000",
            "0",
            "0",
            "0",
            "0",
            "railway=subway",
            "",
            "697",
            "383243"
          ],
          [
            "-100334905",
            "25687105",
            "-8192",
            "78",
            "2000",
            "0",
            "0",
            "0",
            "0",
            "railway=subway",
            "railway=switch",
            "6",
            "3430"
          ],
          [
            "-100335722",
            "25687193",
            "-8192",
            "83",
            "2000",
            "0",
            "0",
            "0",
            "0",
            "railway=subway",
            "railway=switch",
            "12",
            "7081"
          ],
          [
            "-100344018",
            "25692327",
            "-8192",
            "1197",
            "2000",
            "0",
            "0",
            "0",
            "0",
            "railway=subway",
            "railway=halt",
            "108",
            "59731"
          ],
          [
            "-100343101",
            "25699143",
            "-8192",
            "761",
            "2000",
            "0",
            "0",
            "0",
            "0",
            "railway=subway",
            "railway=halt",
            "169",
            "93204"
          ],
          [
            "-100342363",
            "25706242",
            "-8192",
            "790",
            "2000",
            "0",
            "0",
            "0",
            "0",
            "railway=subway",
            "railway=halt",
            "232",
            "127953"
          ],
          [
            "-100342362",
            "25706466",
            "-8192",
            "25",
            "2000",
            "0",
            "0",
            "0",
            "0",
            "railway=subway",
            "railway=switch",
            "234",
            "129052"
          ],
          [
            "-100342348",
            "25708351",
            "-8192",
            "209",
            "2000",
            "0",
            "0",
            "0",
            "0",
            "railway=subway",
            "railway=switch",
            "251",
            "138245"
          ],
          [
            "-100342445",
            "25716178",
            "-8192",
            "867",
            "2000",
            "0",
            "0",
            "0",
            "0",
            "railway=subway",
            "railway=halt",
            "320",
            "176380"
          ],
          [
            "-100342511",
            "25723706",
            "-8192",
            "833",
            "2000",
            "0",
            "0",
            "0",
            "0",
            "railway=subway",
            "railway=halt",
            "387",
            "213020"
          ],
          [
            "-100347434",
            "25732476",
            "-8192",
            "1101",
            "2000",
            "0",
            "0",
            "0",
            "0",
            "railway=subway",
            "railway=halt",
            "475",
            "261448"
          ],
          [
            "-100355206",
            "25742180",
            "-8192",
            "1335",
            "2000",
            "0",
            "0",
            "0",
            "0",
            "railway=subway",
            "railway=halt",
            "582",
            "320168"
          ],
          [
            "-100361709",
            "25748490",
            "-8192",
            "957",
            "2000",
            "0",
            "0",
            "0",
            "0",
            "railway=subway",
            "",
            "658",
            "362262"
          ],
          [
            "-100361973",
            "25748743",
            "-8192",
            "39",
            "2000",
            "0",
            "0",
            "0",
            "0",
            "railway=subway",
            "railway=halt",
            "3",
            "1715"
          ],
          [
            "-100362615",
            "25749350",
            "-8192",
            "93",
            "2000",
            "0",
            "0",
            "0",
            "0",
            "railway=subway",
            "railway=switch",
            "10",
            "5806"
          ],
          [
            "-100365839",
            "25755141",
            "555",
            "730",
            "2000",
            "0",
            "0",
            "0",
            "0",
            "railway=subway",
            "",
            "68",
            "37925"
          ],
          [
            "-100366126",
            "25755626",
            "555",
            "61",
            "2000",
            "0",
            "0",
            "0",
            "0",
            "railway=subway",
            "railway=switch",
            "4",
            "2985"
          ],
          [
            "-100366146",
            "25755660",
            "555",
            "4",
            "2000",
            "0",
            "0",
            "0",
            "0",
            "railway=subway",
            "railway=switch",
            "5",
            "3184"
          ],
          [
            "-100366272",
            "25755875",
            "556",
            "27",
            "2000",
            "0",
            "0",
            "0",
            "0",
            "railway=subway",
            "railway=switch",
            "7",
            "4555"
          ],
          [
            "-100366599",
            "25756299",
            "556",
            "57",
            "2000",
            "0",
            "0",
            "0",
            "0",
            "reversedirection=yes railway=subway",
            "railway=switch",
            "11",
            "7609"
          ],
          [
            "-100366936",
            "25756862",
            "556",
            "71",
            "2000",
            "0",
            "0",
            "0",
            "0",
            "railway=subway",
            "railway=switch",
            "17",
            "10868"
          ],
          [
            "-100367695",
            "25758137",
            "554",
            "160",
            "2000",
            "0",
            "0",
            "0",
            "0",
            "railway=subway",
            "railway=switch",
            "30",
            "16955"
          ],
          [
            "-100367811",
            "25758341",
            "554",
            "25",
            "2000",
            "0",
            "0",
            "0",
            "0",
            "railway=subway",
            "railway=switch",
            "32",
            "18001"
          ],
          [
            "-100367822",
            "25758358",
            "554",
            "2",
            "2000",
            "0",
            "0",
            "0",
            "0",
            "railway=subway",
            "railway=switch",
            "32",
            "18085"
          ],
          [
            "-100368674",
            "25759708",
            "555",
            "172",
            "2000",
            "0",
            "0",
            "0",
            "0",
            "railway=subway",
            "",
            "46",
            "25714"
          ]
        ],
        "times": [
          0,
          10.96,
          13.76,
          13.92,
          15.92,
          28.72,
          34.4,
          46,
          47.12,
          52.32,
          53.12,
          55.6,
          65.84,
          67.92,
          70,
          75.76,
          77.28,
          78.88,
          89.2,
          90.88,
          92.88,
          108.56,
          119.44,
          120.56,
          135.52,
          171.2,
          190.32,
          198.8,
          206,
          234.72,
          237.28,
          239.84,
          241.68,
          244.16,
          256,
          274.24,
          297.28,
          305.76,
          320.64,
          369.68,
          372,
          374.32,
          376.72,
          379.28,
          381.84,
          385.28,
          393.36,
          407.44,
          433.2,
          459.92,
          469.68,
          495.44,
          522.32,
          538.72,
          548,
          551.92,
          556.56,
          565.2,
          590.24,
          602.88,
          610.96,
          638.96,
          663.84,
          671.92,
          675.52,
          678.08,
          680.96,
          684.24,
          687.04,
          690,
          695.6,
          698.4,
          701.36,
          704.08,
          706.8,
          709.76,
          712.96,
          724.56,
          728.08,
          746.24,
          757.44,
          771.44,
          782.96,
          788.4,
          791.04,
          793.28,
          795.28,
          797.28,
          799.44,
          804.88,
          807.92,
          810.48,
          812.8,
          815.04,
          817.36,
          849.68,
          858.16,
          866.56,
          871.84,
          876.96,
          889.2,
          898.4,
          909.12,
          918.16,
          925.12,
          953.52,
          974.08,
          993.04,
          1001.44,
          1039.44,
          1046.8,
          1072.08,
          1080.72,
          1086.08,
          1090.64,
          1105.28,
          1120.16,
          1133.2,
          1150,
          1164.32,
          1167.6,
          1170.8,
          1195.84,
          1199.04,
          1201.52,
          1204.24,
          1207.04,
          1209.44,
          1221.68,
          1229.04,
          1230.8,
          1232.96,
          1235.44,
          1252.48,
          1255.28,
          1257.76,
          1260.4,
          1262.8,
          1270.16,
          1278.8,
          1309.44,
          1328.48,
          1330.96,
          1333.28,
          1335.68,
          1348.16,
          1352.16,
          1354.72,
          1357.44,
          1359.84,
          1362.32,
          1364.32,
          1366.56,
          1375.28,
          1381.28,
          1424.96,
          1444.64,
          1467.04,
          1469.36,
          1473.12,
          1483.36,
          1487.76,
          1491.92,
          1500.56,
          1509.2,
          1513.36,
          1526.4,
          1528,
          1529.52,
          1530,
          1534.08,
          1546.4,
          1564.16,
          1591.6,
          1620,
          1624.16,
          1634.8,
          1637.04,
          1639.04,
          1641.44,
          1643.84,
          1646.56,
          1651.6,
          1659.84,
          1665.76,
          1668.08,
          1670.48,
          1672.96,
          1692,
          1722.64,
          1736,
          1738.64,
          1740.96,
          1743.52,
          1746.08,
          1748.8,
          1765.68,
          1770.48,
          1772.32,
          1787.12,
          1791.92,
          1794.4,
          1797.2,
          1799.92,
          1802.48,
          1805.6,
          1819.84,
          1830.64,
          1833.84,
          1837.12,
          1858.72,
          1868.24,
          1881.28,
          1885.52,
          1904.88,
          1915.04,
          1920.48,
          1927.76,
          1936.56,
          1945.28,
          1957.04,
          1998.56,
          2006.96,
          2026.88,
          2047.44,
          2075.84,
          2080.4,
          2080.48,
          2090.72,
          2103.92,
          2105.52,
          2124.08,
          2129.28,
          2134.56,
          2150.24,
          2183.44,
          2186.16,
          2188.4,
          2190.72,
          2193.28,
          2196.32,
          2201.68,
          2204,
          2205.84,
          2207.84,
          2210,
          2212.64,
          2224.8,
          2227.04,
          2233.28,
          2239.92,
          2269.68,
          2272.88,
          2276.4,
          2288.08,
          2291.2,
          2294.08,
          2296.8,
          2299.6,
          2302.4,
          2305.12,
          2310.8,
          2313.68,
          2316.48,
          2319.6,
          2322.64,
          2325.04,
          2327.52,
          2335.68,
          2361.6,
          2388.32,
          2396.56,
          2410.48,
          2435.52,
          2444.16,
          2448.88,
          2451.52,
          2459.76,
          2461.76,
          2466.4,
          2478,
          2478.48,
          2482.96,
          2490.72,
          2531.04,
          2547.84,
          2578.64,
          2593.36,
          2614.48,
          2619.04,
          2621.6,
          2624.16,
          2626.64,
          2629.12,
          2631.36,
          2646.08,
          2680.32,
          2694,
          2702.56,
          2744.96,
          2756.8,
          2759.36,
          2761.2,
          2763.84,
          2766.4,
          2809.36,
          2829.92,
          2865.6,
          2885.92,
          2889.04,
          2896.48,
          2908.4,
          2910.32,
          2912,
          2920.24,
          2922.32,
          2923.92,
          2925.36,
          2931.2,
          2933.28,
          2935.44,
          2948.08,
          2948.88,
          2954.16,
          2954.88,
          2959.76,
          2960.08,
          2962.24,
          2966.8,
          2972.48,
          2985.28,
          2987.28,
          2987.44,
          2990.24,
          3001.2
        ]
      },
      "geometry": {
        "type": "LineString",
        "coordinates": [
          [
            -100.368674,
            25.759708,
            555
          ],
          [
            -100.368021,
            25.758618,
            555.5
          ],
          [
            -100.367822,
            25.758358,
            554.75
          ],
          [
            -100.367811,
            25.758341,
            554.75
          ],
          [
            -100.367695,
            25.758137,
            554.75
          ],
          [
            -100.366936,
            25.756862,
            556.25
          ],
          [
            -100.366599,
            25.756299,
            556.75
          ],
          [
            -100.36591,
            25.755152,
            555
          ],
          [
            -100.365843,
            25.755041,
            555
          ],
          [
            -100.365539,
            25.754518,
            555
          ],
          [
            -100.3655,
            25.754438,
            555
          ],
          [
            -100.365377,
            25.754184
          ],
          [
            -100.364892,
            25.753116
          ],
          [
            -100.364804,
            25.752892
          ],
          [
            -100.364737,
            25.752668
          ],
          [
            -100.364615,
            25.752023
          ],
          [
            -100.364567,
            25.751853
          ],
          [
            -100.364497,
            25.75168
          ],
          [
            -100.36393,
            25.75063
          ],
          [
            -100.363824,
            25.750469
          ],
          [
            -100.36368,
            25.750284
          ],
          [
            -100.362325,
            25.749006
          ],
          [
            -100.361393,
            25.748115
          ],
          [
            -100.361293,
            25.748025
          ],
          [
            -100.360013,
            25.746796
          ],
          [
            -100.356991,
            25.743839
          ],
          [
            -100.355359,
            25.742273
          ],
          [
            -100.354642,
            25.74157
          ],
          [
            -100.354042,
            25.740968
          ],
          [
            -100.351617,
            25.738585
          ],
          [
            -100.351407,
            25.738363
          ],
          [
            -100.351204,
            25.738137
          ],
          [
            -100.351072,
            25.737968
          ],
          [
            -100.350907,
            25.737729
          ],
          [
            -100.350151,
            25.73658
          ],
          [
            -100.349008,
            25.734801
          ],
          [
            -100.347552,
            25.732562
          ],
          [
            -100.347032,
            25.731732
          ],
          [
            -100.346106,
            25.730278
          ],
          [
            -100.343017,
            25.725507
          ],
          [
            -100.342878,
            25.725279
          ],
          [
            -100.342753,
            25.725039
          ],
          [
            -100.342667,
            25.724784
          ],
          [
            -100.34261,
            25.7245
          ],
          [
            -100.342576,
            25.724214
          ],
          [
            -100.342567,
            25.723825
          ],
          [
            -100.342562,
            25.72291
          ],
          [
            -100.342552,
            25.72132
          ],
          [
            -100.34252,
            25.71841
          ],
          [
            -100.342494,
            25.715392
          ],
          [
            -100.342495,
            25.714288
          ],
          [
            -100.342474,
            25.711381
          ],
          [
            -100.342441,
            25.708345
          ],
          [
            -100.342426,
            25.706497
          ],
          [
            -100.342419,
            25.705451
          ],
          [
            -100.342433,
            25.705008
          ],
          [
            -100.342469,
            25.704482
          ],
          [
            -100.342591,
            25.70351
          ],
          [
            -100.34297,
            25.700705
          ],
          [
            -100.343135,
            25.699283
          ],
          [
            -100.343255,
            25.698376
          ],
          [
            -100.34368,
            25.69524
          ],
          [
            -100.34405,
            25.692449
          ],
          [
            -100.344168,
            25.69154
          ],
          [
            -100.344218,
            25.691139
          ],
          [
            -100.344228,
            25.690847
          ],
          [
            -100.344189,
            25.690524
          ],
          [
            -100.344088,
            25.690167
          ],
          [
            -100.34396,
            25.689876
          ],
          [
            -100.343784,
            25.689583
          ],
          [
            -100.343403,
            25.689049
          ],
          [
            -100.343191,
            25.688795
          ],
          [
            -100.342928,
            25.688565
          ],
          [
            -100.342663,
            25.688378
          ],
          [
            -100.342368,
            25.688221
          ],
          [
            -100.342028,
            25.688098
          ],
          [
            -100.341642,
            25.687995
          ],
          [
            -100.340231,
            25.6877
          ],
          [
            -100.339802,
            25.687621
          ],
          [
            -100.337561,
            25.687364
          ],
          [
            -100.33618,
            25.687209
          ],
          [
            -100.334448,
            25.687023
          ],
          [
            -100.333021,
            25.686873
          ],
          [
            -100.332352,
            25.686805
          ],
          [
            -100.332021,
            25.686789
          ],
          [
            -100.331748,
            25.686812
          ],
          [
            -100.331507,
            25.686851
          ],
          [
            -100.331265,
            25.686908
          ],
          [
            -100.331009,
            25.686984
          ],
          [
            -100.330375,
            25.687192
          ],
          [
            -100.33002,
            25.687298
          ],
          [
            -100.329707,
            25.687359
          ],
          [
            -100.329421,
            25.68739
          ],
          [
            -100.329143,
            25.687391
          ],
          [
            -100.328851,
            25.687376
          ],
          [
            -100.324846,
            25.687028
          ],
          [
            -100.323796,
            25.686945
          ],
          [
            -100.322754,
            25.686853
          ],
          [
            -100.3221,
            25.686788
          ],
          [
            -100.321465,
            25.686713
          ],
          [
            -100.319953,
            25.68651
          ],
          [
            -100.318821,
            25.686358
          ],
          [
            -100.317505,
            25.686183
          ],
          [
            -100.316385,
            25.686071
          ],
          [
            -100.315528,
            25.685984
          ],
          [
            -100.312015,
            25.685645
          ],
          [
            -100.309478,
            25.685375
          ],
          [
            -100.307137,
            25.685107
          ],
          [
            -100.306102,
            25.684996
          ],
          [
            -100.301407,
            25.684476
          ],
          [
            -100.300499,
            25.684374
          ],
          [
            -100.297376,
            25.684025
          ],
          [
            -100.296311,
            25.68392
          ],
          [
            -100.295648,
            25.683887
          ],
          [
            -100.295083,
            25.683867
          ],
          [
            -100.293265,
            25.683799
          ],
          [
            -100.291414,
            25.683744
          ],
          [
            -100.289792,
            25.683744
          ],
          [
            -100.287699,
            25.683717
          ],
          [
            -100.285914,
            25.683697
          ],
          [
            -100.285509,
            25.683704
          ],
          [
            -100.285108,
            25.683721
          ],
          [
            -100.282,
            25.683958
          ],
          [
            -100.281607,
            25.683976
          ],
          [
            -100.281294,
            25.683964
          ],
          [
            -100.280963,
            25.683913
          ],
          [
            -100.28063,
            25.683824
          ],
          [
            -100.280356,
            25.683711
          ],
          [
            -100.279013,
            25.683057
          ],
          [
            -100.278207,
            25.682658
          ],
          [
            -100.278011,
            25.682566
          ],
          [
            -100.277763,
            25.682461
          ],
          [
            -100.277477,
            25.682352
          ],
          [
            -100.275483,
            25.681692
          ],
          [
            -100.275152,
            25.681592
          ],
          [
            -100.274849,
            25.681524
          ],
          [
            -100.274527,
            25.681468
          ],
          [
            -100.274236,
            25.681431
          ],
          [
            -100.273326,
            25.681338
          ],
          [
            -100.272257,
            25.681227
          ],
          [
            -100.268467,
            25.6808
          ],
          [
            -100.266116,
            25.680547
          ],
          [
            -100.26581,
            25.680498
          ],
          [
            -100.265524,
            25.680439
          ],
          [
            -100.26524,
            25.680367
          ],
          [
            -100.263752,
            25.679948
          ],
          [
            -100.263276,
            25.679815
          ],
          [
            -100.262964,
            25.679737
          ],
          [
            -100.262631,
            25.679667
          ],
          [
            -100.262338,
            25.679628
          ],
          [
            -100.26203,
            25.679605
          ],
          [
            -100.261784,
            25.679603
          ],
          [
            -100.261501,
            25.679612
          ],
          [
            -100.260417,
            25.679678
          ],
          [
            -100.259669,
            25.679708
          ],
          [
            -100.254233,
            25.679784
          ],
          [
            -100.251781,
            25.679807
          ],
          [
            -100.248991,
            25.679837
          ],
          [
            -100.248699,
            25.679838
          ],
          [
            -100.248227,
            25.679822
          ],
          [
            -100.24696,
            25.679684
          ],
          [
            -100.246415,
            25.679648
          ],
          [
            -100.245902,
            25.679589
          ],
          [
            -100.244836,
            25.679464
          ],
          [
            -100.245902,
            25.679589
          ],
          [
            -100.246415,
            25.679648
          ],
          [
            -100.248028,
            25.679828
          ],
          [
            -100.248226,
            25.679848
          ],
          [
            -100.248414,
            25.679859
          ],
          [
            -100.248478,
            25.679859
          ],
          [
            -100.248988,
            25.679864
          ],
          [
            -100.250517,
            25.679848
          ],
          [
            -100.252724,
            25.679828
          ],
          [
            -100.256138,
            25.679783
          ],
          [
            -100.259671,
            25.679743
          ],
          [
            -100.260188,
            25.679722
          ],
          [
            -100.261505,
            25.679642
          ],
          [
            -100.261787,
            25.67963
          ],
          [
            -100.262036,
            25.679633
          ],
          [
            -100.262338,
            25.679656
          ],
          [
            -100.262633,
            25.679696
          ],
          [
            -100.26296,
            25.679765
          ],
          [
            -100.263558,
            25.679924
          ],
          [
            -100.264533,
            25.680199
          ],
          [
            -100.265238,
            25.680395
          ],
          [
            -100.265515,
            25.680466
          ],
          [
            -100.265808,
            25.680526
          ],
          [
            -100.266114,
            25.680577
          ],
          [
            -100.26847,
            25.680832
          ],
          [
            -100.272252,
            25.681262
          ],
          [
            -100.273905,
            25.681424
          ],
          [
            -100.274231,
            25.681457
          ],
          [
            -100.274521,
            25.681496
          ],
          [
            -100.274837,
            25.681552
          ],
          [
            -100.27515,
            25.681621
          ],
          [
            -100.275473,
            25.681719
          ],
          [
            -100.277444,
            25.682372
          ],
          [
            -100.277991,
            25.68259
          ],
          [
            -100.278199,
            25.682684
          ],
          [
            -100.279817,
            25.683485
          ],
          [
            -100.280341,
            25.683738
          ],
          [
            -100.280625,
            25.683852
          ],
          [
            -100.280956,
            25.683944
          ],
          [
            -100.281289,
            25.683997
          ],
          [
            -100.281611,
            25.684008
          ],
          [
            -100.282001,
            25.68399
          ],
          [
            -100.283772,
            25.68386
          ],
          [
            -100.285114,
            25.683753
          ],
          [
            -100.285509,
            25.683735
          ],
          [
            -100.285914,
            25.683734
          ],
          [
            -100.288603,
            25.68376
          ],
          [
            -100.289792,
            25.683777
          ],
          [
            -100.291417,
            25.683781
          ],
          [
            -100.291947,
            25.683791
          ],
          [
            -100.294354,
            25.683877
          ],
          [
            -100.295622,
            25.683932
          ],
          [
            -100.2963,
            25.683965
          ],
          [
            -100.297205,
            25.68405
          ],
          [
            -100.298292,
            25.684167
          ],
          [
            -100.299372,
            25.684299
          ],
          [
            -100.30083,
            25.684449
          ],
          [
            -100.305963,
            25.685024
          ],
          [
            -100.307003,
            25.685132
          ],
          [
            -100.309469,
            25.685407
          ],
          [
            -100.312012,
            25.685679
          ],
          [
            -100.315525,
            25.686014
          ],
          [
            -100.31609,
            25.686066
          ],
          [
            -100.316095,
            25.686067
          ],
          [
            -100.317358,
            25.686198
          ],
          [
            -100.318981,
            25.686409
          ],
          [
            -100.319177,
            25.686435
          ],
          [
            -100.321461,
            25.686747
          ],
          [
            -100.322098,
            25.686825
          ],
          [
            -100.322749,
            25.68689
          ],
          [
            -100.324695,
            25.687048
          ],
          [
            -100.328812,
            25.687404
          ],
          [
            -100.329149,
            25.687421
          ],
          [
            -100.329423,
            25.687419
          ],
          [
            -100.329713,
            25.687389
          ],
          [
            -100.330027,
            25.687329
          ],
          [
            -100.330383,
            25.687224
          ],
          [
            -100.331013,
            25.68702
          ],
          [
            -100.331285,
            25.686941
          ],
          [
            -100.331506,
            25.686887
          ],
          [
            -100.33175,
            25.686846
          ],
          [
            -100.332018,
            25.686827
          ],
          [
            -100.332349,
            25.686837
          ],
          [
            -100.333856,
            25.68699
          ],
          [
            -100.33413,
            25.68702,
            544
          ],
          [
            -100.334905,
            25.687105,
            544
          ],
          [
            -100.335722,
            25.687193,
            544
          ],
          [
            -100.339396,
            25.687607,
            544
          ],
          [
            -100.339793,
            25.687655,
            544
          ],
          [
            -100.340224,
            25.687731,
            544
          ],
          [
            -100.34164,
            25.688031,
            544
          ],
          [
            -100.342014,
            25.688134,
            544
          ],
          [
            -100.342344,
            25.688257,
            544
          ],
          [
            -100.342634,
            25.688411,
            544
          ],
          [
            -100.342909,
            25.688601,
            544
          ],
          [
            -100.343158,
            25.688826,
            544
          ],
          [
            -100.343364,
            25.689069,
            544
          ],
          [
            -100.343746,
            25.689608,
            544
          ],
          [
            -100.343911,
            25.689894,
            544
          ],
          [
            -100.344041,
            25.690185,
            544
          ],
          [
            -100.344135,
            25.690526,
            544
          ],
          [
            -100.344181,
            25.690864,
            544
          ],
          [
            -100.344173,
            25.691133,
            544
          ],
          [
            -100.344142,
            25.691409,
            544
          ],
          [
            -100.344018,
            25.692327,
            544
          ],
          [
            -100.343621,
            25.695233,
            544
          ],
          [
            -100.34323,
            25.698225,
            544
          ],
          [
            -100.343101,
            25.699143,
            544
          ],
          [
            -100.342909,
            25.700702,
            544
          ],
          [
            -100.342536,
            25.703505,
            544
          ],
          [
            -100.342415,
            25.704478,
            544
          ],
          [
            -100.342377,
            25.705008,
            544
          ],
          [
            -100.342365,
            25.705308,
            544
          ],
          [
            -100.342363,
            25.706242,
            544
          ],
          [
            -100.342362,
            25.706466,
            544
          ],
          [
            -100.342321,
            25.706987,
            544
          ],
          [
            -100.342342,
            25.708299,
            544
          ],
          [
            -100.342348,
            25.708351,
            544
          ],
          [
            -100.342391,
            25.708855,
            544
          ],
          [
            -100.342405,
            25.709733,
            544
          ],
          [
            -100.342444,
            25.714285,
            544
          ],
          [
            -100.342445,
            25.716178,
            544
          ],
          [
            -100.342477,
            25.719657,
            544
          ],
          [
            -100.342501,
            25.721321,
            544
          ],
          [
            -100.342511,
            25.723706,
            544
          ],
          [
            -100.342519,
            25.724217,
            544
          ],
          [
            -100.342553,
            25.724506,
            544
          ],
          [
            -100.342614,
            25.724793,
            544
          ],
          [
            -100.342702,
            25.725057,
            544
          ],
          [
            -100.342832,
            25.725307,
            544
          ],
          [
            -100.342966,
            25.725533,
            544
          ],
          [
            -100.343896,
            25.726965,
            544
          ],
          [
            -100.346057,
            25.730297,
            544
          ],
          [
            -100.346909,
            25.731639,
            544
          ],
          [
            -100.347434,
            25.732476
          ],
          [
            -100.350105,
            25.736601
          ],
          [
            -100.350859,
            25.737752
          ],
          [
            -100.351029,
            25.737998
          ],
          [
            -100.351167,
            25.738168
          ],
          [
            -100.351373,
            25.738397
          ],
          [
            -100.35158,
            25.738613
          ],
          [
            -100.355206,
            25.74218
          ],
          [
            -100.356951,
            25.743874
          ],
          [
            -100.359969,
            25.746828
          ],
          [
            -100.361709,
            25.74849,
            554.75
          ],
          [
            -100.361973,
            25.748743,
            554.75
          ],
          [
            -100.362615,
            25.74935,
            554.75
          ],
          [
            -100.363643,
            25.750322,
            554.75
          ],
          [
            -100.363781,
            25.750495,
            554.75
          ],
          [
            -100.36389,
            25.750657,
            554.75
          ],
          [
            -100.364349,
            25.751488,
            554.75
          ],
          [
            -100.364458,
            25.751696,
            554.75
          ],
          [
            -100.364527,
            25.751867,
            554.75
          ],
          [
            -100.364571,
            25.752026,
            554.75
          ],
          [
            -100.364691,
            25.752677,
            554.75
          ],
          [
            -100.364754,
            25.752903,
            554.75
          ],
          [
            -100.364845,
            25.753136,
            554.75
          ],
          [
            -100.365453,
            25.754456,
            554.75
          ],
          [
            -100.365493,
            25.754542,
            555
          ],
          [
            -100.365794,
            25.755067,
            554.75
          ],
          [
            -100.365839,
            25.755141,
            555.5
          ],
          [
            -100.366126,
            25.755626,
            555.5
          ],
          [
            -100.366146,
            25.75566,
            555.75
          ],
          [
            -100.366272,
            25.755875,
            556
          ],
          [
            -100.366599,
            25.756299,
            556.75
          ],
          [
            -100.366936,
            25.756862,
            556.25
          ],
          [
            -100.367695,
            25.758137,
            554.75
          ],
          [
            -100.367811,
            25.758341,
            554.75
          ],
          [
            -100.367822,
            25.758358,
            554.75
          ],
          [
            -100.368021,
            25.758618,
            555.5
          ],
          [
            -100.368674,
            25.759708,
            555
          ]
        ]
      }
    }
  ]
}