{
  "type": "FeatureCollection",
  "features": [
    {
      "type": "Feature",
      "properties": {
        "creator": "BRouter-1.7.9",
        "name": "[Metro de Panamá] Line 2 (Nuevo Tocumen)",
        "track-length": "40228",
        "filtered ascend": "0",
        "plain-ascend": "0",
        "total-time": "3217",
        "total-energy": "1769436",
        "cost": "80456",
        "messages": [
          [
            "Longitude",
            "Latitude",
            "Elevation",
            "Distance",
            "CostPerKm",
            "ElevCost",
            "TurnCost",
            "NodeCost",
            "InitialCost",
            "WayTags",
            "NodeTags",
            "Time",
            "Energy"
          ],
          [
            "-79353440",
            "9101995",
            "-8192",
            "44",
            "2000",
            "0",
            "0",
            "0",
            "0",
            "railway=subway",
            "railway=halt",
            "3",
            "1935"
          ],
          [
            "-79358936",
            "9102561",
            "-8192",
            "607",
            "2000",
            "0",
            "0",
            "0",
            "0",
            "railway=subway",
            "",
            "52",
            "28634"
          ],
          [
            "-79370940",
            "9103461",
            "-8192",
            "1323",
            "2000",
            "0",
            "0",
            "0",
            "0",
            "railway=subway",
            "railway=halt",
            "105",
            "58192"
          ],
          [
            "-79380271",
            "9103394",
            "-8192",
            "1029",
            "2000",
            "0",
            "0",
            "0",
            "0",
            "railway=subway",
            "railway=halt",
            "188",
            "103453"
          ],
          [
            "-79394296",
            "9093646",
            "-8192",
            "1975",
            "2000",
            "0",
            "0",
            "0",
            "0",
            "railway=subway",
            "railway=halt",
            "346",
            "190324"
          ],
          [
            "-79400102",
            "9079498",
            "-8192",
            "1689",
            "2000",
            "0",
            "0",
            "0",
            "0",
            "railway=subway",
            "railway=halt",
            "481",
            "264615"
          ],
          [
            "-79407196",
            "9068922",
            "-8192",
            "1480",
            "2000",
            "0",
            "0",
            "0",
            "0",
            "railway=subway",
            "railway=halt",
            "599",
            "329713"
          ],
          [
            "-79409147",
            "9068271",
            "-8192",
            "227",
            "2000",
            "0",
            "0",
            "0",
            "0",
            "railway=subway",
            "railway=switch",
            "617",
            "339698"
          ],
          [
            "-79420410",
            "9063072",
            "-8192",
            "1367",
            "2000",
            "0",
            "0",
            "0",
            "0",
            "railway=subway",
            "railway=halt",
            "727",
            "399825"
          ],
          [
            "-79428639",
            "9060079",
            "-8192",
            "963",
            "2000",
            "0",
            "0",
            "0",
            "0",
            "railway=subway",
            "railway=switch",
            "804",
            "442183"
          ],
          [
            "-79429283",
            "9059848",
            "-8192",
            "75",
            "2000",
            "0",
            "0",
            "0",
            "0",
            "railway=subway",
            "railway=halt",
            "810",
            "445482"
          ],
          [
            "-79430327",
            "9059455",
            "-8192",
            "123",
            "2000",
            "0",
            "0",
            "0",
            "0",
            "railway=subway",
            "",
            "820",
            "450892"
          ],
          [
            "-79431318",
            "9059027",
            "-8192",
            "119",
            "2000",
            "0",
            "0",
            "0",
            "0",
            "railway=subway",
            "railway=switch",
            "9",
            "5234"
          ],
          [
            "-79445081",
            "9051887",
            "-8192",
            "1712",
            "2000",
            "0",
            "0",
            "0",
            "0",
            "railway=subway",
            "railway=halt",
            "146",
            "80536"
          ],
          [
            "-79450817",
            "9050650",
            "-8192",
            "647",
            "2000",
            "0",
            "0",
            "0",
            "0",
            "railway=subway",
            "railway=switch",
            "198",
            "108995"
          ],
          [
            "-79451483",
            "9050570",
            "-8192",
            "74",
            "2000",
            "0",
            "0",
            "0",
            "0",
            "railway=subway",
            "railway=halt",
            "204",
            "112250"
          ],
          [
            "-79452705",
            "9050411",
            "-8192",
            "135",
            "2000",
            "0",
            "0",
            "0",
            "0",
            "railway=subway",
            "railway=switch",
            "214",
            "118188"
          ],
          [
            "-79459008",
            "9049221",
            "-8192",
            "706",
            "2000",
            "0",
            "0",
            "0",
            "0",
            "railway=subway",
            "railway=halt",
            "271",
            "149241"
          ],
          [
            "-79470935",
            "9044202",
            "-8192",
            "1427",
            "2000",
            "0",
            "0",
            "0",
            "0",
            "railway=subway",
            "railway=switch",
            "385",
            "212008"
          ],
          [
            "-79471737",
            "9043792",
            "-8192",
            "99",
            "2000",
            "0",
            "0",
            "0",
            "0",
            "railway=subway",
            "railway=halt",
            "393",
            "216363"
          ],
          [
            "-79473704",
            "9042546",
            "-8192",
            "257",
            "2000",
            "0",
            "0",
            "0",
            "0",
            "railway=subway",
            "railway=switch",
            "414",
            "227667"
          ],
          [
            "-79481420",
            "9037117",
            "-8192",
            "1039",
            "2000",
            "0",
            "0",
            "0",
            "0",
            "railway=subway",
            "railway=halt",
            "497",
            "273368"
          ],
          [
            "-79490871",
            "9030567",
            "-8192",
            "1269",
            "2000",
            "0",
            "0",
            "0",
            "0",
            "railway=subway",
            "railway=switch",
            "598",
            "329185"
          ],
          [
            "-79491583",
            "9030074",
            "-8192",
            "95",
            "2000",
            "0",
            "0",
            "0",
            "0",
            "railway=subway",
            "railway=halt",
            "606",
            "333364"
          ],
          [
            "-79498735",
            "9029950",
            "-8192",
            "847",
            "2000",
            "0",
            "0",
            "0",
            "0",
            "railway=subway",
            "railway=halt",
            "674",
            "370619"
          ],
          [
            "-79503050",
            "9030551",
            "-8192",
            "485",
            "2000",
            "0",
            "0",
            "0",
            "0",
            "railway=subway",
            "railway=switch",
            "712",
            "391952"
          ],
          [
            "-79503340",
            "9030547",
            "-8192",
            "32",
            "2000",
            "0",
            "0",
            "0",
            "0",
            "railway=subway",
            "",
            "715",
            "393360"
          ],
          [
            "-79503622",
            "9030545",
            "-8192",
            "31",
            "2000",
            "0",
            "0",
            "0",
            "0",
            "railway=subway",
            "railway=switch",
            "2",
            "1363"
          ],
          [
            "-79505624",
            "9030599",
            "-8192",
            "221",
            "2000",
            "0",
            "0",
            "0",
            "0",
            "railway=subway",
            "railway=halt",
            "20",
            "11084"
          ],
          [
            "-79505729",
            "9030602",
            "-8192",
            "12",
            "2000",
            "0",
            "0",
            "0",
            "0",
            "railway=subway",
            "",
            "21",
            "11612"
          ],
          [
            "-79505624",
            "9030599",
            "-8192",
            "12",
            "2000",
            "0",
            "0",
            "0",
            "0",
            "reversedirection=yes railway=subway",
            "railway=halt",
            "0",
            "527"
          ],
          [
            "-79503622",
            "9030545",
            "-8192",
            "221",
            "2000",
            "0",
            "0",
            "0",
            "0",
            "reversedirection=yes railway=subway",
            "railway=switch",
            "18",
            "10248"
          ],
          [
            "-79503331",
            "9030527",
            "-8192",
            "32",
            "2000",
            "0",
            "0",
            "0",
            "0",
            "railway=subway",
            "railway=unknown",
            "21",
            "11656"
          ],
          [
            "-79503053",
            "9030509",
            "-8192",
            "31",
            "2000",
            "0",
            "0",
            "0",
            "0",
            "railway=subway",
            "railway=switch",
            "23",
            "13019"
          ],
          [
            "-79501857",
            "9030544",
            "-8192",
            "131",
            "2000",
            "0",
            "0",
            "0",
            "0",
            "railway=subway",
            "",
            "34",
            "18781"
          ],
          [
            "-79498751",
            "9029893",
            "-8192",
            "354",
            "2000",
            "0",
            "0",
            "0",
            "0",
            "railway=subway",
            "railway=halt",
            "28",
            "15570"
          ],
          [
            "-79491556",
            "9030036",
            "-8192",
            "852",
            "2000",
            "0",
            "0",
            "0",
            "0",
            "railway=subway",
            "railway=halt",
            "96",
            "53046"
          ],
          [
            "-79490362",
            "9030868",
            "-8192",
            "160",
            "2000",
            "0",
            "0",
            "0",
            "0",
            "railway=subway",
            "railway=switch",
            "109",
            "60083"
          ],
          [
            "-79483716",
            "9035573",
            "-8192",
            "898",
            "2000",
            "0",
            "0",
            "0",
            "0",
            "railway=subway",
            "railway=switch",
            "181",
            "99582"
          ],
          [
            "-79481406",
            "9037088",
            "-8192",
            "304",
            "2000",
            "0",
            "0",
            "0",
            "0",
            "railway=subway",
            "railway=halt",
            "205",
            "112954"
          ],
          [
            "-79473060",
            "9042943",
            "-8192",
            "1123",
            "2000",
            "0",
            "0",
            "0",
            "0",
            "railway=subway",
            "railway=switch",
            "295",
            "162349"
          ],
          [
            "-79471438",
            "9043882",
            "-8192",
            "207",
            "2000",
            "0",
            "0",
            "0",
            "0",
            "railway=subway",
            "railway=halt",
            "311",
            "171454"
          ],
          [
            "-79470262",
            "9044490",
            "-8192",
            "146",
            "2000",
            "0",
            "0",
            "0",
            "0",
            "railway=subway",
            "railway=switch",
            "323",
            "177876"
          ],
          [
            "-79458994",
            "9049181",
            "-8192",
            "1345",
            "2000",
            "0",
            "0",
            "0",
            "0",
            "railway=subway",
            "railway=halt",
            "431",
            "237036"
          ],
          [
            "-79452036",
            "9050439",
            "-8192",
            "779",
            "2000",
            "0",
            "0",
            "0",
            "0",
            "railway=subway",
            "railway=switch",
            "493",
            "271301"
          ],
          [
            "-79451478",
            "9050503",
            "-8192",
            "62",
            "2000",
            "0",
            "0",
            "0",
            "0",
            "railway=subway",
            "railway=halt",
            "498",
            "274028"
          ],
          [
            "-79450060",
            "9050693",
            "-8192",
            "157",
            "2000",
            "0",
            "0",
            "0",
            "0",
            "railway=subway",
            "railway=switch",
            "510",
            "280933"
          ],
          [
            "-79445065",
            "9051837",
            "-8192",
            "565",
            "2000",
            "0",
            "0",
            "0",
            "0",
            "railway=subway",
            "railway=halt",
            "556",
            "305785"
          ],
          [
            "-79430731",
            "9059231",
            "-8192",
            "1781",
            "2000",
            "0",
            "0",
            "0",
            "0",
            "railway=subway",
            "railway=switch",
            "698",
            "384123"
          ],
          [
            "-79429267",
            "9059803",
            "-8192",
            "173",
            "2000",
            "0",
            "0",
            "0",
            "0",
            "railway=subway",
            "railway=halt",
            "712",
            "391732"
          ],
          [
            "-79428136",
            "9060202",
            "-8192",
            "132",
            "2000",
            "0",
            "0",
            "0",
            "0",
            "railway=subway",
            "railway=switch",
            "723",
            "397538"
          ],
          [
            "-79420394",
            "9063028",
            "-8192",
            "907",
            "2000",
            "0",
            "0",
            "0",
            "0",
            "railway=subway",
            "railway=halt",
            "795",
            "437433"
          ],
          [
            "-79408843",
            "9068239",
            "-8192",
            "1399",
            "2000",
            "0",
            "0",
            "0",
            "0",
            "railway=subway",
            "railway=switch",
            "907",
            "498968"
          ],
          [
            "-79407008",
            "9068710",
            "-8192",
            "209",
            "2000",
            "0",
            "0",
            "0",
            "0",
            "railway=subway",
            "railway=halt",
            "924",
            "508161"
          ],
          [
            "-79406353",
            "9068902",
            "-8192",
            "75",
            "2000",
            "0",
            "0",
            "0",
            "0",
            "railway=subway",
            "railway=switch",
            "930",
            "511460"
          ],
          [
            "-79405678",
            "9069133",
            "-8192",
            "78",
            "2000",
            "0",
            "0",
            "0",
            "0",
            "railway=subway",
            "railway=unknown",
            "936",
            "514891"
          ],
          [
            "-79400058",
            "9079485",
            "-8192",
            "1327",
            "2000",
            "0",
            "0",
            "0",
            "0",
            "railway=subway",
            "railway=halt",
            "1042",
            "573259"
          ],
          [
            "-79394261",
            "9093635",
            "-8192",
            "1690",
            "2000",
            "0",
            "0",
            "0",
            "0",
            "railway=subway",
            "railway=halt",
            "1177",
            "647594"
          ],
          [
            "-79380262",
            "9103343",
            "-8192",
            "1969",
            "2000",
            "0",
            "0",
            "0",
            "0",
            "railway=subway",
            "railway=halt",
            "1335",
            "734201"
          ],
          [
            "-79370942",
            "9103402",
            "-8192",
            "1027",
            "2000",
            "0",
            "0",
            "0",
            "0",
            "railway=subway",
            "railway=halt",
            "1417",
            "779374"
          ],
          [
            "-79353444",
            "9101935",
            "-8192",
            "1930",
            "2000",
            "0",
            "0",
            "0",
            "0",
            "railway=subway",
            "railway=halt",
            "1571",
            "864266"
          ],
          [
            "-79353050",
            "9101902",
            "-8192",
            "43",
            "2000",
            "0",
            "0",
            "0",
            "0",
            "railway=subway",
            "",
            "1575",
            "866157"
          ]
        ],
        "times": [
          0,
          3.52,
          16.32,
          20.96,
          24.72,
          27.52,
          30.56,
          41.12,
          48.08,
          52.08,
          53.76,
          57.28,
          81.92,
          115.52,
          128.24,
          133.92,
          145.84,
          157.92,
          177.76,
          191.44,
          200.72,
          208.72,
          213.52,
          218.96,
          226,
          236.72,
          240.24,
          244.16,
          250.8,
          263.12,
          268.72,
          275.04,
          280.24,
          285.92,
          296.08,
          327.52,
          332.56,
          340.32,
          347.52,
          354.08,
          360.16,
          364.88,
          370.8,
          377.84,
          382.56,
          398.24,
          424.16,
          448.16,
          498.32,
          510,
          519.28,
          522.64,
          527.92,
          533.36,
          543.68,
          590.48,
          607.44,
          609.36,
          612.4,
          625.84,
          627.6,
          629.76,
          632.24,
          633.76,
          636.8,
          638.64,
          646.8,
          651.76,
          655.44,
          659.28,
          662.16,
          669.92,
          674.8,
          681.52,
          685.52,
          689.92,
          695.36,
          720.4,
          749.84,
          766.96,
          779.28,
          783.44,
          791.28,
          800.72,
          810.56,
          830.72,
          856.32,
          862.32,
          869.28,
          872.16,
          879.12,
          881.68,
          894.72,
          902.8,
          918.32,
          922.64,
          926.56,
          929.92,
          938,
          945.6,
          948.56,
          981.04,
          991.76,
          997.44,
          1003.68,
          1009.92,
          1018.64,
          1026.48,
          1034.48,
          1038.08,
          1046.64,
          1060,
          1070.4,
          1076.32,
          1087.12,
          1106.56,
          1113.2,
          1118.56,
          1123.36,
          1128.56,
          1136.48,
          1143.6,
          1185.76,
          1193.52,
          1204.08,
          1217.12,
          1231.44,
          1250,
          1257.76,
          1265.68,
          1274,
          1277.52,
          1286.24,
          1288.32,
          1302.88,
          1322.96,
          1351.36,
          1355.76,
          1369.36,
          1385.52,
          1389.6,
          1396.32,
          1398.64,
          1403.12,
          1423.36,
          1432.08,
          1437.12,
          1441.52,
          1445.12,
          1454.32,
          1459.68,
          1463.68,
          1470.88,
          1478.48,
          1482.72,
          1487.52,
          1493.12,
          1497.76,
          1500.4,
          1503.04,
          1505.28,
          1508.72,
          1511.68,
          1514.64,
          1517.84,
          1520.16,
          1536.4,
          1546.24,
          1554.72,
          1560,
          1564,
          1568.56,
          1577.6,
          1585.04,
          1587.6,
          1590.08,
          1594.4,
          1595.76,
          1598.48,
          1600.72,
          1607.76,
          1608.72,
          1609.68,
          1616.72,
          1618.96,
          1621.68,
          1623.04,
          1627.36,
          1629.92,
          1632.4,
          1641.04,
          1642.88,
          1645.68,
          1649.28,
          1653.36,
          1657.28,
          1662.72,
          1666.16,
          1671.2,
          1679.84,
          1697.36,
          1699.6,
          1702.88,
          1705.84,
          1708.88,
          1712.24,
          1717.36,
          1730.32,
          1735.12,
          1739.36,
          1752.16,
          1754.16,
          1758.16,
          1772.8,
          1776.4,
          1780.8,
          1794.48,
          1819.2,
          1824,
          1832.32,
          1848.32,
          1857.68,
          1862,
          1866.4,
          1894.72,
          1914.8,
          1929.52,
          1938.16,
          1940.24,
          1943.6,
          1954.72,
          1958.72,
          1966.4,
          1986.32,
          2000.64,
          2013.52,
          2024.24,
          2031.84,
          2037.92,
          2053.68,
          2074,
          2081.12,
          2088.96,
          2094.16,
          2098.96,
          2104.4,
          2130.48,
          2136.32,
          2141.28,
          2153.84,
          2157.6,
          2165.28,
          2171.04,
          2179.6,
          2183.28,
          2191.12,
          2199.04,
          2207.76,
          2214.16,
          2220.4,
          2226,
          2236.72,
          2269.36,
          2275.68,
          2279.76,
          2287.92,
          2291.36,
          2295.28,
          2299.52,
          2325.6,
          2338.64,
          2341.52,
          2348.48,
          2355.36,
          2365.92,
          2386.96,
          2407.12,
          2417.04,
          2426.48,
          2434.4,
          2438.48,
          2450.88,
          2467.92,
          2497.28,
          2516.64,
          2522.56,
          2527.52,
          2531.84,
          2536.8,
          2543.12,
          2546.96,
          2550.4,
          2558.72,
          2567.12,
          2573.12,
          2577.12,
          2579.36,
          2581.04,
          2582.72,
          2584.4,
          2586.32,
          2588.32,
          2592.72,
          2603.68,
          2606.4,
          2609.36,
          2611.28,
          2617.36,
          2628.4,
          2675.12,
          2685.52,
          2696.24,
          2699.6,
          2708.96,
          2770.8,
          2794.8,
          2820.72,
          2836.32,
          2841.04,
          2848,
          2853.84,
          2858.56,
          2864.64,
          2871.04,
          2878.16,
          2885.92,
          2890.96,
          2903.76,
          2922.56,
          2932.64,
          2938.32,
          2943.52,
          2949.84,
          2960.56,
          2967.76,
          2972.8,
          2978.24,
          2981.76,
          2987.84,
          2992.4,
          2999.44,
          3004.96,
          3010.4,
          3017.6,
          3026.8,
          3050.16,
          3060.4,
          3084.479,
          3090.079,
          3102.719,
          3117.679,
          3136.399,
          3161.039,
          3164.559,
          3170.239,
          3177.359,
          3180.559,
          3187.759,
          3190.799,
          3193.599,
          3197.439,
          3214.799,
          3218.239
        ]
      },
      "geometry": {
        "type": "LineString",
        "coordinates": [
          [
            -79.353045,
            9.101964
          ],
          [
            -79.35344,
            9.101995
          ],
          [
            -79.354892,
            9.102123
          ],
          [
            -79.355415,
            9.10216
          ],
          [
            -79.355841,
            9.102229
          ],
          [
            -79.356152,
            9.102293
          ],
          [
            -79.356497,
            9.102333
          ],
          [
            -79.357696,
            9.102425
          ],
          [
            -79.358489,
            9.102493
          ],
          [
            -79.358936,
            9.102561,
            18
          ],
          [
            -79.359126,
            9.102591,
            18
          ],
          [
            -79.359526,
            9.102643,
            18
          ],
          [
            -79.36232,
            9.102863,
            18
          ],
          [
            -79.366128,
            9.103122,
            18
          ],
          [
            -79.367568,
            9.103233,
            18
          ],
          [
            -79.368214,
            9.103294,
            18
          ],
          [
            -79.369571,
            9.103373,
            18
          ],
          [
            -79.37094,
            9.103461,
            18
          ],
          [
            -79.373192,
            9.103606,
            18
          ],
          [
            -79.374743,
            9.10372,
            18
          ],
          [
            -79.375797,
            9.103773,
            18
          ],
          [
            -79.376703,
            9.103776,
            18
          ],
          [
            -79.377251,
            9.10376,
            18
          ],
          [
            -79.37787,
            9.103712,
            18
          ],
          [
            -79.378672,
            9.103641,
            18
          ],
          [
            -79.379876,
            9.103464,
            18
          ],
          [
            -79.380271,
            9.103394,
            18
          ],
          [
            -79.380707,
            9.103308,
            18
          ],
          [
            -79.381448,
            9.103143,
            18
          ],
          [
            -79.382787,
            9.102743,
            18
          ],
          [
            -79.383388,
            9.102539,
            18
          ],
          [
            -79.384055,
            9.102282,
            18
          ],
          [
            -79.384605,
            9.102062,
            18
          ],
          [
            -79.385198,
            9.1018,
            18
          ],
          [
            -79.386239,
            9.101302,
            18
          ],
          [
            -79.389431,
            9.099692,
            18
          ],
          [
            -79.38994,
            9.099422,
            18
          ],
          [
            -79.390694,
            9.098969,
            18
          ],
          [
            -79.391348,
            9.098482,
            18
          ],
          [
            -79.39189,
            9.097978,
            18
          ],
          [
            -79.392354,
            9.097465,
            18
          ],
          [
            -79.392679,
            9.097038,
            18
          ],
          [
            -79.393054,
            9.096485,
            18
          ],
          [
            -79.393419,
            9.095778,
            18
          ],
          [
            -79.393634,
            9.095288,
            18
          ],
          [
            -79.394296,
            9.093646,
            18
          ],
          [
            -79.395417,
            9.090939,
            18
          ],
          [
            -79.396434,
            9.088425,
            18
          ],
          [
            -79.398585,
            9.083173,
            18
          ],
          [
            -79.399095,
            9.081955,
            18
          ],
          [
            -79.399481,
            9.080975,
            18
          ],
          [
            -79.399628,
            9.08062,
            18
          ],
          [
            -79.399867,
            9.080069,
            18
          ],
          [
            -79.400102,
            9.079498,
            18
          ],
          [
            -79.400546,
            9.078419,
            18
          ],
          [
            -79.402514,
            9.073503,
            18
          ],
          [
            -79.403233,
            9.071723,
            18
          ],
          [
            -79.40333,
            9.071533,
            18
          ],
          [
            -79.403533,
            9.071254,
            18
          ],
          [
            -79.404535,
            9.070107,
            18
          ],
          [
            -79.404678,
            9.069966,
            18
          ],
          [
            -79.40487,
            9.069811,
            18
          ],
          [
            -79.405108,
            9.069658,
            18
          ],
          [
            -79.405258,
            9.069573,
            18
          ],
          [
            -79.405572,
            9.069429,
            18
          ],
          [
            -79.405769,
            9.069357,
            18
          ],
          [
            -79.406654,
            9.069082,
            18
          ],
          [
            -79.407196,
            9.068922,
            18
          ],
          [
            -79.407593,
            9.068805,
            18
          ],
          [
            -79.408008,
            9.068678
          ],
          [
            -79.408316,
            9.068576
          ],
          [
            -79.409147,
            9.068271
          ],
          [
            -79.409672,
            9.068088
          ],
          [
            -79.41041,
            9.067883
          ],
          [
            -79.410847,
            9.067743
          ],
          [
            -79.411311,
            9.067566
          ],
          [
            -79.411868,
            9.067306
          ],
          [
            -79.414415,
            9.066039
          ],
          [
            -79.417403,
            9.06454
          ],
          [
            -79.419136,
            9.063661
          ],
          [
            -79.42041,
            9.063072
          ],
          [
            -79.420839,
            9.062874
          ],
          [
            -79.42166,
            9.062524
          ],
          [
            -79.422663,
            9.062138
          ],
          [
            -79.423723,
            9.061772
          ],
          [
            -79.425898,
            9.061044
          ],
          [
            -79.428639,
            9.060079
          ],
          [
            -79.429283,
            9.059848
          ],
          [
            -79.430026,
            9.059582
          ],
          [
            -79.430327,
            9.059455,
            35.75
          ],
          [
            -79.431053,
            9.05915,
            35.75
          ],
          [
            -79.431318,
            9.059027,
            35.75
          ],
          [
            -79.43266,
            9.058402,
            35.75
          ],
          [
            -79.433467,
            9.057969,
            35.75
          ],
          [
            -79.435023,
            9.05715,
            35.75
          ],
          [
            -79.435447,
            9.056901,
            35.75
          ],
          [
            -79.435814,
            9.056647,
            35.75
          ],
          [
            -79.436109,
            9.056408,
            35.75
          ],
          [
            -79.436865,
            9.055889,
            35.75
          ],
          [
            -79.437611,
            9.05545,
            35.75
          ],
          [
            -79.437898,
            9.055283,
            35.75
          ],
          [
            -79.441157,
            9.053556,
            35.75
          ],
          [
            -79.442246,
            9.053013,
            35.75
          ],
          [
            -79.442831,
            9.052748,
            35.75
          ],
          [
            -79.44348,
            9.052472,
            35.75
          ],
          [
            -79.44414,
            9.05221,
            35.75
          ],
          [
            -79.445081,
            9.051887,
            35.75
          ],
          [
            -79.445926,
            9.051609,
            35.75
          ],
          [
            -79.446799,
            9.051369,
            35.75
          ],
          [
            -79.447199,
            9.051267,
            35.75
          ],
          [
            -79.44815,
            9.051062,
            35.75
          ],
          [
            -79.449642,
            9.05079,
            35.75
          ],
          [
            -79.450817,
            9.05065,
            35.75
          ],
          [
            -79.451483,
            9.05057,
            35.75
          ],
          [
            -79.452705,
            9.050411,
            35.75
          ],
          [
            -79.4549,
            9.050134,
            35.75
          ],
          [
            -79.455648,
            9.050034,
            35.75
          ],
          [
            -79.45625,
            9.049932,
            35.75
          ],
          [
            -79.456789,
            9.049825,
            35.75
          ],
          [
            -79.457369,
            9.049695,
            35.75
          ],
          [
            -79.458234,
            9.049455,
            35.75
          ],
          [
            -79.459008,
            9.049221,
            35.75
          ],
          [
            -79.463544,
            9.047689,
            35.75
          ],
          [
            -79.464369,
            9.047384,
            35.75
          ],
          [
            -79.465463,
            9.046902,
            35.75
          ],
          [
            -79.466791,
            9.04625,
            35.75
          ],
          [
            -79.468258,
            9.045546,
            35.75
          ],
          [
            -79.470146,
            9.0446,
            35.75
          ],
          [
            -79.470935,
            9.044202,
            35.75
          ],
          [
            -79.471737,
            9.043792,
            35.75
          ],
          [
            -79.472566,
            9.043339,
            35.75
          ],
          [
            -79.472898,
            9.043119,
            35.75
          ],
          [
            -79.473704,
            9.042546,
            35.75
          ],
          [
            -79.473898,
            9.042409,
            35.75
          ],
          [
            -79.475221,
            9.041419,
            35.75
          ],
          [
            -79.477077,
            9.040097,
            35.75
          ],
          [
            -79.479698,
            9.038219,
            35.75
          ],
          [
            -79.480108,
            9.037938,
            35.75
          ],
          [
            -79.48142,
            9.037117,
            35.75
          ],
          [
            -79.482986,
            9.036166,
            35.75
          ],
          [
            -79.483359,
            9.035898,
            35.75
          ],
          [
            -79.48397,
            9.035445,
            35.75
          ],
          [
            -79.484177,
            9.035284,
            35.75
          ],
          [
            -79.484601,
            9.035003,
            35.75
          ],
          [
            -79.486545,
            9.033777,
            35.75
          ],
          [
            -79.487371,
            9.033226,
            35.75
          ],
          [
            -79.487841,
            9.032902,
            35.75
          ],
          [
            -79.488246,
            9.032608,
            35.75
          ],
          [
            -79.488573,
            9.032359,
            35.75
          ],
          [
            -79.489378,
            9.0317,
            35.75
          ],
          [
            -79.489842,
            9.031308,
            35.75
          ],
          [
            -79.490209,
            9.03104,
            35.75
          ],
          [
            -79.490871,
            9.030567,
            35.75
          ],
          [
            -79.491583,
            9.030074,
            35.75
          ],
          [
            -79.491982,
            9.029798,
            35.75
          ],
          [
            -79.492456,
            9.029529,
            35.75
          ],
          [
            -79.493032,
            9.029254,
            35.75
          ],
          [
            -79.493512,
            9.029034,
            35.75
          ],
          [
            -79.493783,
            9.028914,
            35.75
          ],
          [
            -79.494068,
            9.02881,
            35.75
          ],
          [
            -79.494313,
            9.02873,
            35.75
          ],
          [
            -79.494703,
            9.02867,
            35.75
          ],
          [
            -79.495035,
            9.028668,
            35.75
          ],
          [
            -79.495374,
            9.028697,
            35.75
          ],
          [
            -79.495733,
            9.02876,
            35.75
          ],
          [
            -79.495988,
            9.028842,
            35.75
          ],
          [
            -79.497699,
            9.02954,
            35.75
          ],
          [
            -79.498735,
            9.02995,
            35.75
          ],
          [
            -79.49963,
            9.030298,
            35.75
          ],
          [
            -79.500208,
            9.030469,
            35.75
          ],
          [
            -79.50066,
            9.030545,
            35.75
          ],
          [
            -79.501178,
            9.030589,
            35.75
          ],
          [
            -79.502208,
            9.030587
          ],
          [
            -79.50305,
            9.030551
          ],
          [
            -79.50334,
            9.030547
          ],
          [
            -79.503622,
            9.030545
          ],
          [
            -79.50411,
            9.030537
          ],
          [
            -79.504268,
            9.030546
          ],
          [
            -79.504572,
            9.030577
          ],
          [
            -79.504822,
            9.030588
          ],
          [
            -79.505624,
            9.030599
          ],
          [
            -79.505729,
            9.030602
          ],
          [
            -79.505624,
            9.030599
          ],
          [
            -79.504822,
            9.030588
          ],
          [
            -79.504572,
            9.030577
          ],
          [
            -79.504268,
            9.030546
          ],
          [
            -79.50411,
            9.030537
          ],
          [
            -79.503622,
            9.030545
          ],
          [
            -79.503331,
            9.030527
          ],
          [
            -79.503053,
            9.030509
          ],
          [
            -79.50207,
            9.030544
          ],
          [
            -79.501857,
            9.030544
          ],
          [
            -79.50154,
            9.030545
          ],
          [
            -79.501135,
            9.030537
          ],
          [
            -79.50067,
            9.030501
          ],
          [
            -79.500234,
            9.030422
          ],
          [
            -79.499643,
            9.030256
          ],
          [
            -79.499282,
            9.030105
          ],
          [
            -79.498751,
            9.029893
          ],
          [
            -79.497835,
            9.029549
          ],
          [
            -79.495993,
            9.028785
          ],
          [
            -79.495744,
            9.028714
          ],
          [
            -79.495376,
            9.028651
          ],
          [
            -79.495043,
            9.02862
          ],
          [
            -79.494699,
            9.028627
          ],
          [
            -79.494317,
            9.028685
          ],
          [
            -79.493774,
            9.028881
          ],
          [
            -79.492435,
            9.029498
          ],
          [
            -79.491958,
            9.029767
          ],
          [
            -79.491556,
            9.030036
          ],
          [
            -79.490362,
            9.030868
          ],
          [
            -79.490177,
            9.030998
          ],
          [
            -79.489812,
            9.031273
          ],
          [
            -79.48853,
            9.032322
          ],
          [
            -79.488208,
            9.032569
          ],
          [
            -79.487806,
            9.032863
          ],
          [
            -79.486518,
            9.033734
          ],
          [
            -79.48415,
            9.035241
          ],
          [
            -79.483716,
            9.035573
          ],
          [
            -79.482954,
            9.036134
          ],
          [
            -79.481406,
            9.037088
          ],
          [
            -79.480494,
            9.037641
          ],
          [
            -79.480081,
            9.037898
          ],
          [
            -79.479668,
            9.038182
          ],
          [
            -79.477058,
            9.040062
          ],
          [
            -79.475197,
            9.041379
          ],
          [
            -79.473861,
            9.042376
          ],
          [
            -79.47306,
            9.042943
          ],
          [
            -79.472869,
            9.043077
          ],
          [
            -79.47255,
            9.043286
          ],
          [
            -79.471438,
            9.043882
          ],
          [
            -79.471037,
            9.044097
          ],
          [
            -79.470262,
            9.04449
          ],
          [
            -79.468228,
            9.04549
          ],
          [
            -79.466769,
            9.046203
          ],
          [
            -79.46546,
            9.046862
          ],
          [
            -79.464339,
            9.047347
          ],
          [
            -79.46353,
            9.047646
          ],
          [
            -79.462877,
            9.047862
          ],
          [
            -79.461182,
            9.048447
          ],
          [
            -79.458994,
            9.049181
          ],
          [
            -79.45822,
            9.049415
          ],
          [
            -79.457359,
            9.049652
          ],
          [
            -79.456781,
            9.049785
          ],
          [
            -79.456244,
            9.049883
          ],
          [
            -79.455637,
            9.049982
          ],
          [
            -79.452698,
            9.050362
          ],
          [
            -79.452036,
            9.050439
          ],
          [
            -79.451478,
            9.050503
          ],
          [
            -79.45006,
            9.050693
          ],
          [
            -79.449636,
            9.05075
          ],
          [
            -79.448777,
            9.050888
          ],
          [
            -79.448137,
            9.051011
          ],
          [
            -79.44719,
            9.051222
          ],
          [
            -79.446783,
            9.051322
          ],
          [
            -79.445921,
            9.051562
          ],
          [
            -79.445065,
            9.051837
          ],
          [
            -79.444129,
            9.052165
          ],
          [
            -79.443458,
            9.052433
          ],
          [
            -79.442806,
            9.052711
          ],
          [
            -79.44223,
            9.052976
          ],
          [
            -79.441141,
            9.053519
          ],
          [
            -79.437863,
            9.055243
          ],
          [
            -79.437241,
            9.055608
          ],
          [
            -79.436847,
            9.055847
          ],
          [
            -79.436082,
            9.056371
          ],
          [
            -79.435782,
            9.056615
          ],
          [
            -79.435417,
            9.056864
          ],
          [
            -79.434999,
            9.057102
          ],
          [
            -79.432381,
            9.05848
          ],
          [
            -79.431034,
            9.059105
          ],
          [
            -79.430731,
            9.059231
          ],
          [
            -79.430004,
            9.059534
          ],
          [
            -79.429267,
            9.059803
          ],
          [
            -79.428136,
            9.060202
          ],
          [
            -79.425884,
            9.060996
          ],
          [
            -79.423712,
            9.061732
          ],
          [
            -79.422639,
            9.062087
          ],
          [
            -79.421641,
            9.062479
          ],
          [
            -79.420815,
            9.062832
          ],
          [
            -79.420394,
            9.063028
          ],
          [
            -79.419115,
            9.063624
          ],
          [
            -79.417393,
            9.064503
          ],
          [
            -79.41441,
            9.065997
          ],
          [
            -79.412438,
            9.066968
          ],
          [
            -79.41184,
            9.067268
          ],
          [
            -79.411328,
            9.067508
          ],
          [
            -79.410873,
            9.067686
          ],
          [
            -79.410339,
            9.06786
          ],
          [
            -79.409648,
            9.068055
          ],
          [
            -79.409222,
            9.06816
          ],
          [
            -79.408843,
            9.068239
          ],
          [
            -79.40792,
            9.068439
          ],
          [
            -79.407008,
            9.06871
          ],
          [
            -79.406353,
            9.068902
          ],
          [
            -79.405917,
            9.069038
          ],
          [
            -79.405678,
            9.069133
          ],
          [
            -79.405508,
            9.069219
          ],
          [
            -79.40534,
            9.069314
          ],
          [
            -79.405183,
            9.069421
          ],
          [
            -79.405016,
            9.069555
          ],
          [
            -79.40485,
            9.069712
          ],
          [
            -79.404505,
            9.07007
          ],
          [
            -79.403689,
            9.071005
          ],
          [
            -79.403498,
            9.071243
          ],
          [
            -79.403298,
            9.071509
          ],
          [
            -79.403196,
            9.071699
          ],
          [
            -79.402938,
            9.072332
          ],
          [
            -79.402482,
            9.073495
          ],
          [
            -79.400505,
            9.0784
          ],
          [
            -79.400058,
            9.079485
          ],
          [
            -79.399591,
            9.080604
          ],
          [
            -79.399454,
            9.080962
          ],
          [
            -79.399054,
            9.081944
          ],
          [
            -79.396402,
            9.088415
          ],
          [
            -79.39538,
            9.090926
          ],
          [
            -79.394261,
            9.093635
          ],
          [
            -79.393596,
            9.095274
          ],
          [
            -79.393373,
            9.095762
          ],
          [
            -79.393011,
            9.096466
          ],
          [
            -79.392638,
            9.097014
          ],
          [
            -79.392322,
            9.097441
          ],
          [
            -79.391855,
            9.097949
          ],
          [
            -79.391324,
            9.098445
          ],
          [
            -79.390675,
            9.098929
          ],
          [
            -79.389924,
            9.099382
          ],
          [
            -79.38942,
            9.099652
          ],
          [
            -79.388122,
            9.100298
          ],
          [
            -79.38622,
            9.101263
          ],
          [
            -79.385185,
            9.10176
          ],
          [
            -79.384592,
            9.102023
          ],
          [
            -79.384042,
            9.102242
          ],
          [
            -79.383374,
            9.102497
          ],
          [
            -79.382218,
            9.102875
          ],
          [
            -79.381425,
            9.103092
          ],
          [
            -79.380866,
            9.103222
          ],
          [
            -79.380262,
            9.103343
          ],
          [
            -79.379868,
            9.103411
          ],
          [
            -79.379181,
            9.103508
          ],
          [
            -79.378667,
            9.103593
          ],
          [
            -79.37787,
            9.103673
          ],
          [
            -79.37724,
            9.103715
          ],
          [
            -79.376618,
            9.103731
          ],
          [
            -79.375802,
            9.103728
          ],
          [
            -79.374756,
            9.103681
          ],
          [
            -79.372106,
            9.103474
          ],
          [
            -79.370942,
            9.103402
          ],
          [
            -79.368206,
            9.103228
          ],
          [
            -79.367573,
            9.103175
          ],
          [
            -79.366138,
            9.103074
          ],
          [
            -79.364446,
            9.102947
          ],
          [
            -79.362324,
            9.102804
          ],
          [
            -79.359528,
            9.102599
          ],
          [
            -79.359133,
            9.102552
          ],
          [
            -79.358496,
            9.10245
          ],
          [
            -79.357692,
            9.102371
          ],
          [
            -79.357324,
            9.102354
          ],
          [
            -79.356506,
            9.102269
          ],
          [
            -79.356163,
            9.102219
          ],
          [
            -79.355852,
            9.102155
          ],
          [
            -79.355415,
            9.102099
          ],
          [
            -79.353444,
            9.101935
          ],
          [
            -79.35305,
            9.101902
          ]
        ]
      }
    }
  ]
}