{
  "type": "FeatureCollection",
  "features": [
    {
      "type": "Feature",
      "properties": {
        "creator": "BRouter-1.7.9",
        "name": "[Metro de Panamá] Line 1",
        "track-length": "34468",
        "filtered ascend": "58",
        "plain-ascend": "-22",
        "total-time": "2758",
        "total-energy": "1538974",
        "cost": "68936",
        "messages": [
          [
            "Longitude",
            "Latitude",
            "Elevation",
            "Distance",
            "CostPerKm",
            "ElevCost",
            "TurnCost",
            "NodeCost",
            "InitialCost",
            "WayTags",
            "NodeTags",
            "Time",
            "Energy"
          ],
          [
            "-79527116",
            "9079587",
            "-8192",
            "63",
            "2000",
            "0",
            "0",
            "0",
            "0",
            "railway=subway",
            "railway=halt",
            "5",
            "2771"
          ],
          [
            "-79526945",
            "9079247",
            "-8192",
            "42",
            "2000",
            "0",
            "0",
            "0",
            "0",
            "railway=subway",
            "railway=switch",
            "8",
            "4618"
          ],
          [
            "-79526650",
            "9078680",
            "-8192",
            "71",
            "2000",
            "0",
            "0",
            "0",
            "0",
            "railway=subway",
            "railway=switch",
            "14",
            "7741"
          ],
          [
            "-79526262",
            "9077887",
            "-8192",
            "98",
            "2000",
            "0",
            "0",
            "0",
            "0",
            "railway=subway",
            "",
            "21",
            "12051"
          ],
          [
            "-79514644",
            "9065160",
            "-8192",
            "1963",
            "2000",
            "0",
            "0",
            "0",
            "0",
            "railway=subway",
            "railway=switch",
            "157",
            "86343"
          ],
          [
            "-79513792",
            "9064811",
            "90",
            "101",
            "2000",
            "0",
            "0",
            "0",
            "0",
            "railway=subway",
            "railway=halt",
            "165",
            "90785"
          ],
          [
            "-79513436",
            "9064666",
            "89",
            "43",
            "2000",
            "0",
            "0",
            "0",
            "0",
            "railway=subway",
            "railway=switch",
            "168",
            "92445"
          ],
          [
            "-79508826",
            "9049750",
            "62",
            "1892",
            "2000",
            "0",
            "0",
            "0",
            "0",
            "railway=subway",
            "railway=switch",
            "319",
            "175234"
          ],
          [
            "-79508304",
            "9048891",
            "61",
            "111",
            "2000",
            "0",
            "0",
            "0",
            "0",
            "railway=subway",
            "railway=halt",
            "328",
            "180117"
          ],
          [
            "-79508105",
            "9048572",
            "60",
            "41",
            "2000",
            "0",
            "0",
            "0",
            "0",
            "railway=subway",
            "railway=switch",
            "332",
            "181920"
          ],
          [
            "-79508427",
            "9040617",
            "47",
            "930",
            "2000",
            "0",
            "0",
            "0",
            "0",
            "railway=subway",
            "railway=halt",
            "406",
            "222826"
          ],
          [
            "-79505912",
            "9031948",
            "32",
            "1052",
            "2000",
            "0",
            "0",
            "0",
            "0",
            "railway=subway",
            "railway=switch",
            "490",
            "269099"
          ],
          [
            "-79506418",
            "9030571",
            "30",
            "162",
            "2000",
            "0",
            "0",
            "0",
            "0",
            "railway=subway",
            "",
            "503",
            "276225"
          ],
          [
            "-79506682",
            "9029805",
            "29",
            "90",
            "2000",
            "0",
            "0",
            "0",
            "0",
            "reversedirection=yes railway=subway",
            "railway=halt",
            "510",
            "280183"
          ],
          [
            "-79506879",
            "9029244",
            "28",
            "65",
            "2000",
            "0",
            "0",
            "0",
            "0",
            "reversedirection=yes railway=subway",
            "",
            "515",
            "283042"
          ],
          [
            "-79507107",
            "9028602",
            "27",
            "75",
            "2000",
            "0",
            "0",
            "0",
            "0",
            "railway=subway",
            "railway=switch",
            "521",
            "286341"
          ],
          [
            "-79509571",
            "9025376",
            "23",
            "459",
            "2000",
            "0",
            "0",
            "0",
            "0",
            "railway=subway",
            "",
            "558",
            "300328"
          ],
          [
            "-79512926",
            "9023267",
            "25",
            "437",
            "2000",
            "0",
            "0",
            "0",
            "0",
            "reversedirection=yes railway=subway",
            "railway=halt",
            "593",
            "310103"
          ],
          [
            "-79517428",
            "9016438",
            "30",
            "961",
            "2000",
            "0",
            "0",
            "0",
            "0",
            "reversedirection=yes railway=subway",
            "railway=halt",
            "670",
            "352191"
          ],
          [
            "-79517600",
            "9012893",
            "32",
            "393",
            "2000",
            "0",
            "0",
            "0",
            "0",
            "reversedirection=yes railway=subway",
            "",
            "702",
            "372947"
          ],
          [
            "-79519190",
            "9007814",
            "30",
            "600",
            "2000",
            "0",
            "0",
            "0",
            "0",
            "railway=subway",
            "railway=halt",
            "750",
            "403103"
          ],
          [
            "-79519811",
            "8996931",
            "26",
            "1231",
            "2000",
            "0",
            "0",
            "0",
            "0",
            "railway=subway",
            "railway=halt",
            "848",
            "457298"
          ],
          [
            "-79522753",
            "8988705",
            "23",
            "1019",
            "2000",
            "0",
            "0",
            "0",
            "0",
            "railway=subway",
            "railway=halt",
            "929",
            "502119"
          ],
          [
            "-79527086",
            "8982397",
            "20",
            "855",
            "2000",
            "0",
            "0",
            "0",
            "0",
            "railway=subway",
            "railway=halt",
            "998",
            "539727"
          ],
          [
            "-79532823",
            "8972707",
            "16",
            "1283",
            "2000",
            "0",
            "0",
            "0",
            "0",
            "railway=subway",
            "railway=halt",
            "1101",
            "596160"
          ],
          [
            "-79535439",
            "8968266",
            "14",
            "569",
            "2000",
            "0",
            "0",
            "0",
            "0",
            "railway=subway",
            "railway=halt",
            "1146",
            "621187"
          ],
          [
            "-79539608",
            "8962589",
            "11",
            "791",
            "2000",
            "0",
            "0",
            "0",
            "0",
            "railway=subway",
            "railway=halt",
            "1209",
            "655980"
          ],
          [
            "-79549880",
            "8972390",
            "7",
            "1676",
            "2000",
            "0",
            "0",
            "0",
            "0",
            "railway=subway",
            "railway=switch",
            "1343",
            "722079"
          ],
          [
            "-79549826",
            "8972595",
            "7",
            "23",
            "2000",
            "0",
            "0",
            "0",
            "0",
            "reversedirection=yes railway=subway",
            "railway=unknown",
            "1345",
            "722506"
          ],
          [
            "-79549768",
            "8972818",
            "7",
            "25",
            "2000",
            "0",
            "0",
            "0",
            "0",
            "reversedirection=yes railway=subway",
            "railway=switch",
            "1347",
            "723154"
          ],
          [
            "-79549708",
            "8972985",
            "7",
            "20",
            "2000",
            "0",
            "0",
            "0",
            "0",
            "railway=subway",
            "railway=halt",
            "1349",
            "723786"
          ],
          [
            "-79549456",
            "8973695",
            "8",
            "83",
            "2000",
            "0",
            "0",
            "0",
            "0",
            "railway=subway",
            "",
            "1355",
            "727178"
          ],
          [
            "-79549708",
            "8972985",
            "7",
            "83",
            "2000",
            "0",
            "0",
            "0",
            "0",
            "reversedirection=yes railway=subway",
            "railway=halt",
            "6",
            "3277"
          ],
          [
            "-79549768",
            "8972818",
            "7",
            "20",
            "2000",
            "0",
            "0",
            "0",
            "0",
            "reversedirection=yes railway=subway",
            "railway=switch",
            "8",
            "4089"
          ],
          [
            "-79549844",
            "8972609",
            "7",
            "25",
            "2000",
            "0",
            "0",
            "0",
            "0",
            "reversedirection=yes railway=subway",
            "",
            "10",
            "4993"
          ],
          [
            "-79549919",
            "8972402",
            "7",
            "24",
            "2000",
            "0",
            "0",
            "0",
            "0",
            "reversedirection=yes railway=subway",
            "railway=switch",
            "1",
            "1055"
          ],
          [
            "-79549980",
            "8970817",
            "-8192",
            "180",
            "2000",
            "0",
            "0",
            "0",
            "0",
            "reversedirection=yes railway=subway",
            "",
            "16",
            "8942"
          ],
          [
            "-79539153",
            "8962844",
            "-8192",
            "1568",
            "2000",
            "0",
            "0",
            "0",
            "0",
            "reversedirection=yes railway=subway",
            "railway=halt",
            "125",
            "68968"
          ],
          [
            "-79535164",
            "8968621",
            "-8192",
            "785",
            "2000",
            "0",
            "0",
            "0",
            "0",
            "reversedirection=yes railway=subway",
            "railway=halt",
            "188",
            "103497"
          ],
          [
            "-79532600",
            "8973012",
            "-8192",
            "561",
            "2000",
            "0",
            "0",
            "0",
            "0",
            "reversedirection=yes railway=subway",
            "railway=halt",
            "233",
            "128173"
          ],
          [
            "-79526866",
            "8982640",
            "-8192",
            "1276",
            "2000",
            "0",
            "0",
            "0",
            "0",
            "reversedirection=yes railway=subway",
            "railway=halt",
            "335",
            "184298"
          ],
          [
            "-79522544",
            "8988948",
            "-8192",
            "854",
            "2000",
            "0",
            "0",
            "0",
            "0",
            "reversedirection=yes railway=subway",
            "railway=halt",
            "403",
            "221861"
          ],
          [
            "-79519771",
            "8997244",
            "-8192",
            "1021",
            "2000",
            "0",
            "0",
            "0",
            "0",
            "reversedirection=yes railway=subway",
            "railway=halt",
            "485",
            "266770"
          ],
          [
            "-79518928",
            "9008084",
            "-8192",
            "1235",
            "2000",
            "0",
            "0",
            "0",
            "0",
            "reversedirection=yes railway=subway",
            "railway=halt",
            "583",
            "321092"
          ],
          [
            "-79517344",
            "9017092",
            "36",
            "1026",
            "2000",
            "0",
            "0",
            "0",
            "0",
            "reversedirection=yes railway=subway",
            "railway=halt",
            "666",
            "366441"
          ],
          [
            "-79512358",
            "9023490",
            "44",
            "950",
            "2000",
            "0",
            "0",
            "0",
            "0",
            "reversedirection=yes railway=subway",
            "railway=halt",
            "742",
            "408227"
          ],
          [
            "-79506875",
            "9029115",
            "52",
            "897",
            "2000",
            "0",
            "0",
            "0",
            "0",
            "reversedirection=yes railway=subway",
            "railway=switch",
            "813",
            "447682"
          ],
          [
            "-79506436",
            "9030352",
            "53",
            "145",
            "2000",
            "0",
            "0",
            "0",
            "0",
            "reversedirection=yes railway=subway",
            "railway=halt",
            "825",
            "454060"
          ],
          [
            "-79506366",
            "9030555",
            "53",
            "24",
            "2000",
            "0",
            "0",
            "0",
            "0",
            "reversedirection=yes railway=subway",
            "",
            "827",
            "455116"
          ],
          [
            "-79508350",
            "9041333",
            "65",
            "1293",
            "2000",
            "0",
            "0",
            "0",
            "0",
            "railway=subway",
            "railway=halt",
            "930",
            "511989"
          ],
          [
            "-79507766",
            "9048096",
            "71",
            "789",
            "2000",
            "0",
            "0",
            "0",
            "0",
            "railway=subway",
            "railway=switch",
            "993",
            "546693"
          ],
          [
            "-79508622",
            "9049511",
            "73",
            "183",
            "2000",
            "0",
            "0",
            "0",
            "0",
            "railway=subway",
            "railway=halt",
            "1008",
            "554742"
          ],
          [
            "-79509060",
            "9050230",
            "74",
            "93",
            "2000",
            "0",
            "0",
            "0",
            "0",
            "railway=subway",
            "railway=switch",
            "1015",
            "558833"
          ],
          [
            "-79512786",
            "9064450",
            "89",
            "1760",
            "2000",
            "0",
            "0",
            "0",
            "0",
            "railway=subway",
            "railway=switch",
            "1156",
            "636247"
          ],
          [
            "-79514413",
            "9065114",
            "90",
            "193",
            "2000",
            "0",
            "0",
            "0",
            "0",
            "railway=subway",
            "railway=halt",
            "1172",
            "686436"
          ],
          [
            "-79514465",
            "9065135",
            "90",
            "6",
            "2000",
            "0",
            "0",
            "0",
            "0",
            "railway=subway",
            "",
            "1172",
            "687125"
          ],
          [
            "-79515364",
            "9065498",
            "-8192",
            "106",
            "2000",
            "0",
            "0",
            "0",
            "0",
            "railway=subway",
            "railway=switch",
            "8",
            "4662"
          ],
          [
            "-79526277",
            "9078044",
            "-8192",
            "1889",
            "2000",
            "0",
            "0",
            "0",
            "0",
            "railway=subway",
            "",
            "159",
            "87750"
          ],
          [
            "-79526595",
            "9078700",
            "-8192",
            "81",
            "2000",
            "0",
            "0",
            "0",
            "0",
            "railway=subway",
            "railway=switch",
            "6",
            "3562"
          ],
          [
            "-79526774",
            "9078981",
            "-8192",
            "37",
            "2000",
            "0",
            "0",
            "0",
            "0",
            "reversedirection=yes railway=subway",
            "railway=unknown",
            "9",
            "5190"
          ],
          [
            "-79526945",
            "9079247",
            "-8192",
            "35",
            "2000",
            "0",
            "0",
            "0",
            "0",
            "reversedirection=yes railway=subway",
            "railway=switch",
            "12",
            "6729"
          ],
          [
            "-79527116",
            "9079587",
            "99",
            "42",
            "2000",
            "0",
            "0",
            "0",
            "0",
            "reversedirection=yes railway=subway",
            "railway=halt",
            "15",
            "8577"
          ],
          [
            "-79527363",
            "9080099",
            "98",
            "63",
            "2000",
            "0",
            "0",
            "0",
            "0",
            "reversedirection=yes railway=subway",
            "",
            "20",
            "10935"
          ]
        ],
        "times": [
          0,
          5.04,
          7.04,
          8.4,
          14.08,
          21.92,
          48,
          55.6,
          72.16,
          76.48,
          78.72,
          80.72,
          82.88,
          87.28,
          89.44,
          110.64,
          114.96,
          119.12,
          121.12,
          123.28,
          126.4,
          141.6,
          148.8,
          152.4,
          156.48,
          158.16,
          161.68,
          164.08,
          178.96,
          179.84,
          187.04,
          188.4,
          190.48,
          196.56,
          207.52,
          212.08,
          214.48,
          217.04,
          219.68,
          222.32,
          224.72,
          227.84,
          230.32,
          232.96,
          235.44,
          239.6,
          242.88,
          246.32,
          249.6,
          253.84,
          261.12,
          273.68,
          277.28,
          280.64,
          283.52,
          287.04,
          291.04,
          302.24,
          314.88,
          318.16,
          320.96,
          323.2,
          325.28,
          328.16,
          330.8,
          333.44,
          341.84,
          343.36,
          350.72,
          352,
          354,
          367.36,
          370.16,
          372.4,
          374.64,
          377.44,
          379.84,
          382.32,
          385.04,
          387.6,
          410.8,
          413.2,
          415.52,
          418.16,
          420.88,
          422.08,
          428.4,
          429.52,
          431.52,
          434.4,
          437.2,
          440.08,
          443.04,
          446.48,
          450.88,
          454.8,
          458.32,
          463.28,
          472.88,
          475.6,
          478.72,
          481.68,
          485.12,
          488,
          491.12,
          494.56,
          498,
          501.28,
          504.48,
          507.92,
          512.56,
          525.52,
          532.72,
          534.16,
          537.92,
          539.12,
          543.92,
          550.16,
          552.72,
          555.12,
          558,
          560.64,
          563.36,
          566.16,
          569.36,
          580.64,
          589.12,
          592.96,
          596.8,
          600.8,
          604.56,
          608.72,
          615.6,
          617.36,
          622.88,
          628.24,
          633.36,
          638.56,
          643.76,
          648.56,
          653.76,
          659.44,
          663.28,
          666.88,
          670.88,
          675.68,
          679.76,
          685.04,
          692.48,
          693.68,
          714.72,
          721.92,
          723.92,
          726.32,
          731.92,
          736,
          738.64,
          741.44,
          743.36,
          746,
          748.56,
          752.48,
          758.72,
          763.28,
          771.92,
          779.36,
          783.68,
          787.84,
          790,
          792.48,
          796.8,
          809.52,
          864,
          870.4,
          871.52,
          874.72,
          877.2,
          879.36,
          884.24,
          886.08,
          888.24,
          890.4,
          892.8,
          895.04,
          928.24,
          951.92,
          955.12,
          963.44,
          968.32,
          972.24,
          974.24,
          976.24,
          978,
          985.28,
          987.2,
          989.92,
          1020.32,
          1028.24,
          1040.64,
          1043.04,
          1045.04,
          1046.8,
          1048.72,
          1057.44,
          1059.52,
          1067.12,
          1068.72,
          1070.16,
          1071.6,
          1073.44,
          1075.12,
          1100.08,
          1105.68,
          1111.36,
          1119.84,
          1122.96,
          1168.48,
          1212.8,
          1213.84,
          1214.8,
          1231.76,
          1234.08,
          1235.36,
          1236.96,
          1238.4,
          1240,
          1241.6,
          1283.28,
          1338.08,
          1346.08,
          1347.84,
          1351.52,
          1356.24,
          1357.76,
          1359.04,
          1360.72,
          1363.04,
          1365.84,
          1367.68,
          1369.68,
          1370.24,
          1371.28,
          1377.92,
          1384.56,
          1385.6,
          1386.16,
          1388.16,
          1390.08,
          1392.88,
          1395.2,
          1396.96,
          1398.32,
          1399.84,
          1404.48,
          1404.64,
          1408.4,
          1410.32,
          1418.4,
          1450.16,
          1473.2,
          1514.8,
          1516.56,
          1518.32,
          1519.84,
          1521.52,
          1523.04,
          1529.92,
          1541.28,
          1542.4,
          1543.36,
          1544.48,
          1582.32,
          1588.8,
          1592.72,
          1634.32,
          1637.6,
          1645.92,
          1651.6,
          1657.2,
          1662.48,
          1682.16,
          1683.76,
          1685.6,
          1686.96,
          1688.32,
          1689.84,
          1697.44,
          1699.44,
          1708.4,
          1710.16,
          1712.08,
          1714.08,
          1728.88,
          1739.68,
          1767.28,
          1769.92,
          1771.76,
          1779.04,
          1782.8,
          1784.8,
          1788.88,
          1793.84,
          1802,
          1808,
          1828.88,
          1853.04,
          1862.08,
          1864.4,
          1866.88,
          1869.04,
          1871.28,
          1873.28,
          1878.16,
          1880.32,
          1882.72,
          1885.84,
          1889.68,
          1893.36,
          1947.84,
          1960.56,
          1964.88,
          1967.28,
          1969.44,
          1973.52,
          1985.12,
          1988.48,
          1993.92,
          1998.48,
          2004.72,
          2008.64,
          2011.2,
          2015.84,
          2018.64,
          2021.12,
          2025.36,
          2030.96,
          2033.36,
          2035.36,
          2042.56,
          2063.68,
          2070.56,
          2072.08,
          2077.28,
          2081.52,
          2085.92,
          2090,
          2093.6,
          2097.6,
          2103.28,
          2108.48,
          2113.2,
          2118.32,
          2123.6,
          2128.56,
          2133.92,
          2139.6,
          2146.56,
          2147.92,
          2152.4,
          2156.16,
          2160.24,
          2164.16,
          2168.08,
          2187.84,
          2190.96,
          2193.76,
          2196.56,
          2199.12,
          2202.08,
          2204.56,
          2207.12,
          2218.32,
          2223.2,
          2229.92,
          2231.84,
          2244.8,
          2249.36,
          2252.8,
          2256,
          2259.36,
          2262.88,
          2266.32,
          2269.6,
          2272.4,
          2275.92,
          2278.88,
          2281.84,
          2284.64,
          2299.12,
          2302.64,
          2306.56,
          2310.96,
          2314.4,
          2317.28,
          2320.24,
          2322.88,
          2325.76,
          2327.84,
          2335.28,
          2336.48,
          2339.2,
          2341.76,
          2344.08,
          2346.48,
          2369.6,
          2372.24,
          2374.96,
          2377.44,
          2379.92,
          2382.64,
          2385.04,
          2387.36,
          2390.16,
          2398.4,
          2405.6,
          2413.04,
          2414.16,
          2416.08,
          2420.48,
          2424.16,
          2426.8,
          2429.44,
          2432.24,
          2434.32,
          2436.48,
          2439.2,
          2466.48,
          2470.32,
          2473.76,
          2476.8,
          2480.24,
          2483.76,
          2496.32,
          2503.6,
          2507.68,
          2510.96,
          2514.56,
          2521.84,
          2524.4,
          2527.12,
          2529.44,
          2532,
          2534.64,
          2537.92,
          2540.64,
          2543.28,
          2545.68,
          2550.16,
          2561.28,
          2569.2,
          2576.72,
          2577.2,
          2577.84,
          2585.68,
          2593.6,
          2595.84,
          2599.52,
          2605.04,
          2608.56,
          2615.68,
          2630.96,
          2634.16,
          2636.4,
          2638.32,
          2642.4,
          2646.88,
          2651.68,
          2668.16,
          2670.24,
          2674.56,
          2676.72,
          2678.72,
          2680.96,
          2685.12,
          2694.48,
          2701.76,
          2709.36,
          2722.08,
          2736.8,
          2743.28,
          2746.24,
          2749.04,
          2750.4,
          2752.4,
          2757.44
        ]
      },
      "geometry": {
        "type": "LineString",
        "coordinates": [
          [
            -79.527362,
            9.080098,
            99.75
          ],
          [
            -79.527116,
            9.079587,
            99.75
          ],
          [
            -79.527012,
            9.079383,
            99.75
          ],
          [
            -79.526945,
            9.079247
          ],
          [
            -79.52665,
            9.07868
          ],
          [
            -79.526262,
            9.077887,
            91
          ],
          [
            -79.524963,
            9.075238,
            91
          ],
          [
            -79.524564,
            9.074476,
            91
          ],
          [
            -79.523625,
            9.072851,
            91
          ],
          [
            -79.523348,
            9.072453,
            91
          ],
          [
            -79.523188,
            9.072251,
            91
          ],
          [
            -79.523032,
            9.072081,
            91
          ],
          [
            -79.522858,
            9.071909,
            91
          ],
          [
            -79.522473,
            9.071592,
            91
          ],
          [
            -79.522271,
            9.071454,
            91
          ],
          [
            -79.520184,
            9.070249,
            91
          ],
          [
            -79.519785,
            9.069968,
            91
          ],
          [
            -79.519429,
            9.06966,
            91
          ],
          [
            -79.519269,
            9.069501,
            91
          ],
          [
            -79.519109,
            9.069312,
            91
          ],
          [
            -79.518894,
            9.069029,
            91
          ],
          [
            -79.517987,
            9.067563,
            91
          ],
          [
            -79.517544,
            9.066884,
            91
          ],
          [
            -79.517278,
            9.066573,
            91
          ],
          [
            -79.516932,
            9.066269,
            91
          ],
          [
            -79.516781,
            9.066146,
            91
          ],
          [
            -79.516448,
            9.065923,
            91
          ],
          [
            -79.516209,
            9.065793,
            91
          ],
          [
            -79.514644,
            9.06516,
            91
          ],
          [
            -79.51455,
            9.065121,
            90.75
          ],
          [
            -79.513792,
            9.064811,
            90.25
          ],
          [
            -79.513652,
            9.064753,
            90
          ],
          [
            -79.513436,
            9.064666,
            89.5
          ],
          [
            -79.512791,
            9.064411,
            88.5
          ],
          [
            -79.511643,
            9.063934,
            86.5
          ],
          [
            -79.511182,
            9.0637,
            85.75
          ],
          [
            -79.510957,
            9.06355,
            85.25
          ],
          [
            -79.510732,
            9.063368,
            84.75
          ],
          [
            -79.510529,
            9.063145,
            84.25
          ],
          [
            -79.510361,
            9.062903,
            84
          ],
          [
            -79.510223,
            9.062664,
            83.5
          ],
          [
            -79.510086,
            9.062343,
            83
          ],
          [
            -79.510016,
            9.062075,
            82.5
          ],
          [
            -79.509981,
            9.061783,
            82
          ],
          [
            -79.50997,
            9.061499,
            81.5
          ],
          [
            -79.509993,
            9.06103,
            80.75
          ],
          [
            -79.510018,
            9.060662,
            80.25
          ],
          [
            -79.510028,
            9.060273,
            79.75
          ],
          [
            -79.510015,
            9.059903,
            79
          ],
          [
            -79.509958,
            9.059426,
            78.25
          ],
          [
            -79.509793,
            9.058624,
            77
          ],
          [
            -79.509487,
            9.057233,
            74.75
          ],
          [
            -79.509416,
            9.056836,
            74.25
          ],
          [
            -79.509365,
            9.056458,
            73.5
          ],
          [
            -79.509337,
            9.056137,
            73
          ],
          [
            -79.509338,
            9.055738,
            72.5
          ],
          [
            -79.509364,
            9.055289,
            71.75
          ],
          [
            -79.509474,
            9.054032,
            69.75
          ],
          [
            -79.509608,
            9.052611,
            67.5
          ],
          [
            -79.509636,
            9.052239,
            67
          ],
          [
            -79.509644,
            9.051927,
            66.5
          ],
          [
            -79.509632,
            9.051677,
            66
          ],
          [
            -79.509601,
            9.051443,
            65.75
          ],
          [
            -79.50953,
            9.051128,
            65.25
          ],
          [
            -79.509437,
            9.050845,
            64.75
          ],
          [
            -79.509314,
            9.050571,
            64.25
          ],
          [
            -79.508826,
            9.04975,
            62.75
          ],
          [
            -79.508739,
            9.049603,
            62.5
          ],
          [
            -79.508304,
            9.048891,
            61.25
          ],
          [
            -79.508225,
            9.048765,
            61
          ],
          [
            -79.508105,
            9.048572,
            60.75
          ],
          [
            -79.507333,
            9.047276,
            58.25
          ],
          [
            -79.507199,
            9.04699,
            57.75
          ],
          [
            -79.507125,
            9.046746,
            57.5
          ],
          [
            -79.507078,
            9.046493,
            57
          ],
          [
            -79.507051,
            9.046175,
            56.5
          ],
          [
            -79.507054,
            9.0459,
            56
          ],
          [
            -79.507082,
            9.045624,
            55.75
          ],
          [
            -79.507149,
            9.04532,
            55.25
          ],
          [
            -79.507236,
            9.045044,
            54.75
          ],
          [
            -79.508134,
            9.042583,
            50.5
          ],
          [
            -79.508216,
            9.042322,
            50.25
          ],
          [
            -79.508277,
            9.042067,
            49.75
          ],
          [
            -79.508338,
            9.041776,
            49.25
          ],
          [
            -79.508387,
            9.041468,
            48.75
          ],
          [
            -79.508398,
            9.041333,
            48.5
          ],
          [
            -79.508427,
            9.040617,
            47.5
          ],
          [
            -79.508432,
            9.040487,
            47.25
          ],
          [
            -79.508424,
            9.040265,
            47
          ],
          [
            -79.508391,
            9.039938,
            46.5
          ],
          [
            -79.508325,
            9.039627,
            46
          ],
          [
            -79.508241,
            9.039311,
            45.5
          ],
          [
            -79.508135,
            9.038996,
            45
          ],
          [
            -79.507995,
            9.038631,
            44.25
          ],
          [
            -79.507775,
            9.03818,
            43.5
          ],
          [
            -79.507544,
            9.037803,
            42.75
          ],
          [
            -79.507307,
            9.037481,
            42.25
          ],
          [
            -79.506964,
            9.037031,
            41.25
          ],
          [
            -79.506296,
            9.036174,
            39.75
          ],
          [
            -79.506121,
            9.035926,
            39.25
          ],
          [
            -79.505945,
            9.035624,
            38.5
          ],
          [
            -79.505808,
            9.035321,
            38
          ],
          [
            -79.505673,
            9.03496,
            37.5
          ],
          [
            -79.505591,
            9.034647,
            37
          ],
          [
            -79.505527,
            9.034304,
            36.5
          ],
          [
            -79.5055,
            9.03392,
            35.75
          ],
          [
            -79.505507,
            9.033528,
            35.25
          ],
          [
            -79.505549,
            9.033164,
            34.75
          ],
          [
            -79.505625,
            9.032807,
            34
          ],
          [
            -79.505737,
            9.032438,
            33.5
          ],
          [
            -79.505912,
            9.031948,
            32.75
          ],
          [
            -79.506418,
            9.030571,
            30.25
          ],
          [
            -79.506682,
            9.029805,
            29
          ],
          [
            -79.506737,
            9.029648,
            28.75
          ],
          [
            -79.506879,
            9.029244,
            28.25
          ],
          [
            -79.506929,
            9.029115,
            28
          ],
          [
            -79.507107,
            9.028602,
            27
          ],
          [
            -79.507345,
            9.027935,
            26
          ],
          [
            -79.507451,
            9.027666,
            25.5
          ],
          [
            -79.507566,
            9.02742,
            25.25
          ],
          [
            -79.507724,
            9.027131,
            24.5
          ],
          [
            -79.507894,
            9.026888,
            24.25
          ],
          [
            -79.508092,
            9.026648,
            23.75
          ],
          [
            -79.508315,
            9.026424,
            23.25
          ],
          [
            -79.508585,
            9.026188,
            22.5
          ],
          [
            -79.509571,
            9.025376,
            23
          ],
          [
            -79.510314,
            9.024771,
            23.75
          ],
          [
            -79.510665,
            9.024506,
            24
          ],
          [
            -79.511026,
            9.024258,
            24.25
          ],
          [
            -79.511414,
            9.024019,
            24.5
          ],
          [
            -79.511793,
            9.023816,
            24.75
          ],
          [
            -79.512219,
            9.023608,
            25
          ],
          [
            -79.512926,
            9.023267,
            25.5
          ],
          [
            -79.513108,
            9.023175,
            25.5
          ],
          [
            -79.513672,
            9.022897,
            26
          ],
          [
            -79.514198,
            9.022593,
            26.25
          ],
          [
            -79.514675,
            9.022266,
            26.5
          ],
          [
            -79.515127,
            9.021887,
            27
          ],
          [
            -79.515548,
            9.021476,
            27.25
          ],
          [
            -79.5159,
            9.021058,
            27.5
          ],
          [
            -79.516249,
            9.020582,
            28
          ],
          [
            -79.516579,
            9.020032,
            28.25
          ],
          [
            -79.516773,
            9.019646,
            28.5
          ],
          [
            -79.516931,
            9.019275,
            28.75
          ],
          [
            -79.517085,
            9.018851,
            29
          ],
          [
            -79.517224,
            9.018328,
            29.25
          ],
          [
            -79.517316,
            9.017876,
            29.5
          ],
          [
            -79.517383,
            9.017281,
            30
          ],
          [
            -79.517428,
            9.016438,
            30.5
          ],
          [
            -79.517435,
            9.016301,
            30.5
          ],
          [
            -79.517546,
            9.01393,
            32
          ],
          [
            -79.51759,
            9.013118,
            32.5
          ],
          [
            -79.5176,
            9.012893,
            32.5
          ],
          [
            -79.517612,
            9.012621,
            32.75
          ],
          [
            -79.517642,
            9.011991,
            32.25
          ],
          [
            -79.517681,
            9.011529,
            31.75
          ],
          [
            -79.517723,
            9.011235,
            31.75
          ],
          [
            -79.517782,
            9.01092,
            31.5
          ],
          [
            -79.517831,
            9.010707,
            31.75
          ],
          [
            -79.517905,
            9.010415,
            32
          ],
          [
            -79.517988,
            9.010141,
            31.75
          ],
          [
            -79.518137,
            9.009719,
            31.5
          ],
          [
            -79.518387,
            9.009062,
            31.25
          ],
          [
            -79.518617,
            9.008603,
            31.25
          ],
          [
            -79.51919,
            9.007814,
            30.75
          ],
          [
            -79.519631,
            9.007093,
            30.5
          ],
          [
            -79.519893,
            9.006683,
            30.25
          ],
          [
            -79.520084,
            9.006254,
            30.25
          ],
          [
            -79.52014,
            9.006012,
            30
          ],
          [
            -79.52018,
            9.00573,
            30
          ],
          [
            -79.520192,
            9.005238,
            29.75
          ],
          [
            -79.520106,
            9.003805,
            29.25
          ],
          [
            -79.519854,
            8.997652,
            27
          ],
          [
            -79.519811,
            8.996931,
            26.75
          ],
          [
            -79.519804,
            8.996805,
            26.75
          ],
          [
            -79.519759,
            8.99645,
            26.5
          ],
          [
            -79.519681,
            8.996179,
            26.5
          ],
          [
            -79.51959,
            8.995952,
            26.25
          ],
          [
            -79.519349,
            8.995452,
            26
          ],
          [
            -79.519305,
            8.995245,
            26
          ],
          [
            -79.519307,
            8.995001,
            26
          ],
          [
            -79.519346,
            8.994762,
            25.75
          ],
          [
            -79.519425,
            8.9945,
            25.75
          ],
          [
            -79.519524,
            8.994271,
            25.75
          ],
          [
            -79.521355,
            8.990989,
            24.25
          ],
          [
            -79.522753,
            8.988705,
            23.25
          ],
          [
            -79.52293,
            8.98839,
            23.25
          ],
          [
            -79.523335,
            8.987544,
            22.75
          ],
          [
            -79.523512,
            8.987024,
            22.5
          ],
          [
            -79.52372,
            8.986634,
            22.5
          ],
          [
            -79.523866,
            8.986457,
            22.25
          ],
          [
            -79.524031,
            8.986302,
            22.25
          ],
          [
            -79.52418,
            8.986173,
            22.25
          ],
          [
            -79.524836,
            8.985669,
            22
          ],
          [
            -79.524993,
            8.985516,
            21.75
          ],
          [
            -79.525188,
            8.985272,
            21.75
          ],
          [
            -79.527086,
            8.982397,
            20.5
          ],
          [
            -79.527588,
            8.981653,
            20
          ],
          [
            -79.528397,
            8.980508,
            19.5
          ],
          [
            -79.528547,
            8.980285,
            19.5
          ],
          [
            -79.528692,
            8.98011,
            19.5
          ],
          [
            -79.528835,
            8.979968,
            19.25
          ],
          [
            -79.529006,
            8.979835,
            19.25
          ],
          [
            -79.529831,
            8.979281,
            18.75
          ],
          [
            -79.530012,
            8.979134,
            18.75
          ],
          [
            -79.530655,
            8.978562,
            18.5
          ],
          [
            -79.53078,
            8.978434,
            18.5
          ],
          [
            -79.530875,
            8.978302,
            18.25
          ],
          [
            -79.530955,
            8.978161,
            18.25
          ],
          [
            -79.531047,
            8.977976,
            18.25
          ],
          [
            -79.531113,
            8.977801,
            18
          ],
          [
            -79.531776,
            8.975056,
            17
          ],
          [
            -79.531955,
            8.974447,
            16.75
          ],
          [
            -79.532181,
            8.973848,
            16.5
          ],
          [
            -79.532657,
            8.973016,
            16.25
          ],
          [
            -79.532823,
            8.972707,
            16
          ],
          [
            -79.535439,
            8.968266,
            14.25
          ],
          [
            -79.537904,
            8.963894,
            12.25
          ],
          [
            -79.537975,
            8.963803,
            12.25
          ],
          [
            -79.538052,
            8.963724,
            12.25
          ],
          [
            -79.539608,
            8.962589,
            11.5
          ],
          [
            -79.53982,
            8.962434,
            11.5
          ],
          [
            -79.539958,
            8.962381,
            11.5
          ],
          [
            -79.540137,
            8.962366,
            11.25
          ],
          [
            -79.540296,
            8.962404,
            11.25
          ],
          [
            -79.540461,
            8.962475,
            11.25
          ],
          [
            -79.540611,
            8.96258,
            11.25
          ],
          [
            -79.544069,
            8.965805,
            9.5
          ],
          [
            -79.548888,
            8.969733,
            7.25
          ],
          [
            -79.549618,
            8.970275,
            6.75
          ],
          [
            -79.549738,
            8.970439,
            6.75
          ],
          [
            -79.549922,
            8.970817,
            6.5
          ],
          [
            -79.550045,
            8.971335,
            6.25
          ],
          [
            -79.550067,
            8.971503,
            6.5
          ],
          [
            -79.550067,
            8.971652,
            5.75
          ],
          [
            -79.550051,
            8.971841,
            6
          ],
          [
            -79.54999,
            8.972095,
            6.5
          ],
          [
            -79.54988,
            8.97239,
            7
          ],
          [
            -79.549826,
            8.972595,
            7.25
          ],
          [
            -79.549768,
            8.972818,
            7.5
          ],
          [
            -79.549746,
            8.972877,
            7.75
          ],
          [
            -79.549708,
            8.972985,
            7.75
          ],
          [
            -79.549456,
            8.973695,
            8.75
          ],
          [
            -79.549708,
            8.972985,
            7.75
          ],
          [
            -79.549746,
            8.972877,
            7.75
          ],
          [
            -79.549768,
            8.972818,
            7.5
          ],
          [
            -79.549844,
            8.972609,
            7
          ],
          [
            -79.549919,
            8.972402,
            7
          ],
          [
            -79.550028,
            8.972104,
            6.25
          ],
          [
            -79.550089,
            8.971849,
            5.75
          ],
          [
            -79.550108,
            8.971653,
            5.5
          ],
          [
            -79.550109,
            8.9715,
            6.5
          ],
          [
            -79.550092,
            8.971328,
            7.5
          ],
          [
            -79.54998,
            8.970817,
            7.5
          ],
          [
            -79.549976,
            8.970803,
            32
          ],
          [
            -79.549792,
            8.970419,
            32
          ],
          [
            -79.549657,
            8.970244,
            32
          ],
          [
            -79.548925,
            8.969692,
            32
          ],
          [
            -79.546137,
            8.967413,
            32
          ],
          [
            -79.544105,
            8.965768,
            32
          ],
          [
            -79.54066,
            8.962543,
            32
          ],
          [
            -79.540496,
            8.962427,
            32
          ],
          [
            -79.540311,
            8.962347,
            32
          ],
          [
            -79.540142,
            8.962308,
            32
          ],
          [
            -79.539949,
            8.962327,
            32
          ],
          [
            -79.539784,
            8.962386,
            32
          ],
          [
            -79.539153,
            8.962844,
            32
          ],
          [
            -79.538111,
            8.963609,
            32
          ],
          [
            -79.538012,
            8.963693,
            32
          ],
          [
            -79.537934,
            8.963771,
            32
          ],
          [
            -79.537861,
            8.963873,
            32
          ],
          [
            -79.535747,
            8.967593,
            32
          ],
          [
            -79.535389,
            8.968238,
            32
          ],
          [
            -79.535164,
            8.968621,
            32
          ],
          [
            -79.532778,
            8.972684,
            32
          ],
          [
            -79.5326,
            8.973012,
            32
          ],
          [
            -79.532133,
            8.973826,
            32
          ],
          [
            -79.531904,
            8.97443,
            32
          ],
          [
            -79.531725,
            8.975041,
            32
          ],
          [
            -79.531582,
            8.975624,
            32
          ],
          [
            -79.531061,
            8.977791,
            32
          ],
          [
            -79.531001,
            8.977962,
            32
          ],
          [
            -79.530911,
            8.978145,
            32
          ],
          [
            -79.530836,
            8.97828,
            32
          ],
          [
            -79.530746,
            8.978404,
            32
          ],
          [
            -79.530628,
            8.978528,
            32
          ],
          [
            -79.529985,
            8.979099,
            32
          ],
          [
            -79.529811,
            8.979243,
            32
          ],
          [
            -79.528964,
            8.979811,
            32
          ],
          [
            -79.528808,
            8.979934,
            32
          ],
          [
            -79.528653,
            8.980082,
            32
          ],
          [
            -79.528512,
            8.980262,
            32
          ],
          [
            -79.527547,
            8.981629,
            32
          ],
          [
            -79.526866,
            8.98264,
            32
          ],
          [
            -79.525143,
            8.985244,
            32
          ],
          [
            -79.524954,
            8.985481,
            32
          ],
          [
            -79.524805,
            8.985631,
            32
          ],
          [
            -79.524151,
            8.98614,
            32
          ],
          [
            -79.523834,
            8.986425,
            32
          ],
          [
            -79.523685,
            8.986597,
            32
          ],
          [
            -79.523467,
            8.987003,
            32
          ],
          [
            -79.523282,
            8.987529,
            32
          ],
          [
            -79.522891,
            8.988364,
            32
          ],
          [
            -79.522544,
            8.988948,
            32
          ],
          [
            -79.521308,
            8.990962,
            32
          ],
          [
            -79.519978,
            8.993348,
            32
          ],
          [
            -79.519489,
            8.994245,
            32
          ],
          [
            -79.51938,
            8.994482,
            32
          ],
          [
            -79.519297,
            8.994752,
            32
          ],
          [
            -79.519254,
            8.994995,
            32
          ],
          [
            -79.519255,
            8.995249,
            32
          ],
          [
            -79.519306,
            8.995469,
            32
          ],
          [
            -79.519544,
            8.995969,
            32
          ],
          [
            -79.519628,
            8.996196,
            32
          ],
          [
            -79.519703,
            8.996459,
            32
          ],
          [
            -79.519747,
            8.996811,
            32
          ],
          [
            -79.519771,
            8.997244,
            32
          ],
          [
            -79.519799,
            8.997655,
            32
          ],
          [
            -79.520053,
            9.003809,
            32
          ],
          [
            -79.520138,
            9.005241,
            32
          ],
          [
            -79.520124,
            9.005729,
            32
          ],
          [
            -79.520085,
            9.006002,
            32
          ],
          [
            -79.520026,
            9.006241,
            32
          ],
          [
            -79.519839,
            9.00666,
            32
          ],
          [
            -79.519147,
            9.007777,
            32
          ],
          [
            -79.518928,
            9.008084,
            32
          ],
          [
            -79.518573,
            9.008584,
            32
          ],
          [
            -79.518341,
            9.009046,
            32
          ],
          [
            -79.518084,
            9.009702,
            32
          ],
          [
            -79.517951,
            9.010129,
            32
          ],
          [
            -79.51787,
            9.010405,
            32
          ],
          [
            -79.517753,
            9.010917,
            31.5
          ],
          [
            -79.517694,
            9.01123,
            31.75
          ],
          [
            -79.517652,
            9.011509,
            31.5
          ],
          [
            -79.517613,
            9.011991,
            32
          ],
          [
            -79.517577,
            9.01262,
            32.5
          ],
          [
            -79.517564,
            9.012891,
            32.25
          ],
          [
            -79.517551,
            9.013117,
            32.25
          ],
          [
            -79.517505,
            9.01393,
            33.25
          ],
          [
            -79.517382,
            9.016311,
            35.5
          ],
          [
            -79.517344,
            9.017092,
            36.25
          ],
          [
            -79.517336,
            9.017266,
            36.25
          ],
          [
            -79.517273,
            9.017848,
            37
          ],
          [
            -79.51718,
            9.018314,
            37.25
          ],
          [
            -79.51705,
            9.018797,
            37.75
          ],
          [
            -79.516896,
            9.019231,
            38.25
          ],
          [
            -79.516742,
            9.01961,
            38.75
          ],
          [
            -79.51654,
            9.020014,
            39
          ],
          [
            -79.516209,
            9.020562,
            39.75
          ],
          [
            -79.515861,
            9.021042,
            40.25
          ],
          [
            -79.515517,
            9.021447,
            40.75
          ],
          [
            -79.515098,
            9.021853,
            41.25
          ],
          [
            -79.51464,
            9.022237,
            42
          ],
          [
            -79.514172,
            9.022556,
            42.5
          ],
          [
            -79.513647,
            9.022861,
            43
          ],
          [
            -79.513073,
            9.023146,
            43.75
          ],
          [
            -79.512358,
            9.02349,
            44.5
          ],
          [
            -79.512223,
            9.023556,
            44.5
          ],
          [
            -79.511768,
            9.02378,
            45
          ],
          [
            -79.511391,
            9.023985,
            45.5
          ],
          [
            -79.511,
            9.024225,
            46
          ],
          [
            -79.510632,
            9.024475,
            46.25
          ],
          [
            -79.510281,
            9.024741,
            46.75
          ],
          [
            -79.508544,
            9.026163,
            49
          ],
          [
            -79.508283,
            9.026396,
            49.25
          ],
          [
            -79.50806,
            9.026626,
            49.5
          ],
          [
            -79.507859,
            9.02687,
            49.75
          ],
          [
            -79.50769,
            9.027108,
            50.25
          ],
          [
            -79.507524,
            9.027402,
            50.5
          ],
          [
            -79.507404,
            9.027655,
            50.75
          ],
          [
            -79.507301,
            9.027924,
            51
          ],
          [
            -79.506875,
            9.029115,
            52.25
          ],
          [
            -79.506687,
            9.029635,
            52.75
          ],
          [
            -79.506436,
            9.030352,
            53.5
          ],
          [
            -79.506366,
            9.030555,
            53.75
          ],
          [
            -79.505873,
            9.031939,
            55
          ],
          [
            -79.505693,
            9.032426,
            55.5
          ],
          [
            -79.505581,
            9.032797,
            56
          ],
          [
            -79.505508,
            9.033149,
            56.25
          ],
          [
            -79.505465,
            9.033523,
            56.75
          ],
          [
            -79.505455,
            9.033919,
            57
          ],
          [
            -79.505483,
            9.034307,
            57.5
          ],
          [
            -79.50555,
            9.034669,
            57.75
          ],
          [
            -79.505628,
            9.034973,
            58
          ],
          [
            -79.505767,
            9.035345,
            58.5
          ],
          [
            -79.505913,
            9.035645,
            58.75
          ],
          [
            -79.506084,
            9.035937,
            59.25
          ],
          [
            -79.506263,
            9.036204,
            59.5
          ],
          [
            -79.507274,
            9.0375,
            61
          ],
          [
            -79.507508,
            9.037823,
            61.5
          ],
          [
            -79.507737,
            9.038201,
            61.75
          ],
          [
            -79.50796,
            9.03865,
            62.25
          ],
          [
            -79.508099,
            9.039013,
            62.75
          ],
          [
            -79.508197,
            9.039325,
            63
          ],
          [
            -79.508284,
            9.039646,
            63.25
          ],
          [
            -79.508345,
            9.039936,
            63.5
          ],
          [
            -79.508373,
            9.040258,
            64
          ],
          [
            -79.508383,
            9.040491,
            64.25
          ],
          [
            -79.50835,
            9.041333,
            65
          ],
          [
            -79.50834,
            9.041468,
            65
          ],
          [
            -79.508295,
            9.041774,
            65.25
          ],
          [
            -79.508241,
            9.04206,
            65.75
          ],
          [
            -79.508178,
            9.04231,
            66
          ],
          [
            -79.508097,
            9.04257,
            66.25
          ],
          [
            -79.507197,
            9.045028,
            68.75
          ],
          [
            -79.507105,
            9.045314,
            69
          ],
          [
            -79.507038,
            9.045615,
            69.25
          ],
          [
            -79.507008,
            9.045897,
            69.5
          ],
          [
            -79.507008,
            9.046179,
            69.75
          ],
          [
            -79.507032,
            9.046489,
            70
          ],
          [
            -79.507083,
            9.046757,
            70.25
          ],
          [
            -79.507159,
            9.047004,
            70.5
          ],
          [
            -79.507298,
            9.047293,
            71
          ],
          [
            -79.507766,
            9.048096,
            71.75
          ],
          [
            -79.508184,
            9.048794,
            72.5
          ],
          [
            -79.508622,
            9.049511,
            73.5
          ],
          [
            -79.508688,
            9.049624,
            73.5
          ],
          [
            -79.508803,
            9.049804,
            73.75
          ],
          [
            -79.50906,
            9.05023,
            74.25
          ],
          [
            -79.509271,
            9.050588,
            74.5
          ],
          [
            -79.509397,
            9.050857,
            75
          ],
          [
            -79.509492,
            9.051144,
            75.25
          ],
          [
            -79.509567,
            9.05145,
            75.5
          ],
          [
            -79.509593,
            9.051683,
            75.75
          ],
          [
            -79.509603,
            9.051923,
            76
          ],
          [
            -79.509597,
            9.052234,
            76.25
          ],
          [
            -79.509316,
            9.055307,
            79.25
          ],
          [
            -79.509291,
            9.055737,
            79.75
          ],
          [
            -79.509296,
            9.056126,
            80
          ],
          [
            -79.50932,
            9.056471,
            80.25
          ],
          [
            -79.509375,
            9.056853,
            80.75
          ],
          [
            -79.509445,
            9.057245,
            81
          ],
          [
            -79.509751,
            9.058633,
            82.5
          ],
          [
            -79.50991,
            9.05944,
            83.25
          ],
          [
            -79.509964,
            9.059897,
            83.75
          ],
          [
            -79.509983,
            9.060266,
            84
          ],
          [
            -79.509968,
            9.060673,
            84.5
          ],
          [
            -79.509919,
            9.061494,
            85.25
          ],
          [
            -79.509929,
            9.061779,
            85.5
          ],
          [
            -79.509965,
            9.062087,
            85.75
          ],
          [
            -79.51003,
            9.062345,
            86
          ],
          [
            -79.510137,
            9.062616,
            86.25
          ],
          [
            -79.510286,
            9.062873,
            86.5
          ],
          [
            -79.510493,
            9.063176,
            87
          ],
          [
            -79.510699,
            9.063405,
            87.25
          ],
          [
            -79.510934,
            9.063589,
            87.5
          ],
          [
            -79.511162,
            9.063743,
            87.75
          ],
          [
            -79.511622,
            9.063968,
            88.25
          ],
          [
            -79.512786,
            9.06445,
            89.5
          ],
          [
            -79.513622,
            9.064791,
            89.75
          ],
          [
            -79.514413,
            9.065114,
            90.25
          ],
          [
            -79.514465,
            9.065135,
            90.5
          ],
          [
            -79.514536,
            9.065164,
            91.25
          ],
          [
            -79.515364,
            9.065498
          ],
          [
            -79.516196,
            9.065833
          ],
          [
            -79.51642,
            9.065951
          ],
          [
            -79.516765,
            9.06619
          ],
          [
            -79.517242,
            9.066601
          ],
          [
            -79.517498,
            9.066907
          ],
          [
            -79.517934,
            9.067587
          ],
          [
            -79.518849,
            9.069051
          ],
          [
            -79.519069,
            9.069341
          ],
          [
            -79.519235,
            9.069528
          ],
          [
            -79.519388,
            9.069686
          ],
          [
            -79.519739,
            9.069988
          ],
          [
            -79.520153,
            9.070284
          ],
          [
            -79.520623,
            9.070563
          ],
          [
            -79.522247,
            9.071497
          ],
          [
            -79.52244,
            9.071631
          ],
          [
            -79.522821,
            9.071945
          ],
          [
            -79.523001,
            9.072112
          ],
          [
            -79.523151,
            9.07228
          ],
          [
            -79.523309,
            9.072476
          ],
          [
            -79.523572,
            9.072866
          ],
          [
            -79.524108,
            9.073785
          ],
          [
            -79.524515,
            9.074497
          ],
          [
            -79.524912,
            9.075256
          ],
          [
            -79.52555,
            9.07655
          ],
          [
            -79.526277,
            9.078044,
            99.75
          ],
          [
            -79.526595,
            9.0787,
            99.75
          ],
          [
            -79.526774,
            9.078981,
            99.75
          ],
          [
            -79.526945,
            9.079247,
            99.75
          ],
          [
            -79.527012,
            9.079383,
            99.5
          ],
          [
            -79.527116,
            9.079587,
            99.25
          ],
          [
            -79.527363,
            9.080099,
            98.75
          ]
        ]
      }
    }
  ]
}