{
  "type": "FeatureCollection",
  "features": [
    {
      "type": "Feature",
      "properties": {
        "creator": "BRouter-1.7.9",
        "name": "[Metro de Panamá] Line 2 (Aeropuerto)",
        "track-length": "28040",
        "filtered ascend": "0",
        "plain-ascend": "0",
        "total-time": "2243",
        "total-energy": "1233344",
        "cost": "56080",
        "messages": [
          [
            "Longitude",
            "Latitude",
            "Elevation",
            "Distance",
            "CostPerKm",
            "ElevCost",
            "TurnCost",
            "NodeCost",
            "InitialCost",
            "WayTags",
            "NodeTags",
            "Time",
            "Energy"
          ],
          [
            "-79504981",
            "9030435",
            "-8192",
            "82",
            "2000",
            "0",
            "0",
            "0",
            "0",
            "railway=subway",
            "railway=halt",
            "6",
            "3606"
          ],
          [
            "-79503619",
            "9030501",
            "-8192",
            "149",
            "2000",
            "0",
            "0",
            "0",
            "0",
            "railway=subway",
            "railway=switch",
            "18",
            "10160"
          ],
          [
            "-79503053",
            "9030509",
            "-8192",
            "62",
            "2000",
            "0",
            "0",
            "0",
            "0",
            "railway=subway",
            "railway=switch",
            "23",
            "12887"
          ],
          [
            "-79501991",
            "9030544",
            "-8192",
            "117",
            "2000",
            "0",
            "0",
            "0",
            "0",
            "railway=subway",
            "",
            "32",
            "18033"
          ],
          [
            "-79498751",
            "9029893",
            "-8192",
            "369",
            "2000",
            "0",
            "0",
            "0",
            "0",
            "railway=subway",
            "railway=halt",
            "29",
            "16230"
          ],
          [
            "-79491556",
            "9030036",
            "-8192",
            "852",
            "2000",
            "0",
            "0",
            "0",
            "0",
            "railway=subway",
            "railway=halt",
            "97",
            "53705"
          ],
          [
            "-79490362",
            "9030868",
            "-8192",
            "160",
            "2000",
            "0",
            "0",
            "0",
            "0",
            "railway=subway",
            "railway=switch",
            "110",
            "60743"
          ],
          [
            "-79483716",
            "9035573",
            "-8192",
            "898",
            "2000",
            "0",
            "0",
            "0",
            "0",
            "railway=subway",
            "railway=switch",
            "182",
            "100242"
          ],
          [
            "-79481406",
            "9037088",
            "-8192",
            "304",
            "2000",
            "0",
            "0",
            "0",
            "0",
            "railway=subway",
            "railway=halt",
            "206",
            "113613"
          ],
          [
            "-79473060",
            "9042943",
            "-8192",
            "1123",
            "2000",
            "0",
            "0",
            "0",
            "0",
            "railway=subway",
            "railway=switch",
            "296",
            "163009"
          ],
          [
            "-79471438",
            "9043882",
            "-8192",
            "207",
            "2000",
            "0",
            "0",
            "0",
            "0",
            "railway=subway",
            "railway=halt",
            "313",
            "172114"
          ],
          [
            "-79470262",
            "9044490",
            "-8192",
            "146",
            "2000",
            "0",
            "0",
            "0",
            "0",
            "railway=subway",
            "railway=switch",
            "324",
            "178536"
          ],
          [
            "-79458994",
            "9049181",
            "-8192",
            "1345",
            "2000",
            "0",
            "0",
            "0",
            "0",
            "railway=subway",
            "railway=halt",
            "432",
            "237696"
          ],
          [
            "-79452036",
            "9050439",
            "-8192",
            "779",
            "2000",
            "0",
            "0",
            "0",
            "0",
            "railway=subway",
            "railway=switch",
            "494",
            "271960"
          ],
          [
            "-79451478",
            "9050503",
            "-8192",
            "62",
            "2000",
            "0",
            "0",
            "0",
            "0",
            "railway=subway",
            "railway=halt",
            "499",
            "274687"
          ],
          [
            "-79450060",
            "9050693",
            "-8192",
            "157",
            "2000",
            "0",
            "0",
            "0",
            "0",
            "railway=subway",
            "railway=switch",
            "512",
            "281593"
          ],
          [
            "-79445065",
            "9051837",
            "-8192",
            "565",
            "2000",
            "0",
            "0",
            "0",
            "0",
            "railway=subway",
            "railway=halt",
            "557",
            "306445"
          ],
          [
            "-79430731",
            "9059231",
            "-8192",
            "1781",
            "2000",
            "0",
            "0",
            "0",
            "0",
            "railway=subway",
            "railway=switch",
            "699",
            "384782"
          ],
          [
            "-79429267",
            "9059803",
            "-8192",
            "173",
            "2000",
            "0",
            "0",
            "0",
            "0",
            "railway=subway",
            "railway=halt",
            "713",
            "392392"
          ],
          [
            "-79428136",
            "9060202",
            "-8192",
            "132",
            "2000",
            "0",
            "0",
            "0",
            "0",
            "railway=subway",
            "railway=switch",
            "724",
            "398198"
          ],
          [
            "-79420394",
            "9063028",
            "-8192",
            "907",
            "2000",
            "0",
            "0",
            "0",
            "0",
            "railway=subway",
            "railway=halt",
            "796",
            "438093"
          ],
          [
            "-79408843",
            "9068239",
            "-8192",
            "1399",
            "2000",
            "0",
            "0",
            "0",
            "0",
            "railway=subway",
            "railway=switch",
            "908",
            "499628"
          ],
          [
            "-79407008",
            "9068710",
            "-8192",
            "209",
            "2000",
            "0",
            "0",
            "0",
            "0",
            "railway=subway",
            "railway=halt",
            "925",
            "508821"
          ],
          [
            "-79406353",
            "9068902",
            "-8192",
            "75",
            "2000",
            "0",
            "0",
            "0",
            "0",
            "railway=subway",
            "railway=switch",
            "931",
            "512120"
          ],
          [
            "-79399587",
            "9069322",
            "-8192",
            "752",
            "2000",
            "0",
            "0",
            "0",
            "0",
            "railway=subway",
            "railway=switch",
            "991",
            "545197"
          ],
          [
            "-79399064",
            "9069321",
            "-8192",
            "58",
            "2000",
            "0",
            "0",
            "0",
            "0",
            "railway=subway",
            "railway=switch",
            "996",
            "547748"
          ],
          [
            "-79398925",
            "9069313",
            "-8192",
            "15",
            "2000",
            "0",
            "0",
            "0",
            "0",
            "railway=subway",
            "railway=halt",
            "997",
            "548408"
          ],
          [
            "-79390006",
            "9066043",
            "-8192",
            "1064",
            "2000",
            "0",
            "0",
            "0",
            "0",
            "railway=subway",
            "railway=halt",
            "1082",
            "595208"
          ],
          [
            "-79389384",
            "9065683",
            "-8192",
            "79",
            "2000",
            "0",
            "0",
            "0",
            "0",
            "railway=subway",
            "",
            "1088",
            "598683"
          ],
          [
            "-79390006",
            "9066043",
            "-8192",
            "79",
            "2000",
            "0",
            "0",
            "0",
            "0",
            "reversedirection=yes railway=subway",
            "railway=halt",
            "6",
            "3474"
          ],
          [
            "-79398925",
            "9069313",
            "-8192",
            "1064",
            "2000",
            "0",
            "0",
            "0",
            "0",
            "reversedirection=yes railway=subway",
            "railway=halt",
            "91",
            "50275"
          ],
          [
            "-79399064",
            "9069321",
            "-8192",
            "15",
            "2000",
            "0",
            "0",
            "0",
            "0",
            "reversedirection=yes railway=subway",
            "railway=switch",
            "92",
            "50934"
          ],
          [
            "-79405678",
            "9069133",
            "-8192",
            "733",
            "2000",
            "0",
            "0",
            "0",
            "0",
            "reversedirection=yes railway=subway",
            "railway=unknown",
            "151",
            "83176"
          ],
          [
            "-79406388",
            "9069023",
            "-8192",
            "80",
            "2000",
            "0",
            "0",
            "0",
            "0",
            "reversedirection=yes railway=subway",
            "railway=switch",
            "157",
            "86694"
          ],
          [
            "-79407147",
            "9068799",
            "-8192",
            "87",
            "2000",
            "0",
            "0",
            "0",
            "0",
            "reversedirection=yes railway=subway",
            "railway=halt",
            "164",
            "90521"
          ],
          [
            "-79407744",
            "9068621",
            "-8192",
            "69",
            "2000",
            "0",
            "0",
            "0",
            "0",
            "reversedirection=yes railway=subway",
            "railway=switch",
            "170",
            "93556"
          ],
          [
            "-79409147",
            "9068271",
            "-8192",
            "159",
            "2000",
            "0",
            "0",
            "0",
            "0",
            "railway=subway",
            "railway=switch",
            "182",
            "100550"
          ],
          [
            "-79413812",
            "9066339",
            "-8192",
            "557",
            "2000",
            "0",
            "0",
            "0",
            "0",
            "railway=subway",
            "",
            "227",
            "125050"
          ],
          [
            "-79420410",
            "9063072",
            "-8192",
            "810",
            "2000",
            "0",
            "0",
            "0",
            "0",
            "railway=subway",
            "railway=halt",
            "64",
            "35628"
          ],
          [
            "-79428639",
            "9060079",
            "-8192",
            "963",
            "2000",
            "0",
            "0",
            "0",
            "0",
            "railway=subway",
            "railway=switch",
            "141",
            "77985"
          ],
          [
            "-79429283",
            "9059848",
            "-8192",
            "75",
            "2000",
            "0",
            "0",
            "0",
            "0",
            "railway=subway",
            "railway=halt",
            "147",
            "81284"
          ],
          [
            "-79431318",
            "9059027",
            "-8192",
            "242",
            "2000",
            "0",
            "0",
            "0",
            "0",
            "railway=subway",
            "railway=switch",
            "167",
            "91929"
          ],
          [
            "-79445081",
            "9051887",
            "-8192",
            "1712",
            "2000",
            "0",
            "0",
            "0",
            "0",
            "railway=subway",
            "railway=halt",
            "304",
            "167231"
          ],
          [
            "-79450817",
            "9050650",
            "-8192",
            "647",
            "2000",
            "0",
            "0",
            "0",
            "0",
            "railway=subway",
            "railway=switch",
            "355",
            "195690"
          ],
          [
            "-79451483",
            "9050570",
            "-8192",
            "74",
            "2000",
            "0",
            "0",
            "0",
            "0",
            "railway=subway",
            "railway=halt",
            "361",
            "198945"
          ],
          [
            "-79452705",
            "9050411",
            "-8192",
            "135",
            "2000",
            "0",
            "0",
            "0",
            "0",
            "railway=subway",
            "railway=switch",
            "372",
            "204883"
          ],
          [
            "-79459008",
            "9049221",
            "-8192",
            "706",
            "2000",
            "0",
            "0",
            "0",
            "0",
            "railway=subway",
            "railway=halt",
            "429",
            "235936"
          ],
          [
            "-79470935",
            "9044202",
            "-8192",
            "1427",
            "2000",
            "0",
            "0",
            "0",
            "0",
            "railway=subway",
            "railway=switch",
            "543",
            "298703"
          ],
          [
            "-79471737",
            "9043792",
            "-8192",
            "99",
            "2000",
            "0",
            "0",
            "0",
            "0",
            "railway=subway",
            "railway=halt",
            "551",
            "303058"
          ],
          [
            "-79473704",
            "9042546",
            "-8192",
            "257",
            "2000",
            "0",
            "0",
            "0",
            "0",
            "railway=subway",
            "railway=switch",
            "571",
            "314362"
          ],
          [
            "-79481420",
            "9037117",
            "-8192",
            "1039",
            "2000",
            "0",
            "0",
            "0",
            "0",
            "railway=subway",
            "railway=halt",
            "654",
            "360063"
          ],
          [
            "-79490871",
            "9030567",
            "-8192",
            "1269",
            "2000",
            "0",
            "0",
            "0",
            "0",
            "railway=subway",
            "railway=switch",
            "756",
            "415880"
          ],
          [
            "-79491583",
            "9030074",
            "-8192",
            "95",
            "2000",
            "0",
            "0",
            "0",
            "0",
            "railway=subway",
            "railway=halt",
            "763",
            "420059"
          ],
          [
            "-79498735",
            "9029950",
            "-8192",
            "847",
            "2000",
            "0",
            "0",
            "0",
            "0",
            "railway=subway",
            "railway=halt",
            "831",
            "457314"
          ],
          [
            "-79502168",
            "9030587",
            "-8192",
            "388",
            "2000",
            "0",
            "0",
            "0",
            "0",
            "railway=subway",
            "",
            "862",
            "474380"
          ],
          [
            "-79503050",
            "9030551",
            "-8192",
            "97",
            "2000",
            "0",
            "0",
            "0",
            "0",
            "railway=subway",
            "railway=switch",
            "7",
            "4266"
          ],
          [
            "-79503331",
            "9030527",
            "-8192",
            "31",
            "2000",
            "0",
            "0",
            "0",
            "0",
            "reversedirection=yes railway=subway",
            "railway=unknown",
            "10",
            "5630"
          ],
          [
            "-79503619",
            "9030501",
            "-8192",
            "32",
            "2000",
            "0",
            "0",
            "0",
            "0",
            "reversedirection=yes railway=subway",
            "railway=switch",
            "12",
            "7037"
          ],
          [
            "-79504981",
            "9030435",
            "-8192",
            "149",
            "2000",
            "0",
            "0",
            "0",
            "0",
            "reversedirection=yes railway=subway",
            "railway=halt",
            "24",
            "13591"
          ],
          [
            "-79505730",
            "9030443",
            "-8192",
            "82",
            "2000",
            "0",
            "0",
            "0",
            "0",
            "reversedirection=yes railway=subway",
            "",
            "31",
            "17198"
          ]
        ],
        "times": [
          0,
          6.56,
          7.92,
          9.52,
          12.08,
          13.92,
          18.48,
          23.44,
          32.08,
          32.8,
          36.8,
          40.4,
          44.48,
          48.4,
          53.84,
          57.28,
          62.32,
          70.96,
          88.48,
          90.72,
          94,
          96.96,
          100,
          103.36,
          108.48,
          121.44,
          126.24,
          130.48,
          143.28,
          145.28,
          149.28,
          163.92,
          167.52,
          171.92,
          185.6,
          210.32,
          215.12,
          223.44,
          239.44,
          248.8,
          253.12,
          257.52,
          285.84,
          305.92,
          320.64,
          329.28,
          331.36,
          334.72,
          345.84,
          349.84,
          357.52,
          377.44,
          391.76,
          404.64,
          415.36,
          422.96,
          429.04,
          444.8,
          465.12,
          472.24,
          480.08,
          485.28,
          490.08,
          495.52,
          521.6,
          527.44,
          532.4,
          544.96,
          548.72,
          556.4,
          562.16,
          570.72,
          574.4,
          582.24,
          590.16,
          598.88,
          605.28,
          611.52,
          617.12,
          627.84,
          660.48,
          666.8,
          670.88,
          679.04,
          682.48,
          686.4,
          690.64,
          716.72,
          729.76,
          732.64,
          739.6,
          746.48,
          757.04,
          778.08,
          798.24,
          808.16,
          817.6,
          825.52,
          829.6,
          842,
          859.04,
          888.4,
          907.76,
          913.68,
          918.64,
          922.96,
          927.92,
          934.24,
          938.08,
          941.52,
          949.84,
          958.24,
          964.24,
          968.16,
          970.48,
          973.28,
          984,
          987.36,
          990.4,
          996.32,
          1000.32,
          1002.08,
          1004.16,
          1007.84,
          1011.92,
          1024.4,
          1029.04,
          1030.24,
          1037.12,
          1041.12,
          1055.44,
          1061.28,
          1064.8,
          1068.24,
          1073.52,
          1115.36,
          1121.68,
          1128,
          1169.84,
          1175.12,
          1178.56,
          1182.08,
          1187.92,
          1202.24,
          1206.24,
          1213.12,
          1214.32,
          1217.44,
          1225.12,
          1231.28,
          1235.52,
          1237.44,
          1239.36,
          1241.28,
          1243.04,
          1247.04,
          1252.96,
          1255.76,
          1257.68,
          1259.28,
          1260.88,
          1267.36,
          1272.96,
          1274.96,
          1276.88,
          1279.36,
          1286.32,
          1290.08,
          1291.84,
          1301.6,
          1304.56,
          1309.44,
          1316.16,
          1320.16,
          1324.56,
          1330,
          1349.12,
          1355.04,
          1384.48,
          1401.6,
          1413.92,
          1418.08,
          1425.92,
          1435.36,
          1445.2,
          1465.36,
          1490.96,
          1496.96,
          1503.92,
          1513.76,
          1516.32,
          1529.36,
          1537.44,
          1552.96,
          1557.28,
          1561.2,
          1564.56,
          1572.64,
          1580.24,
          1583.2,
          1615.68,
          1626.4,
          1632.08,
          1638.32,
          1644.56,
          1653.28,
          1661.12,
          1669.12,
          1672.72,
          1681.28,
          1694.64,
          1705.04,
          1710.96,
          1721.76,
          1741.2,
          1747.84,
          1753.2,
          1758,
          1763.2,
          1771.12,
          1778.24,
          1820.4,
          1828.16,
          1838.72,
          1851.76,
          1866.08,
          1884.64,
          1892.4,
          1900.32,
          1908.64,
          1912.16,
          1920.88,
          1922.96,
          1937.52,
          1957.6,
          1986,
          1990.4,
          2004,
          2020.16,
          2024.24,
          2030.96,
          2033.28,
          2037.76,
          2058,
          2066.72,
          2071.76,
          2076.16,
          2079.76,
          2088.96,
          2094.32,
          2098.32,
          2105.52,
          2113.12,
          2117.36,
          2122.16,
          2127.76,
          2132.4,
          2135.04,
          2137.68,
          2139.92,
          2143.36,
          2146.32,
          2149.28,
          2152.48,
          2154.8,
          2171.04,
          2180.88,
          2189.36,
          2194.64,
          2198.64,
          2203.2,
          2211.92,
          2212.24,
          2219.68,
          2222.16,
          2224.72,
          2229.28,
          2231.12,
          2233.68,
          2235.28,
          2236.64,
          2243.2
        ]
      },
      "geometry": {
        "type": "LineString",
        "coordinates": [
          [
            -79.505731,
            9.030443
          ],
          [
            -79.504981,
            9.030435
          ],
          [
            -79.504825,
            9.030434
          ],
          [
            -79.504645,
            9.030435
          ],
          [
            -79.504354,
            9.030469
          ],
          [
            -79.504141,
            9.030485
          ],
          [
            -79.503619,
            9.030501
          ],
          [
            -79.503053,
            9.030509
          ],
          [
            -79.50207,
            9.030544
          ],
          [
            -79.501991,
            9.030544
          ],
          [
            -79.50154,
            9.030545
          ],
          [
            -79.501135,
            9.030537
          ],
          [
            -79.50067,
            9.030501
          ],
          [
            -79.500234,
            9.030422
          ],
          [
            -79.499643,
            9.030256
          ],
          [
            -79.499282,
            9.030105
          ],
          [
            -79.498751,
            9.029893
          ],
          [
            -79.497835,
            9.029549
          ],
          [
            -79.495993,
            9.028785
          ],
          [
            -79.495744,
            9.028714
          ],
          [
            -79.495376,
            9.028651
          ],
          [
            -79.495043,
            9.02862
          ],
          [
            -79.494699,
            9.028627
          ],
          [
            -79.494317,
            9.028685
          ],
          [
            -79.493774,
            9.028881
          ],
          [
            -79.492435,
            9.029498
          ],
          [
            -79.491958,
            9.029767
          ],
          [
            -79.491556,
            9.030036
          ],
          [
            -79.490362,
            9.030868
          ],
          [
            -79.490177,
            9.030998
          ],
          [
            -79.489812,
            9.031273
          ],
          [
            -79.48853,
            9.032322
          ],
          [
            -79.488208,
            9.032569
          ],
          [
            -79.487806,
            9.032863
          ],
          [
            -79.486518,
            9.033734
          ],
          [
            -79.48415,
            9.035241
          ],
          [
            -79.483716,
            9.035573
          ],
          [
            -79.482954,
            9.036134
          ],
          [
            -79.481406,
            9.037088
          ],
          [
            -79.480494,
            9.037641
          ],
          [
            -79.480081,
            9.037898
          ],
          [
            -79.479668,
            9.038182
          ],
          [
            -79.477058,
            9.040062
          ],
          [
            -79.475197,
            9.041379
          ],
          [
            -79.473861,
            9.042376
          ],
          [
            -79.47306,
            9.042943
          ],
          [
            -79.472869,
            9.043077
          ],
          [
            -79.47255,
            9.043286
          ],
          [
            -79.471438,
            9.043882
          ],
          [
            -79.471037,
            9.044097
          ],
          [
            -79.470262,
            9.04449
          ],
          [
            -79.468228,
            9.04549
          ],
          [
            -79.466769,
            9.046203
          ],
          [
            -79.46546,
            9.046862
          ],
          [
            -79.464339,
            9.047347
          ],
          [
            -79.46353,
            9.047646
          ],
          [
            -79.462877,
            9.047862
          ],
          [
            -79.461182,
            9.048447
          ],
          [
            -79.458994,
            9.049181
          ],
          [
            -79.45822,
            9.049415
          ],
          [
            -79.457359,
            9.049652
          ],
          [
            -79.456781,
            9.049785
          ],
          [
            -79.456244,
            9.049883
          ],
          [
            -79.455637,
            9.049982
          ],
          [
            -79.452698,
            9.050362
          ],
          [
            -79.452036,
            9.050439
          ],
          [
            -79.451478,
            9.050503
          ],
          [
            -79.45006,
            9.050693
          ],
          [
            -79.449636,
            9.05075
          ],
          [
            -79.448777,
            9.050888
          ],
          [
            -79.448137,
            9.051011
          ],
          [
            -79.44719,
            9.051222
          ],
          [
            -79.446783,
            9.051322
          ],
          [
            -79.445921,
            9.051562
          ],
          [
            -79.445065,
            9.051837
          ],
          [
            -79.444129,
            9.052165
          ],
          [
            -79.443458,
            9.052433
          ],
          [
            -79.442806,
            9.052711
          ],
          [
            -79.44223,
            9.052976
          ],
          [
            -79.441141,
            9.053519
          ],
          [
            -79.437863,
            9.055243
          ],
          [
            -79.437241,
            9.055608
          ],
          [
            -79.436847,
            9.055847
          ],
          [
            -79.436082,
            9.056371
          ],
          [
            -79.435782,
            9.056615
          ],
          [
            -79.435417,
            9.056864
          ],
          [
            -79.434999,
            9.057102
          ],
          [
            -79.432381,
            9.05848
          ],
          [
            -79.431034,
            9.059105
          ],
          [
            -79.430731,
            9.059231
          ],
          [
            -79.430004,
            9.059534
          ],
          [
            -79.429267,
            9.059803
          ],
          [
            -79.428136,
            9.060202
          ],
          [
            -79.425884,
            9.060996
          ],
          [
            -79.423712,
            9.061732
          ],
          [
            -79.422639,
            9.062087
          ],
          [
            -79.421641,
            9.062479
          ],
          [
            -79.420815,
            9.062832
          ],
          [
            -79.420394,
            9.063028
          ],
          [
            -79.419115,
            9.063624
          ],
          [
            -79.417393,
            9.064503
          ],
          [
            -79.41441,
            9.065997
          ],
          [
            -79.412438,
            9.066968
          ],
          [
            -79.41184,
            9.067268
          ],
          [
            -79.411328,
            9.067508
          ],
          [
            -79.410873,
            9.067686
          ],
          [
            -79.410339,
            9.06786
          ],
          [
            -79.409648,
            9.068055
          ],
          [
            -79.409222,
            9.06816
          ],
          [
            -79.408843,
            9.068239
          ],
          [
            -79.40792,
            9.068439
          ],
          [
            -79.407008,
            9.06871
          ],
          [
            -79.406353,
            9.068902
          ],
          [
            -79.405918,
            9.06899
          ],
          [
            -79.405656,
            9.069032
          ],
          [
            -79.405336,
            9.069051
          ],
          [
            -79.404122,
            9.069025
          ],
          [
            -79.403745,
            9.069058
          ],
          [
            -79.403406,
            9.069117
          ],
          [
            -79.402753,
            9.069262
          ],
          [
            -79.402313,
            9.069374
          ],
          [
            -79.40212,
            9.069416
          ],
          [
            -79.401883,
            9.069443
          ],
          [
            -79.401461,
            9.069459
          ],
          [
            -79.400998,
            9.069434
          ],
          [
            -79.399587,
            9.069322
          ],
          [
            -79.399064,
            9.069321
          ],
          [
            -79.398925,
            9.069313
          ],
          [
            -79.398143,
            9.069256
          ],
          [
            -79.397693,
            9.069215
          ],
          [
            -79.396074,
            9.06906
          ],
          [
            -79.395419,
            9.068928
          ],
          [
            -79.395034,
            9.068804
          ],
          [
            -79.394674,
            9.06865
          ],
          [
            -79.394135,
            9.068391
          ],
          [
            -79.390006,
            9.066043
          ],
          [
            -79.389384,
            9.065683,
            18
          ],
          [
            -79.390006,
            9.066043,
            18
          ],
          [
            -79.394135,
            9.068391,
            18
          ],
          [
            -79.394674,
            9.06865,
            18
          ],
          [
            -79.395034,
            9.068804,
            18
          ],
          [
            -79.395419,
            9.068928,
            18
          ],
          [
            -79.396074,
            9.06906,
            18
          ],
          [
            -79.397693,
            9.069215,
            18
          ],
          [
            -79.398143,
            9.069256,
            18
          ],
          [
            -79.398925,
            9.069313,
            18
          ],
          [
            -79.399064,
            9.069321,
            18
          ],
          [
            -79.399422,
            9.069347,
            18
          ],
          [
            -79.400288,
            9.069428,
            18
          ],
          [
            -79.400984,
            9.069483,
            18
          ],
          [
            -79.401469,
            9.069501,
            18
          ],
          [
            -79.401686,
            9.069496,
            18
          ],
          [
            -79.401904,
            9.069486,
            18
          ],
          [
            -79.402122,
            9.069461,
            18
          ],
          [
            -79.402321,
            9.06942,
            18
          ],
          [
            -79.402763,
            9.069309,
            18
          ],
          [
            -79.403418,
            9.069164,
            18
          ],
          [
            -79.403735,
            9.069103,
            18
          ],
          [
            -79.403948,
            9.069082,
            18
          ],
          [
            -79.404127,
            9.069066,
            18
          ],
          [
            -79.404309,
            9.06907,
            18
          ],
          [
            -79.405043,
            9.069096,
            18
          ],
          [
            -79.405678,
            9.069133,
            18
          ],
          [
            -79.405906,
            9.069122,
            18
          ],
          [
            -79.406117,
            9.069087,
            18
          ],
          [
            -79.406388,
            9.069023,
            18
          ],
          [
            -79.407147,
            9.068799,
            18
          ],
          [
            -79.407557,
            9.06868,
            18
          ],
          [
            -79.407744,
            9.068621
          ],
          [
            -79.408821,
            9.068362
          ],
          [
            -79.409147,
            9.068271
          ],
          [
            -79.409672,
            9.068088
          ],
          [
            -79.41041,
            9.067883
          ],
          [
            -79.410847,
            9.067743
          ],
          [
            -79.411311,
            9.067566
          ],
          [
            -79.411868,
            9.067306
          ],
          [
            -79.413812,
            9.066339,
            35.75
          ],
          [
            -79.414415,
            9.066039,
            35.75
          ],
          [
            -79.417403,
            9.06454,
            35.75
          ],
          [
            -79.419136,
            9.063661,
            35.75
          ],
          [
            -79.42041,
            9.063072,
            35.75
          ],
          [
            -79.420839,
            9.062874,
            35.75
          ],
          [
            -79.42166,
            9.062524,
            35.75
          ],
          [
            -79.422663,
            9.062138,
            35.75
          ],
          [
            -79.423723,
            9.061772,
            35.75
          ],
          [
            -79.425898,
            9.061044,
            35.75
          ],
          [
            -79.428639,
            9.060079,
            35.75
          ],
          [
            -79.429283,
            9.059848,
            35.75
          ],
          [
            -79.430026,
            9.059582,
            35.75
          ],
          [
            -79.431053,
            9.05915,
            35.75
          ],
          [
            -79.431318,
            9.059027,
            35.75
          ],
          [
            -79.43266,
            9.058402,
            35.75
          ],
          [
            -79.433467,
            9.057969,
            35.75
          ],
          [
            -79.435023,
            9.05715,
            35.75
          ],
          [
            -79.435447,
            9.056901,
            35.75
          ],
          [
            -79.435814,
            9.056647,
            35.75
          ],
          [
            -79.436109,
            9.056408,
            35.75
          ],
          [
            -79.436865,
            9.055889,
            35.75
          ],
          [
            -79.437611,
            9.05545,
            35.75
          ],
          [
            -79.437898,
            9.055283,
            35.75
          ],
          [
            -79.441157,
            9.053556,
            35.75
          ],
          [
            -79.442246,
            9.053013,
            35.75
          ],
          [
            -79.442831,
            9.052748,
            35.75
          ],
          [
            -79.44348,
            9.052472,
            35.75
          ],
          [
            -79.44414,
            9.05221,
            35.75
          ],
          [
            -79.445081,
            9.051887,
            35.75
          ],
          [
            -79.445926,
            9.051609,
            35.75
          ],
          [
            -79.446799,
            9.051369,
            35.75
          ],
          [
            -79.447199,
            9.051267,
            35.75
          ],
          [
            -79.44815,
            9.051062,
            35.75
          ],
          [
            -79.449642,
            9.05079,
            35.75
          ],
          [
            -79.450817,
            9.05065,
            35.75
          ],
          [
            -79.451483,
            9.05057,
            35.75
          ],
          [
            -79.452705,
            9.050411,
            35.75
          ],
          [
            -79.4549,
            9.050134,
            35.75
          ],
          [
            -79.455648,
            9.050034,
            35.75
          ],
          [
            -79.45625,
            9.049932,
            35.75
          ],
          [
            -79.456789,
            9.049825,
            35.75
          ],
          [
            -79.457369,
            9.049695,
            35.75
          ],
          [
            -79.458234,
            9.049455,
            35.75
          ],
          [
            -79.459008,
            9.049221,
            35.75
          ],
          [
            -79.463544,
            9.047689,
            35.75
          ],
          [
            -79.464369,
            9.047384,
            35.75
          ],
          [
            -79.465463,
            9.046902,
            35.75
          ],
          [
            -79.466791,
            9.04625,
            35.75
          ],
          [
            -79.468258,
            9.045546,
            35.75
          ],
          [
            -79.470146,
            9.0446,
            35.75
          ],
          [
            -79.470935,
            9.044202,
            35.75
          ],
          [
            -79.471737,
            9.043792,
            35.75
          ],
          [
            -79.472566,
            9.043339,
            35.75
          ],
          [
            -79.472898,
            9.043119,
            35.75
          ],
          [
            -79.473704,
            9.042546,
            35.75
          ],
          [
            -79.473898,
            9.042409,
            35.75
          ],
          [
            -79.475221,
            9.041419,
            35.75
          ],
          [
            -79.477077,
            9.040097,
            35.75
          ],
          [
            -79.479698,
            9.038219,
            35.75
          ],
          [
            -79.480108,
            9.037938,
            35.75
          ],
          [
            -79.48142,
            9.037117,
            35.75
          ],
          [
            -79.482986,
            9.036166,
            35.75
          ],
          [
            -79.483359,
            9.035898,
            35.75
          ],
          [
            -79.48397,
            9.035445,
            35.75
          ],
          [
            -79.484177,
            9.035284,
            35.75
          ],
          [
            -79.484601,
            9.035003,
            35.75
          ],
          [
            -79.486545,
            9.033777,
            35.75
          ],
          [
            -79.487371,
            9.033226,
            35.75
          ],
          [
            -79.487841,
            9.032902,
            35.75
          ],
          [
            -79.488246,
            9.032608,
            35.75
          ],
          [
            -79.488573,
            9.032359,
            35.75
          ],
          [
            -79.489378,
            9.0317,
            35.75
          ],
          [
            -79.489842,
            9.031308,
            35.75
          ],
          [
            -79.490209,
            9.03104,
            35.75
          ],
          [
            -79.490871,
            9.030567,
            35.75
          ],
          [
            -79.491583,
            9.030074,
            35.75
          ],
          [
            -79.491982,
            9.029798,
            35.75
          ],
          [
            -79.492456,
            9.029529,
            35.75
          ],
          [
            -79.493032,
            9.029254,
            35.75
          ],
          [
            -79.493512,
            9.029034,
            35.75
          ],
          [
            -79.493783,
            9.028914,
            35.75
          ],
          [
            -79.494068,
            9.02881,
            35.75
          ],
          [
            -79.494313,
            9.02873,
            35.75
          ],
          [
            -79.494703,
            9.02867,
            35.75
          ],
          [
            -79.495035,
            9.028668,
            35.75
          ],
          [
            -79.495374,
            9.028697,
            35.75
          ],
          [
            -79.495733,
            9.02876,
            35.75
          ],
          [
            -79.495988,
            9.028842,
            35.75
          ],
          [
            -79.497699,
            9.02954,
            35.75
          ],
          [
            -79.498735,
            9.02995,
            35.75
          ],
          [
            -79.49963,
            9.030298,
            35.75
          ],
          [
            -79.500208,
            9.030469,
            35.75
          ],
          [
            -79.50066,
            9.030545,
            35.75
          ],
          [
            -79.501178,
            9.030589,
            35.75
          ],
          [
            -79.502168,
            9.030587,
            35.75
          ],
          [
            -79.502208,
            9.030587
          ],
          [
            -79.50305,
            9.030551
          ],
          [
            -79.503331,
            9.030527
          ],
          [
            -79.503619,
            9.030501
          ],
          [
            -79.504141,
            9.030485
          ],
          [
            -79.504354,
            9.030469
          ],
          [
            -79.504645,
            9.030435
          ],
          [
            -79.504825,
            9.030434
          ],
          [
            -79.504981,
            9.030435
          ],
          [
            -79.50573,
            9.030443
          ]
        ]
      }
    }
  ]
}