{
  "type": "FeatureCollection",
  "features": [
    {
      "type": "Feature",
      "properties": {
        "creator": "BRouter-1.7.9",
        "name": "[MEX] Aérotrén",
        "track-length": "6072",
        "filtered ascend": "1",
        "plain-ascend": "1",
        "total-time": "486",
        "total-energy": "267077",
        "cost": "6072",
        "messages": [
          [
            "Longitude",
            "Latitude",
            "Elevation",
            "Distance",
            "CostPerKm",
            "ElevCost",
            "TurnCost",
            "NodeCost",
            "InitialCost",
            "WayTags",
            "NodeTags",
            "Time",
            "Energy"
          ],
          [
            "-99083577",
            "19435604",
            "-8192",
            "19",
            "1000",
            "0",
            "0",
            "0",
            "0",
            "reversedirection=yes railway=monorail",
            "railway=halt",
            "1",
            "835"
          ],
          [
            "-99078982",
            "19421081",
            "-8192",
            "2996",
            "1000",
            "0",
            "0",
            "0",
            "0",
            "reversedirection=yes railway=monorail",
            "railway=halt",
            "241",
            "131070"
          ],
          [
            "-99078878",
            "19421244",
            "-8192",
            "21",
            "1000",
            "0",
            "0",
            "0",
            "0",
            "reversedirection=yes railway=monorail",
            "",
            "242",
            "131994"
          ],
          [
            "-99078982",
            "19421081",
            "-8192",
            "21",
            "1000",
            "0",
            "0",
            "0",
            "0",
            "railway=monorail",
            "railway=halt",
            "1",
            "923"
          ],
          [
            "-99083577",
            "19435604",
            "-8192",
            "2996",
            "1000",
            "0",
            "0",
            "0",
            "0",
            "railway=monorail",
            "railway=halt",
            "241",
            "134248"
          ],
          [
            "-99083423",
            "19435692",
            "-8192",
            "19",
            "1000",
            "0",
            "0",
            "0",
            "0",
            "railway=monorail",
            "",
            "242",
            "135083"
          ]
        ],
        "times": [
          0,
          1.52,
          6.64,
          10.24,
          11.6,
          13.04,
          14.08,
          18.32,
          28.8,
          29.84,
          30.96,
          32,
          32.8,
          33.6,
          34.8,
          36,
          37.92,
          48.24,
          68.24,
          105.76,
          107.6,
          108.72,
          109.92,
          111.12,
          112.4,
          113.68,
          114.64,
          115.76,
          117.04,
          152.64,
          166.56,
          183.28,
          190.16,
          199.04,
          208,
          223.36,
          224.72,
          226,
          226.88,
          227.76,
          228.64,
          229.52,
          231.04,
          231.84,
          232.64,
          233.28,
          234.08,
          234.96,
          238.08,
          241.2,
          242.88,
          244.56,
          247.68,
          250.8,
          251.68,
          252.48,
          253.12,
          253.92,
          254.72,
          256.24,
          257.12,
          258,
          258.88,
          259.76,
          261.04,
          262.4,
          277.76,
          286.72,
          295.6,
          302.48,
          319.2,
          333.12,
          368.72,
          370,
          371.12,
          372.08,
          373.36,
          374.64,
          375.84,
          377.04,
          378.16,
          380,
          417.52,
          437.52,
          447.84,
          449.76,
          450.96,
          452.16,
          452.96,
          453.76,
          454.8,
          455.92,
          456.96,
          467.44,
          471.68,
          472.72,
          474.16,
          475.52,
          479.12,
          484.24,
          485.76
        ]
      },
      "geometry": {
        "type": "LineString",
        "coordinates": [
          [
            -99.083423,
            19.435692,
            2234.5
          ],
          [
            -99.083577,
            19.435604,
            2234.5
          ],
          [
            -99.084097,
            19.435309,
            2234.5
          ],
          [
            -99.084472,
            19.435107,
            2234.5
          ],
          [
            -99.084617,
            19.435048,
            2234.5
          ],
          [
            -99.084777,
            19.434998,
            2234.5
          ],
          [
            -99.084897,
            19.43498,
            2234.5
          ],
          [
            -99.085403,
            19.434959,
            2234.5
          ],
          [
            -99.086651,
            19.434958,
            2234.5
          ],
          [
            -99.086773,
            19.434942,
            2234.5
          ],
          [
            -99.086907,
            19.434913,
            2234.5
          ],
          [
            -99.087017,
            19.434865,
            2234.5
          ],
          [
            -99.087103,
            19.434817,
            2234.5
          ],
          [
            -99.087181,
            19.434758,
            2234.5
          ],
          [
            -99.087289,
            19.434669,
            2234.5
          ],
          [
            -99.087383,
            19.434564,
            2234.5
          ],
          [
            -99.087519,
            19.434385,
            2234.5
          ],
          [
            -99.088189,
            19.433406,
            2234.5
          ],
          [
            -99.089471,
            19.431506,
            2231.75
          ],
          [
            -99.091571,
            19.427768,
            2231.5
          ],
          [
            -99.091654,
            19.427576,
            2232.5
          ],
          [
            -99.091683,
            19.427455,
            2232.75
          ],
          [
            -99.091688,
            19.427323,
            2232.5
          ],
          [
            -99.091681,
            19.427191,
            2232
          ],
          [
            -99.091648,
            19.427053,
            2231.5
          ],
          [
            -99.091587,
            19.426916,
            2230.5
          ],
          [
            -99.091527,
            19.426829,
            2229.5
          ],
          [
            -99.091444,
            19.426732,
            2228.25
          ],
          [
            -99.091333,
            19.426637,
            2227
          ],
          [
            -99.08776,
            19.42448,
            2232.75
          ],
          [
            -99.086395,
            19.423589
          ],
          [
            -99.084699,
            19.422594
          ],
          [
            -99.08398,
            19.422217
          ],
          [
            -99.083047,
            19.42174
          ],
          [
            -99.082113,
            19.421253
          ],
          [
            -99.080588,
            19.420303
          ],
          [
            -99.080447,
            19.420223
          ],
          [
            -99.080305,
            19.420165
          ],
          [
            -99.080203,
            19.420144
          ],
          [
            -99.080099,
            19.420137
          ],
          [
            -99.079991,
            19.420136
          ],
          [
            -99.079889,
            19.420151
          ],
          [
            -99.079716,
            19.420203
          ],
          [
            -99.079632,
            19.42024
          ],
          [
            -99.079553,
            19.420287
          ],
          [
            -99.079493,
            19.420333
          ],
          [
            -99.07943,
            19.420395
          ],
          [
            -99.079367,
            19.420479
          ],
          [
            -99.079173,
            19.420783
          ],
          [
            -99.078982,
            19.421081
          ],
          [
            -99.078878,
            19.421244,
            2232.75
          ],
          [
            -99.078982,
            19.421081,
            2232.75
          ],
          [
            -99.079173,
            19.420783,
            2232.75
          ],
          [
            -99.079367,
            19.420479,
            2232.75
          ],
          [
            -99.07943,
            19.420395,
            2232.75
          ],
          [
            -99.079493,
            19.420333,
            2232.75
          ],
          [
            -99.079553,
            19.420287,
            2232.75
          ],
          [
            -99.079632,
            19.42024,
            2232.75
          ],
          [
            -99.079716,
            19.420203,
            2232.75
          ],
          [
            -99.079889,
            19.420151,
            2232.75
          ],
          [
            -99.079991,
            19.420136,
            2232.75
          ],
          [
            -99.080099,
            19.420137,
            2232.75
          ],
          [
            -99.080203,
            19.420144,
            2232.75
          ],
          [
            -99.080305,
            19.420165,
            2232.75
          ],
          [
            -99.080447,
            19.420223,
            2232.75
          ],
          [
            -99.080588,
            19.420303,
            2232.75
          ],
          [
            -99.082113,
            19.421253,
            2232.75
          ],
          [
            -99.083047,
            19.42174,
            2232.75
          ],
          [
            -99.08398,
            19.422217,
            2232.75
          ],
          [
            -99.084699,
            19.422594,
            2232.75
          ],
          [
            -99.086395,
            19.423589,
            2232.75
          ],
          [
            -99.08776,
            19.42448,
            2232.75
          ],
          [
            -99.091333,
            19.426637,
            2227
          ],
          [
            -99.091444,
            19.426732,
            2228.25
          ],
          [
            -99.091527,
            19.426829,
            2229.5
          ],
          [
            -99.091587,
            19.426916,
            2230.5
          ],
          [
            -99.091648,
            19.427053,
            2231.5
          ],
          [
            -99.091681,
            19.427191,
            2232
          ],
          [
            -99.091688,
            19.427323,
            2232.5
          ],
          [
            -99.091683,
            19.427455,
            2232.75
          ],
          [
            -99.091654,
            19.427576,
            2232.5
          ],
          [
            -99.091571,
            19.427768,
            2231.5
          ],
          [
            -99.089471,
            19.431506,
            2231.75
          ],
          [
            -99.088189,
            19.433406,
            2234.5
          ],
          [
            -99.087519,
            19.434385
          ],
          [
            -99.087383,
            19.434564
          ],
          [
            -99.087289,
            19.434669
          ],
          [
            -99.087181,
            19.434758
          ],
          [
            -99.087103,
            19.434817
          ],
          [
            -99.087017,
            19.434865
          ],
          [
            -99.086907,
            19.434913
          ],
          [
            -99.086773,
            19.434942
          ],
          [
            -99.086651,
            19.434958
          ],
          [
            -99.085403,
            19.434959
          ],
          [
            -99.084897,
            19.43498
          ],
          [
            -99.084777,
            19.434998
          ],
          [
            -99.084617,
            19.435048
          ],
          [
            -99.084472,
            19.435107
          ],
          [
            -99.084097,
            19.435309
          ],
          [
            -99.083577,
            19.435604
          ],
          [
            -99.083423,
            19.435692
          ]
        ]
      }
    }
  ]
}