{
  "type": "FeatureCollection",
  "features": [
    {
      "type": "Feature",
      "properties": {
        "creator": "BRouter-1.7.9",
        "name": "[Milwaukee Hop] L-Line",
        "track-length": "3086",
        "filtered ascend": "52",
        "plain-ascend": "4",
        "total-time": "248",
        "total-energy": "134070",
        "cost": "6172",
        "messages": [
          [
            "Longitude",
            "Latitude",
            "Elevation",
            "Distance",
            "CostPerKm",
            "ElevCost",
            "TurnCost",
            "NodeCost",
            "InitialCost",
            "WayTags",
            "NodeTags",
            "Time",
            "Energy"
          ],
          [
            "-87906743",
            "43035092",
            "186",
            "9",
            "2000",
            "0",
            "0",
            "0",
            "0",
            "railway=tram",
            "railway=unknown",
            "0",
            "414"
          ],
          [
            "-87906347",
            "43035121",
            "184",
            "32",
            "2000",
            "0",
            "0",
            "0",
            "0",
            "railway=tram",
            "railway=unknown",
            "3",
            "1545"
          ],
          [
            "-87906255",
            "43035157",
            "184",
            "8",
            "2000",
            "0",
            "0",
            "0",
            "0",
            "railway=tram",
            "railway=unknown",
            "3",
            "1781"
          ],
          [
            "-87906186",
            "43035229",
            "183",
            "10",
            "2000",
            "0",
            "0",
            "0",
            "0",
            "railway=tram",
            "railway=unknown",
            "4",
            "2052"
          ],
          [
            "-87906221",
            "43035746",
            "183",
            "58",
            "2000",
            "0",
            "0",
            "0",
            "0",
            "railway=tram",
            "railway=unknown",
            "9",
            "3685"
          ],
          [
            "-87906275",
            "43036228",
            "184",
            "54",
            "2000",
            "0",
            "0",
            "0",
            "0",
            "railway=tram",
            "railway=unknown",
            "13",
            "6025"
          ],
          [
            "-87906285",
            "43036348",
            "185",
            "13",
            "2000",
            "0",
            "0",
            "0",
            "0",
            "railway=tram",
            "railway=unknown",
            "14",
            "6645"
          ],
          [
            "-87906287",
            "43036425",
            "185",
            "9",
            "2000",
            "0",
            "0",
            "0",
            "0",
            "railway=tram",
            "railway=unknown",
            "15",
            "7089"
          ],
          [
            "-87906296",
            "43036552",
            "185",
            "14",
            "2000",
            "0",
            "0",
            "0",
            "0",
            "railway=tram",
            "railway=unknown",
            "16",
            "7801"
          ],
          [
            "-87906296",
            "43036581",
            "185",
            "3",
            "2000",
            "0",
            "0",
            "0",
            "0",
            "railway=tram",
            "railway=switch",
            "16",
            "7959"
          ],
          [
            "-87906302",
            "43036696",
            "186",
            "13",
            "2000",
            "0",
            "0",
            "0",
            "0",
            "railway=tram",
            "railway=unknown",
            "17",
            "8660"
          ],
          [
            "-87906336",
            "43037024",
            "187",
            "37",
            "2000",
            "0",
            "0",
            "0",
            "0",
            "railway=tram",
            "railway=unknown",
            "20",
            "10847"
          ],
          [
            "-87906341",
            "43037070",
            "187",
            "5",
            "2000",
            "0",
            "0",
            "0",
            "0",
            "railway=tram",
            "railway=unknown",
            "21",
            "11139"
          ],
          [
            "-87906371",
            "43037327",
            "188",
            "29",
            "2000",
            "0",
            "0",
            "0",
            "0",
            "railway=tram",
            "railway=switch",
            "23",
            "12933"
          ],
          [
            "-87906368",
            "43037388",
            "188",
            "7",
            "2000",
            "0",
            "0",
            "0",
            "0",
            "railway=tram",
            "railway=unknown",
            "24",
            "13360"
          ],
          [
            "-87906333",
            "43037458",
            "188",
            "8",
            "2000",
            "0",
            "0",
            "0",
            "0",
            "railway=tram",
            "railway=unknown",
            "24",
            "13839"
          ],
          [
            "-87906269",
            "43037515",
            "188",
            "8",
            "2000",
            "0",
            "0",
            "0",
            "0",
            "railway=tram",
            "railway=unknown",
            "25",
            "14324"
          ],
          [
            "-87906188",
            "43037553",
            "188",
            "8",
            "2000",
            "0",
            "0",
            "0",
            "0",
            "railway=tram",
            "railway=unknown",
            "25",
            "14800"
          ],
          [
            "-87905257",
            "43037615",
            "193",
            "76",
            "2000",
            "0",
            "0",
            "0",
            "0",
            "railway=tram",
            "railway=unknown",
            "32",
            "19870"
          ],
          [
            "-87905175",
            "43037618",
            "194",
            "7",
            "2000",
            "0",
            "0",
            "0",
            "0",
            "railway=tram",
            "",
            "32",
            "20341"
          ],
          [
            "-87905153",
            "43037620",
            "194",
            "2",
            "2000",
            "0",
            "0",
            "0",
            "0",
            "railway=tram",
            "railway=unknown",
            "0",
            "92"
          ],
          [
            "-87905115",
            "43037622",
            "195",
            "3",
            "2000",
            "0",
            "0",
            "0",
            "0",
            "railway=tram",
            "railway=unknown",
            "0",
            "237"
          ],
          [
            "-87905039",
            "43037626",
            "195",
            "6",
            "2000",
            "0",
            "0",
            "0",
            "0",
            "railway=tram",
            "railway=unknown",
            "0",
            "564"
          ],
          [
            "-87904338",
            "43037665",
            "197",
            "57",
            "2000",
            "0",
            "0",
            "0",
            "0",
            "railway=tram",
            "railway=tram_stop",
            "5",
            "3132"
          ],
          [
            "-87904018",
            "43037681",
            "197",
            "26",
            "2000",
            "0",
            "0",
            "0",
            "0",
            "railway=tram",
            "railway=crossing",
            "7",
            "4799"
          ],
          [
            "-87903940",
            "43037683",
            "196",
            "6",
            "2000",
            "0",
            "0",
            "0",
            "0",
            "railway=tram",
            "railway=level_crossing",
            "8",
            "5127"
          ],
          [
            "-87903907",
            "43037684",
            "196",
            "3",
            "2000",
            "0",
            "0",
            "0",
            "0",
            "railway=tram",
            "railway=level_crossing",
            "8",
            "5283"
          ],
          [
            "-87903790",
            "43037688",
            "195",
            "10",
            "2000",
            "0",
            "0",
            "0",
            "0",
            "railway=tram",
            "railway=crossing",
            "9",
            "5735"
          ],
          [
            "-87902763",
            "43037742",
            "196",
            "84",
            "2000",
            "0",
            "0",
            "0",
            "0",
            "railway=tram",
            "railway=unknown",
            "15",
            "9748"
          ],
          [
            "-87902648",
            "43037750",
            "196",
            "9",
            "2000",
            "0",
            "0",
            "0",
            "0",
            "railway=tram",
            "railway=unknown",
            "16",
            "10221"
          ],
          [
            "-87902535",
            "43037757",
            "197",
            "9",
            "2000",
            "0",
            "0",
            "0",
            "0",
            "railway=tram",
            "railway=unknown",
            "17",
            "10745"
          ],
          [
            "-87901596",
            "43037806",
            "199",
            "77",
            "2000",
            "0",
            "0",
            "0",
            "0",
            "railway=tram",
            "railway=unknown",
            "23",
            "14663"
          ],
          [
            "-87901515",
            "43037807",
            "198",
            "7",
            "2000",
            "0",
            "0",
            "0",
            "0",
            "railway=tram",
            "railway=crossing",
            "23",
            "15057"
          ],
          [
            "-87901279",
            "43037795",
            "195",
            "19",
            "2000",
            "0",
            "0",
            "0",
            "0",
            "railway=tram",
            "railway=crossing",
            "25",
            "15729"
          ],
          [
            "-87900641",
            "43037818",
            "188",
            "52",
            "2000",
            "0",
            "0",
            "0",
            "0",
            "railway=tram",
            "railway=unknown",
            "29",
            "16666"
          ],
          [
            "-87900583",
            "43037820",
            "188",
            "5",
            "2000",
            "0",
            "0",
            "0",
            "0",
            "railway=tram",
            "railway=unknown",
            "29",
            "16738"
          ],
          [
            "-87900554",
            "43037820",
            "188",
            "2",
            "2000",
            "0",
            "0",
            "0",
            "0",
            "railway=tram",
            "railway=unknown",
            "30",
            "16764"
          ],
          [
            "-87900526",
            "43037820",
            "188",
            "2",
            "2000",
            "0",
            "0",
            "0",
            "0",
            "railway=tram",
            "railway=unknown",
            "30",
            "16792"
          ],
          [
            "-87899845",
            "43037634",
            "185",
            "61",
            "2000",
            "0",
            "0",
            "0",
            "0",
            "railway=tram",
            "railway=unknown",
            "35",
            "17252"
          ],
          [
            "-87899828",
            "43037594",
            "185",
            "5",
            "2000",
            "0",
            "0",
            "0",
            "0",
            "railway=tram",
            "railway=unknown",
            "35",
            "17305"
          ],
          [
            "-87899921",
            "43037200",
            "184",
            "44",
            "2000",
            "0",
            "0",
            "0",
            "0",
            "railway=tram",
            "railway=tram_stop",
            "39",
            "17712"
          ],
          [
            "-87899933",
            "43037150",
            "184",
            "6",
            "2000",
            "0",
            "0",
            "0",
            "0",
            "railway=tram",
            "railway=unknown",
            "39",
            "17811"
          ],
          [
            "-87899968",
            "43037012",
            "182",
            "16",
            "2000",
            "0",
            "0",
            "0",
            "0",
            "railway=tram",
            "",
            "40",
            "18024"
          ],
          [
            "-87900032",
            "43036783",
            "182",
            "26",
            "2000",
            "0",
            "0",
            "0",
            "0",
            "railway=tram",
            "railway=unknown",
            "2",
            "992"
          ],
          [
            "-87900059",
            "43036748",
            "182",
            "5",
            "2000",
            "0",
            "0",
            "0",
            "0",
            "railway=tram",
            "railway=unknown",
            "2",
            "1187"
          ],
          [
            "-87900070",
            "43036740",
            "182",
            "1",
            "2000",
            "0",
            "0",
            "0",
            "0",
            "railway=tram",
            "railway=unknown",
            "2",
            "1226"
          ],
          [
            "-87900384",
            "43036671",
            "183",
            "28",
            "2000",
            "0",
            "0",
            "0",
            "0",
            "railway=tram",
            "railway=unknown",
            "4",
            "2438"
          ],
          [
            "-87900447",
            "43036667",
            "183",
            "5",
            "2000",
            "0",
            "0",
            "0",
            "0",
            "railway=tram",
            "railway=unknown",
            "5",
            "2678"
          ],
          [
            "-87900743",
            "43036653",
            "184",
            "24",
            "2000",
            "0",
            "0",
            "0",
            "0",
            "railway=tram",
            "railway=unknown",
            "7",
            "4008"
          ],
          [
            "-87900801",
            "43036649",
            "184",
            "5",
            "2000",
            "0",
            "0",
            "0",
            "0",
            "railway=tram",
            "railway=unknown",
            "7",
            "4288"
          ],
          [
            "-87901246",
            "43036625",
            "183",
            "36",
            "2000",
            "0",
            "0",
            "0",
            "0",
            "railway=tram",
            "railway=unknown",
            "10",
            "5958"
          ],
          [
            "-87901275",
            "43036624",
            "183",
            "2",
            "2000",
            "0",
            "0",
            "0",
            "0",
            "railway=tram",
            "railway=unknown",
            "10",
            "6046"
          ],
          [
            "-87901305",
            "43036622",
            "183",
            "2",
            "2000",
            "0",
            "0",
            "0",
            "0",
            "railway=tram",
            "railway=unknown",
            "10",
            "6133"
          ],
          [
            "-87901819",
            "43036595",
            "183",
            "42",
            "2000",
            "0",
            "0",
            "0",
            "0",
            "railway=tram",
            "railway=unknown",
            "14",
            "7823"
          ],
          [
            "-87902336",
            "43036567",
            "184",
            "42",
            "2000",
            "0",
            "0",
            "0",
            "0",
            "railway=tram",
            "railway=unknown",
            "17",
            "10021"
          ],
          [
            "-87902512",
            "43036554",
            "185",
            "14",
            "2000",
            "0",
            "0",
            "0",
            "0",
            "railway=tram",
            "railway=unknown",
            "18",
            "10782"
          ],
          [
            "-87903141",
            "43036518",
            "186",
            "51",
            "2000",
            "0",
            "0",
            "0",
            "0",
            "railway=tram",
            "railway=unknown",
            "22",
            "14029"
          ],
          [
            "-87903651",
            "43036491",
            "187",
            "42",
            "2000",
            "0",
            "0",
            "0",
            "0",
            "railway=tram",
            "railway=unknown",
            "26",
            "16696"
          ],
          [
            "-87903769",
            "43036483",
            "188",
            "10",
            "2000",
            "0",
            "0",
            "0",
            "0",
            "railway=tram",
            "railway=unknown",
            "26",
            "17307"
          ],
          [
            "-87903939",
            "43036470",
            "188",
            "14",
            "2000",
            "0",
            "0",
            "0",
            "0",
            "railway=tram",
            "railway=unknown",
            "27",
            "18163"
          ],
          [
            "-87904261",
            "43036450",
            "188",
            "26",
            "2000",
            "0",
            "0",
            "0",
            "0",
            "railway=tram",
            "railway=unknown",
            "30",
            "19724"
          ],
          [
            "-87904330",
            "43036446",
            "188",
            "6",
            "2000",
            "0",
            "0",
            "0",
            "0",
            "railway=tram",
            "railway=unknown",
            "30",
            "20070"
          ],
          [
            "-87904393",
            "43036443",
            "188",
            "5",
            "2000",
            "0",
            "0",
            "0",
            "0",
            "railway=tram",
            "railway=unknown",
            "30",
            "20343"
          ],
          [
            "-87904725",
            "43036425",
            "188",
            "27",
            "2000",
            "0",
            "0",
            "0",
            "0",
            "railway=tram",
            "railway=tram_stop",
            "33",
            "21727"
          ],
          [
            "-87904885",
            "43036416",
            "187",
            "13",
            "2000",
            "0",
            "0",
            "0",
            "0",
            "railway=tram",
            "railway=unknown",
            "34",
            "22349"
          ],
          [
            "-87904987",
            "43036410",
            "187",
            "8",
            "2000",
            "0",
            "0",
            "0",
            "0",
            "railway=tram",
            "",
            "34",
            "22712"
          ],
          [
            "-87905016",
            "43036409",
            "187",
            "2",
            "2000",
            "0",
            "0",
            "0",
            "0",
            "railway=tram",
            "railway=unknown",
            "0",
            "87"
          ],
          [
            "-87905133",
            "43036403",
            "187",
            "10",
            "2000",
            "0",
            "0",
            "0",
            "0",
            "railway=tram",
            "railway=unknown",
            "0",
            "506"
          ],
          [
            "-87905640",
            "43036375",
            "185",
            "41",
            "2000",
            "0",
            "0",
            "0",
            "0",
            "railway=tram",
            "railway=unknown",
            "4",
            "1649"
          ],
          [
            "-87905856",
            "43036367",
            "184",
            "18",
            "2000",
            "0",
            "0",
            "0",
            "0",
            "railway=tram",
            "railway=unknown",
            "5",
            "2116"
          ],
          [
            "-87906041",
            "43036368",
            "184",
            "15",
            "2000",
            "0",
            "0",
            "0",
            "0",
            "railway=tram",
            "railway=unknown",
            "6",
            "2578"
          ],
          [
            "-87906214",
            "43036436",
            "185",
            "17",
            "2000",
            "0",
            "0",
            "0",
            "0",
            "railway=tram",
            "railway=unknown",
            "8",
            "3176"
          ],
          [
            "-87906268",
            "43036497",
            "185",
            "8",
            "2000",
            "0",
            "0",
            "0",
            "0",
            "railway=tram",
            "railway=unknown",
            "8",
            "3483"
          ],
          [
            "-87906292",
            "43036552",
            "185",
            "6",
            "2000",
            "0",
            "0",
            "0",
            "0",
            "railway=tram",
            "railway=unknown",
            "9",
            "3726"
          ],
          [
            "-87906296",
            "43036581",
            "185",
            "3",
            "2000",
            "0",
            "0",
            "0",
            "0",
            "railway=tram",
            "railway=switch",
            "9",
            "3854"
          ],
          [
            "-87906302",
            "43036696",
            "186",
            "13",
            "2000",
            "0",
            "0",
            "0",
            "0",
            "railway=tram",
            "railway=unknown",
            "10",
            "4438"
          ],
          [
            "-87906336",
            "43037024",
            "187",
            "37",
            "2000",
            "0",
            "0",
            "0",
            "0",
            "railway=tram",
            "railway=unknown",
            "13",
            "6365"
          ],
          [
            "-87906341",
            "43037070",
            "187",
            "5",
            "2000",
            "0",
            "0",
            "0",
            "0",
            "railway=tram",
            "railway=unknown",
            "13",
            "6629"
          ],
          [
            "-87906371",
            "43037327",
            "188",
            "29",
            "2000",
            "0",
            "0",
            "0",
            "0",
            "railway=tram",
            "railway=switch",
            "16",
            "8284"
          ],
          [
            "-87906387",
            "43037454",
            "188",
            "14",
            "2000",
            "0",
            "0",
            "0",
            "0",
            "railway=tram",
            "railway=unknown",
            "17",
            "9105"
          ],
          [
            "-87906397",
            "43037542",
            "188",
            "10",
            "2000",
            "0",
            "0",
            "0",
            "0",
            "railway=tram",
            "railway=unknown",
            "18",
            "9696"
          ],
          [
            "-87906404",
            "43037634",
            "189",
            "10",
            "2000",
            "0",
            "0",
            "0",
            "0",
            "railway=tram",
            "railway=unknown",
            "19",
            "10315"
          ],
          [
            "-87906410",
            "43037737",
            "189",
            "11",
            "2000",
            "0",
            "0",
            "0",
            "0",
            "railway=tram",
            "railway=level_crossing",
            "19",
            "10998"
          ],
          [
            "-87906412",
            "43037889",
            "190",
            "17",
            "2000",
            "0",
            "0",
            "0",
            "0",
            "railway=tram",
            "railway=unknown",
            "21",
            "12118"
          ],
          [
            "-87906417",
            "43037933",
            "190",
            "5",
            "2000",
            "0",
            "0",
            "0",
            "0",
            "railway=tram",
            "railway=unknown",
            "21",
            "12447"
          ],
          [
            "-87906429",
            "43038057",
            "191",
            "14",
            "2000",
            "0",
            "0",
            "0",
            "0",
            "railway=tram",
            "railway=unknown",
            "22",
            "13398"
          ],
          [
            "-87906438",
            "43038134",
            "191",
            "9",
            "2000",
            "0",
            "0",
            "0",
            "0",
            "railway=tram",
            "railway=unknown",
            "23",
            "14004"
          ],
          [
            "-87906448",
            "43038216",
            "191",
            "9",
            "2000",
            "0",
            "0",
            "0",
            "0",
            "railway=tram",
            "railway=unknown",
            "24",
            "14403"
          ],
          [
            "-87906473",
            "43038466",
            "193",
            "28",
            "2000",
            "0",
            "0",
            "0",
            "0",
            "railway=tram",
            "railway=tram_stop",
            "26",
            "16072"
          ],
          [
            "-87906500",
            "43038673",
            "196",
            "23",
            "2000",
            "0",
            "0",
            "0",
            "0",
            "railway=tram",
            "railway=unknown",
            "28",
            "17771"
          ],
          [
            "-87906509",
            "43038719",
            "196",
            "5",
            "2000",
            "0",
            "0",
            "0",
            "0",
            "railway=tram",
            "railway=unknown",
            "28",
            "18153"
          ],
          [
            "-87906519",
            "43038773",
            "197",
            "6",
            "2000",
            "0",
            "0",
            "0",
            "0",
            "railway=tram",
            "railway=unknown",
            "29",
            "18626"
          ],
          [
            "-87906537",
            "43038868",
            "198",
            "11",
            "2000",
            "0",
            "0",
            "0",
            "0",
            "railway=tram",
            "railway=unknown",
            "30",
            "19578"
          ],
          [
            "-87906661",
            "43039861",
            "203",
            "111",
            "2000",
            "0",
            "0",
            "0",
            "0",
            "railway=tram",
            "",
            "38",
            "29565"
          ],
          [
            "-87906668",
            "43039926",
            "203",
            "7",
            "2000",
            "0",
            "0",
            "0",
            "0",
            "railway=tram",
            "railway=unknown",
            "0",
            "322"
          ],
          [
            "-87906676",
            "43040001",
            "203",
            "8",
            "2000",
            "0",
            "0",
            "0",
            "0",
            "railway=tram",
            "railway=unknown",
            "1",
            "690"
          ],
          [
            "-87906685",
            "43040084",
            "202",
            "9",
            "2000",
            "0",
            "0",
            "0",
            "0",
            "railway=tram",
            "railway=unknown",
            "1",
            "1045"
          ],
          [
            "-87906795",
            "43041112",
            "194",
            "115",
            "2000",
            "0",
            "0",
            "0",
            "0",
            "railway=tram",
            "railway=unknown",
            "11",
            "2943"
          ],
          [
            "-87906801",
            "43041175",
            "194",
            "7",
            "2000",
            "0",
            "0",
            "0",
            "0",
            "railway=tram",
            "railway=unknown",
            "11",
            "3152"
          ],
          [
            "-87906805",
            "43041212",
            "194",
            "4",
            "2000",
            "0",
            "0",
            "0",
            "0",
            "railway=tram",
            "railway=unknown",
            "12",
            "3274"
          ],
          [
            "-87906811",
            "43041267",
            "194",
            "6",
            "2000",
            "0",
            "0",
            "0",
            "0",
            "railway=tram",
            "railway=unknown",
            "12",
            "3462"
          ],
          [
            "-87906817",
            "43041320",
            "194",
            "6",
            "2000",
            "0",
            "0",
            "0",
            "0",
            "railway=tram",
            "railway=unknown",
            "12",
            "3654"
          ],
          [
            "-87906851",
            "43041607",
            "194",
            "32",
            "2000",
            "0",
            "0",
            "0",
            "0",
            "railway=tram",
            "railway=tram_stop",
            "15",
            "4682"
          ],
          [
            "-87906897",
            "43042065",
            "194",
            "51",
            "2000",
            "0",
            "0",
            "0",
            "0",
            "railway=tram",
            "railway=unknown",
            "19",
            "6612"
          ],
          [
            "-87906911",
            "43042214",
            "194",
            "17",
            "2000",
            "0",
            "0",
            "0",
            "0",
            "railway=tram",
            "railway=switch",
            "20",
            "7320"
          ],
          [
            "-87906925",
            "43042311",
            "194",
            "11",
            "2000",
            "0",
            "0",
            "0",
            "0",
            "railway=tram",
            "railway=unknown",
            "21",
            "7782"
          ],
          [
            "-87906929",
            "43042325",
            "194",
            "2",
            "2000",
            "0",
            "0",
            "0",
            "0",
            "railway=tram",
            "railway=unknown",
            "21",
            "7866"
          ],
          [
            "-87906984",
            "43042413",
            "194",
            "11",
            "2000",
            "0",
            "0",
            "0",
            "0",
            "railway=tram",
            "railway=unknown",
            "22",
            "8331"
          ],
          [
            "-87907124",
            "43042488",
            "194",
            "14",
            "2000",
            "0",
            "0",
            "0",
            "0",
            "railway=tram",
            "railway=unknown",
            "23",
            "8885"
          ],
          [
            "-87907258",
            "43042502",
            "193",
            "11",
            "2000",
            "0",
            "0",
            "0",
            "0",
            "railway=tram",
            "railway=switch",
            "24",
            "9279"
          ],
          [
            "-87908073",
            "43042446",
            "192",
            "67",
            "2000",
            "0",
            "0",
            "0",
            "0",
            "railway=tram",
            "railway=unknown",
            "30",
            "11141"
          ],
          [
            "-87908224",
            "43042363",
            "191",
            "16",
            "2000",
            "0",
            "0",
            "0",
            "0",
            "railway=tram",
            "railway=unknown",
            "31",
            "11627"
          ],
          [
            "-87908239",
            "43042346",
            "191",
            "2",
            "2000",
            "0",
            "0",
            "0",
            "0",
            "railway=tram",
            "railway=unknown",
            "31",
            "11688"
          ],
          [
            "-87908277",
            "43042249",
            "191",
            "11",
            "2000",
            "0",
            "0",
            "0",
            "0",
            "railway=tram",
            "railway=unknown",
            "32",
            "12010"
          ],
          [
            "-87908224",
            "43042018",
            "191",
            "26",
            "2000",
            "0",
            "0",
            "0",
            "0",
            "railway=tram",
            "railway=unknown",
            "34",
            "12784"
          ],
          [
            "-87908136",
            "43041418",
            "193",
            "67",
            "2000",
            "0",
            "0",
            "0",
            "0",
            "railway=tram",
            "railway=tram_stop",
            "39",
            "14653"
          ],
          [
            "-87908128",
            "43041343",
            "194",
            "8",
            "2000",
            "0",
            "0",
            "0",
            "0",
            "railway=tram",
            "",
            "40",
            "14924"
          ],
          [
            "-87908115",
            "43041229",
            "194",
            "13",
            "2000",
            "0",
            "0",
            "0",
            "0",
            "railway=tram",
            "railway=unknown",
            "1",
            "679"
          ],
          [
            "-87908111",
            "43041195",
            "194",
            "4",
            "2000",
            "0",
            "0",
            "0",
            "0",
            "railway=tram",
            "railway=unknown",
            "1",
            "894"
          ],
          [
            "-87908104",
            "43041137",
            "195",
            "6",
            "2000",
            "0",
            "0",
            "0",
            "0",
            "railway=tram",
            "railway=unknown",
            "1",
            "1239"
          ],
          [
            "-87908098",
            "43041085",
            "195",
            "6",
            "2000",
            "0",
            "0",
            "0",
            "0",
            "railway=tram",
            "railway=unknown",
            "2",
            "1593"
          ],
          [
            "-87908094",
            "43041043",
            "195",
            "5",
            "2000",
            "0",
            "0",
            "0",
            "0",
            "railway=tram",
            "railway=unknown",
            "2",
            "1894"
          ],
          [
            "-87908071",
            "43040824",
            "197",
            "24",
            "2000",
            "0",
            "0",
            "0",
            "0",
            "railway=tram",
            "railway=unknown",
            "4",
            "3006"
          ],
          [
            "-87908063",
            "43040745",
            "198",
            "9",
            "2000",
            "0",
            "0",
            "0",
            "0",
            "railway=tram",
            "railway=unknown",
            "5",
            "3515"
          ],
          [
            "-87908011",
            "43040223",
            "206",
            "58",
            "2000",
            "0",
            "0",
            "0",
            "0",
            "railway=tram",
            "railway=unknown",
            "10",
            "9896"
          ],
          [
            "-87907985",
            "43040008",
            "210",
            "24",
            "2000",
            "0",
            "0",
            "0",
            "0",
            "railway=tram",
            "railway=unknown",
            "11",
            "12650"
          ],
          [
            "-87907977",
            "43039933",
            "209",
            "8",
            "2000",
            "0",
            "0",
            "0",
            "0",
            "railway=tram",
            "railway=unknown",
            "12",
            "13416"
          ],
          [
            "-87907968",
            "43039852",
            "207",
            "9",
            "2000",
            "0",
            "0",
            "0",
            "0",
            "railway=tram",
            "railway=unknown",
            "13",
            "14125"
          ],
          [
            "-87907949",
            "43039682",
            "205",
            "19",
            "2000",
            "0",
            "0",
            "0",
            "0",
            "railway=tram",
            "railway=unknown",
            "14",
            "15117"
          ],
          [
            "-87907875",
            "43039004",
            "195",
            "76",
            "2000",
            "0",
            "0",
            "0",
            "0",
            "railway=tram",
            "railway=unknown",
            "20",
            "17329"
          ],
          [
            "-87907853",
            "43038807",
            "194",
            "22",
            "2000",
            "0",
            "0",
            "0",
            "0",
            "railway=tram",
            "railway=crossing",
            "22",
            "17926"
          ],
          [
            "-87907842",
            "43038704",
            "194",
            "11",
            "2000",
            "0",
            "0",
            "0",
            "0",
            "railway=tram",
            "railway=unknown",
            "23",
            "18207"
          ],
          [
            "-87907837",
            "43038666",
            "194",
            "4",
            "2000",
            "0",
            "0",
            "0",
            "0",
            "railway=tram",
            "railway=unknown",
            "23",
            "18306"
          ],
          [
            "-87907831",
            "43038595",
            "193",
            "8",
            "2000",
            "0",
            "0",
            "0",
            "0",
            "railway=tram",
            "railway=unknown",
            "24",
            "18496"
          ],
          [
            "-87907798",
            "43038314",
            "192",
            "31",
            "2000",
            "0",
            "0",
            "0",
            "0",
            "railway=tram",
            "railway=tram_stop",
            "26",
            "18929"
          ],
          [
            "-87907740",
            "43037824",
            "190",
            "55",
            "2000",
            "0",
            "0",
            "0",
            "0",
            "railway=tram",
            "railway=unknown",
            "31",
            "19517"
          ],
          [
            "-87907706",
            "43037557",
            "188",
            "30",
            "2000",
            "0",
            "0",
            "0",
            "0",
            "railway=tram",
            "railway=unknown",
            "33",
            "19904"
          ],
          [
            "-87907694",
            "43037473",
            "188",
            "9",
            "2000",
            "0",
            "0",
            "0",
            "0",
            "railway=tram",
            "railway=unknown",
            "34",
            "20051"
          ],
          [
            "-87907677",
            "43037385",
            "188",
            "10",
            "2000",
            "0",
            "0",
            "0",
            "0",
            "railway=tram",
            "railway=unknown",
            "35",
            "20198"
          ],
          [
            "-87907560",
            "43036358",
            "184",
            "114",
            "2000",
            "0",
            "0",
            "0",
            "0",
            "railway=tram",
            "railway=unknown",
            "44",
            "21182"
          ],
          [
            "-87907553",
            "43036279",
            "184",
            "9",
            "2000",
            "0",
            "0",
            "0",
            "0",
            "railway=tram",
            "railway=unknown",
            "45",
            "21381"
          ],
          [
            "-87907544",
            "43036136",
            "184",
            "16",
            "2000",
            "0",
            "0",
            "0",
            "0",
            "railway=tram",
            "railway=crossing",
            "46",
            "21775"
          ],
          [
            "-87907490",
            "43035553",
            "184",
            "65",
            "2000",
            "0",
            "0",
            "0",
            "0",
            "railway=tram",
            "railway=unknown",
            "51",
            "23888"
          ],
          [
            "-87907480",
            "43035468",
            "184",
            "9",
            "2000",
            "0",
            "0",
            "0",
            "0",
            "railway=tram",
            "",
            "52",
            "24214"
          ],
          [
            "-87907461",
            "43035309",
            "184",
            "18",
            "2000",
            "0",
            "0",
            "0",
            "0",
            "railway=tram",
            "railway=switch",
            "1",
            "828"
          ],
          [
            "-87907437",
            "43035214",
            "184",
            "11",
            "2000",
            "0",
            "0",
            "0",
            "0",
            "railway=tram",
            "railway=unknown",
            "2",
            "1354"
          ],
          [
            "-87907384",
            "43035142",
            "185",
            "9",
            "2000",
            "0",
            "0",
            "0",
            "0",
            "railway=tram",
            "railway=unknown",
            "3",
            "1794"
          ],
          [
            "-87907270",
            "43035090",
            "185",
            "12",
            "2000",
            "0",
            "0",
            "0",
            "0",
            "railway=tram",
            "railway=unknown",
            "4",
            "2407"
          ],
          [
            "-87907159",
            "43035073",
            "185",
            "9",
            "2000",
            "0",
            "0",
            "0",
            "0",
            "railway=tram",
            "railway=unknown",
            "4",
            "2880"
          ],
          [
            "-87907096",
            "43035072",
            "185",
            "5",
            "2000",
            "0",
            "0",
            "0",
            "0",
            "railway=tram",
            "railway=switch",
            "5",
            "3151"
          ],
          [
            "-87906858",
            "43035085",
            "186",
            "19",
            "2000",
            "0",
            "0",
            "0",
            "0",
            "railway=tram",
            "railway=tram_stop",
            "6",
            "4234"
          ],
          [
            "-87906857",
            "43035085",
            "186",
            "1",
            "2000",
            "0",
            "0",
            "0",
            "0",
            "railway=tram",
            "",
            "6",
            "4290"
          ]
        ],
        "times": [
          0,
          0.72,
          2.72,
          3.28,
          3.92,
          4.16,
          4.72,
          5.28,
          9.36,
          13.68,
          14.72,
          15.44,
          16.56,
          16.8,
          17.84,
          20.8,
          21.2,
          23.52,
          24.08,
          24.72,
          25.2,
          25.36,
          25.6,
          26,
          26.48,
          26.96,
          32.08,
          32.64,
          32.8,
          33.04,
          33.52,
          38.08,
          40.16,
          40.64,
          40.88,
          41.68,
          48.4,
          49.12,
          49.84,
          50.72,
          55.6,
          56,
          56.56,
          57.04,
          58.08,
          59.44,
          62.24,
          62.64,
          62.8,
          62.96,
          63.44,
          66.48,
          66.96,
          67.44,
          67.84,
          68.24,
          68.48,
          71.76,
          72.24,
          73.52,
          75.36,
          75.6,
          75.68,
          76,
          76.08,
          76.32,
          76.72,
          77.2,
          78.32,
          78.72,
          80.64,
          81.04,
          83.92,
          84.08,
          84.24,
          87.6,
          90.96,
          92.08,
          96.16,
          99.52,
          100.32,
          101.44,
          103.52,
          104,
          104.4,
          106.56,
          107.6,
          108.24,
          108.4,
          109.2,
          112.48,
          113.92,
          115.12,
          115.76,
          116.24,
          116.48,
          116.96,
          117.12,
          117.6,
          117.84,
          118.88,
          121.84,
          122.24,
          124.56,
          125.68,
          126.48,
          127.28,
          128.16,
          129.52,
          129.92,
          131.04,
          131.76,
          132.48,
          134.72,
          136.56,
          136.96,
          137.44,
          138.32,
          140.4,
          147.2,
          147.76,
          148.4,
          149.12,
          158.32,
          158.88,
          159.2,
          159.68,
          160.16,
          162.72,
          166.8,
          168.16,
          169.04,
          169.2,
          169.52,
          170.08,
          170.8,
          171.2,
          171.68,
          172.08,
          176.72,
          177.44,
          178.08,
          178.72,
          178.88,
          179.44,
          179.76,
          180.16,
          181.84,
          182.96,
          187.2,
          187.84,
          188.88,
          189.2,
          189.68,
          190.16,
          190.56,
          192.48,
          193.2,
          197.84,
          199.76,
          200.4,
          201.12,
          202.64,
          208.72,
          210.48,
          211.36,
          211.68,
          212.32,
          214.8,
          219.2,
          221.6,
          222.32,
          223.12,
          227.04,
          232.24,
          232.96,
          234.24,
          239.44,
          240.16,
          241.6,
          242.48,
          242.72,
          243.2,
          243.76,
          244.16,
          244.88,
          245.28,
          246.8,
          246.88
        ]
      },
      "geometry": {
        "type": "LineString",
        "coordinates": [
          [
            -87.906856,
            43.035085,
            186.25
          ],
          [
            -87.906743,
            43.035092,
            186.5
          ],
          [
            -87.906435,
            43.03511,
            185.25
          ],
          [
            -87.906347,
            43.035121,
            184.75
          ],
          [
            -87.906255,
            43.035157,
            184.25
          ],
          [
            -87.906229,
            43.035177,
            184
          ],
          [
            -87.906186,
            43.035229,
            183.75
          ],
          [
            -87.906167,
            43.035293,
            183.5
          ],
          [
            -87.906221,
            43.035746,
            183.25
          ],
          [
            -87.906275,
            43.036228,
            184.5
          ],
          [
            -87.906285,
            43.036348,
            185
          ],
          [
            -87.906287,
            43.036425,
            185.25
          ],
          [
            -87.906296,
            43.036552,
            185.5
          ],
          [
            -87.906296,
            43.036581,
            185.75
          ],
          [
            -87.906302,
            43.036696,
            186
          ],
          [
            -87.906336,
            43.037024,
            187
          ],
          [
            -87.906341,
            43.03707,
            187.25
          ],
          [
            -87.906371,
            43.037327,
            188
          ],
          [
            -87.906368,
            43.037388,
            188.25
          ],
          [
            -87.906333,
            43.037458,
            188.25
          ],
          [
            -87.90629,
            43.037502,
            188.5
          ],
          [
            -87.906269,
            43.037515,
            188.5
          ],
          [
            -87.906237,
            43.037534,
            188.5
          ],
          [
            -87.906188,
            43.037553,
            188.5
          ],
          [
            -87.906121,
            43.037567,
            188.5
          ],
          [
            -87.906043,
            43.037575,
            188.5
          ],
          [
            -87.905257,
            43.037615,
            193.75
          ],
          [
            -87.905175,
            43.037618,
            194.75
          ],
          [
            -87.905153,
            43.03762,
            194.75
          ],
          [
            -87.905115,
            43.037622,
            195
          ],
          [
            -87.905039,
            43.037626,
            195.75
          ],
          [
            -87.904338,
            43.037665,
            197.75
          ],
          [
            -87.904018,
            43.037681,
            197.25
          ],
          [
            -87.90394,
            43.037683,
            196.5
          ],
          [
            -87.903907,
            43.037684,
            196.25
          ],
          [
            -87.90379,
            43.037688,
            195.5
          ],
          [
            -87.902763,
            43.037742,
            196
          ],
          [
            -87.902648,
            43.03775,
            196.75
          ],
          [
            -87.902535,
            43.037757,
            197.5
          ],
          [
            -87.902402,
            43.037766,
            198
          ],
          [
            -87.901655,
            43.037807,
            199.75
          ],
          [
            -87.901596,
            43.037806,
            199
          ],
          [
            -87.901515,
            43.037807,
            198
          ],
          [
            -87.901444,
            43.037806,
            197
          ],
          [
            -87.901279,
            43.037795,
            195
          ],
          [
            -87.901068,
            43.037795,
            192.25
          ],
          [
            -87.900641,
            43.037818,
            188.75
          ],
          [
            -87.900583,
            43.03782,
            188.5
          ],
          [
            -87.900554,
            43.03782,
            188.25
          ],
          [
            -87.900526,
            43.03782,
            188.25
          ],
          [
            -87.900447,
            43.037817,
            188
          ],
          [
            -87.899993,
            43.037739,
            186.25
          ],
          [
            -87.899927,
            43.037713,
            185.75
          ],
          [
            -87.899875,
            43.037676,
            185.5
          ],
          [
            -87.899845,
            43.037634,
            185.25
          ],
          [
            -87.899828,
            43.037594,
            185.25
          ],
          [
            -87.899828,
            43.037567,
            185.25
          ],
          [
            -87.899921,
            43.0372,
            184
          ],
          [
            -87.899933,
            43.03715,
            184
          ],
          [
            -87.899968,
            43.037012,
            182.5
          ],
          [
            -87.90002,
            43.036806,
            182.5
          ],
          [
            -87.900032,
            43.036783,
            182.5
          ],
          [
            -87.900036,
            43.036775,
            182.5
          ],
          [
            -87.900059,
            43.036748,
            182.5
          ],
          [
            -87.90007,
            43.03674,
            182.5
          ],
          [
            -87.900094,
            43.036722,
            182.5
          ],
          [
            -87.900144,
            43.036699,
            182.5
          ],
          [
            -87.900217,
            43.036683,
            182.75
          ],
          [
            -87.900384,
            43.036671,
            183.25
          ],
          [
            -87.900447,
            43.036667,
            183.5
          ],
          [
            -87.900743,
            43.036653,
            184.5
          ],
          [
            -87.900801,
            43.036649,
            184.75
          ],
          [
            -87.901246,
            43.036625,
            183.75
          ],
          [
            -87.901275,
            43.036624,
            183.5
          ],
          [
            -87.901305,
            43.036622,
            183.5
          ],
          [
            -87.901819,
            43.036595,
            183
          ],
          [
            -87.902336,
            43.036567,
            184.5
          ],
          [
            -87.902512,
            43.036554,
            185
          ],
          [
            -87.903141,
            43.036518,
            186.75
          ],
          [
            -87.903651,
            43.036491,
            187.75
          ],
          [
            -87.903769,
            43.036483,
            188
          ],
          [
            -87.903939,
            43.03647,
            188.25
          ],
          [
            -87.904261,
            43.03645,
            188.5
          ],
          [
            -87.90433,
            43.036446,
            188.5
          ],
          [
            -87.904393,
            43.036443,
            188.25
          ],
          [
            -87.904725,
            43.036425,
            188
          ],
          [
            -87.904885,
            43.036416,
            187.75
          ],
          [
            -87.904987,
            43.03641,
            187.5
          ],
          [
            -87.905016,
            43.036409,
            187.5
          ],
          [
            -87.905133,
            43.036403,
            187.25
          ],
          [
            -87.90564,
            43.036375,
            185.25
          ],
          [
            -87.905856,
            43.036367,
            184.5
          ],
          [
            -87.906041,
            43.036368,
            184.75
          ],
          [
            -87.906131,
            43.03639,
            185
          ],
          [
            -87.906191,
            43.036418,
            185
          ],
          [
            -87.906214,
            43.036436,
            185.25
          ],
          [
            -87.906258,
            43.03648,
            185.25
          ],
          [
            -87.906268,
            43.036497,
            185.5
          ],
          [
            -87.906292,
            43.036552,
            185.5
          ],
          [
            -87.906296,
            43.036581,
            185.75
          ],
          [
            -87.906302,
            43.036696,
            186
          ],
          [
            -87.906336,
            43.037024,
            187
          ],
          [
            -87.906341,
            43.03707,
            187.25
          ],
          [
            -87.906371,
            43.037327,
            188
          ],
          [
            -87.906387,
            43.037454,
            188.5
          ],
          [
            -87.906397,
            43.037542,
            188.75
          ],
          [
            -87.906404,
            43.037634,
            189.25
          ],
          [
            -87.90641,
            43.037737,
            189.5
          ],
          [
            -87.906412,
            43.037889,
            190.25
          ],
          [
            -87.906417,
            43.037933,
            190.5
          ],
          [
            -87.906429,
            43.038057,
            191
          ],
          [
            -87.906438,
            43.038134,
            191.25
          ],
          [
            -87.906448,
            43.038216,
            191.75
          ],
          [
            -87.906473,
            43.038466,
            193.75
          ],
          [
            -87.9065,
            43.038673,
            196
          ],
          [
            -87.906509,
            43.038719,
            196.75
          ],
          [
            -87.906519,
            43.038773,
            197.25
          ],
          [
            -87.906537,
            43.038868,
            198.5
          ],
          [
            -87.906578,
            43.039099,
            201.5
          ],
          [
            -87.906661,
            43.039861,
            203
          ],
          [
            -87.906668,
            43.039926,
            203
          ],
          [
            -87.906676,
            43.040001,
            203
          ],
          [
            -87.906685,
            43.040084,
            202.25
          ],
          [
            -87.906795,
            43.041112,
            194.5
          ],
          [
            -87.906801,
            43.041175,
            194.5
          ],
          [
            -87.906805,
            43.041212,
            194.5
          ],
          [
            -87.906811,
            43.041267,
            194.5
          ],
          [
            -87.906817,
            43.04132,
            194.5
          ],
          [
            -87.906851,
            43.041607,
            194.25
          ],
          [
            -87.906897,
            43.042065,
            194.5
          ],
          [
            -87.906911,
            43.042214,
            194.75
          ],
          [
            -87.906925,
            43.042311,
            194.75
          ],
          [
            -87.906929,
            43.042325,
            194.75
          ],
          [
            -87.90694,
            43.042357,
            194.75
          ],
          [
            -87.906984,
            43.042413,
            194.75
          ],
          [
            -87.907064,
            43.042466,
            194.5
          ],
          [
            -87.907124,
            43.042488,
            194.25
          ],
          [
            -87.907191,
            43.042499,
            194
          ],
          [
            -87.907258,
            43.042502,
            193.75
          ],
          [
            -87.907968,
            43.04246,
            192.25
          ],
          [
            -87.908073,
            43.042446,
            192.25
          ],
          [
            -87.908161,
            43.042413,
            192
          ],
          [
            -87.908224,
            43.042363,
            191.75
          ],
          [
            -87.908239,
            43.042346,
            191.75
          ],
          [
            -87.908271,
            43.042283,
            191.5
          ],
          [
            -87.908277,
            43.042249,
            191.5
          ],
          [
            -87.908273,
            43.042205,
            191.25
          ],
          [
            -87.908224,
            43.042018,
            191.25
          ],
          [
            -87.908196,
            43.041894,
            191
          ],
          [
            -87.908136,
            43.041418,
            193
          ],
          [
            -87.908128,
            43.041343,
            194.25
          ],
          [
            -87.908115,
            43.041229,
            194.25
          ],
          [
            -87.908111,
            43.041195,
            194.5
          ],
          [
            -87.908104,
            43.041137,
            195
          ],
          [
            -87.908098,
            43.041085,
            195.25
          ],
          [
            -87.908094,
            43.041043,
            195.5
          ],
          [
            -87.908071,
            43.040824,
            197
          ],
          [
            -87.908063,
            43.040745,
            198.25
          ],
          [
            -87.908011,
            43.040223,
            206.75
          ],
          [
            -87.907985,
            43.040008,
            210.25
          ],
          [
            -87.907977,
            43.039933,
            209.25
          ],
          [
            -87.907968,
            43.039852,
            207.75
          ],
          [
            -87.907949,
            43.039682,
            205
          ],
          [
            -87.907875,
            43.039004,
            195.75
          ],
          [
            -87.907853,
            43.038807,
            194.75
          ],
          [
            -87.907842,
            43.038704,
            194.25
          ],
          [
            -87.907837,
            43.038666,
            194
          ],
          [
            -87.907831,
            43.038595,
            193.75
          ],
          [
            -87.907798,
            43.038314,
            192
          ],
          [
            -87.90774,
            43.037824,
            190
          ],
          [
            -87.907706,
            43.037557,
            188.75
          ],
          [
            -87.907694,
            43.037473,
            188.5
          ],
          [
            -87.907677,
            43.037385,
            188
          ],
          [
            -87.907621,
            43.036943,
            185.5
          ],
          [
            -87.90756,
            43.036358,
            184
          ],
          [
            -87.907553,
            43.036279,
            184
          ],
          [
            -87.907544,
            43.036136,
            184
          ],
          [
            -87.90749,
            43.035553,
            184.25
          ],
          [
            -87.90748,
            43.035468,
            184.5
          ],
          [
            -87.907461,
            43.035309,
            184.5
          ],
          [
            -87.907437,
            43.035214,
            184.75
          ],
          [
            -87.907423,
            43.035185,
            184.75
          ],
          [
            -87.907384,
            43.035142,
            185
          ],
          [
            -87.907323,
            43.035103,
            185.25
          ],
          [
            -87.90727,
            43.03509,
            185.25
          ],
          [
            -87.907159,
            43.035073,
            185.5
          ],
          [
            -87.907096,
            43.035072,
            185.75
          ],
          [
            -87.906858,
            43.035085,
            186.25
          ],
          [
            -87.906857,
            43.035085,
            186.5
          ]
        ]
      }
    }
  ]
}