{
  "type": "FeatureCollection",
  "features": [
    {
      "type": "Feature",
      "properties": {
        "creator": "BRouter-1.7.9",
        "name": "[MTA] W Train",
        "track-length": "31685",
        "filtered ascend": "3",
        "plain-ascend": "5",
        "total-time": "2536",
        "total-energy": "1397545",
        "cost": "63372",
        "messages": [
          [
            "Longitude",
            "Latitude",
            "Elevation",
            "Distance",
            "CostPerKm",
            "ElevCost",
            "TurnCost",
            "NodeCost",
            "InitialCost",
            "WayTags",
            "NodeTags",
            "Time",
            "Energy"
          ],
          [
            "-74013148",
            "40704238",
            "-8192",
            "170",
            "2000",
            "0",
            "0",
            "0",
            "0",
            "railway=subway",
            "wheelchair=no railway=halt",
            "13",
            "7477"
          ],
          [
            "-74013335",
            "40704913",
            "-8192",
            "77",
            "2000",
            "0",
            "0",
            "0",
            "0",
            "railway=subway",
            "railway=switch",
            "19",
            "10864"
          ],
          [
            "-74013371",
            "40707151",
            "6",
            "277",
            "2000",
            "0",
            "0",
            "0",
            "0",
            "railway=subway",
            "estimated_crossing_class=6",
            "41",
            "23048"
          ],
          [
            "-74012719",
            "40708120",
            "6",
            "121",
            "2000",
            "0",
            "0",
            "0",
            "0",
            "railway=subway",
            "wheelchair=no railway=halt",
            "51",
            "28370"
          ],
          [
            "-74010695",
            "40711119",
            "6",
            "374",
            "2000",
            "0",
            "0",
            "0",
            "0",
            "railway=subway",
            "wheelchair=yes railway=halt",
            "81",
            "44820"
          ],
          [
            "-74006371",
            "40714018",
            "7",
            "546",
            "2000",
            "0",
            "0",
            "0",
            "0",
            "railway=subway",
            "wheelchair=no railway=halt",
            "125",
            "68836"
          ],
          [
            "-74002974",
            "40718039",
            "7",
            "530",
            "2000",
            "0",
            "0",
            "0",
            "0",
            "railway=subway",
            "railway=switch",
            "167",
            "92149"
          ],
          [
            "-74002510",
            "40718585",
            "7",
            "72",
            "2000",
            "0",
            "0",
            "0",
            "0",
            "railway=subway",
            "railway=switch",
            "173",
            "95316"
          ],
          [
            "-74001018",
            "40720336",
            "7",
            "232",
            "2000",
            "0",
            "0",
            "0",
            "0",
            "railway=subway",
            "wheelchair=no railway=halt",
            "191",
            "105520"
          ],
          [
            "-73999037",
            "40722677",
            "7",
            "309",
            "2000",
            "0",
            "0",
            "0",
            "0",
            "railway=subway",
            "railway=switch",
            "216",
            "119112"
          ],
          [
            "-73998914",
            "40722854",
            "7",
            "22",
            "2000",
            "0",
            "0",
            "0",
            "0",
            "railway=subway",
            "railway=unknown",
            "218",
            "120079"
          ],
          [
            "-73998791",
            "40723031",
            "7",
            "22",
            "2000",
            "0",
            "0",
            "0",
            "0",
            "railway=subway",
            "railway=switch",
            "220",
            "121047"
          ],
          [
            "-73990355",
            "40736536",
            "7",
            "1689",
            "2000",
            "0",
            "0",
            "0",
            "0",
            "railway=subway",
            "wheelchair=yes railway=halt",
            "355",
            "195338"
          ],
          [
            "-73987794",
            "40750318",
            "8",
            "1546",
            "2000",
            "0",
            "0",
            "0",
            "0",
            "railway=subway",
            "wheelchair=yes railway=halt",
            "478",
            "263339"
          ],
          [
            "-73987699",
            "40750850",
            "8",
            "60",
            "2000",
            "0",
            "0",
            "0",
            "0",
            "railway=subway",
            "railway=switch",
            "483",
            "265978"
          ],
          [
            "-73987635",
            "40751075",
            "8",
            "26",
            "2000",
            "0",
            "0",
            "0",
            "0",
            "railway=subway",
            "railway=unknown",
            "485",
            "267122"
          ],
          [
            "-73987572",
            "40751301",
            "8",
            "26",
            "2000",
            "0",
            "0",
            "0",
            "0",
            "railway=subway",
            "railway=switch",
            "487",
            "268266"
          ],
          [
            "-73986340",
            "40755482",
            "8",
            "476",
            "2000",
            "0",
            "0",
            "0",
            "0",
            "railway=subway",
            "wheelchair=yes railway=halt",
            "525",
            "289203"
          ],
          [
            "-73983378",
            "40760805",
            "8",
            "645",
            "2000",
            "0",
            "0",
            "0",
            "0",
            "railway=subway",
            "wheelchair=yes railway=halt",
            "577",
            "317573"
          ],
          [
            "-73982535",
            "40761977",
            "8",
            "148",
            "2000",
            "0",
            "0",
            "0",
            "0",
            "railway=subway",
            "railway=switch",
            "589",
            "324083"
          ],
          [
            "-73982061",
            "40762636",
            "8",
            "83",
            "2000",
            "0",
            "0",
            "0",
            "0",
            "railway=subway",
            "railway=switch",
            "596",
            "327734"
          ],
          [
            "-73979860",
            "40765562",
            "8",
            "374",
            "2000",
            "0",
            "0",
            "0",
            "0",
            "railway=subway",
            "wheelchair=no railway=halt",
            "626",
            "344184"
          ],
          [
            "-73979625",
            "40765970",
            "8",
            "49",
            "2000",
            "0",
            "0",
            "0",
            "0",
            "railway=subway",
            "railway=switch",
            "629",
            "346339"
          ],
          [
            "-73972506",
            "40764809",
            "8",
            "723",
            "2000",
            "0",
            "0",
            "0",
            "0",
            "railway=subway",
            "wheelchair=no railway=halt",
            "687",
            "378141"
          ],
          [
            "-73965972",
            "40762088",
            "9",
            "630",
            "2000",
            "0",
            "0",
            "0",
            "0",
            "railway=subway",
            "wheelchair=no railway=halt",
            "738",
            "405851"
          ],
          [
            "-73948816",
            "40754605",
            "9",
            "1671",
            "2000",
            "0",
            "0",
            "0",
            "0",
            "railway=subway",
            "railway=switch",
            "871",
            "479351"
          ],
          [
            "-73944219",
            "40752563",
            "-8192",
            "450",
            "2000",
            "0",
            "0",
            "0",
            "0",
            "railway=subway",
            "railway=switch",
            "907",
            "501399"
          ],
          [
            "-73944000",
            "40752467",
            "-8192",
            "21",
            "2000",
            "0",
            "0",
            "0",
            "0",
            "railway=subway",
            "",
            "909",
            "502356"
          ],
          [
            "-73943782",
            "40752373",
            "-8192",
            "21",
            "2000",
            "0",
            "0",
            "0",
            "0",
            "railway=subway",
            "railway=switch",
            "1",
            "923"
          ],
          [
            "-73942757",
            "40751928",
            "-8192",
            "100",
            "2000",
            "0",
            "0",
            "0",
            "0",
            "railway=subway",
            "",
            "9",
            "5322"
          ],
          [
            "-73939330",
            "40750254",
            "-8192",
            "345",
            "2000",
            "0",
            "0",
            "0",
            "0",
            "railway=subway",
            "wheelchair=limited railway=halt",
            "27",
            "15174"
          ],
          [
            "-73939273",
            "40750230",
            "-8192",
            "6",
            "2000",
            "0",
            "0",
            "0",
            "0",
            "railway=subway",
            "railway=switch",
            "28",
            "15438"
          ],
          [
            "-73938700",
            "40749925",
            "-8192",
            "59",
            "2000",
            "0",
            "0",
            "0",
            "0",
            "railway=subway",
            "railway=switch",
            "32",
            "18033"
          ],
          [
            "-73935533",
            "40750245",
            "-8192",
            "349",
            "2000",
            "0",
            "0",
            "0",
            "0",
            "railway=subway",
            "railway=switch",
            "60",
            "33384"
          ],
          [
            "-73934953",
            "40750808",
            "-8192",
            "79",
            "2000",
            "0",
            "0",
            "0",
            "0",
            "railway=subway",
            "railway=switch",
            "67",
            "36859"
          ],
          [
            "-73934560",
            "40751126",
            "-8192",
            "48",
            "2000",
            "0",
            "0",
            "0",
            "0",
            "railway=subway",
            "railway=switch",
            "70",
            "38970"
          ],
          [
            "-73934099",
            "40751368",
            "-8192",
            "47",
            "2000",
            "0",
            "0",
            "0",
            "0",
            "railway=subway",
            "railway=switch",
            "74",
            "41038"
          ],
          [
            "-73932154",
            "40753565",
            "-8192",
            "295",
            "2000",
            "0",
            "0",
            "0",
            "0",
            "railway=subway",
            "wheelchair=no railway=halt",
            "98",
            "54013"
          ],
          [
            "-73928998",
            "40757460",
            "-8192",
            "508",
            "2000",
            "0",
            "0",
            "0",
            "0",
            "railway=subway",
            "wheelchair=no railway=halt",
            "138",
            "76358"
          ],
          [
            "-73924906",
            "40762513",
            "-8192",
            "659",
            "2000",
            "0",
            "0",
            "0",
            "0",
            "railway=subway",
            "wheelchair=no railway=halt",
            "191",
            "105344"
          ],
          [
            "-73920913",
            "40767422",
            "-8192",
            "641",
            "2000",
            "0",
            "0",
            "0",
            "0",
            "railway=subway",
            "wheelchair=no railway=halt",
            "242",
            "133539"
          ],
          [
            "-73917048",
            "40770823",
            "-8192",
            "500",
            "2000",
            "0",
            "0",
            "0",
            "0",
            "railway=subway",
            "wheelchair=no railway=halt",
            "282",
            "155531"
          ],
          [
            "-73914501",
            "40772975",
            "-8192",
            "322",
            "2000",
            "0",
            "0",
            "0",
            "0",
            "railway=subway",
            "railway=switch",
            "308",
            "169695"
          ],
          [
            "-73914144",
            "40773271",
            "-8192",
            "45",
            "2000",
            "0",
            "0",
            "0",
            "0",
            "railway=subway",
            "",
            "312",
            "171674"
          ],
          [
            "-73913602",
            "40773719",
            "-8192",
            "68",
            "2000",
            "0",
            "0",
            "0",
            "0",
            "railway=subway",
            "railway=switch",
            "5",
            "2990"
          ],
          [
            "-73911245",
            "40775645",
            "-8192",
            "292",
            "2000",
            "0",
            "0",
            "0",
            "0",
            "railway=subway",
            "",
            "28",
            "15834"
          ],
          [
            "-73913602",
            "40773719",
            "-8192",
            "292",
            "2000",
            "0",
            "0",
            "0",
            "0",
            "reversedirection=yes railway=subway",
            "railway=switch",
            "23",
            "12843"
          ],
          [
            "-73913984",
            "40773452",
            "-8192",
            "43",
            "2000",
            "0",
            "0",
            "0",
            "0",
            "reversedirection=yes railway=subway",
            "railway=switch",
            "26",
            "14735"
          ],
          [
            "-73914140",
            "40773324",
            "-8192",
            "19",
            "2000",
            "0",
            "0",
            "0",
            "0",
            "reversedirection=yes railway=subway",
            "railway=switch",
            "28",
            "15570"
          ],
          [
            "-73914376",
            "40773131",
            "-8192",
            "29",
            "2000",
            "0",
            "0",
            "0",
            "0",
            "reversedirection=yes railway=subway",
            "railway=switch",
            "30",
            "16846"
          ],
          [
            "-73914818",
            "40772825",
            "-8192",
            "50",
            "2000",
            "0",
            "0",
            "0",
            "0",
            "railway=subway",
            "railway=switch",
            "34",
            "19045"
          ],
          [
            "-73918646",
            "40769685",
            "-8192",
            "476",
            "2000",
            "0",
            "0",
            "0",
            "0",
            "railway=subway",
            "wheelchair=no railway=halt",
            "72",
            "39982"
          ],
          [
            "-73922127",
            "40766061",
            "-8192",
            "501",
            "2000",
            "0",
            "0",
            "0",
            "0",
            "railway=subway",
            "",
            "112",
            "62019"
          ],
          [
            "-73922163",
            "40766016",
            "-8192",
            "6",
            "2000",
            "0",
            "0",
            "0",
            "0",
            "railway=subway",
            "wheelchair=no railway=halt",
            "0",
            "263"
          ],
          [
            "-73926176",
            "40761071",
            "-8192",
            "645",
            "2000",
            "0",
            "0",
            "0",
            "0",
            "railway=subway",
            "wheelchair=no railway=halt",
            "52",
            "28634"
          ],
          [
            "-73930246",
            "40756054",
            "-8192",
            "655",
            "2000",
            "0",
            "0",
            "0",
            "0",
            "railway=subway",
            "wheelchair=no railway=halt",
            "104",
            "57444"
          ],
          [
            "-73933398",
            "40752162",
            "-8192",
            "507",
            "2000",
            "0",
            "0",
            "0",
            "0",
            "railway=subway",
            "wheelchair=no railway=halt",
            "145",
            "79745"
          ],
          [
            "-73935575",
            "40750269",
            "-8192",
            "281",
            "2000",
            "0",
            "0",
            "0",
            "0",
            "railway=subway",
            "railway=switch",
            "167",
            "92105"
          ],
          [
            "-73940981",
            "40750977",
            "-8192",
            "565",
            "2000",
            "0",
            "0",
            "0",
            "0",
            "railway=subway",
            "wheelchair=limited railway=halt",
            "212",
            "116956"
          ],
          [
            "-73943755",
            "40752406",
            "-8192",
            "285",
            "2000",
            "0",
            "0",
            "0",
            "0",
            "railway=subway",
            "railway=switch",
            "235",
            "129492"
          ],
          [
            "-73943995",
            "40752510",
            "-8192",
            "23",
            "2000",
            "0",
            "0",
            "0",
            "0",
            "railway=subway",
            "",
            "237",
            "130504"
          ],
          [
            "-73944195",
            "40752597",
            "-8192",
            "19",
            "2000",
            "0",
            "0",
            "0",
            "0",
            "railway=subway",
            "railway=switch",
            "1",
            "835"
          ],
          [
            "-73948794",
            "40754635",
            "-8192",
            "450",
            "2000",
            "0",
            "0",
            "0",
            "0",
            "railway=subway",
            "railway=switch",
            "37",
            "22144"
          ],
          [
            "-73967833",
            "40762953",
            "-8192",
            "1855",
            "2000",
            "0",
            "0",
            "0",
            "0",
            "railway=subway",
            "wheelchair=no railway=halt",
            "185",
            "103766"
          ],
          [
            "-73974659",
            "40765086",
            "-8192",
            "631",
            "2000",
            "0",
            "0",
            "0",
            "0",
            "railway=subway",
            "wheelchair=no railway=halt",
            "236",
            "131521"
          ],
          [
            "-73978414",
            "40767003",
            "-8192",
            "389",
            "2000",
            "0",
            "0",
            "0",
            "0",
            "railway=subway",
            "",
            "267",
            "148631"
          ],
          [
            "-73979767",
            "40766024",
            "-8192",
            "169",
            "2000",
            "0",
            "0",
            "0",
            "0",
            "railway=subway",
            "railway=switch",
            "13",
            "7477"
          ],
          [
            "-73981155",
            "40764201",
            "-8192",
            "234",
            "2000",
            "0",
            "0",
            "0",
            "0",
            "railway=subway",
            "wheelchair=no railway=halt",
            "32",
            "17770"
          ],
          [
            "-73982180",
            "40762686",
            "-8192",
            "189",
            "2000",
            "0",
            "0",
            "0",
            "0",
            "railway=subway",
            "railway=switch",
            "47",
            "26083"
          ],
          [
            "-73982654",
            "40762027",
            "-8192",
            "83",
            "2000",
            "0",
            "0",
            "0",
            "0",
            "railway=subway",
            "railway=switch",
            "54",
            "29734"
          ],
          [
            "-73984548",
            "40759395",
            "-8192",
            "333",
            "2000",
            "0",
            "0",
            "0",
            "0",
            "railway=subway",
            "wheelchair=no railway=halt",
            "80",
            "44381"
          ],
          [
            "-73987136",
            "40753906",
            "-8192",
            "651",
            "2000",
            "0",
            "0",
            "0",
            "0",
            "railway=subway",
            "wheelchair=yes railway=halt",
            "132",
            "73015"
          ],
          [
            "-73987706",
            "40751315",
            "-8192",
            "292",
            "2000",
            "0",
            "0",
            "0",
            "0",
            "railway=subway",
            "railway=switch",
            "156",
            "85859"
          ],
          [
            "-73987788",
            "40750859",
            "-8192",
            "51",
            "2000",
            "0",
            "0",
            "0",
            "0",
            "railway=subway",
            "railway=switch",
            "160",
            "88102"
          ],
          [
            "-73988251",
            "40748655",
            "-8192",
            "248",
            "2000",
            "0",
            "0",
            "0",
            "0",
            "railway=subway",
            "wheelchair=yes railway=halt",
            "180",
            "99010"
          ],
          [
            "-73988915",
            "40744698",
            "-8192",
            "443",
            "2000",
            "0",
            "0",
            "0",
            "0",
            "railway=subway",
            "wheelchair=no railway=halt",
            "215",
            "118496"
          ],
          [
            "-73989566",
            "40740602",
            "-8192",
            "458",
            "2000",
            "0",
            "0",
            "0",
            "0",
            "railway=subway",
            "wheelchair=no railway=halt",
            "252",
            "138641"
          ],
          [
            "-73990874",
            "40734969",
            "-8192",
            "635",
            "2000",
            "0",
            "0",
            "0",
            "0",
            "railway=subway",
            "wheelchair=yes railway=halt",
            "302",
            "166572"
          ],
          [
            "-73993280",
            "40729666",
            "-8192",
            "635",
            "2000",
            "0",
            "0",
            "0",
            "0",
            "railway=subway",
            "wheelchair=no railway=halt",
            "353",
            "194502"
          ],
          [
            "-73998319",
            "40723713",
            "-8192",
            "786",
            "2000",
            "0",
            "0",
            "0",
            "0",
            "railway=subway",
            "wheelchair=no railway=halt",
            "416",
            "229075"
          ],
          [
            "-73998867",
            "40723068",
            "-8192",
            "85",
            "2000",
            "0",
            "0",
            "0",
            "0",
            "railway=subway",
            "railway=switch",
            "423",
            "232813"
          ],
          [
            "-73999149",
            "40722735",
            "-8192",
            "44",
            "2000",
            "0",
            "0",
            "0",
            "0",
            "railway=subway",
            "railway=switch",
            "426",
            "234749"
          ],
          [
            "-74002313",
            "40719007",
            "-8192",
            "494",
            "2000",
            "0",
            "0",
            "0",
            "0",
            "railway=subway",
            "wheelchair=no railway=halt",
            "466",
            "256477"
          ],
          [
            "-74002624",
            "40718640",
            "-8192",
            "48",
            "2000",
            "0",
            "0",
            "0",
            "0",
            "railway=subway",
            "railway=switch",
            "470",
            "258589"
          ],
          [
            "-74003088",
            "40718095",
            "-8192",
            "72",
            "2000",
            "0",
            "0",
            "0",
            "0",
            "railway=subway",
            "railway=switch",
            "476",
            "261756"
          ],
          [
            "-74007649",
            "40712664",
            "-8192",
            "715",
            "2000",
            "0",
            "0",
            "0",
            "0",
            "railway=subway",
            "wheelchair=no railway=halt",
            "533",
            "293205"
          ],
          [
            "-74009918",
            "40711890",
            "-8192",
            "259",
            "2000",
            "0",
            "0",
            "0",
            "0",
            "railway=subway",
            "",
            "553",
            "304597"
          ],
          [
            "-74011725",
            "40709660",
            "-8192",
            "298",
            "2000",
            "0",
            "0",
            "0",
            "0",
            "railway=subway",
            "wheelchair=yes railway=halt",
            "23",
            "13107"
          ],
          [
            "-74013781",
            "40706680",
            "-8192",
            "374",
            "2000",
            "0",
            "0",
            "0",
            "0",
            "railway=subway",
            "wheelchair=no railway=halt",
            "53",
            "29558"
          ],
          [
            "-74013380",
            "40704907",
            "-8192",
            "222",
            "2000",
            "0",
            "0",
            "0",
            "0",
            "railway=subway",
            "railway=switch",
            "71",
            "39322"
          ],
          [
            "-74013242",
            "40704255",
            "-8192",
            "73",
            "2000",
            "0",
            "0",
            "0",
            "0",
            "railway=subway",
            "railway=switch",
            "77",
            "42533"
          ],
          [
            "-74013335",
            "40704913",
            "-8192",
            "73",
            "2000",
            "0",
            "0",
            "0",
            "0",
            "railway=subway",
            "railway=switch",
            "83",
            "45744"
          ],
          [
            "-74013148",
            "40704238",
            "-8192",
            "77",
            "2000",
            "0",
            "0",
            "0",
            "0",
            "reversedirection=yes railway=subway",
            "wheelchair=no railway=halt",
            "89",
            "49131"
          ],
          [
            "-74012826",
            "40702737",
            "-8192",
            "169",
            "2000",
            "0",
            "0",
            "0",
            "0",
            "reversedirection=yes railway=subway",
            "",
            "102",
            "56565"
          ],
          [
            "-74012825",
            "40702733",
            "-8192",
            "1",
            "2000",
            "0",
            "0",
            "0",
            "0",
            "reversedirection=yes railway=subway",
            "",
            "0",
            "43"
          ]
        ],
        "times": [
          0,
          3.76,
          8,
          13.6,
          19.76,
          20.72,
          21.68,
          22.64,
          23.6,
          24.56,
          26.4,
          27.28,
          28.16,
          29.04,
          29.92,
          30.8,
          31.68,
          32.96,
          33.6,
          34.24,
          34.88,
          36.96,
          39.04,
          40.56,
          41.92,
          51.6,
          81.52,
          85.44,
          86.24,
          87.04,
          87.84,
          88.64,
          89.44,
          90.24,
          91.04,
          91.84,
          92.64,
          94.32,
          95.2,
          96,
          96.88,
          97.68,
          98.56,
          99.36,
          100.16,
          100.96,
          101.76,
          102.56,
          125.2,
          137.76,
          148.24,
          167.6,
          173.36,
          177.28,
          191.92,
          197.84,
          216.64,
          218.4,
          220.16,
          310.56,
          311.52,
          312.48,
          313.44,
          324.16,
          337.04,
          355.28,
          360.32,
          363.2,
          382.16,
          384.16,
          386.24,
          412.88,
          446.16,
          478.96,
          483.76,
          485.84,
          487.92,
          494.88,
          496.48,
          504,
          511.36,
          526,
          532.88,
          535.28,
          537.68,
          545.2,
          548.96,
          553.84,
          577.6,
          589.44,
          596.08,
          604.96,
          611.2,
          626,
          629.92,
          634.8,
          635.6,
          636.4,
          637.2,
          638,
          638.8,
          639.6,
          640.4,
          641.2,
          642,
          642.8,
          643.6,
          644.4,
          645.2,
          646,
          646.8,
          647.6,
          653.36,
          658.24,
          660.48,
          662.8,
          669.2,
          670,
          670.8,
          671.6,
          672.4,
          687.76,
          688.96,
          689.6,
          723.44,
          738.16,
          746.32,
          798,
          871.84,
          890.96,
          903.44,
          907.84,
          909.52,
          911.2,
          919.2,
          923.12,
          924.72,
          926.64,
          929.68,
          930.8,
          946.8,
          947.28,
          952,
          953.76,
          955.52,
          961.04,
          962.08,
          963.04,
          963.92,
          964.8,
          965.76,
          966.64,
          967.52,
          968.64,
          969.76,
          970.88,
          979.92,
          984,
          986.24,
          989.04,
          990.08,
          993.84,
          994.96,
          996.56,
          997.6,
          999.12,
          1017.44,
          1058.08,
          1110.8,
          1162.08,
          1165.28,
          1167.76,
          1169.12,
          1181.68,
          1183.68,
          1187.36,
          1202.08,
          1203.36,
          1208.08,
          1210.56,
          1227.84,
          1231.44,
          1236.88,
          1260.24,
          1283.6,
          1284.48,
          1287.04,
          1288.56,
          1290.88,
          1292.16,
          1293.52,
          1294.88,
          1310,
          1314.48,
          1316.72,
          1329.92,
          1332.96,
          1338.56,
          1351.28,
          1353.76,
          1357.2,
          1358.4,
          1373.04,
          1373.52,
          1425.12,
          1477.52,
          1508.24,
          1518.08,
          1520.48,
          1521.68,
          1523.76,
          1525.6,
          1530.96,
          1533.6,
          1536.64,
          1538.56,
          1540.56,
          1549.44,
          1550.88,
          1552.32,
          1553.36,
          1554.16,
          1554.96,
          1555.76,
          1556.56,
          1557.6,
          1558.56,
          1560.08,
          1562.24,
          1564.8,
          1568.16,
          1569.6,
          1585.76,
          1587.04,
          1588.24,
          1590.4,
          1591.76,
          1592.4,
          1594,
          1608.56,
          1610.4,
          1611.92,
          1616.32,
          1628.8,
          1647.92,
          1721.76,
          1773.44,
          1781.6,
          1796.32,
          1830.16,
          1830.8,
          1831.44,
          1832.08,
          1846.8,
          1848.16,
          1848.88,
          1849.6,
          1850.32,
          1856.72,
          1858.96,
          1861.2,
          1866.08,
          1872.32,
          1873.12,
          1873.92,
          1874.72,
          1875.52,
          1876.32,
          1877.12,
          1877.92,
          1878.8,
          1879.6,
          1880.4,
          1881.2,
          1882,
          1882.8,
          1883.6,
          1884.4,
          1885.2,
          1886,
          1891.52,
          1895.44,
          1910.24,
          1916.48,
          1925.36,
          1932,
          1958.64,
          1967.68,
          1972.64,
          1976.48,
          1984.08,
          1986.56,
          1988.96,
          1996.32,
          2010.72,
          2017.84,
          2025.44,
          2027.04,
          2034.08,
          2038.16,
          2042.88,
          2046.56,
          2054.48,
          2058,
          2062.72,
          2075.76,
          2093.44,
          2109.04,
          2130.08,
          2135.68,
          2137.76,
          2139.76,
          2161.28,
          2166.64,
          2180.88,
          2184.72,
          2188.8,
          2197.68,
          2208.32,
          2209.2,
          2210.08,
          2210.96,
          2231.68,
          2294.56,
          2301.36,
          2304.88,
          2323.76,
          2335.44,
          2344.4,
          2348.24,
          2354,
          2373.36,
          2383.84,
          2411.2,
          2419.28,
          2420.08,
          2420.8,
          2421.52,
          2422.24,
          2422.96,
          2423.68,
          2424.4,
          2425.12,
          2425.84,
          2426.56,
          2429.2,
          2429.92,
          2430.64,
          2431.44,
          2431.92,
          2432.24,
          2433.04,
          2433.76,
          2434.56,
          2435.28,
          2436,
          2441.04,
          2455.76,
          2482.08,
          2483.6,
          2485.68,
          2487.76,
          2488.48,
          2489.2,
          2489.92,
          2490.64,
          2491.36,
          2492.24,
          2493.2,
          2494.16,
          2495.12,
          2496.08,
          2497.04,
          2498.88,
          2499.84,
          2500.72,
          2501.6,
          2502.48,
          2503.44,
          2509.28,
          2515.12,
          2521.28,
          2526.88,
          2531.12,
          2534.8
        ]
      },
      "geometry": {
        "type": "LineString",
        "coordinates": [
          [
            -74.012825,
            40.702732,
            6.75
          ],
          [
            -74.012936,
            40.703145,
            6.75
          ],
          [
            -74.013044,
            40.703612,
            6.75
          ],
          [
            -74.013148,
            40.704238,
            6.75
          ],
          [
            -74.013335,
            40.704913,
            6.75
          ],
          [
            -74.013363,
            40.705017,
            6.75
          ],
          [
            -74.013405,
            40.705119,
            6.75
          ],
          [
            -74.013461,
            40.705217,
            6.75
          ],
          [
            -74.013532,
            40.705309,
            6.75
          ],
          [
            -74.013615,
            40.705395,
            6.75
          ],
          [
            -74.013797,
            40.70555,
            6.75
          ],
          [
            -74.013872,
            40.705634,
            6.75
          ],
          [
            -74.013934,
            40.705723,
            6.75
          ],
          [
            -74.013982,
            40.705817,
            6.75
          ],
          [
            -74.014015,
            40.705915,
            6.75
          ],
          [
            -74.014034,
            40.706015,
            6.75
          ],
          [
            -74.014037,
            40.706116,
            6.75
          ],
          [
            -74.014018,
            40.706263,
            6.75
          ],
          [
            -74.013993,
            40.706335,
            6.75
          ],
          [
            -74.013958,
            40.706405,
            6.75
          ],
          [
            -74.013914,
            40.706471,
            6.75
          ],
          [
            -74.013743,
            40.706661,
            6.75
          ],
          [
            -74.013577,
            40.706861,
            6.75
          ],
          [
            -74.013465,
            40.707011,
            6.75
          ],
          [
            -74.013371,
            40.707151,
            6.75
          ],
          [
            -74.012719,
            40.70812,
            6.75
          ],
          [
            -74.010695,
            40.711119,
            6.75
          ],
          [
            -74.010396,
            40.711492,
            6.75
          ],
          [
            -74.010327,
            40.711568,
            6.75
          ],
          [
            -74.010242,
            40.711634,
            6.75
          ],
          [
            -74.010144,
            40.711688,
            6.75
          ],
          [
            -74.010036,
            40.71173,
            6.75
          ],
          [
            -74.00992,
            40.711757,
            6.75
          ],
          [
            -74.009799,
            40.71177,
            6.75
          ],
          [
            -74.009678,
            40.711767,
            6.75
          ],
          [
            -74.009559,
            40.71175,
            6.75
          ],
          [
            -74.009445,
            40.711717,
            6.75
          ],
          [
            -74.009233,
            40.711623,
            6.75
          ],
          [
            -74.009118,
            40.711587,
            6.75
          ],
          [
            -74.008998,
            40.711564,
            6.75
          ],
          [
            -74.008874,
            40.711555,
            6.75
          ],
          [
            -74.00875,
            40.71156,
            6.75
          ],
          [
            -74.008628,
            40.71158,
            6.75
          ],
          [
            -74.008512,
            40.711613,
            6.75
          ],
          [
            -74.008404,
            40.711659,
            6.75
          ],
          [
            -74.008306,
            40.711717,
            6.75
          ],
          [
            -74.008221,
            40.711786,
            6.75
          ],
          [
            -74.008151,
            40.711864,
            6.75
          ],
          [
            -74.006371,
            40.714018,
            7
          ],
          [
            -74.00538,
            40.715217,
            7
          ],
          [
            -74.004531,
            40.716205,
            7
          ],
          [
            -74.002974,
            40.718039,
            7
          ],
          [
            -74.00251,
            40.718585,
            7
          ],
          [
            -74.002197,
            40.718953,
            7
          ],
          [
            -74.001018,
            40.720336,
            7
          ],
          [
            -74.000545,
            40.720896,
            7.25
          ],
          [
            -73.999037,
            40.722677,
            7.25
          ],
          [
            -73.998914,
            40.722854,
            7.25
          ],
          [
            -73.998791,
            40.723031,
            7.25
          ],
          [
            -73.991546,
            40.731591,
            7.5
          ],
          [
            -73.991472,
            40.731686,
            7.5
          ],
          [
            -73.991419,
            40.731788,
            7.5
          ],
          [
            -73.991388,
            40.731896,
            7.5
          ],
          [
            -73.991124,
            40.733082,
            7.5
          ],
          [
            -73.990818,
            40.734515,
            7.5
          ],
          [
            -73.990355,
            40.736536,
            7.75
          ],
          [
            -73.990251,
            40.737099,
            7.75
          ],
          [
            -73.990192,
            40.737417,
            7.75
          ],
          [
            -73.98965,
            40.73951,
            7.75
          ],
          [
            -73.989602,
            40.739732,
            7.75
          ],
          [
            -73.989562,
            40.739966,
            7.75
          ],
          [
            -73.989153,
            40.742953,
            7.75
          ],
          [
            -73.988451,
            40.74666,
            8
          ],
          [
            -73.987794,
            40.750318,
            8
          ],
          [
            -73.987699,
            40.75085,
            8
          ],
          [
            -73.987635,
            40.751075,
            8
          ],
          [
            -73.987572,
            40.751301,
            8
          ],
          [
            -73.987432,
            40.752081,
            8
          ],
          [
            -73.987394,
            40.752255,
            8
          ],
          [
            -73.987179,
            40.753088,
            8
          ],
          [
            -73.986848,
            40.753876,
            8.25
          ],
          [
            -73.98634,
            40.755482,
            8.25
          ],
          [
            -73.986181,
            40.756246,
            8.25
          ],
          [
            -73.986091,
            40.756507,
            8.25
          ],
          [
            -73.985985,
            40.756767,
            8.25
          ],
          [
            -73.985594,
            40.757564,
            8.25
          ],
          [
            -73.985379,
            40.757958,
            8.25
          ],
          [
            -73.985069,
            40.758458,
            8.25
          ],
          [
            -73.983378,
            40.760805,
            8.25
          ],
          [
            -73.982535,
            40.761977,
            8.5
          ],
          [
            -73.982061,
            40.762636,
            8.5
          ],
          [
            -73.98143,
            40.763513,
            8.5
          ],
          [
            -73.980925,
            40.764105,
            8.5
          ],
          [
            -73.97986,
            40.765562,
            8.5
          ],
          [
            -73.979625,
            40.76597,
            8.5
          ],
          [
            -73.979279,
            40.76645,
            8.5
          ],
          [
            -73.979218,
            40.766526,
            8.5
          ],
          [
            -73.979146,
            40.766596,
            8.5
          ],
          [
            -73.979065,
            40.76666,
            8.5
          ],
          [
            -73.978975,
            40.766718,
            8.5
          ],
          [
            -73.978878,
            40.766767,
            8.5
          ],
          [
            -73.978774,
            40.766808,
            8.5
          ],
          [
            -73.978664,
            40.766841,
            8.5
          ],
          [
            -73.978551,
            40.766864,
            8.5
          ],
          [
            -73.978435,
            40.766878,
            8.5
          ],
          [
            -73.978318,
            40.766882,
            8.5
          ],
          [
            -73.9782,
            40.766877,
            8.5
          ],
          [
            -73.978085,
            40.766862,
            8.5
          ],
          [
            -73.977972,
            40.766838,
            8.5
          ],
          [
            -73.977863,
            40.766804,
            8.5
          ],
          [
            -73.977759,
            40.766762,
            8.5
          ],
          [
            -73.977663,
            40.766712,
            8.5
          ],
          [
            -73.977022,
            40.766283,
            8.5
          ],
          [
            -73.976509,
            40.7659,
            8.5
          ],
          [
            -73.976262,
            40.765735,
            8.75
          ],
          [
            -73.975987,
            40.765582,
            8.75
          ],
          [
            -73.975194,
            40.765186,
            8.75
          ],
          [
            -73.975093,
            40.765142,
            8.75
          ],
          [
            -73.974985,
            40.765107,
            8.75
          ],
          [
            -73.974873,
            40.76508,
            8.75
          ],
          [
            -73.974758,
            40.765063,
            8.75
          ],
          [
            -73.972506,
            40.764809,
            8.75
          ],
          [
            -73.972335,
            40.764778,
            8.75
          ],
          [
            -73.97225,
            40.76475,
            8.75
          ],
          [
            -73.967888,
            40.762882,
            8.75
          ],
          [
            -73.965972,
            40.762088,
            9
          ],
          [
            -73.964903,
            40.761662,
            9
          ],
          [
            -73.958213,
            40.75885,
            9
          ],
          [
            -73.948816,
            40.754605,
            9.25
          ],
          [
            -73.946383,
            40.753506,
            9.5
          ],
          [
            -73.944782,
            40.752807,
            9.5
          ],
          [
            -73.944219,
            40.752563
          ],
          [
            -73.944,
            40.752467
          ],
          [
            -73.943782,
            40.752373
          ],
          [
            -73.942757,
            40.751928
          ],
          [
            -73.942252,
            40.75171
          ],
          [
            -73.942053,
            40.751612
          ],
          [
            -73.941839,
            40.751471
          ],
          [
            -73.941515,
            40.751232
          ],
          [
            -73.941384,
            40.75115
          ],
          [
            -73.93933,
            40.750254
          ],
          [
            -73.939273,
            40.75023
          ],
          [
            -73.9387,
            40.749925
          ],
          [
            -73.938488,
            40.749814
          ],
          [
            -73.938278,
            40.749693
          ],
          [
            -73.937657,
            40.749291
          ],
          [
            -73.937529,
            40.749227
          ],
          [
            -73.937402,
            40.749182
          ],
          [
            -73.937272,
            40.749158
          ],
          [
            -73.937139,
            40.749152
          ],
          [
            -73.937,
            40.749158
          ],
          [
            -73.936879,
            40.749181
          ],
          [
            -73.936761,
            40.749219
          ],
          [
            -73.936623,
            40.749281
          ],
          [
            -73.936497,
            40.749365
          ],
          [
            -73.936381,
            40.74946
          ],
          [
            -73.935533,
            40.750245
          ],
          [
            -73.935146,
            40.7506
          ],
          [
            -73.934953,
            40.750808
          ],
          [
            -73.934674,
            40.751047
          ],
          [
            -73.93456,
            40.751126
          ],
          [
            -73.934099,
            40.751368
          ],
          [
            -73.933974,
            40.751449
          ],
          [
            -73.933808,
            40.751579
          ],
          [
            -73.933711,
            40.751665
          ],
          [
            -73.933576,
            40.751807
          ],
          [
            -73.932154,
            40.753565
          ],
          [
            -73.928998,
            40.75746
          ],
          [
            -73.924906,
            40.762513
          ],
          [
            -73.920913,
            40.767422
          ],
          [
            -73.920657,
            40.767724
          ],
          [
            -73.920448,
            40.767951
          ],
          [
            -73.920323,
            40.768071
          ],
          [
            -73.919096,
            40.769133
          ],
          [
            -73.918895,
            40.769299
          ],
          [
            -73.918503,
            40.769589
          ],
          [
            -73.917048,
            40.770823
          ],
          [
            -73.916924,
            40.770929
          ],
          [
            -73.91648,
            40.771341
          ],
          [
            -73.916243,
            40.771549
          ],
          [
            -73.914501,
            40.772975
          ],
          [
            -73.914144,
            40.773271
          ],
          [
            -73.913602,
            40.773719
          ],
          [
            -73.911245,
            40.775645
          ],
          [
            -73.913602,
            40.773719
          ],
          [
            -73.913697,
            40.773646
          ],
          [
            -73.913984,
            40.773452
          ],
          [
            -73.91414,
            40.773324
          ],
          [
            -73.914376,
            40.773131
          ],
          [
            -73.914514,
            40.773029
          ],
          [
            -73.914666,
            40.772932
          ],
          [
            -73.914818,
            40.772825
          ],
          [
            -73.916342,
            40.771583
          ],
          [
            -73.916824,
            40.771237
          ],
          [
            -73.917054,
            40.771056
          ],
          [
            -73.918355,
            40.769945
          ],
          [
            -73.918646,
            40.769685
          ],
          [
            -73.919159,
            40.769194
          ],
          [
            -73.920393,
            40.768116
          ],
          [
            -73.920613,
            40.767897
          ],
          [
            -73.9209,
            40.767578
          ],
          [
            -73.920986,
            40.767463
          ],
          [
            -73.922127,
            40.766061
          ],
          [
            -73.922163,
            40.766016
          ],
          [
            -73.926176,
            40.761071
          ],
          [
            -73.930246,
            40.756054
          ],
          [
            -73.932627,
            40.753104
          ],
          [
            -73.933398,
            40.752162
          ],
          [
            -73.933585,
            40.751931
          ],
          [
            -73.933687,
            40.751817
          ],
          [
            -73.933881,
            40.751631
          ],
          [
            -73.93407,
            40.751488
          ],
          [
            -73.934683,
            40.751101
          ],
          [
            -73.93496,
            40.750889
          ],
          [
            -73.935242,
            40.750626
          ],
          [
            -73.935399,
            40.750449
          ],
          [
            -73.935575,
            40.750269
          ],
          [
            -73.936414,
            40.749496
          ],
          [
            -73.936563,
            40.749379
          ],
          [
            -73.93674,
            40.749282
          ],
          [
            -73.936879,
            40.749236
          ],
          [
            -73.936994,
            40.749208
          ],
          [
            -73.937111,
            40.749198
          ],
          [
            -73.937235,
            40.749203
          ],
          [
            -73.937357,
            40.749221
          ],
          [
            -73.937499,
            40.749265
          ],
          [
            -73.937623,
            40.749326
          ],
          [
            -73.937794,
            40.749434
          ],
          [
            -73.938029,
            40.749595
          ],
          [
            -73.938321,
            40.749775
          ],
          [
            -73.93873,
            40.74999
          ],
          [
            -73.938908,
            40.750077
          ],
          [
            -73.940981,
            40.750977
          ],
          [
            -73.941123,
            40.751067
          ],
          [
            -73.941252,
            40.751161
          ],
          [
            -73.941472,
            40.751338
          ],
          [
            -73.941617,
            40.751446
          ],
          [
            -73.941693,
            40.751494
          ],
          [
            -73.941885,
            40.751594
          ],
          [
            -73.943755,
            40.752406
          ],
          [
            -73.943995,
            40.75251,
            9.25
          ],
          [
            -73.944195,
            40.752597,
            9.25
          ],
          [
            -73.944759,
            40.752837,
            9.25
          ],
          [
            -73.94636,
            40.753536,
            11
          ],
          [
            -73.948794,
            40.754635
          ],
          [
            -73.95819,
            40.758879
          ],
          [
            -73.964881,
            40.761692
          ],
          [
            -73.965919,
            40.762159
          ],
          [
            -73.967833,
            40.762953
          ],
          [
            -73.97223,
            40.764781
          ],
          [
            -73.972317,
            40.764809
          ],
          [
            -73.972407,
            40.76483
          ],
          [
            -73.9725,
            40.764843
          ],
          [
            -73.974659,
            40.765086
          ],
          [
            -73.974851,
            40.765117
          ],
          [
            -73.974957,
            40.765142
          ],
          [
            -73.97506,
            40.765176
          ],
          [
            -73.975156,
            40.765218
          ],
          [
            -73.975953,
            40.765615
          ],
          [
            -73.976223,
            40.765765
          ],
          [
            -73.976468,
            40.765929
          ],
          [
            -73.976981,
            40.766311
          ],
          [
            -73.97767,
            40.766775
          ],
          [
            -73.977759,
            40.766833
          ],
          [
            -73.977856,
            40.766883
          ],
          [
            -73.977959,
            40.766926
          ],
          [
            -73.978068,
            40.766959
          ],
          [
            -73.978181,
            40.766983
          ],
          [
            -73.978297,
            40.766998
          ],
          [
            -73.978414,
            40.767003
          ],
          [
            -73.978531,
            40.766999
          ],
          [
            -73.978647,
            40.766985
          ],
          [
            -73.97876,
            40.766962
          ],
          [
            -73.97887,
            40.766929
          ],
          [
            -73.978974,
            40.766888
          ],
          [
            -73.979071,
            40.766839
          ],
          [
            -73.979161,
            40.766782
          ],
          [
            -73.979242,
            40.766717
          ],
          [
            -73.979314,
            40.766647
          ],
          [
            -73.979375,
            40.766571
          ],
          [
            -73.979767,
            40.766024
          ],
          [
            -73.980092,
            40.765656
          ],
          [
            -73.981155,
            40.764201
          ],
          [
            -73.981549,
            40.763562
          ],
          [
            -73.98218,
            40.762686
          ],
          [
            -73.982654,
            40.762027
          ],
          [
            -73.984548,
            40.759395
          ],
          [
            -73.98519,
            40.758505
          ],
          [
            -73.985503,
            40.757999
          ],
          [
            -73.98572,
            40.757602
          ],
          [
            -73.986113,
            40.7568
          ],
          [
            -73.986222,
            40.756534
          ],
          [
            -73.986312,
            40.756272
          ],
          [
            -73.986638,
            40.755482
          ],
          [
            -73.987136,
            40.753906
          ],
          [
            -73.987311,
            40.753114
          ],
          [
            -73.987527,
            40.752273
          ],
          [
            -73.987566,
            40.752096
          ],
          [
            -73.987706,
            40.751315
          ],
          [
            -73.987788,
            40.750859
          ],
          [
            -73.987948,
            40.750338
          ],
          [
            -73.988036,
            40.749933
          ],
          [
            -73.988195,
            40.749048
          ],
          [
            -73.988251,
            40.748655
          ],
          [
            -73.98828,
            40.748125
          ],
          [
            -73.988541,
            40.74667
          ],
          [
            -73.988915,
            40.744698
          ],
          [
            -73.989243,
            40.742961
          ],
          [
            -73.989566,
            40.740602
          ],
          [
            -73.989652,
            40.739974
          ],
          [
            -73.989691,
            40.739742
          ],
          [
            -73.989739,
            40.739522
          ],
          [
            -73.990355,
            40.737143
          ],
          [
            -73.990506,
            40.736549
          ],
          [
            -73.990874,
            40.734969
          ],
          [
            -73.99092,
            40.734535
          ],
          [
            -73.991004,
            40.734081
          ],
          [
            -73.991213,
            40.733093
          ],
          [
            -73.991477,
            40.731909
          ],
          [
            -73.991506,
            40.731808
          ],
          [
            -73.991554,
            40.731716
          ],
          [
            -73.991623,
            40.731627
          ],
          [
            -73.99328,
            40.729666
          ],
          [
            -73.998319,
            40.723713
          ],
          [
            -73.998867,
            40.723068
          ],
          [
            -73.999149,
            40.722735
          ],
          [
            -74.000659,
            40.720952
          ],
          [
            -74.00159,
            40.719848
          ],
          [
            -74.002313,
            40.719007
          ],
          [
            -74.002624,
            40.71864
          ],
          [
            -74.003088,
            40.718095
          ],
          [
            -74.004645,
            40.716261
          ],
          [
            -74.005494,
            40.715273
          ],
          [
            -74.007649,
            40.712664
          ],
          [
            -74.008283,
            40.711898
          ],
          [
            -74.008348,
            40.711827
          ],
          [
            -74.008419,
            40.71177
          ],
          [
            -74.0085,
            40.711721
          ],
          [
            -74.00859,
            40.711683
          ],
          [
            -74.008687,
            40.711655
          ],
          [
            -74.008789,
            40.711639
          ],
          [
            -74.008892,
            40.711634
          ],
          [
            -74.008995,
            40.711642
          ],
          [
            -74.009096,
            40.711661
          ],
          [
            -74.009193,
            40.711692
          ],
          [
            -74.009522,
            40.711847
          ],
          [
            -74.009627,
            40.711877
          ],
          [
            -74.009737,
            40.711894
          ],
          [
            -74.00985,
            40.711897
          ],
          [
            -74.009918,
            40.71189
          ],
          [
            -74.009961,
            40.711886
          ],
          [
            -74.010069,
            40.711862
          ],
          [
            -74.01017,
            40.711825
          ],
          [
            -74.010262,
            40.711775
          ],
          [
            -74.010342,
            40.711715
          ],
          [
            -74.010408,
            40.711646
          ],
          [
            -74.010736,
            40.71114
          ],
          [
            -74.011725,
            40.70966
          ],
          [
            -74.013505,
            40.707027
          ],
          [
            -74.013616,
            40.706877
          ],
          [
            -74.013781,
            40.70668
          ],
          [
            -74.013953,
            40.706488
          ],
          [
            -74.013999,
            40.706418
          ],
          [
            -74.014036,
            40.706346
          ],
          [
            -74.014062,
            40.70627
          ],
          [
            -74.014077,
            40.706193
          ],
          [
            -74.014082,
            40.706115
          ],
          [
            -74.014079,
            40.706012
          ],
          [
            -74.01406,
            40.705908
          ],
          [
            -74.014025,
            40.705807
          ],
          [
            -74.013975,
            40.705709
          ],
          [
            -74.013911,
            40.705616
          ],
          [
            -74.013833,
            40.705529
          ],
          [
            -74.01365,
            40.705374
          ],
          [
            -74.013569,
            40.70529
          ],
          [
            -74.013502,
            40.705201
          ],
          [
            -74.013447,
            40.705107
          ],
          [
            -74.013406,
            40.705009
          ],
          [
            -74.01338,
            40.704907
          ],
          [
            -74.013242,
            40.704255
          ],
          [
            -74.013335,
            40.704913
          ],
          [
            -74.013148,
            40.704238
          ],
          [
            -74.013044,
            40.703612
          ],
          [
            -74.012936,
            40.703145
          ],
          [
            -74.012826,
            40.702737
          ],
          [
            -74.012825,
            40.702733
          ]
        ]
      }
    }
  ]
}