{
  "type": "FeatureCollection",
  "features": [
    {
      "type": "Feature",
      "properties": {
        "creator": "BRouter-1.7.9",
        "name": "[MTA] 6 Train (Express)",
        "track-length": "48537",
        "filtered ascend": "2",
        "plain-ascend": "-39",
        "total-time": "3883",
        "total-energy": "2120860",
        "cost": "97074",
        "messages": [
          [
            "Longitude",
            "Latitude",
            "Elevation",
            "Distance",
            "CostPerKm",
            "ElevCost",
            "TurnCost",
            "NodeCost",
            "InitialCost",
            "WayTags",
            "NodeTags",
            "Time",
            "Energy"
          ],
          [
            "-74003764",
            "40713443",
            "-8192",
            "171",
            "2000",
            "0",
            "0",
            "0",
            "0",
            "railway=subway",
            "wheelchair=yes railway=halt",
            "13",
            "7521"
          ],
          [
            "-74002826",
            "40715858",
            "-8192",
            "282",
            "2000",
            "0",
            "0",
            "0",
            "0",
            "railway=subway",
            "railway=switch",
            "36",
            "19925"
          ],
          [
            "-74002418",
            "40716338",
            "-8192",
            "63",
            "2000",
            "0",
            "0",
            "0",
            "0",
            "railway=subway",
            "railway=switch",
            "41",
            "22696"
          ],
          [
            "-73997264",
            "40722161",
            "-8192",
            "780",
            "2000",
            "0",
            "0",
            "0",
            "0",
            "railway=subway",
            "",
            "103",
            "57004"
          ],
          [
            "-73989968",
            "40735006",
            "-8192",
            "1597",
            "2000",
            "0",
            "0",
            "0",
            "0",
            "railway=subway",
            "wheelchair=no railway=halt",
            "127",
            "70244"
          ],
          [
            "-73975962",
            "40751914",
            "53",
            "2271",
            "2000",
            "0",
            "0",
            "0",
            "0",
            "railway=subway",
            "wheelchair=yes railway=halt",
            "309",
            "170134"
          ],
          [
            "-73967390",
            "40763273",
            "48",
            "1459",
            "2000",
            "0",
            "0",
            "0",
            "0",
            "railway=subway",
            "wheelchair=no railway=halt",
            "426",
            "234309"
          ],
          [
            "-73955115",
            "40780111",
            "41",
            "2138",
            "2000",
            "0",
            "0",
            "0",
            "0",
            "railway=subway",
            "wheelchair=no railway=halt",
            "597",
            "328349"
          ],
          [
            "-73938822",
            "40802394",
            "32",
            "2832",
            "2000",
            "0",
            "0",
            "0",
            "0",
            "railway=subway",
            "railway=switch",
            "823",
            "452916"
          ],
          [
            "-73936918",
            "40804996",
            "31",
            "330",
            "2000",
            "0",
            "0",
            "0",
            "0",
            "railway=subway",
            "wheelchair=yes railway=halt",
            "850",
            "467431"
          ],
          [
            "-73936434",
            "40805659",
            "30",
            "84",
            "2000",
            "0",
            "0",
            "0",
            "0",
            "railway=subway",
            "railway=switch",
            "856",
            "471126"
          ],
          [
            "-73935067",
            "40807527",
            "30",
            "237",
            "2000",
            "0",
            "0",
            "0",
            "0",
            "railway=subway",
            "railway=switch",
            "875",
            "481550"
          ],
          [
            "-73928533",
            "40812011",
            "27",
            "813",
            "2000",
            "0",
            "0",
            "0",
            "0",
            "railway=subway",
            "railway=switch",
            "940",
            "517310"
          ],
          [
            "-73928109",
            "40811710",
            "27",
            "49",
            "2000",
            "0",
            "0",
            "0",
            "0",
            "railway=subway",
            "railway=switch",
            "944",
            "519465"
          ],
          [
            "-73926961",
            "40810839",
            "26",
            "137",
            "2000",
            "0",
            "0",
            "0",
            "0",
            "railway=subway",
            "wheelchair=no railway=halt",
            "955",
            "525491"
          ],
          [
            "-73925269",
            "40810116",
            "26",
            "164",
            "2000",
            "0",
            "0",
            "0",
            "0",
            "railway=subway",
            "wheelchair=no railway=halt",
            "968",
            "532705"
          ],
          [
            "-73891691",
            "40820519",
            "13",
            "3808",
            "2000",
            "0",
            "0",
            "0",
            "0",
            "railway=subway",
            "wheelchair=yes railway=halt",
            "1273",
            "700201"
          ],
          [
            "-73890155",
            "40820993",
            "13",
            "140",
            "2000",
            "0",
            "0",
            "0",
            "0",
            "railway=subway",
            "wheelchair=yes railway=halt",
            "1284",
            "706359"
          ],
          [
            "-73861889",
            "40833113",
            "-8192",
            "3014",
            "2000",
            "0",
            "0",
            "0",
            "0",
            "railway=subway",
            "wheelchair=no railway=halt",
            "1525",
            "824228"
          ],
          [
            "-73860018",
            "40833316",
            "-8192",
            "159",
            "2000",
            "0",
            "0",
            "0",
            "0",
            "railway=subway",
            "wheelchair=no railway=halt",
            "1538",
            "829809"
          ],
          [
            "-73857997",
            "40833535",
            "-8192",
            "172",
            "2000",
            "0",
            "0",
            "0",
            "0",
            "railway=subway",
            "railway=switch",
            "1552",
            "837077"
          ],
          [
            "-73857361",
            "40833602",
            "-8192",
            "54",
            "2000",
            "0",
            "0",
            "0",
            "0",
            "railway=subway",
            "railway=switch",
            "1556",
            "839425"
          ],
          [
            "-73857282",
            "40833610",
            "-8192",
            "7",
            "2000",
            "0",
            "0",
            "0",
            "0",
            "railway=subway",
            "railway=switch",
            "1557",
            "839730"
          ],
          [
            "-73856666",
            "40833677",
            "-8192",
            "52",
            "2000",
            "0",
            "0",
            "0",
            "0",
            "railway=subway",
            "railway=switch",
            "1561",
            "842003"
          ],
          [
            "-73842259",
            "40840472",
            "-8192",
            "1513",
            "2000",
            "0",
            "0",
            "0",
            "0",
            "railway=subway",
            "railway=switch",
            "1682",
            "908532"
          ],
          [
            "-73837592",
            "40842976",
            "-8192",
            "483",
            "2000",
            "0",
            "0",
            "0",
            "0",
            "reversedirection=yes railway=subway",
            "railway=switch",
            "1721",
            "929777"
          ],
          [
            "-73830302",
            "40849812",
            "-8192",
            "991",
            "2000",
            "0",
            "0",
            "0",
            "0",
            "railway=subway",
            "",
            "1800",
            "973366"
          ],
          [
            "-73830252",
            "40849973",
            "-8192",
            "18",
            "2000",
            "0",
            "0",
            "0",
            "0",
            "railway=subway",
            "railway=switch",
            "1",
            "791"
          ],
          [
            "-73830121",
            "40850464",
            "-8192",
            "56",
            "2000",
            "0",
            "0",
            "0",
            "0",
            "railway=subway",
            "railway=switch",
            "5",
            "3254"
          ],
          [
            "-73830102",
            "40850535",
            "-8192",
            "8",
            "2000",
            "0",
            "0",
            "0",
            "0",
            "railway=subway",
            "railway=switch",
            "6",
            "3606"
          ],
          [
            "-73829426",
            "40851831",
            "-8192",
            "157",
            "2000",
            "0",
            "0",
            "0",
            "0",
            "railway=subway",
            "railway=unknown",
            "19",
            "10512"
          ],
          [
            "-73828985",
            "40852112",
            "-8192",
            "49",
            "2000",
            "0",
            "0",
            "0",
            "0",
            "railway=subway",
            "railway=switch",
            "23",
            "12667"
          ],
          [
            "-73827197",
            "40852925",
            "-8192",
            "176",
            "2000",
            "0",
            "0",
            "0",
            "0",
            "railway=subway",
            "",
            "37",
            "20409"
          ],
          [
            "-73828985",
            "40852112",
            "-8192",
            "176",
            "2000",
            "0",
            "0",
            "0",
            "0",
            "reversedirection=yes railway=subway",
            "railway=switch",
            "14",
            "7741"
          ],
          [
            "-73829426",
            "40851831",
            "-8192",
            "49",
            "2000",
            "0",
            "0",
            "0",
            "0",
            "reversedirection=yes railway=subway",
            "railway=unknown",
            "18",
            "9896"
          ],
          [
            "-73830102",
            "40850535",
            "-8192",
            "157",
            "2000",
            "0",
            "0",
            "0",
            "0",
            "reversedirection=yes railway=subway",
            "railway=switch",
            "30",
            "16802"
          ],
          [
            "-73830121",
            "40850464",
            "-8192",
            "8",
            "2000",
            "0",
            "0",
            "0",
            "0",
            "reversedirection=yes railway=subway",
            "railway=switch",
            "31",
            "17154"
          ],
          [
            "-73830252",
            "40849973",
            "-8192",
            "56",
            "2000",
            "0",
            "0",
            "0",
            "0",
            "reversedirection=yes railway=subway",
            "railway=switch",
            "35",
            "19617"
          ],
          [
            "-73830562",
            "40849142",
            "-8192",
            "96",
            "2000",
            "0",
            "0",
            "0",
            "0",
            "reversedirection=yes railway=subway",
            "",
            "43",
            "23840"
          ],
          [
            "-73837592",
            "40842976",
            "-8192",
            "914",
            "2000",
            "0",
            "0",
            "0",
            "0",
            "reversedirection=yes railway=subway",
            "railway=switch",
            "73",
            "40202"
          ],
          [
            "-73842259",
            "40840472",
            "-8192",
            "483",
            "2000",
            "0",
            "0",
            "0",
            "0",
            "railway=subway",
            "railway=switch",
            "111",
            "61447"
          ],
          [
            "-73856666",
            "40833677",
            "-8192",
            "1513",
            "2000",
            "0",
            "0",
            "0",
            "0",
            "reversedirection=yes railway=subway",
            "railway=switch",
            "232",
            "127997"
          ],
          [
            "-73857282",
            "40833610",
            "-8192",
            "52",
            "2000",
            "0",
            "0",
            "0",
            "0",
            "reversedirection=yes railway=subway",
            "railway=switch",
            "236",
            "130284"
          ],
          [
            "-73857311",
            "40833607",
            "-8192",
            "2",
            "2000",
            "0",
            "0",
            "0",
            "0",
            "reversedirection=yes railway=subway",
            "",
            "237",
            "130372"
          ],
          [
            "-73857361",
            "40833602",
            "-8192",
            "4",
            "2000",
            "0",
            "0",
            "0",
            "0",
            "reversedirection=yes railway=subway",
            "railway=switch",
            "0",
            "175"
          ],
          [
            "-73857997",
            "40833535",
            "-8192",
            "54",
            "2000",
            "0",
            "0",
            "0",
            "0",
            "reversedirection=yes railway=subway",
            "railway=switch",
            "4",
            "2551"
          ],
          [
            "-73860018",
            "40833316",
            "-8192",
            "172",
            "2000",
            "0",
            "0",
            "0",
            "0",
            "reversedirection=yes railway=subway",
            "wheelchair=no railway=halt",
            "18",
            "10116"
          ],
          [
            "-73861889",
            "40833113",
            "-8192",
            "159",
            "2000",
            "0",
            "0",
            "0",
            "0",
            "reversedirection=yes railway=subway",
            "wheelchair=no railway=halt",
            "31",
            "17110"
          ],
          [
            "-73890155",
            "40820993",
            "-8192",
            "3014",
            "2000",
            "0",
            "0",
            "0",
            "0",
            "reversedirection=yes railway=subway",
            "wheelchair=yes railway=halt",
            "272",
            "152078"
          ],
          [
            "-73891691",
            "40820519",
            "-8192",
            "140",
            "2000",
            "0",
            "0",
            "0",
            "0",
            "reversedirection=yes railway=subway",
            "wheelchair=yes railway=halt",
            "283",
            "158260"
          ],
          [
            "-73925269",
            "40810116",
            "-8192",
            "3808",
            "2000",
            "0",
            "0",
            "0",
            "0",
            "reversedirection=yes railway=subway",
            "wheelchair=no railway=halt",
            "588",
            "325763"
          ],
          [
            "-73926961",
            "40810839",
            "-8192",
            "164",
            "2000",
            "0",
            "0",
            "0",
            "0",
            "reversedirection=yes railway=subway",
            "wheelchair=no railway=halt",
            "601",
            "332977"
          ],
          [
            "-73928109",
            "40811710",
            "-8192",
            "137",
            "2000",
            "0",
            "0",
            "0",
            "0",
            "reversedirection=yes railway=subway",
            "railway=switch",
            "612",
            "339003"
          ],
          [
            "-73928506",
            "40812038",
            "-8192",
            "49",
            "2000",
            "0",
            "0",
            "0",
            "0",
            "railway=subway",
            "railway=switch",
            "616",
            "341158"
          ],
          [
            "-73937845",
            "40803729",
            "-8192",
            "1302",
            "2000",
            "0",
            "0",
            "0",
            "0",
            "railway=subway",
            "wheelchair=yes railway=halt",
            "720",
            "398427"
          ],
          [
            "-73938335",
            "40803060",
            "-8192",
            "85",
            "2000",
            "0",
            "0",
            "0",
            "0",
            "railway=subway",
            "railway=switch",
            "727",
            "402166"
          ],
          [
            "-73938826",
            "40802459",
            "-8192",
            "79",
            "2000",
            "0",
            "0",
            "0",
            "0",
            "railway=subway",
            "railway=switch",
            "733",
            "405640"
          ],
          [
            "-73956055",
            "40778894",
            "-8192",
            "2995",
            "2000",
            "0",
            "0",
            "0",
            "0",
            "railway=subway",
            "wheelchair=no railway=halt",
            "972",
            "537376"
          ],
          [
            "-73968327",
            "40762058",
            "-8192",
            "2137",
            "2000",
            "0",
            "0",
            "0",
            "0",
            "railway=subway",
            "wheelchair=no railway=halt",
            "1143",
            "631373"
          ],
          [
            "-73977710",
            "40751625",
            "-8192",
            "1451",
            "2000",
            "0",
            "0",
            "0",
            "0",
            "railway=subway",
            "wheelchair=yes railway=halt",
            "1260",
            "695195"
          ],
          [
            "-73989933",
            "40734341",
            "-8192",
            "2199",
            "2000",
            "0",
            "0",
            "0",
            "0",
            "railway=subway",
            "wheelchair=no railway=halt",
            "1435",
            "791919"
          ],
          [
            "-73997313",
            "40722166",
            "-8192",
            "1522",
            "2000",
            "0",
            "0",
            "0",
            "0",
            "railway=subway",
            "",
            "1557",
            "858865"
          ],
          [
            "-74002455",
            "40716357",
            "-8192",
            "779",
            "2000",
            "0",
            "0",
            "0",
            "0",
            "railway=subway",
            "railway=switch",
            "62",
            "34264"
          ],
          [
            "-74002678",
            "40716126",
            "-8192",
            "32",
            "2000",
            "0",
            "0",
            "0",
            "0",
            "railway=subway",
            "railway=unknown",
            "64",
            "35672"
          ],
          [
            "-74002864",
            "40715877",
            "-8192",
            "32",
            "2000",
            "0",
            "0",
            "0",
            "0",
            "railway=subway",
            "railway=switch",
            "67",
            "37079"
          ],
          [
            "-74005001",
            "40712372",
            "-8192",
            "442",
            "2000",
            "0",
            "0",
            "0",
            "0",
            "railway=subway",
            "wheelchair=yes railway=halt",
            "102",
            "56521"
          ],
          [
            "-74005110",
            "40712318",
            "-8192",
            "11",
            "2000",
            "0",
            "0",
            "0",
            "0",
            "railway=subway",
            "",
            "103",
            "57004"
          ]
        ],
        "times": [
          0,
          0.96,
          3.76,
          6.8,
          8.48,
          10.48,
          13.68,
          15.28,
          16.32,
          17.6,
          25.44,
          27.36,
          32.32,
          33.44,
          34.56,
          35.68,
          36.24,
          41.28,
          67.76,
          80.16,
          96.8,
          103.68,
          104.48,
          106.24,
          108.08,
          114.88,
          116.08,
          117.2,
          141.2,
          154.88,
          181.12,
          182.56,
          186.32,
          187.6,
          188.88,
          191.84,
          193.2,
          194.64,
          210,
          215.84,
          218.72,
          219.76,
          221.36,
          222.72,
          229.76,
          231.44,
          233.36,
          234.08,
          235.2,
          246.88,
          315.68,
          335.12,
          350.08,
          357.12,
          382.72,
          385.6,
          390.16,
          391.44,
          392.56,
          396.8,
          397.36,
          398.56,
          399.28,
          400.16,
          400.96,
          402.24,
          413.12,
          413.84,
          414.48,
          415.04,
          415.68,
          416.32,
          416.88,
          456.56,
          512.96,
          529.84,
          541.6,
          700.88,
          759.6,
          785.28,
          864.8,
          914.16,
          921.12,
          927.44,
          927.92,
          953.84,
          960.56,
          979.52,
          985.84,
          992,
          993.84,
          1008.08,
          1009.84,
          1011.6,
          1026.08,
          1028.4,
          1030.56,
          1032.64,
          1034.64,
          1036.4,
          1038,
          1039.6,
          1041.44,
          1043.12,
          1044.56,
          1048.48,
          1057.84,
          1059.44,
          1060.96,
          1072.56,
          1081.28,
          1094.32,
          1142.56,
          1163.36,
          1166.56,
          1168.16,
          1169.6,
          1170.8,
          1172.32,
          1173.28,
          1174.64,
          1175.28,
          1199.12,
          1200.24,
          1201.36,
          1202.56,
          1203.68,
          1231.84,
          1233.12,
          1234.4,
          1235.68,
          1236.96,
          1259.36,
          1261.12,
          1262.4,
          1263.92,
          1295.04,
          1296.56,
          1298.08,
          1299.6,
          1301.12,
          1313.04,
          1328.24,
          1373.04,
          1374.08,
          1375.12,
          1376.16,
          1377.2,
          1387.28,
          1388.4,
          1393.28,
          1395.6,
          1409.44,
          1411.92,
          1414.4,
          1416.88,
          1419.36,
          1422.24,
          1424.72,
          1426.96,
          1432.56,
          1438.96,
          1453.44,
          1455.04,
          1455.92,
          1456.8,
          1457.6,
          1459.28,
          1460.08,
          1461.52,
          1462.24,
          1463.84,
          1465.6,
          1467.44,
          1486.8,
          1489.04,
          1515.52,
          1517.12,
          1518.8,
          1520.48,
          1522.32,
          1548.88,
          1626.32,
          1627.76,
          1629.52,
          1642.24,
          1656,
          1660.32,
          1660.88,
          1665.04,
          1709.84,
          1711.68,
          1712.72,
          1713.76,
          1714.72,
          1715.76,
          1716.8,
          1717.84,
          1777.76,
          1786.08,
          1788.4,
          1789.84,
          1824.72,
          1826.72,
          1828.88,
          1830.64,
          1856.8,
          1880.48,
          1882.64,
          1884.32,
          1885.28,
          1886.8,
          1893.12,
          1896.88,
          1900.4,
          1901.92,
          1904,
          1905.44,
          1909.92,
          1910.56,
          1914.88,
          1917.28,
          1918.16,
          1919.04,
          1920.8,
          1921.68,
          1923.12,
          1924.96,
          1927.04,
          1941.12,
          1955.2,
          1957.28,
          1959.12,
          1960.56,
          1961.44,
          1963.2,
          1964.08,
          1964.96,
          1967.36,
          1971.68,
          1972.32,
          1976.8,
          1980.4,
          1981.92,
          1984.48,
          1985.44,
          1989.2,
          1995.52,
          1997.04,
          1998,
          1999.68,
          2001.84,
          2025.52,
          2051.68,
          2053.44,
          2055.6,
          2057.6,
          2092.48,
          2093.92,
          2096.24,
          2104.56,
          2164.48,
          2165.52,
          2166.56,
          2167.6,
          2168.56,
          2169.6,
          2170.64,
          2172.48,
          2217.28,
          2221.44,
          2221.6,
          2221.92,
          2226.24,
          2240,
          2252.72,
          2254.48,
          2255.92,
          2333.36,
          2359.92,
          2361.76,
          2363.44,
          2365.12,
          2366.72,
          2393.2,
          2395.44,
          2414.8,
          2416.64,
          2418.4,
          2420,
          2420.72,
          2422.16,
          2422.96,
          2424.64,
          2425.44,
          2426.32,
          2427.2,
          2428.8,
          2443.28,
          2449.68,
          2455.28,
          2457.52,
          2460,
          2462.88,
          2465.36,
          2467.84,
          2470.32,
          2472.8,
          2486.64,
          2488.96,
          2493.84,
          2494.96,
          2505.04,
          2506.08,
          2507.12,
          2508.16,
          2509.2,
          2554,
          2569.2,
          2581.12,
          2582.64,
          2584.16,
          2585.68,
          2587.2,
          2618.32,
          2619.84,
          2621.12,
          2622.88,
          2645.28,
          2646.56,
          2647.84,
          2649.12,
          2650.4,
          2678.56,
          2679.68,
          2680.88,
          2682,
          2683.12,
          2706.96,
          2707.6,
          2708.96,
          2709.92,
          2711.44,
          2712.64,
          2714.08,
          2715.68,
          2718.88,
          2739.68,
          2787.92,
          2800.96,
          2809.68,
          2821.28,
          2822.8,
          2824.4,
          2833.76,
          2837.68,
          2839.12,
          2840.8,
          2842.72,
          2844.4,
          2846,
          2847.84,
          2849.84,
          2852,
          2854.32,
          2856.64,
          2871.12,
          2872.88,
          2874.64,
          2888.88,
          2890.72,
          2896.88,
          2941.84,
          2948.64,
          2954.96,
          2961.76,
          2968.72,
          2980.72,
          3018.08,
          3097.6,
          3182,
          3194.56,
          3341.28,
          3365.52,
          3369.92,
          3415.76,
          3465.68,
          3466.48,
          3467.28,
          3468.16,
          3469.04,
          3469.92,
          3481.6,
          3482.4,
          3483.2,
          3483.92,
          3484.72,
          3485.6,
          3491.6,
          3493.44,
          3496.96,
          3498.24,
          3503.68,
          3525.68,
          3532.88,
          3542,
          3547.76,
          3567.84,
          3636,
          3647.6,
          3648.8,
          3649.76,
          3650.8,
          3651.84,
          3654.08,
          3657.52,
          3659.52,
          3661.92,
          3664.72,
          3667.2,
          3673.04,
          3688.4,
          3689.76,
          3691.04,
          3694,
          3695.28,
          3696.48,
          3700.24,
          3701.76,
          3728,
          3741.68,
          3765.68,
          3766.8,
          3768,
          3774.8,
          3776.64,
          3778.4,
          3779.28,
          3786.08,
          3802.72,
          3815.12,
          3825.84,
          3841.6,
          3844.16,
          3846.72,
          3847.28,
          3848.48,
          3849.68,
          3850.88,
          3855.84,
          3857.76,
          3865.6,
          3866.8,
          3867.76,
          3868.88,
          3872.56,
          3874.56,
          3876.24,
          3877.68,
          3879.28,
          3882.08,
          3882.96
        ]
      },
      "geometry": {
        "type": "LineString",
        "coordinates": [
          [
            -74.005089,
            40.712288
          ],
          [
            -74.004974,
            40.712345
          ],
          [
            -74.004667,
            40.71256
          ],
          [
            -74.004349,
            40.712808
          ],
          [
            -74.004194,
            40.712955
          ],
          [
            -74.004024,
            40.713138
          ],
          [
            -74.003764,
            40.713443
          ],
          [
            -74.00364,
            40.713597
          ],
          [
            -74.003577,
            40.713702
          ],
          [
            -74.003517,
            40.713834
          ],
          [
            -74.003172,
            40.714677
          ],
          [
            -74.003115,
            40.714889
          ],
          [
            -74.003031,
            40.715441
          ],
          [
            -74.003001,
            40.715568
          ],
          [
            -74.002948,
            40.715688
          ],
          [
            -74.002872,
            40.715804
          ],
          [
            -74.002826,
            40.715858
          ],
          [
            -74.002418,
            40.716338
          ],
          [
            -74.000187,
            40.718786
          ],
          [
            -73.999144,
            40.719932
          ],
          [
            -73.997807,
            40.721502
          ],
          [
            -73.997264,
            40.722161,
            54
          ],
          [
            -73.997202,
            40.722235,
            54
          ],
          [
            -73.997084,
            40.722414,
            54
          ],
          [
            -73.996986,
            40.722608,
            54
          ],
          [
            -73.996691,
            40.723339,
            54
          ],
          [
            -73.99663,
            40.723462,
            54
          ],
          [
            -73.996554,
            40.723572,
            54
          ],
          [
            -73.994687,
            40.725867,
            54
          ],
          [
            -73.993699,
            40.727207,
            54
          ],
          [
            -73.991594,
            40.729686,
            54
          ],
          [
            -73.991455,
            40.729811,
            54
          ],
          [
            -73.991037,
            40.730086,
            54
          ],
          [
            -73.990911,
            40.730189,
            54
          ],
          [
            -73.990806,
            40.73031,
            54
          ],
          [
            -73.990591,
            40.730603,
            54
          ],
          [
            -73.990513,
            40.730741,
            54
          ],
          [
            -73.990458,
            40.730893,
            54
          ],
          [
            -73.990035,
            40.732595,
            54
          ],
          [
            -73.989895,
            40.733247,
            54
          ],
          [
            -73.989851,
            40.733571,
            54
          ],
          [
            -73.989843,
            40.733691,
            54
          ],
          [
            -73.989838,
            40.733873,
            54
          ],
          [
            -73.989844,
            40.734024,
            54
          ],
          [
            -73.989961,
            40.734814,
            54
          ],
          [
            -73.989968,
            40.735006,
            54
          ],
          [
            -73.989932,
            40.735221,
            54
          ],
          [
            -73.989902,
            40.735302,
            54
          ],
          [
            -73.989837,
            40.735419,
            54
          ],
          [
            -73.988993,
            40.736565,
            54
          ],
          [
            -73.984051,
            40.743332,
            54
          ],
          [
            -73.982648,
            40.74524,
            54
          ],
          [
            -73.981596,
            40.746717,
            54
          ],
          [
            -73.981019,
            40.747382,
            54
          ],
          [
            -73.979135,
            40.749882,
            54
          ],
          [
            -73.978932,
            40.750162,
            54
          ],
          [
            -73.978664,
            40.750633,
            54
          ],
          [
            -73.978581,
            40.750765,
            54
          ],
          [
            -73.9785,
            40.750876,
            53.75
          ],
          [
            -73.978192,
            40.751296,
            53.75
          ],
          [
            -73.978147,
            40.751349,
            53.75
          ],
          [
            -73.978019,
            40.751446,
            53.5
          ],
          [
            -73.977936,
            40.751491,
            53.5
          ],
          [
            -73.977826,
            40.751536,
            53.5
          ],
          [
            -73.977714,
            40.751571,
            53.5
          ],
          [
            -73.977527,
            40.751612,
            53.5
          ],
          [
            -73.975962,
            40.751914,
            53
          ],
          [
            -73.975862,
            40.751938,
            53
          ],
          [
            -73.975772,
            40.751968,
            53
          ],
          [
            -73.975699,
            40.752003,
            53
          ],
          [
            -73.975624,
            40.752048,
            53
          ],
          [
            -73.975559,
            40.752104,
            52.75
          ],
          [
            -73.975511,
            40.752159,
            52.75
          ],
          [
            -73.97265,
            40.756055,
            51.25
          ],
          [
            -73.968603,
            40.761608,
            49
          ],
          [
            -73.96739,
            40.763273,
            48.25
          ],
          [
            -73.966546,
            40.764429,
            47.75
          ],
          [
            -73.955115,
            40.780111,
            41.25
          ],
          [
            -73.950903,
            40.785889,
            39
          ],
          [
            -73.949059,
            40.78842,
            38
          ],
          [
            -73.943339,
            40.796242,
            34.75
          ],
          [
            -73.939792,
            40.801103,
            32.75
          ],
          [
            -73.939273,
            40.801775,
            32.25
          ],
          [
            -73.938822,
            40.802394,
            32
          ],
          [
            -73.938787,
            40.802443,
            32
          ],
          [
            -73.936918,
            40.804996,
            31
          ],
          [
            -73.936434,
            40.805659,
            30.75
          ],
          [
            -73.935067,
            40.807527,
            30
          ],
          [
            -73.93461,
            40.808152,
            29.75
          ],
          [
            -73.934149,
            40.808746,
            29.5
          ],
          [
            -73.93401,
            40.80892,
            29.5
          ],
          [
            -73.932817,
            40.810242,
            28.75
          ],
          [
            -73.932648,
            40.810395,
            28.75
          ],
          [
            -73.93246,
            40.810528,
            28.75
          ],
          [
            -73.93097,
            40.811704,
            28
          ],
          [
            -73.930736,
            40.811899,
            28
          ],
          [
            -73.930473,
            40.812043,
            28
          ],
          [
            -73.930205,
            40.812162,
            27.75
          ],
          [
            -73.929928,
            40.812235,
            27.75
          ],
          [
            -73.929663,
            40.812258,
            27.75
          ],
          [
            -73.92942,
            40.812258,
            27.5
          ],
          [
            -73.929189,
            40.812248,
            27.5
          ],
          [
            -73.928929,
            40.812192,
            27.5
          ],
          [
            -73.928705,
            40.812108,
            27.5
          ],
          [
            -73.928533,
            40.812011,
            27.25
          ],
          [
            -73.928109,
            40.81171,
            27.25
          ],
          [
            -73.927147,
            40.810956,
            26.75
          ],
          [
            -73.926961,
            40.810839,
            26.75
          ],
          [
            -73.926772,
            40.81075,
            26.75
          ],
          [
            -73.925269,
            40.810116,
            26.25
          ],
          [
            -73.924142,
            40.809631,
            25.75
          ],
          [
            -73.922454,
            40.808916,
            25.25
          ],
          [
            -73.916195,
            40.806287,
            23.25
          ],
          [
            -73.913497,
            40.805146,
            22.5
          ],
          [
            -73.913069,
            40.804987,
            22.5
          ],
          [
            -73.912847,
            40.804931,
            22.25
          ],
          [
            -73.912639,
            40.804895,
            22.25
          ],
          [
            -73.912459,
            40.804891,
            22.25
          ],
          [
            -73.912237,
            40.804897,
            22.25
          ],
          [
            -73.912094,
            40.804917,
            22
          ],
          [
            -73.911905,
            40.804968,
            22
          ],
          [
            -73.911817,
            40.805,
            22
          ],
          [
            -73.908786,
            40.806375,
            21
          ],
          [
            -73.908643,
            40.806446,
            21
          ],
          [
            -73.90852,
            40.806536,
            21
          ],
          [
            -73.908421,
            40.806643,
            21
          ],
          [
            -73.908351,
            40.806761,
            21
          ],
          [
            -73.907284,
            40.809821,
            19.75
          ],
          [
            -73.907219,
            40.80996,
            19.75
          ],
          [
            -73.907128,
            40.810091,
            19.75
          ],
          [
            -73.907014,
            40.810211,
            19.5
          ],
          [
            -73.90688,
            40.810318,
            19.5
          ],
          [
            -73.904369,
            40.811971,
            18.5
          ],
          [
            -73.90416,
            40.812094,
            18.5
          ],
          [
            -73.903998,
            40.812169,
            18.5
          ],
          [
            -73.9038,
            40.812242,
            18.5
          ],
          [
            -73.899479,
            40.81346,
            17.25
          ],
          [
            -73.899269,
            40.813531,
            17
          ],
          [
            -73.899075,
            40.813626,
            17
          ],
          [
            -73.898902,
            40.813741,
            17
          ],
          [
            -73.898754,
            40.813875,
            17
          ],
          [
            -73.897643,
            40.81492,
            16.5
          ],
          [
            -73.896263,
            40.816275,
            15.75
          ],
          [
            -73.892168,
            40.820241,
            14
          ],
          [
            -73.89207,
            40.82033,
            14
          ],
          [
            -73.891957,
            40.820407,
            14
          ],
          [
            -73.89183,
            40.82047,
            14
          ],
          [
            -73.891691,
            40.820519,
            13.75
          ],
          [
            -73.890304,
            40.82094,
            13.5
          ],
          [
            -73.890155,
            40.820993,
            13.5
          ],
          [
            -73.889532,
            40.821279,
            13.25
          ],
          [
            -73.889251,
            40.821433,
            13
          ],
          [
            -73.887693,
            40.822448,
            12.5
          ],
          [
            -73.887447,
            40.822654,
            12.5
          ],
          [
            -73.887236,
            40.822882,
            12.25
          ],
          [
            -73.887063,
            40.823127,
            12.25
          ],
          [
            -73.886932,
            40.823387,
            12
          ],
          [
            -73.886791,
            40.823695,
            12.25
          ],
          [
            -73.886706,
            40.823971,
            11.5
          ],
          [
            -73.886651,
            40.824218,
            10.75
          ],
          [
            -73.886548,
            40.824846,
            11
          ],
          [
            -73.886438,
            40.825558
          ],
          [
            -73.886183,
            40.827174
          ],
          [
            -73.886145,
            40.827353
          ],
          [
            -73.886113,
            40.82745
          ],
          [
            -73.886073,
            40.827543
          ],
          [
            -73.886022,
            40.827629
          ],
          [
            -73.885895,
            40.827788
          ],
          [
            -73.885818,
            40.82786
          ],
          [
            -73.885659,
            40.827974
          ],
          [
            -73.88557,
            40.828024
          ],
          [
            -73.885368,
            40.828111
          ],
          [
            -73.885128,
            40.828177
          ],
          [
            -73.884854,
            40.828212
          ],
          [
            -73.881987,
            40.828365
          ],
          [
            -73.881651,
            40.828389
          ],
          [
            -73.877746,
            40.828707
          ],
          [
            -73.877509,
            40.828729
          ],
          [
            -73.877269,
            40.828762
          ],
          [
            -73.877027,
            40.82881
          ],
          [
            -73.876767,
            40.828876
          ],
          [
            -73.873084,
            40.829939
          ],
          [
            -73.86235,
            40.833031
          ],
          [
            -73.862149,
            40.833079
          ],
          [
            -73.861889,
            40.833113
          ],
          [
            -73.860018,
            40.833316
          ],
          [
            -73.857997,
            40.833535
          ],
          [
            -73.857361,
            40.833602
          ],
          [
            -73.857282,
            40.83361
          ],
          [
            -73.856666,
            40.833677
          ],
          [
            -73.850089,
            40.834384
          ],
          [
            -73.849823,
            40.834427
          ],
          [
            -73.849683,
            40.834466
          ],
          [
            -73.849549,
            40.834515
          ],
          [
            -73.849427,
            40.834568
          ],
          [
            -73.849306,
            40.834634
          ],
          [
            -73.849188,
            40.83471
          ],
          [
            -73.849078,
            40.834795
          ],
          [
            -73.843093,
            40.839779
          ],
          [
            -73.842259,
            40.840472
          ],
          [
            -73.842014,
            40.84065
          ],
          [
            -73.841853,
            40.840752
          ],
          [
            -73.837592,
            40.842976
          ],
          [
            -73.837355,
            40.843104
          ],
          [
            -73.837109,
            40.843262
          ],
          [
            -73.836913,
            40.843399
          ],
          [
            -73.834213,
            40.845517
          ],
          [
            -73.831773,
            40.847436
          ],
          [
            -73.831556,
            40.847619
          ],
          [
            -73.83141,
            40.847771
          ],
          [
            -73.831336,
            40.847859
          ],
          [
            -73.83123,
            40.848006
          ],
          [
            -73.83083,
            40.848645
          ],
          [
            -73.83061,
            40.849038
          ],
          [
            -73.830436,
            40.849415
          ],
          [
            -73.830372,
            40.849582
          ],
          [
            -73.830302,
            40.849812
          ],
          [
            -73.830252,
            40.849973
          ],
          [
            -73.830121,
            40.850464
          ],
          [
            -73.830102,
            40.850535
          ],
          [
            -73.829973,
            40.851012
          ],
          [
            -73.829882,
            40.851272
          ],
          [
            -73.829838,
            40.85137
          ],
          [
            -73.829782,
            40.851464
          ],
          [
            -73.829648,
            40.851634
          ],
          [
            -73.829571,
            40.851711
          ],
          [
            -73.829426,
            40.851831
          ],
          [
            -73.829231,
            40.851971
          ],
          [
            -73.828985,
            40.852112
          ],
          [
            -73.827197,
            40.852925
          ],
          [
            -73.828985,
            40.852112
          ],
          [
            -73.829231,
            40.851971
          ],
          [
            -73.829426,
            40.851831
          ],
          [
            -73.829571,
            40.851711
          ],
          [
            -73.829648,
            40.851634
          ],
          [
            -73.829782,
            40.851464
          ],
          [
            -73.829838,
            40.85137
          ],
          [
            -73.829882,
            40.851272
          ],
          [
            -73.829973,
            40.851012
          ],
          [
            -73.830102,
            40.850535
          ],
          [
            -73.830121,
            40.850464
          ],
          [
            -73.830252,
            40.849973
          ],
          [
            -73.830372,
            40.849582
          ],
          [
            -73.830436,
            40.849415
          ],
          [
            -73.830562,
            40.849142
          ],
          [
            -73.83061,
            40.849038
          ],
          [
            -73.83083,
            40.848645
          ],
          [
            -73.83123,
            40.848006
          ],
          [
            -73.831336,
            40.847859
          ],
          [
            -73.83141,
            40.847771
          ],
          [
            -73.831556,
            40.847619
          ],
          [
            -73.831773,
            40.847436
          ],
          [
            -73.834213,
            40.845517
          ],
          [
            -73.836913,
            40.843399
          ],
          [
            -73.837109,
            40.843262
          ],
          [
            -73.837355,
            40.843104
          ],
          [
            -73.837592,
            40.842976
          ],
          [
            -73.841853,
            40.840752
          ],
          [
            -73.842014,
            40.84065
          ],
          [
            -73.842259,
            40.840472
          ],
          [
            -73.843093,
            40.839779
          ],
          [
            -73.849078,
            40.834795
          ],
          [
            -73.849188,
            40.83471
          ],
          [
            -73.849306,
            40.834634
          ],
          [
            -73.849427,
            40.834568
          ],
          [
            -73.849549,
            40.834515
          ],
          [
            -73.849683,
            40.834466
          ],
          [
            -73.849823,
            40.834427
          ],
          [
            -73.850089,
            40.834384
          ],
          [
            -73.856666,
            40.833677
          ],
          [
            -73.857282,
            40.83361
          ],
          [
            -73.857311,
            40.833607,
            11
          ],
          [
            -73.857361,
            40.833602,
            11
          ],
          [
            -73.857997,
            40.833535,
            11
          ],
          [
            -73.860018,
            40.833316,
            11
          ],
          [
            -73.861889,
            40.833113,
            11
          ],
          [
            -73.862149,
            40.833079,
            11
          ],
          [
            -73.86235,
            40.833031,
            11
          ],
          [
            -73.873084,
            40.829939,
            11
          ],
          [
            -73.876767,
            40.828876,
            11
          ],
          [
            -73.877027,
            40.82881,
            11
          ],
          [
            -73.877269,
            40.828762,
            11
          ],
          [
            -73.877509,
            40.828729,
            11
          ],
          [
            -73.877746,
            40.828707,
            11
          ],
          [
            -73.881651,
            40.828389,
            11
          ],
          [
            -73.881987,
            40.828365,
            11
          ],
          [
            -73.884854,
            40.828212,
            11
          ],
          [
            -73.885128,
            40.828177,
            11
          ],
          [
            -73.885368,
            40.828111,
            11
          ],
          [
            -73.88557,
            40.828024,
            11
          ],
          [
            -73.885659,
            40.827974,
            11
          ],
          [
            -73.885818,
            40.82786,
            11
          ],
          [
            -73.885895,
            40.827788,
            11
          ],
          [
            -73.886022,
            40.827629,
            11
          ],
          [
            -73.886073,
            40.827543,
            11
          ],
          [
            -73.886113,
            40.82745,
            11
          ],
          [
            -73.886145,
            40.827353,
            11
          ],
          [
            -73.886183,
            40.827174,
            11
          ],
          [
            -73.886438,
            40.825558,
            11
          ],
          [
            -73.886548,
            40.824846,
            11
          ],
          [
            -73.886651,
            40.824218,
            10.75
          ],
          [
            -73.886706,
            40.823971,
            11.5
          ],
          [
            -73.886791,
            40.823695,
            12.25
          ],
          [
            -73.886932,
            40.823387,
            13.75
          ],
          [
            -73.887063,
            40.823127
          ],
          [
            -73.887236,
            40.822882
          ],
          [
            -73.887447,
            40.822654
          ],
          [
            -73.887693,
            40.822448
          ],
          [
            -73.889251,
            40.821433
          ],
          [
            -73.889532,
            40.821279
          ],
          [
            -73.890155,
            40.820993
          ],
          [
            -73.890304,
            40.82094
          ],
          [
            -73.891691,
            40.820519
          ],
          [
            -73.89183,
            40.82047
          ],
          [
            -73.891957,
            40.820407
          ],
          [
            -73.89207,
            40.82033
          ],
          [
            -73.892168,
            40.820241
          ],
          [
            -73.896263,
            40.816275
          ],
          [
            -73.897643,
            40.81492
          ],
          [
            -73.898754,
            40.813875
          ],
          [
            -73.898902,
            40.813741
          ],
          [
            -73.899075,
            40.813626
          ],
          [
            -73.899269,
            40.813531
          ],
          [
            -73.899479,
            40.81346
          ],
          [
            -73.9038,
            40.812242
          ],
          [
            -73.903998,
            40.812169
          ],
          [
            -73.90416,
            40.812094
          ],
          [
            -73.904369,
            40.811971
          ],
          [
            -73.90688,
            40.810318
          ],
          [
            -73.907014,
            40.810211
          ],
          [
            -73.907128,
            40.810091
          ],
          [
            -73.907219,
            40.80996
          ],
          [
            -73.907284,
            40.809821
          ],
          [
            -73.908351,
            40.806761
          ],
          [
            -73.908421,
            40.806643
          ],
          [
            -73.90852,
            40.806536
          ],
          [
            -73.908643,
            40.806446
          ],
          [
            -73.908786,
            40.806375
          ],
          [
            -73.911817,
            40.805
          ],
          [
            -73.911905,
            40.804968
          ],
          [
            -73.912094,
            40.804917
          ],
          [
            -73.912237,
            40.804897
          ],
          [
            -73.912459,
            40.804891
          ],
          [
            -73.912639,
            40.804895
          ],
          [
            -73.912847,
            40.804931
          ],
          [
            -73.913069,
            40.804987
          ],
          [
            -73.913497,
            40.805146
          ],
          [
            -73.916195,
            40.806287
          ],
          [
            -73.922454,
            40.808916
          ],
          [
            -73.924142,
            40.809631
          ],
          [
            -73.925269,
            40.810116
          ],
          [
            -73.926772,
            40.81075
          ],
          [
            -73.926961,
            40.810839
          ],
          [
            -73.927147,
            40.810956
          ],
          [
            -73.928109,
            40.81171
          ],
          [
            -73.928506,
            40.812038
          ],
          [
            -73.928682,
            40.812137
          ],
          [
            -73.928905,
            40.812222
          ],
          [
            -73.929176,
            40.812281
          ],
          [
            -73.929419,
            40.812293
          ],
          [
            -73.929655,
            40.812292
          ],
          [
            -73.929932,
            40.812269
          ],
          [
            -73.930214,
            40.812194
          ],
          [
            -73.93049,
            40.812072
          ],
          [
            -73.930769,
            40.811921
          ],
          [
            -73.931003,
            40.811727
          ],
          [
            -73.932493,
            40.810551
          ],
          [
            -73.932683,
            40.810417
          ],
          [
            -73.932854,
            40.810262
          ],
          [
            -73.934048,
            40.808939
          ],
          [
            -73.934189,
            40.808762
          ],
          [
            -73.93461,
            40.808151
          ],
          [
            -73.937845,
            40.803729
          ],
          [
            -73.938335,
            40.80306
          ],
          [
            -73.938826,
            40.802459
          ],
          [
            -73.939311,
            40.801792
          ],
          [
            -73.939832,
            40.801118
          ],
          [
            -73.940695,
            40.799937
          ],
          [
            -73.943378,
            40.796258
          ],
          [
            -73.949099,
            40.788437
          ],
          [
            -73.955155,
            40.780127
          ],
          [
            -73.956055,
            40.778894
          ],
          [
            -73.966586,
            40.764446
          ],
          [
            -73.968327,
            40.762058
          ],
          [
            -73.968643,
            40.761623
          ],
          [
            -73.97193,
            40.757114
          ],
          [
            -73.975528,
            40.752207
          ],
          [
            -73.975594,
            40.752131
          ],
          [
            -73.975674,
            40.75207
          ],
          [
            -73.975783,
            40.752016
          ],
          [
            -73.975899,
            40.751977
          ],
          [
            -73.976029,
            40.751947
          ],
          [
            -73.97771,
            40.751625
          ],
          [
            -73.977822,
            40.751593
          ],
          [
            -73.977924,
            40.751556
          ],
          [
            -73.978015,
            40.75151
          ],
          [
            -73.978106,
            40.751449
          ],
          [
            -73.978191,
            40.751377
          ],
          [
            -73.978625,
            40.750784
          ],
          [
            -73.978771,
            40.750609
          ],
          [
            -73.979072,
            40.750283
          ],
          [
            -73.979176,
            40.750158
          ],
          [
            -73.979568,
            40.74962
          ],
          [
            -73.981166,
            40.747462
          ],
          [
            -73.981636,
            40.746733
          ],
          [
            -73.982281,
            40.745829
          ],
          [
            -73.9827,
            40.745263
          ],
          [
            -73.984136,
            40.743286
          ],
          [
            -73.989032,
            40.736582
          ],
          [
            -73.989871,
            40.735438
          ],
          [
            -73.98994,
            40.735316
          ],
          [
            -73.989976,
            40.735213
          ],
          [
            -73.990001,
            40.735097
          ],
          [
            -73.990015,
            40.734981
          ],
          [
            -73.989996,
            40.734726
          ],
          [
            -73.989933,
            40.734341
          ],
          [
            -73.989897,
            40.734117
          ],
          [
            -73.989881,
            40.733845
          ],
          [
            -73.989902,
            40.733529
          ],
          [
            -73.98994,
            40.733252
          ],
          [
            -73.99008,
            40.732601
          ],
          [
            -73.990503,
            40.730901
          ],
          [
            -73.990555,
            40.730752
          ],
          [
            -73.990632,
            40.730618
          ],
          [
            -73.990844,
            40.730328
          ],
          [
            -73.990946,
            40.730211
          ],
          [
            -73.991068,
            40.73011
          ],
          [
            -73.991487,
            40.729835
          ],
          [
            -73.99163,
            40.729706
          ],
          [
            -73.993738,
            40.727225
          ],
          [
            -73.994726,
            40.725884
          ],
          [
            -73.996593,
            40.723589
          ],
          [
            -73.996672,
            40.723476
          ],
          [
            -73.996734,
            40.72335
          ],
          [
            -73.997028,
            40.722619
          ],
          [
            -73.997125,
            40.722428
          ],
          [
            -73.997241,
            40.722252
          ],
          [
            -73.997313,
            40.722166
          ],
          [
            -73.997845,
            40.721521
          ],
          [
            -73.999181,
            40.719951
          ],
          [
            -74.000224,
            40.718806
          ],
          [
            -74.001126,
            40.717816
          ],
          [
            -74.002455,
            40.716357
          ],
          [
            -74.002678,
            40.716126
          ],
          [
            -74.002864,
            40.715877
          ],
          [
            -74.002911,
            40.715821
          ],
          [
            -74.00299,
            40.715701
          ],
          [
            -74.003045,
            40.715576
          ],
          [
            -74.003075,
            40.715446
          ],
          [
            -74.00316,
            40.714894
          ],
          [
            -74.003216,
            40.714685
          ],
          [
            -74.00356,
            40.713845
          ],
          [
            -74.003619,
            40.713715
          ],
          [
            -74.003681,
            40.713613
          ],
          [
            -74.003762,
            40.713507
          ],
          [
            -74.00406,
            40.713158
          ],
          [
            -74.00423,
            40.712975
          ],
          [
            -74.004386,
            40.712828
          ],
          [
            -74.00453,
            40.712712
          ],
          [
            -74.004699,
            40.712584
          ],
          [
            -74.005001,
            40.712372
          ],
          [
            -74.00511,
            40.712318
          ]
        ]
      }
    }
  ]
}