{
  "type": "FeatureCollection",
  "features": [
    {
      "type": "Feature",
      "properties": {
        "creator": "BRouter-1.7.9",
        "name": "[MTA] 7 Train (Local)",
        "track-length": "33478",
        "filtered ascend": "6",
        "plain-ascend": "1",
        "total-time": "2678",
        "total-energy": "1472068",
        "cost": "66956",
        "messages": [
          [
            "Longitude",
            "Latitude",
            "Elevation",
            "Distance",
            "CostPerKm",
            "ElevCost",
            "TurnCost",
            "NodeCost",
            "InitialCost",
            "WayTags",
            "NodeTags",
            "Time",
            "Energy"
          ],
          [
            "-74001829",
            "40755884",
            "-8192",
            "82",
            "2000",
            "0",
            "0",
            "0",
            "0",
            "railway=subway",
            "wheelchair=yes railway=halt",
            "6",
            "3606"
          ],
          [
            "-74001202",
            "40756743",
            "-8192",
            "109",
            "2000",
            "0",
            "0",
            "0",
            "0",
            "railway=subway",
            "railway=switch",
            "15",
            "8401"
          ],
          [
            "-74000731",
            "40757391",
            "-8192",
            "82",
            "2000",
            "0",
            "0",
            "0",
            "0",
            "railway=subway",
            "railway=switch",
            "21",
            "12007"
          ],
          [
            "-73986847",
            "40755092",
            "-8192",
            "1406",
            "2000",
            "0",
            "0",
            "0",
            "0",
            "railway=subway",
            "wheelchair=yes railway=halt",
            "134",
            "73851"
          ],
          [
            "-73986540",
            "40754998",
            "-8192",
            "28",
            "2000",
            "0",
            "0",
            "0",
            "0",
            "railway=subway",
            "railway=switch",
            "136",
            "75082"
          ],
          [
            "-73986372",
            "40754927",
            "-8192",
            "16",
            "2000",
            "0",
            "0",
            "0",
            "0",
            "railway=subway",
            "",
            "137",
            "75786"
          ],
          [
            "-73986213",
            "40754861",
            "-8192",
            "15",
            "2000",
            "0",
            "0",
            "0",
            "0",
            "railway=subway",
            "railway=switch",
            "1",
            "659"
          ],
          [
            "-73981002",
            "40753354",
            "-8192",
            "480",
            "2000",
            "0",
            "0",
            "0",
            "0",
            "railway=subway",
            "wheelchair=no railway=halt",
            "39",
            "21772"
          ],
          [
            "-73975219",
            "40751052",
            "-8192",
            "553",
            "2000",
            "0",
            "0",
            "0",
            "0",
            "railway=subway",
            "wheelchair=yes railway=halt",
            "83",
            "46096"
          ],
          [
            "-73959462",
            "40744403",
            "-8192",
            "1522",
            "2000",
            "0",
            "0",
            "0",
            "0",
            "railway=subway",
            "",
            "205",
            "113042"
          ],
          [
            "-73952426",
            "40742400",
            "-8192",
            "640",
            "2000",
            "0",
            "0",
            "0",
            "0",
            "railway=subway",
            "wheelchair=no railway=halt",
            "51",
            "28150"
          ],
          [
            "-73947883",
            "40742447",
            "-8192",
            "395",
            "2000",
            "0",
            "0",
            "0",
            "0",
            "railway=subway",
            "wheelchair=no railway=halt",
            "82",
            "45524"
          ],
          [
            "-73947680",
            "40742504",
            "3",
            "19",
            "2000",
            "0",
            "0",
            "0",
            "0",
            "railway=subway",
            "railway=switch",
            "84",
            "46298"
          ],
          [
            "-73947483",
            "40742582",
            "3",
            "19",
            "2000",
            "0",
            "0",
            "0",
            "0",
            "railway=subway",
            "railway=unknown",
            "85",
            "47068"
          ],
          [
            "-73947282",
            "40742625",
            "3",
            "17",
            "2000",
            "0",
            "0",
            "0",
            "0",
            "reversedirection=yes railway=subway",
            "railway=switch",
            "87",
            "47714"
          ],
          [
            "-73944996",
            "40747743",
            "-8192",
            "722",
            "2000",
            "0",
            "0",
            "0",
            "0",
            "railway=subway",
            "",
            "144",
            "78377"
          ],
          [
            "-73944981",
            "40747788",
            "-8192",
            "5",
            "2000",
            "0",
            "0",
            "0",
            "0",
            "railway=subway",
            "wheelchair=yes railway=halt",
            "0",
            "219"
          ],
          [
            "-73939499",
            "40750235",
            "-8192",
            "707",
            "2000",
            "0",
            "0",
            "0",
            "0",
            "railway=subway",
            "wheelchair=limited railway=halt",
            "56",
            "31317"
          ],
          [
            "-73939439",
            "40750209",
            "-8192",
            "6",
            "2000",
            "0",
            "0",
            "0",
            "0",
            "railway=subway",
            "railway=switch",
            "57",
            "31581"
          ],
          [
            "-73939032",
            "40750055",
            "-8192",
            "38",
            "2000",
            "0",
            "0",
            "0",
            "0",
            "railway=subway",
            "railway=unknown",
            "60",
            "33252"
          ],
          [
            "-73938765",
            "40749858",
            "-8192",
            "31",
            "2000",
            "0",
            "0",
            "0",
            "0",
            "railway=subway",
            "railway=switch",
            "62",
            "34616"
          ],
          [
            "-73936620",
            "40748095",
            "-8192",
            "270",
            "2000",
            "0",
            "0",
            "0",
            "0",
            "railway=subway",
            "railway=switch",
            "84",
            "46492"
          ],
          [
            "-73936309",
            "40747794",
            "-8192",
            "43",
            "2000",
            "0",
            "0",
            "0",
            "0",
            "railway=subway",
            "",
            "88",
            "48383"
          ],
          [
            "-73935985",
            "40747482",
            "-8192",
            "44",
            "2000",
            "0",
            "0",
            "0",
            "0",
            "railway=subway",
            "railway=switch",
            "3",
            "1935"
          ],
          [
            "-73935169",
            "40746688",
            "-8192",
            "112",
            "2000",
            "0",
            "0",
            "0",
            "0",
            "railway=subway",
            "railway=switch",
            "12",
            "6861"
          ],
          [
            "-73929977",
            "40744437",
            "-8192",
            "535",
            "2000",
            "0",
            "0",
            "0",
            "0",
            "railway=subway",
            "wheelchair=no railway=halt",
            "55",
            "30393"
          ],
          [
            "-73923006",
            "40743633",
            "-8192",
            "595",
            "2000",
            "0",
            "0",
            "0",
            "0",
            "railway=subway",
            "wheelchair=no railway=halt",
            "102",
            "56565"
          ],
          [
            "-73917403",
            "40742982",
            "-8192",
            "479",
            "2000",
            "0",
            "0",
            "0",
            "0",
            "railway=subway",
            "wheelchair=no railway=halt",
            "141",
            "77633"
          ],
          [
            "-73911649",
            "40744399",
            "-8192",
            "518",
            "2000",
            "0",
            "0",
            "0",
            "0",
            "railway=subway",
            "wheelchair=no railway=halt",
            "182",
            "100418"
          ],
          [
            "-73901962",
            "40745672",
            "-8192",
            "834",
            "2000",
            "0",
            "0",
            "0",
            "0",
            "railway=subway",
            "wheelchair=yes railway=halt",
            "249",
            "137102"
          ],
          [
            "-73897330",
            "40746192",
            "-8192",
            "396",
            "2000",
            "0",
            "0",
            "0",
            "0",
            "railway=subway",
            "",
            "281",
            "154520"
          ],
          [
            "-73895406",
            "40746399",
            "-8192",
            "164",
            "2000",
            "0",
            "0",
            "0",
            "0",
            "railway=subway",
            "wheelchair=no railway=halt",
            "13",
            "7213"
          ],
          [
            "-73893445",
            "40746603",
            "-8192",
            "167",
            "2000",
            "0",
            "0",
            "0",
            "0",
            "railway=subway",
            "railway=switch",
            "26",
            "14559"
          ],
          [
            "-73890509",
            "40746915",
            "-8192",
            "250",
            "2000",
            "0",
            "0",
            "0",
            "0",
            "railway=subway",
            "",
            "46",
            "25555"
          ],
          [
            "-73890368",
            "40746930",
            "-8192",
            "12",
            "2000",
            "0",
            "0",
            "0",
            "0",
            "railway=subway",
            "wheelchair=yes railway=halt",
            "0",
            "527"
          ],
          [
            "-73890120",
            "40746954",
            "-8192",
            "21",
            "2000",
            "0",
            "0",
            "0",
            "0",
            "railway=subway",
            "railway=switch",
            "2",
            "1451"
          ],
          [
            "-73882770",
            "40747728",
            "-8192",
            "627",
            "2000",
            "0",
            "0",
            "0",
            "0",
            "railway=subway",
            "wheelchair=no railway=halt",
            "52",
            "29030"
          ],
          [
            "-73875671",
            "40748474",
            "-8192",
            "605",
            "2000",
            "0",
            "0",
            "0",
            "0",
            "railway=subway",
            "wheelchair=no railway=halt",
            "101",
            "55641"
          ],
          [
            "-73868567",
            "40749187",
            "-8192",
            "605",
            "2000",
            "0",
            "0",
            "0",
            "0",
            "railway=subway",
            "wheelchair=yes railway=halt",
            "149",
            "82252"
          ],
          [
            "-73861661",
            "40749945",
            "-8192",
            "590",
            "2000",
            "0",
            "0",
            "0",
            "0",
            "railway=subway",
            "wheelchair=no railway=halt",
            "196",
            "108203"
          ],
          [
            "-73854390",
            "40751956",
            "-8192",
            "655",
            "2000",
            "0",
            "0",
            "0",
            "0",
            "railway=subway",
            "wheelchair=no railway=halt",
            "249",
            "137014"
          ],
          [
            "-73854212",
            "40752008",
            "-8192",
            "16",
            "2000",
            "0",
            "0",
            "0",
            "0",
            "railway=subway",
            "railway=switch",
            "250",
            "137717"
          ],
          [
            "-73853992",
            "40752094",
            "-8192",
            "21",
            "2000",
            "0",
            "0",
            "0",
            "0",
            "railway=subway",
            "railway=unknown",
            "252",
            "138641"
          ],
          [
            "-73853754",
            "40752144",
            "-8192",
            "21",
            "2000",
            "0",
            "0",
            "0",
            "0",
            "railway=subway",
            "railway=switch",
            "253",
            "139565"
          ],
          [
            "-73850934",
            "40752988",
            "-8192",
            "256",
            "2000",
            "0",
            "0",
            "0",
            "0",
            "railway=subway",
            "",
            "274",
            "150825"
          ],
          [
            "-73847598",
            "40753978",
            "-8192",
            "302",
            "2000",
            "0",
            "0",
            "0",
            "0",
            "railway=subway",
            "railway=switch",
            "24",
            "13283"
          ],
          [
            "-73847183",
            "40754109",
            "-8192",
            "38",
            "2000",
            "0",
            "0",
            "0",
            "0",
            "railway=subway",
            "railway=switch",
            "27",
            "14954"
          ],
          [
            "-73845006",
            "40754713",
            "-8192",
            "196",
            "2000",
            "0",
            "0",
            "0",
            "0",
            "railway=subway",
            "",
            "42",
            "23576"
          ],
          [
            "-73844596",
            "40754836",
            "-8192",
            "37",
            "2000",
            "0",
            "0",
            "0",
            "0",
            "railway=subway",
            "wheelchair=limited railway=halt",
            "2",
            "1627"
          ],
          [
            "-73843831",
            "40755123",
            "-8192",
            "72",
            "2000",
            "0",
            "0",
            "0",
            "0",
            "railway=subway",
            "railway=switch",
            "8",
            "4794"
          ],
          [
            "-73831722",
            "40758992",
            "-8192",
            "1115",
            "2000",
            "0",
            "0",
            "0",
            "0",
            "railway=subway",
            "railway=switch",
            "97",
            "55573"
          ],
          [
            "-73831297",
            "40759135",
            "-8192",
            "39",
            "2000",
            "0",
            "0",
            "0",
            "0",
            "railway=subway",
            "",
            "101",
            "57298"
          ],
          [
            "-73830956",
            "40759250",
            "-8192",
            "32",
            "2000",
            "0",
            "0",
            "0",
            "0",
            "railway=subway",
            "railway=switch",
            "2",
            "1407"
          ],
          [
            "-73829063",
            "40759782",
            "-8192",
            "171",
            "2000",
            "0",
            "0",
            "0",
            "0",
            "railway=subway",
            "wheelchair=yes railway=halt",
            "16",
            "8929"
          ],
          [
            "-73828996",
            "40759797",
            "-8192",
            "6",
            "2000",
            "0",
            "0",
            "0",
            "0",
            "railway=subway",
            "",
            "16",
            "9192"
          ],
          [
            "-73829063",
            "40759782",
            "-8192",
            "6",
            "2000",
            "0",
            "0",
            "0",
            "0",
            "reversedirection=yes railway=subway",
            "wheelchair=yes railway=halt",
            "0",
            "263"
          ],
          [
            "-73830956",
            "40759250",
            "-8192",
            "171",
            "2000",
            "0",
            "0",
            "0",
            "0",
            "reversedirection=yes railway=subway",
            "railway=switch",
            "14",
            "7785"
          ],
          [
            "-73831231",
            "40759195",
            "-8192",
            "24",
            "2000",
            "0",
            "0",
            "0",
            "0",
            "railway=subway",
            "railway=switch",
            "16",
            "8841"
          ],
          [
            "-73831505",
            "40759101",
            "-8192",
            "25",
            "2000",
            "0",
            "0",
            "0",
            "0",
            "reversedirection=yes railway=subway",
            "railway=switch",
            "18",
            "9940"
          ],
          [
            "-73831753",
            "40759015",
            "-8192",
            "23",
            "2000",
            "0",
            "0",
            "0",
            "0",
            "reversedirection=yes railway=subway",
            "railway=switch",
            "19",
            "10952"
          ],
          [
            "-73831970",
            "40758969",
            "-8192",
            "19",
            "2000",
            "0",
            "0",
            "0",
            "0",
            "railway=subway",
            "railway=switch",
            "21",
            "11788"
          ],
          [
            "-73843413",
            "40755326",
            "-8192",
            "1055",
            "2000",
            "0",
            "0",
            "0",
            "0",
            "railway=subway",
            "railway=switch",
            "105",
            "56206"
          ],
          [
            "-73846401",
            "40754434",
            "-8192",
            "271",
            "2000",
            "0",
            "0",
            "0",
            "0",
            "railway=subway",
            "",
            "127",
            "68126"
          ],
          [
            "-73846534",
            "40754394",
            "-8192",
            "12",
            "2000",
            "0",
            "0",
            "0",
            "0",
            "railway=subway",
            "wheelchair=no railway=halt",
            "0",
            "527"
          ],
          [
            "-73846963",
            "40754269",
            "-8192",
            "39",
            "2000",
            "0",
            "0",
            "0",
            "0",
            "railway=subway",
            "railway=switch",
            "4",
            "2243"
          ],
          [
            "-73847195",
            "40754182",
            "-8192",
            "22",
            "2000",
            "0",
            "0",
            "0",
            "0",
            "railway=subway",
            "railway=unknown",
            "5",
            "3210"
          ],
          [
            "-73847451",
            "40754134",
            "-8192",
            "22",
            "2000",
            "0",
            "0",
            "0",
            "0",
            "railway=subway",
            "railway=switch",
            "7",
            "4178"
          ],
          [
            "-73853809",
            "40752251",
            "-8192",
            "576",
            "2000",
            "0",
            "0",
            "0",
            "0",
            "railway=subway",
            "railway=switch",
            "53",
            "29514"
          ],
          [
            "-73854276",
            "40752112",
            "-8192",
            "42",
            "2000",
            "0",
            "0",
            "0",
            "0",
            "railway=subway",
            "railway=switch",
            "57",
            "31361"
          ],
          [
            "-73856325",
            "40751500",
            "-8192",
            "186",
            "2000",
            "0",
            "0",
            "0",
            "0",
            "railway=subway",
            "wheelchair=no railway=halt",
            "71",
            "39542"
          ],
          [
            "-73863690",
            "40749803",
            "-8192",
            "652",
            "2000",
            "0",
            "0",
            "0",
            "0",
            "railway=subway",
            "wheelchair=no railway=halt",
            "124",
            "68221"
          ],
          [
            "-73868923",
            "40749284",
            "-8192",
            "446",
            "2000",
            "0",
            "0",
            "0",
            "0",
            "railway=subway",
            "",
            "159",
            "87838"
          ],
          [
            "-73870578",
            "40749109",
            "-8192",
            "141",
            "2000",
            "0",
            "0",
            "0",
            "0",
            "railway=subway",
            "wheelchair=yes railway=halt",
            "11",
            "6201"
          ],
          [
            "-73877696",
            "40748331",
            "-8192",
            "608",
            "2000",
            "0",
            "0",
            "0",
            "0",
            "railway=subway",
            "wheelchair=no railway=halt",
            "59",
            "32944"
          ],
          [
            "-73884764",
            "40747590",
            "-8192",
            "603",
            "2000",
            "0",
            "0",
            "0",
            "0",
            "railway=subway",
            "wheelchair=no railway=halt",
            "108",
            "59468"
          ],
          [
            "-73889331",
            "40747108",
            "-8192",
            "389",
            "2000",
            "0",
            "0",
            "0",
            "0",
            "railway=subway",
            "railway=switch",
            "139",
            "76578"
          ],
          [
            "-73892358",
            "40746790",
            "-8192",
            "258",
            "2000",
            "0",
            "0",
            "0",
            "0",
            "railway=subway",
            "",
            "159",
            "87926"
          ],
          [
            "-73892397",
            "40746786",
            "-8192",
            "3",
            "2000",
            "0",
            "0",
            "0",
            "0",
            "railway=subway",
            "wheelchair=yes railway=halt",
            "0",
            "131"
          ],
          [
            "-73892688",
            "40746757",
            "-8192",
            "25",
            "2000",
            "0",
            "0",
            "0",
            "0",
            "railway=subway",
            "railway=switch",
            "2",
            "1231"
          ],
          [
            "-73897410",
            "40746260",
            "-8192",
            "403",
            "2000",
            "0",
            "0",
            "0",
            "0",
            "railway=subway",
            "wheelchair=no railway=halt",
            "34",
            "18957"
          ],
          [
            "-73903990",
            "40745596",
            "-8192",
            "560",
            "2000",
            "0",
            "0",
            "0",
            "0",
            "railway=subway",
            "wheelchair=yes railway=halt",
            "79",
            "43589"
          ],
          [
            "-73913558",
            "40743887",
            "-8192",
            "837",
            "2000",
            "0",
            "0",
            "0",
            "0",
            "railway=subway",
            "wheelchair=no railway=halt",
            "146",
            "80405"
          ],
          [
            "-73919500",
            "40743300",
            "-8192",
            "523",
            "2000",
            "0",
            "0",
            "0",
            "0",
            "railway=subway",
            "wheelchair=no railway=halt",
            "188",
            "103409"
          ],
          [
            "-73925099",
            "40743946",
            "-8192",
            "479",
            "2000",
            "0",
            "0",
            "0",
            "0",
            "railway=subway",
            "wheelchair=no railway=halt",
            "226",
            "124478"
          ],
          [
            "-73932063",
            "40744754",
            "-8192",
            "595",
            "2000",
            "0",
            "0",
            "0",
            "0",
            "railway=subway",
            "wheelchair=no railway=halt",
            "274",
            "150649"
          ],
          [
            "-73935614",
            "40747243",
            "-8192",
            "421",
            "2000",
            "0",
            "0",
            "0",
            "0",
            "railway=subway",
            "railway=switch",
            "307",
            "169167"
          ],
          [
            "-73935906",
            "40747530",
            "-8192",
            "40",
            "2000",
            "0",
            "0",
            "0",
            "0",
            "railway=subway",
            "railway=switch",
            "310",
            "170926"
          ],
          [
            "-73936251",
            "40747863",
            "-8192",
            "47",
            "2000",
            "0",
            "0",
            "0",
            "0",
            "railway=subway",
            "",
            "314",
            "172994"
          ],
          [
            "-73936540",
            "40748142",
            "-8192",
            "39",
            "2000",
            "0",
            "0",
            "0",
            "0",
            "railway=subway",
            "railway=switch",
            "3",
            "1715"
          ],
          [
            "-73941050",
            "40750914",
            "-8192",
            "496",
            "2000",
            "0",
            "0",
            "0",
            "0",
            "railway=subway",
            "wheelchair=limited railway=halt",
            "42",
            "23532"
          ],
          [
            "-73945484",
            "40746428",
            "-8192",
            "716",
            "2000",
            "0",
            "0",
            "0",
            "0",
            "railway=subway",
            "",
            "100",
            "55025"
          ],
          [
            "-73945505",
            "40746366",
            "-8192",
            "7",
            "2000",
            "0",
            "0",
            "0",
            "0",
            "railway=subway",
            "wheelchair=yes railway=halt",
            "0",
            "307"
          ],
          [
            "-73947298",
            "40742656",
            "3",
            "556",
            "2000",
            "0",
            "0",
            "0",
            "0",
            "railway=subway",
            "railway=switch",
            "45",
            "24874"
          ],
          [
            "-73947483",
            "40742582",
            "3",
            "18",
            "2000",
            "0",
            "0",
            "0",
            "0",
            "reversedirection=yes railway=subway",
            "railway=unknown",
            "46",
            "25793"
          ],
          [
            "-73947690",
            "40742539",
            "3",
            "18",
            "2000",
            "0",
            "0",
            "0",
            "0",
            "railway=subway",
            "railway=switch",
            "47",
            "26691"
          ],
          [
            "-73949919",
            "40742071",
            "-8192",
            "195",
            "2000",
            "0",
            "0",
            "0",
            "0",
            "railway=subway",
            "wheelchair=no railway=halt",
            "63",
            "35919"
          ],
          [
            "-73954318",
            "40742797",
            "-8192",
            "382",
            "2000",
            "0",
            "0",
            "0",
            "0",
            "railway=subway",
            "wheelchair=no railway=halt",
            "94",
            "52827"
          ],
          [
            "-73960392",
            "40744878",
            "-8192",
            "567",
            "2000",
            "0",
            "0",
            "0",
            "0",
            "railway=subway",
            "",
            "139",
            "77769"
          ],
          [
            "-73976943",
            "40751873",
            "-8192",
            "1598",
            "2000",
            "0",
            "0",
            "0",
            "0",
            "railway=subway",
            "wheelchair=yes railway=halt",
            "127",
            "70288"
          ],
          [
            "-73982819",
            "40754105",
            "-8192",
            "556",
            "2000",
            "0",
            "0",
            "0",
            "0",
            "railway=subway",
            "wheelchair=no railway=halt",
            "172",
            "94744"
          ],
          [
            "-73986186",
            "40754897",
            "-8192",
            "308",
            "2000",
            "0",
            "0",
            "0",
            "0",
            "railway=subway",
            "railway=switch",
            "196",
            "108291"
          ],
          [
            "-73986340",
            "40754963",
            "-8192",
            "15",
            "2000",
            "0",
            "0",
            "0",
            "0",
            "railway=subway",
            "",
            "198",
            "108951"
          ],
          [
            "-73986440",
            "40755007",
            "-8192",
            "10",
            "2000",
            "0",
            "0",
            "0",
            "0",
            "railway=subway",
            "railway=switch",
            "0",
            "439"
          ],
          [
            "-73988583",
            "40755911",
            "-8192",
            "207",
            "2000",
            "0",
            "0",
            "0",
            "0",
            "railway=subway",
            "wheelchair=yes railway=halt",
            "17",
            "9544"
          ],
          [
            "-73998754",
            "40759462",
            "-8192",
            "963",
            "2000",
            "0",
            "0",
            "0",
            "0",
            "railway=subway",
            "",
            "94",
            "51902"
          ],
          [
            "-74000873",
            "40757448",
            "-8192",
            "294",
            "2000",
            "0",
            "0",
            "0",
            "0",
            "railway=subway",
            "railway=switch",
            "23",
            "12931"
          ],
          [
            "-74001038",
            "40757096",
            "-8192",
            "41",
            "2000",
            "0",
            "0",
            "0",
            "0",
            "reversedirection=yes railway=subway",
            "railway=unknown",
            "26",
            "14735"
          ],
          [
            "-74001202",
            "40756743",
            "-8192",
            "42",
            "2000",
            "0",
            "0",
            "0",
            "0",
            "reversedirection=yes railway=subway",
            "railway=switch",
            "30",
            "16582"
          ],
          [
            "-74001829",
            "40755884",
            "-8192",
            "109",
            "2000",
            "0",
            "0",
            "0",
            "0",
            "reversedirection=yes railway=subway",
            "wheelchair=yes railway=halt",
            "38",
            "21376"
          ],
          [
            "-74002299",
            "40755240",
            "-8192",
            "82",
            "2000",
            "0",
            "0",
            "0",
            "0",
            "reversedirection=yes railway=subway",
            "",
            "45",
            "24983"
          ]
        ],
        "times": [
          0,
          6.56,
          15.28,
          21.84,
          32.72,
          35.2,
          36.96,
          39.12,
          41.12,
          43.04,
          45.12,
          46.8,
          48.4,
          50.08,
          51.84,
          53.68,
          55.6,
          57.44,
          59.04,
          96.24,
          98.16,
          104.96,
          108.88,
          117.04,
          118.32,
          121.92,
          124.8,
          132.72,
          134.32,
          135.36,
          136.56,
          137.84,
          139.04,
          151.04,
          151.84,
          152.64,
          153.44,
          154.24,
          155.04,
          155.84,
          158.56,
          159.36,
          160.16,
          161.84,
          163.52,
          165.2,
          166.88,
          168.56,
          174.4,
          175.84,
          177.44,
          179.28,
          180.32,
          203.68,
          204.88,
          210,
          212.16,
          221.68,
          276.8,
          343.44,
          362.16,
          364.08,
          365.68,
          367.12,
          381.28,
          394.64,
          407.2,
          410.4,
          413.6,
          416.8,
          426.24,
          426.56,
          427.76,
          428.56,
          429.28,
          429.92,
          430.64,
          433.04,
          437.92,
          447.84,
          449.04,
          449.84,
          450.64,
          451.44,
          452.8,
          453.36,
          454,
          454.8,
          455.6,
          456.32,
          468.56,
          469.44,
          470.16,
          470.96,
          472.24,
          473.04,
          488.4,
          488.8,
          492.72,
          494.8,
          495.76,
          498.08,
          500.56,
          517.76,
          522.16,
          523.2,
          523.68,
          524.48,
          525.44,
          526.48,
          527.44,
          528.32,
          529.04,
          545.36,
          545.84,
          547.04,
          548.88,
          551.36,
          553.76,
          555.92,
          558.24,
          560.4,
          564.64,
          570.08,
          572.96,
          576.4,
          579.92,
          587.84,
          588.88,
          592.32,
          594.48,
          605.84,
          607.36,
          608.8,
          610,
          611.28,
          612.56,
          614.08,
          615.52,
          631.68,
          679.28,
          689.36,
          717.6,
          720.32,
          722.24,
          723.12,
          724.56,
          725.92,
          734.88,
          759.04,
          766,
          768.32,
          773.36,
          786.64,
          789.12,
          790.72,
          792.72,
          794.8,
          800.08,
          802.64,
          804.56,
          807.44,
          808.72,
          812.96,
          825.76,
          828,
          834.56,
          849.68,
          857.44,
          870.56,
          883.92,
          903.92,
          904.88,
          906.56,
          920.8,
          956.72,
          1005.12,
          1018,
          1034.48,
          1039.92,
          1053.52,
          1056.24,
          1061.04,
          1100.72,
          1102.24,
          1104.32,
          1107.2,
          1108.72,
          1110.56,
          1118.96,
          1132.56,
          1139.36,
          1153.12,
          1154.4,
          1156.08,
          1157.76,
          1164.88,
          1174.4,
          1178.24,
          1183.44,
          1189.52,
          1202.4,
          1205.44,
          1207.36,
          1208.4,
          1210.48,
          1221.12,
          1224.08,
          1225.84,
          1227.6,
          1228.64,
          1229.84,
          1235.44,
          1243.92,
          1245.84,
          1249.76,
          1275.36,
          1279.44,
          1281.12,
          1282.88,
          1284.8,
          1286.48,
          1297.28,
          1300.24,
          1303.12,
          1306.08,
          1315.52,
          1319.04,
          1322.16,
          1324.72,
          1329.2,
          1330.96,
          1338.4,
          1338.88,
          1339.36,
          1346.8,
          1348.56,
          1353.04,
          1354.96,
          1356.96,
          1358.8,
          1360.32,
          1371.68,
          1374.56,
          1377.44,
          1380.4,
          1391.2,
          1392.96,
          1394.96,
          1396.8,
          1428.24,
          1432.08,
          1435.04,
          1444.72,
          1452.72,
          1466.4,
          1467.36,
          1470.48,
          1472.24,
          1474,
          1476.4,
          1488.24,
          1513.04,
          1520.08,
          1523.44,
          1538.32,
          1569.12,
          1573.12,
          1576.88,
          1579.6,
          1590.48,
          1616.4,
          1621.76,
          1626.16,
          1637.44,
          1639.76,
          1641.04,
          1642.96,
          1669.76,
          1686.08,
          1734.32,
          1765.44,
          1786.08,
          1786.32,
          1788.32,
          1820.56,
          1829.28,
          1842.96,
          1844.96,
          1849.36,
          1862.88,
          1865.36,
          1868,
          1870,
          1872.88,
          1874.96,
          1877.44,
          1883.36,
          1884.8,
          1886.8,
          1890,
          1905.52,
          1909.28,
          1912.8,
          1932.32,
          1950.72,
          1952,
          1953.52,
          1955.12,
          1956.32,
          1958.24,
          1974.16,
          1988,
          2012.48,
          2060.08,
          2062.24,
          2063.28,
          2064.48,
          2065.76,
          2066.8,
          2068.32,
          2069.68,
          2071.52,
          2072.56,
          2082,
          2084.96,
          2087.92,
          2090.24,
          2093.76,
          2096.96,
          2100.72,
          2103.84,
          2106.48,
          2113.68,
          2117.36,
          2118.64,
          2121.44,
          2123.04,
          2126.32,
          2130.64,
          2143.52,
          2147.76,
          2148.4,
          2149.36,
          2150.32,
          2151.36,
          2152.32,
          2153.12,
          2154.16,
          2156.08,
          2169.52,
          2181.04,
          2183.2,
          2184.24,
          2185.44,
          2200.8,
          2201.36,
          2204.8,
          2205.52,
          2206.32,
          2207.04,
          2207.84,
          2208.72,
          2219.92,
          2220.88,
          2221.52,
          2223.04,
          2224.32,
          2225.6,
          2226.32,
          2226.96,
          2227.76,
          2228.8,
          2238.64,
          2243.52,
          2245.84,
          2247.28,
          2248.72,
          2249.92,
          2259.68,
          2262.88,
          2264.32,
          2266,
          2269.12,
          2294.88,
          2309.12,
          2310.48,
          2311.76,
          2318,
          2340.24,
          2399.28,
          2406.4,
          2451.36,
          2468.08,
          2472.08,
          2474.24,
          2478.4,
          2480.4,
          2492,
          2493.36,
          2498.4,
          2507.36,
          2509.04,
          2510.8,
          2512.56,
          2513.6,
          2514.64,
          2515.44,
          2516.24,
          2517.04,
          2521.2,
          2522,
          2522.8,
          2523.6,
          2524.4,
          2525.2,
          2537.2,
          2538.4,
          2539.2,
          2542,
          2553.04,
          2555.76,
          2567.28,
          2582.16,
          2618.16,
          2620.56,
          2622.88,
          2624.88,
          2626.72,
          2628.56,
          2630.32,
          2632.32,
          2632.8,
          2634.32,
          2636.4,
          2638.56,
          2640.8,
          2642.48,
          2644.24,
          2656.32,
          2657.92,
          2659.6,
          2661.28,
          2662.96,
          2671.68,
          2678.24
        ]
      },
      "geometry": {
        "type": "LineString",
        "coordinates": [
          [
            -74.002299,
            40.75524
          ],
          [
            -74.001829,
            40.755884
          ],
          [
            -74.001202,
            40.756743
          ],
          [
            -74.000731,
            40.757391
          ],
          [
            -73.999949,
            40.758463
          ],
          [
            -73.99975,
            40.758696
          ],
          [
            -73.999585,
            40.75885
          ],
          [
            -73.999354,
            40.759018
          ],
          [
            -73.999115,
            40.75915
          ],
          [
            -73.99887,
            40.759254
          ],
          [
            -73.998585,
            40.759342
          ],
          [
            -73.998343,
            40.759392
          ],
          [
            -73.998105,
            40.759422
          ],
          [
            -73.997857,
            40.759433
          ],
          [
            -73.997602,
            40.759424
          ],
          [
            -73.997336,
            40.759392
          ],
          [
            -73.997066,
            40.759334
          ],
          [
            -73.996812,
            40.759254
          ],
          [
            -73.996605,
            40.759175
          ],
          [
            -73.99178,
            40.757149
          ],
          [
            -73.991525,
            40.757049
          ],
          [
            -73.990618,
            40.756716
          ],
          [
            -73.990102,
            40.756507
          ],
          [
            -73.989049,
            40.756063
          ],
          [
            -73.988892,
            40.755987
          ],
          [
            -73.98846,
            40.755756
          ],
          [
            -73.988093,
            40.755591
          ],
          [
            -73.987055,
            40.75517
          ],
          [
            -73.986847,
            40.755092
          ],
          [
            -73.986704,
            40.755044
          ],
          [
            -73.98654,
            40.754998
          ],
          [
            -73.986372,
            40.754927
          ],
          [
            -73.986213,
            40.754861
          ],
          [
            -73.984668,
            40.754194
          ],
          [
            -73.984561,
            40.754154
          ],
          [
            -73.98445,
            40.754123
          ],
          [
            -73.984334,
            40.754101
          ],
          [
            -73.984216,
            40.754088
          ],
          [
            -73.984097,
            40.754084
          ],
          [
            -73.983978,
            40.75409
          ],
          [
            -73.983573,
            40.754128
          ],
          [
            -73.983455,
            40.754131
          ],
          [
            -73.983338,
            40.754125
          ],
          [
            -73.983096,
            40.754086
          ],
          [
            -73.982853,
            40.75403
          ],
          [
            -73.982615,
            40.753962
          ],
          [
            -73.982382,
            40.753886
          ],
          [
            -73.982162,
            40.753804
          ],
          [
            -73.981407,
            40.753493
          ],
          [
            -73.981216,
            40.753421
          ],
          [
            -73.981002,
            40.753354
          ],
          [
            -73.980753,
            40.753278
          ],
          [
            -73.980617,
            40.75323
          ],
          [
            -73.97758,
            40.751974
          ],
          [
            -73.977424,
            40.751915
          ],
          [
            -73.976731,
            40.751682
          ],
          [
            -73.97645,
            40.751571
          ],
          [
            -73.975219,
            40.751052
          ],
          [
            -73.968071,
            40.748055
          ],
          [
            -73.959462,
            40.744403,
            4.25
          ],
          [
            -73.957041,
            40.743377,
            4.25
          ],
          [
            -73.956786,
            40.743281,
            4.25
          ],
          [
            -73.956572,
            40.743215,
            4.25
          ],
          [
            -73.956367,
            40.743168,
            4.25
          ],
          [
            -73.954342,
            40.742762,
            4.25
          ],
          [
            -73.952426,
            40.7424,
            4.25
          ],
          [
            -73.950625,
            40.742062,
            4.25
          ],
          [
            -73.950157,
            40.742015,
            4.25
          ],
          [
            -73.949688,
            40.742045,
            4.25
          ],
          [
            -73.949222,
            40.742131,
            4.25
          ],
          [
            -73.947883,
            40.742447,
            4.25
          ],
          [
            -73.947843,
            40.742456,
            4.25
          ],
          [
            -73.94768,
            40.742504,
            3.75
          ],
          [
            -73.947576,
            40.742539,
            3.75
          ],
          [
            -73.947483,
            40.742582,
            3.75
          ],
          [
            -73.947386,
            40.742599,
            3.5
          ],
          [
            -73.947282,
            40.742625,
            3.25
          ],
          [
            -73.946959,
            40.74273,
            2.75
          ],
          [
            -73.946313,
            40.742982,
            2.75
          ],
          [
            -73.945028,
            40.743517
          ],
          [
            -73.94489,
            40.743598
          ],
          [
            -73.944811,
            40.743669
          ],
          [
            -73.94475,
            40.743741
          ],
          [
            -73.944703,
            40.74382
          ],
          [
            -73.944638,
            40.743961
          ],
          [
            -73.944626,
            40.744027
          ],
          [
            -73.944623,
            40.744098
          ],
          [
            -73.944631,
            40.744185
          ],
          [
            -73.944654,
            40.744274
          ],
          [
            -73.944688,
            40.744349
          ],
          [
            -73.945523,
            40.745573
          ],
          [
            -73.945567,
            40.745663
          ],
          [
            -73.945592,
            40.745738
          ],
          [
            -73.945603,
            40.74583
          ],
          [
            -73.945589,
            40.745976
          ],
          [
            -73.945561,
            40.746067
          ],
          [
            -73.944996,
            40.747743
          ],
          [
            -73.944981,
            40.747788
          ],
          [
            -73.944829,
            40.748217
          ],
          [
            -73.944721,
            40.748435
          ],
          [
            -73.944658,
            40.748532
          ],
          [
            -73.944484,
            40.748754
          ],
          [
            -73.944281,
            40.74899
          ],
          [
            -73.942884,
            40.750609
          ],
          [
            -73.94252,
            40.751021
          ],
          [
            -73.942406,
            40.751104
          ],
          [
            -73.942346,
            40.751137
          ],
          [
            -73.94224,
            40.751177
          ],
          [
            -73.942106,
            40.751209
          ],
          [
            -73.941958,
            40.751218
          ],
          [
            -73.941817,
            40.751205
          ],
          [
            -73.941689,
            40.751177
          ],
          [
            -73.941592,
            40.751146
          ],
          [
            -73.939499,
            40.750235
          ],
          [
            -73.939439,
            40.750209
          ],
          [
            -73.93928,
            40.750143
          ],
          [
            -73.939032,
            40.750055
          ],
          [
            -73.938765,
            40.749858
          ],
          [
            -73.938475,
            40.749705
          ],
          [
            -73.938226,
            40.749559
          ],
          [
            -73.937975,
            40.749387
          ],
          [
            -73.937762,
            40.74921
          ],
          [
            -73.937377,
            40.748837
          ],
          [
            -73.936879,
            40.748355
          ],
          [
            -73.93662,
            40.748095
          ],
          [
            -73.936309,
            40.747794
          ],
          [
            -73.935985,
            40.747482
          ],
          [
            -73.935263,
            40.74678
          ],
          [
            -73.935169,
            40.746688
          ],
          [
            -73.934846,
            40.746385
          ],
          [
            -73.934632,
            40.746203
          ],
          [
            -73.933592,
            40.745199
          ],
          [
            -73.93344,
            40.745077
          ],
          [
            -73.933269,
            40.744973
          ],
          [
            -73.933118,
            40.744898
          ],
          [
            -73.932948,
            40.744834
          ],
          [
            -73.932772,
            40.744778
          ],
          [
            -73.932555,
            40.744738
          ],
          [
            -73.932343,
            40.744709
          ],
          [
            -73.929977,
            40.744437
          ],
          [
            -73.923006,
            40.743633
          ],
          [
            -73.92153,
            40.743457
          ],
          [
            -73.917403,
            40.742982
          ],
          [
            -73.917008,
            40.74294
          ],
          [
            -73.916729,
            40.742929
          ],
          [
            -73.9166,
            40.742936
          ],
          [
            -73.916391,
            40.74296
          ],
          [
            -73.9162,
            40.743002
          ],
          [
            -73.914967,
            40.743376
          ],
          [
            -73.911649,
            40.744399
          ],
          [
            -73.910684,
            40.744681
          ],
          [
            -73.910353,
            40.744763
          ],
          [
            -73.909633,
            40.744899
          ],
          [
            -73.907713,
            40.745229
          ],
          [
            -73.907357,
            40.745284
          ],
          [
            -73.907121,
            40.745313
          ],
          [
            -73.906831,
            40.745337
          ],
          [
            -73.906521,
            40.745348
          ],
          [
            -73.905737,
            40.745355
          ],
          [
            -73.905355,
            40.745363
          ],
          [
            -73.905066,
            40.745382
          ],
          [
            -73.904641,
            40.745424
          ],
          [
            -73.904456,
            40.745442
          ],
          [
            -73.903834,
            40.745476
          ],
          [
            -73.901962,
            40.745672
          ],
          [
            -73.901636,
            40.745707
          ],
          [
            -73.900678,
            40.74584
          ],
          [
            -73.898465,
            40.746071
          ],
          [
            -73.89733,
            40.746192
          ],
          [
            -73.895406,
            40.746399
          ],
          [
            -73.893445,
            40.746603
          ],
          [
            -73.890509,
            40.746915
          ],
          [
            -73.890368,
            40.74693
          ],
          [
            -73.89012,
            40.746954
          ],
          [
            -73.888037,
            40.747177
          ],
          [
            -73.88277,
            40.747728
          ],
          [
            -73.875671,
            40.748474
          ],
          [
            -73.873779,
            40.748674
          ],
          [
            -73.871362,
            40.748923
          ],
          [
            -73.870559,
            40.748978
          ],
          [
            -73.868567,
            40.749187
          ],
          [
            -73.868169,
            40.749232
          ],
          [
            -73.867476,
            40.749334
          ],
          [
            -73.861661,
            40.749945
          ],
          [
            -73.861439,
            40.749966
          ],
          [
            -73.861142,
            40.750009
          ],
          [
            -73.860725,
            40.750089
          ],
          [
            -73.860511,
            40.750143
          ],
          [
            -73.860256,
            40.75021
          ],
          [
            -73.859095,
            40.750541
          ],
          [
            -73.857224,
            40.751103
          ],
          [
            -73.856286,
            40.751392
          ],
          [
            -73.85439,
            40.751956
          ],
          [
            -73.854212,
            40.752008
          ],
          [
            -73.853992,
            40.752094
          ],
          [
            -73.853754,
            40.752144
          ],
          [
            -73.852773,
            40.75243
          ],
          [
            -73.851468,
            40.752831
          ],
          [
            -73.850934,
            40.752988
          ],
          [
            -73.850211,
            40.753201
          ],
          [
            -73.849373,
            40.753458
          ],
          [
            -73.847598,
            40.753978
          ],
          [
            -73.847183,
            40.754109
          ],
          [
            -73.846905,
            40.75416
          ],
          [
            -73.846758,
            40.754195
          ],
          [
            -73.846471,
            40.754276
          ],
          [
            -73.845006,
            40.754713,
            4.25
          ],
          [
            -73.844596,
            40.754836,
            4.25
          ],
          [
            -73.84436,
            40.754914,
            4.25
          ],
          [
            -73.844126,
            40.755008,
            4.25
          ],
          [
            -73.843994,
            40.755069,
            4.25
          ],
          [
            -73.843831,
            40.755123,
            4.25
          ],
          [
            -73.843064,
            40.755353,
            4.25
          ],
          [
            -73.841895,
            40.755702,
            4.25
          ],
          [
            -73.841635,
            40.755787,
            4.25
          ],
          [
            -73.841119,
            40.755985,
            4.25
          ],
          [
            -73.837774,
            40.757338,
            4.25
          ],
          [
            -73.837243,
            40.757548,
            4.25
          ],
          [
            -73.837014,
            40.75763,
            4.25
          ],
          [
            -73.836767,
            40.757705,
            4.25
          ],
          [
            -73.836502,
            40.757775,
            4.25
          ],
          [
            -73.836256,
            40.757822,
            4.25
          ],
          [
            -73.834699,
            40.758087,
            9.25
          ],
          [
            -73.834275,
            40.758165
          ],
          [
            -73.833868,
            40.758263
          ],
          [
            -73.833461,
            40.758378
          ],
          [
            -73.832191,
            40.758816
          ],
          [
            -73.831722,
            40.758992
          ],
          [
            -73.831297,
            40.759135
          ],
          [
            -73.830956,
            40.75925
          ],
          [
            -73.830345,
            40.759448
          ],
          [
            -73.830104,
            40.75952
          ],
          [
            -73.829063,
            40.759782
          ],
          [
            -73.828996,
            40.759797,
            9.25
          ],
          [
            -73.829063,
            40.759782,
            9.25
          ],
          [
            -73.830104,
            40.75952,
            9.25
          ],
          [
            -73.830345,
            40.759448,
            9.25
          ],
          [
            -73.830956,
            40.75925,
            9.25
          ],
          [
            -73.831231,
            40.759195,
            9.25
          ],
          [
            -73.831505,
            40.759101,
            9.25
          ],
          [
            -73.831753,
            40.759015,
            9.25
          ],
          [
            -73.83197,
            40.758969,
            9.25
          ],
          [
            -73.83349,
            40.758432,
            9.25
          ],
          [
            -73.833893,
            40.758318,
            9.25
          ],
          [
            -73.834298,
            40.758227,
            9.25
          ],
          [
            -73.83472,
            40.758156,
            9.25
          ],
          [
            -73.836278,
            40.757892,
            4
          ],
          [
            -73.836529,
            40.757849
          ],
          [
            -73.836808,
            40.757783
          ],
          [
            -73.837056,
            40.757703
          ],
          [
            -73.841164,
            40.756047
          ],
          [
            -73.841672,
            40.755852
          ],
          [
            -73.842076,
            40.755724
          ],
          [
            -73.843413,
            40.755326
          ],
          [
            -73.844513,
            40.754998
          ],
          [
            -73.846401,
            40.754434
          ],
          [
            -73.846534,
            40.754394
          ],
          [
            -73.846963,
            40.754269
          ],
          [
            -73.847195,
            40.754182
          ],
          [
            -73.847451,
            40.754134
          ],
          [
            -73.847785,
            40.754048
          ],
          [
            -73.84942,
            40.753562
          ],
          [
            -73.852838,
            40.75254
          ],
          [
            -73.853809,
            40.752251
          ],
          [
            -73.854276,
            40.752112
          ],
          [
            -73.856325,
            40.7515
          ],
          [
            -73.860574,
            40.750239
          ],
          [
            -73.861137,
            40.750105
          ],
          [
            -73.861685,
            40.750015
          ],
          [
            -73.862089,
            40.74997
          ],
          [
            -73.86369,
            40.749803
          ],
          [
            -73.867493,
            40.749405
          ],
          [
            -73.868283,
            40.749352
          ],
          [
            -73.868923,
            40.749284
          ],
          [
            -73.870578,
            40.749109
          ],
          [
            -73.870914,
            40.749066
          ],
          [
            -73.871103,
            40.749033
          ],
          [
            -73.871379,
            40.748997
          ],
          [
            -73.875305,
            40.748583
          ],
          [
            -73.877696,
            40.748331
          ],
          [
            -73.884764,
            40.74759
          ],
          [
            -73.889331,
            40.747108
          ],
          [
            -73.892358,
            40.74679
          ],
          [
            -73.892397,
            40.746786
          ],
          [
            -73.892688,
            40.746757
          ],
          [
            -73.89741,
            40.74626
          ],
          [
            -73.898688,
            40.746122
          ],
          [
            -73.900696,
            40.74592
          ],
          [
            -73.900992,
            40.745893
          ],
          [
            -73.901642,
            40.745853
          ],
          [
            -73.903623,
            40.745641
          ],
          [
            -73.90399,
            40.745596
          ],
          [
            -73.904373,
            40.745529
          ],
          [
            -73.90466,
            40.745492
          ],
          [
            -73.905083,
            40.745453
          ],
          [
            -73.905394,
            40.745437
          ],
          [
            -73.90576,
            40.745427
          ],
          [
            -73.906637,
            40.745421
          ],
          [
            -73.906845,
            40.745414
          ],
          [
            -73.907135,
            40.74539
          ],
          [
            -73.907599,
            40.745324
          ],
          [
            -73.90984,
            40.744941
          ],
          [
            -73.910372,
            40.744832
          ],
          [
            -73.910873,
            40.744708
          ],
          [
            -73.913558,
            40.743887
          ],
          [
            -73.91608,
            40.743117
          ],
          [
            -73.916256,
            40.743074
          ],
          [
            -73.916478,
            40.743035
          ],
          [
            -73.916707,
            40.743012
          ],
          [
            -73.916881,
            40.743011
          ],
          [
            -73.917168,
            40.74303
          ],
          [
            -73.9195,
            40.7433
          ],
          [
            -73.92152,
            40.743539
          ],
          [
            -73.925099,
            40.743946
          ],
          [
            -73.932063,
            40.744754
          ],
          [
            -73.932379,
            40.744792
          ],
          [
            -73.932532,
            40.744816
          ],
          [
            -73.932706,
            40.744852
          ],
          [
            -73.93288,
            40.7449
          ],
          [
            -73.933022,
            40.744952
          ],
          [
            -73.933214,
            40.745043
          ],
          [
            -73.93337,
            40.74514
          ],
          [
            -73.933562,
            40.745289
          ],
          [
            -73.933659,
            40.745375
          ],
          [
            -73.934521,
            40.746214
          ],
          [
            -73.934769,
            40.746489
          ],
          [
            -73.935039,
            40.746755
          ],
          [
            -73.935255,
            40.746954
          ],
          [
            -73.935614,
            40.747243
          ],
          [
            -73.935906,
            40.74753
          ],
          [
            -73.936251,
            40.747863
          ],
          [
            -73.93654,
            40.748142
          ],
          [
            -73.936776,
            40.74838
          ],
          [
            -73.937431,
            40.749014
          ],
          [
            -73.937799,
            40.749321
          ],
          [
            -73.937932,
            40.749423
          ],
          [
            -73.938248,
            40.749633
          ],
          [
            -73.938438,
            40.749747
          ],
          [
            -73.938844,
            40.749947
          ],
          [
            -73.939402,
            40.75018
          ],
          [
            -73.94105,
            40.750914
          ],
          [
            -73.941593,
            40.75115
          ],
          [
            -73.941682,
            40.751182
          ],
          [
            -73.941819,
            40.75121
          ],
          [
            -73.941958,
            40.751221
          ],
          [
            -73.942106,
            40.751212
          ],
          [
            -73.942241,
            40.75118
          ],
          [
            -73.942348,
            40.75114
          ],
          [
            -73.942469,
            40.751071
          ],
          [
            -73.942665,
            40.750911
          ],
          [
            -73.943765,
            40.749653
          ],
          [
            -73.944695,
            40.748565
          ],
          [
            -73.944827,
            40.748346
          ],
          [
            -73.944877,
            40.748238
          ],
          [
            -73.944925,
            40.748105
          ],
          [
            -73.945484,
            40.746428,
            2.75
          ],
          [
            -73.945505,
            40.746366,
            2.75
          ],
          [
            -73.945632,
            40.745987,
            2.75
          ],
          [
            -73.945651,
            40.745906,
            2.75
          ],
          [
            -73.945659,
            40.74582,
            2.75
          ],
          [
            -73.945648,
            40.745738,
            2.75
          ],
          [
            -73.945614,
            40.745649,
            2.75
          ],
          [
            -73.945565,
            40.745554,
            2.75
          ],
          [
            -73.944789,
            40.744438,
            2.75
          ],
          [
            -73.94473,
            40.744336,
            2.75
          ],
          [
            -73.944701,
            40.744265,
            2.75
          ],
          [
            -73.94467,
            40.7441,
            2.75
          ],
          [
            -73.94469,
            40.743958,
            2.75
          ],
          [
            -73.94475,
            40.743825,
            2.75
          ],
          [
            -73.944797,
            40.743755,
            2.75
          ],
          [
            -73.944852,
            40.743693,
            2.75
          ],
          [
            -73.944932,
            40.743622,
            2.75
          ],
          [
            -73.945054,
            40.743546,
            2.75
          ],
          [
            -73.946338,
            40.743015,
            2.75
          ],
          [
            -73.946978,
            40.742761,
            2.75
          ],
          [
            -73.947298,
            40.742656,
            3.25
          ],
          [
            -73.947483,
            40.742582,
            3.75
          ],
          [
            -73.94769,
            40.742539,
            3.75
          ],
          [
            -73.947859,
            40.742493,
            4
          ],
          [
            -73.949243,
            40.742169
          ],
          [
            -73.949705,
            40.742084
          ],
          [
            -73.949919,
            40.742071
          ],
          [
            -73.950163,
            40.742056
          ],
          [
            -73.950617,
            40.742103
          ],
          [
            -73.954318,
            40.742797
          ],
          [
            -73.95635,
            40.743207
          ],
          [
            -73.956537,
            40.743256
          ],
          [
            -73.956715,
            40.743315
          ],
          [
            -73.957514,
            40.743659
          ],
          [
            -73.960392,
            40.744878
          ],
          [
            -73.968029,
            40.748117
          ],
          [
            -73.968955,
            40.748507
          ],
          [
            -73.974779,
            40.750959
          ],
          [
            -73.976943,
            40.751873
          ],
          [
            -73.977459,
            40.752091
          ],
          [
            -73.977751,
            40.752196
          ],
          [
            -73.978319,
            40.752381
          ],
          [
            -73.978582,
            40.752476
          ],
          [
            -73.980088,
            40.753099
          ],
          [
            -73.980268,
            40.753167
          ],
          [
            -73.980951,
            40.753392
          ],
          [
            -73.982119,
            40.753878
          ],
          [
            -73.982337,
            40.753963
          ],
          [
            -73.982577,
            40.75404
          ],
          [
            -73.982819,
            40.754105
          ],
          [
            -73.982966,
            40.754139
          ],
          [
            -73.983112,
            40.754165
          ],
          [
            -73.983228,
            40.75418
          ],
          [
            -73.983345,
            40.754185
          ],
          [
            -73.983462,
            40.754182
          ],
          [
            -73.984078,
            40.754126
          ],
          [
            -73.984196,
            40.754128
          ],
          [
            -73.984312,
            40.75414
          ],
          [
            -73.984426,
            40.75416
          ],
          [
            -73.984537,
            40.754191
          ],
          [
            -73.984642,
            40.754229
          ],
          [
            -73.986186,
            40.754897
          ],
          [
            -73.98634,
            40.754963
          ],
          [
            -73.98644,
            40.755007
          ],
          [
            -73.986797,
            40.755164
          ],
          [
            -73.988226,
            40.755771
          ],
          [
            -73.988583,
            40.755911
          ],
          [
            -73.990078,
            40.75654
          ],
          [
            -73.992004,
            40.757357
          ],
          [
            -73.996662,
            40.759317
          ],
          [
            -73.996977,
            40.759436
          ],
          [
            -73.997302,
            40.759521
          ],
          [
            -73.997594,
            40.759565
          ],
          [
            -73.997868,
            40.759582
          ],
          [
            -73.998141,
            40.759574
          ],
          [
            -73.998402,
            40.759544
          ],
          [
            -73.998684,
            40.759485
          ],
          [
            -73.998754,
            40.759462
          ],
          [
            -73.998963,
            40.759397
          ],
          [
            -73.999227,
            40.759283
          ],
          [
            -73.999478,
            40.759138
          ],
          [
            -73.999715,
            40.758957
          ],
          [
            -73.999871,
            40.758805
          ],
          [
            -74.000006,
            40.758638
          ],
          [
            -74.000873,
            40.757448
          ],
          [
            -74.000964,
            40.757277
          ],
          [
            -74.001038,
            40.757096
          ],
          [
            -74.001111,
            40.756916
          ],
          [
            -74.001202,
            40.756743
          ],
          [
            -74.001829,
            40.755884
          ],
          [
            -74.002299,
            40.75524
          ]
        ]
      }
    }
  ]
}