{
  "type": "FeatureCollection",
  "features": [
    {
      "type": "Feature",
      "properties": {
        "creator": "BRouter-1.7.9",
        "name": "[MTA] Z Train",
        "track-length": "43073",
        "filtered ascend": "2",
        "plain-ascend": "-1",
        "total-time": "3447",
        "total-energy": "1892356",
        "cost": "86146",
        "messages": [
          [
            "Longitude",
            "Latitude",
            "Elevation",
            "Distance",
            "CostPerKm",
            "ElevCost",
            "TurnCost",
            "NodeCost",
            "InitialCost",
            "WayTags",
            "NodeTags",
            "Time",
            "Energy"
          ],
          [
            "-74010663",
            "40707072",
            "-8192",
            "94",
            "2000",
            "0",
            "0",
            "0",
            "0",
            "railway=subway",
            "wheelchair=no railway=halt",
            "7",
            "4134"
          ],
          [
            "-74007010",
            "40710814",
            "-8192",
            "519",
            "2000",
            "0",
            "0",
            "0",
            "0",
            "railway=subway",
            "wheelchair=yes railway=halt",
            "49",
            "26962"
          ],
          [
            "-74003064",
            "40713597",
            "-8192",
            "459",
            "2000",
            "0",
            "0",
            "0",
            "0",
            "railway=subway",
            "wheelchair=no railway=halt",
            "85",
            "47152"
          ],
          [
            "-74001712",
            "40715609",
            "-8192",
            "253",
            "2000",
            "0",
            "0",
            "0",
            "0",
            "railway=subway",
            "railway=switch",
            "105",
            "58280"
          ],
          [
            "-74001465",
            "40716018",
            "-8192",
            "50",
            "2000",
            "0",
            "0",
            "0",
            "0",
            "railway=subway",
            "railway=switch",
            "109",
            "60479"
          ],
          [
            "-74001179",
            "40716410",
            "-8192",
            "50",
            "2000",
            "0",
            "0",
            "0",
            "0",
            "railway=subway",
            "railway=switch",
            "113",
            "62678"
          ],
          [
            "-74001056",
            "40716615",
            "-8192",
            "25",
            "2000",
            "0",
            "0",
            "0",
            "0",
            "railway=subway",
            "railway=unknown",
            "115",
            "63778"
          ],
          [
            "-74000933",
            "40716820",
            "-8192",
            "25",
            "2000",
            "0",
            "0",
            "0",
            "0",
            "railway=subway",
            "railway=switch",
            "117",
            "64878"
          ],
          [
            "-74000796",
            "40717025",
            "-8192",
            "26",
            "2000",
            "0",
            "0",
            "0",
            "0",
            "railway=subway",
            "railway=switch",
            "120",
            "66021"
          ],
          [
            "-73991040",
            "40719361",
            "-8192",
            "1101",
            "2000",
            "0",
            "0",
            "0",
            "0",
            "railway=subway",
            "railway=switch",
            "208",
            "114449"
          ],
          [
            "-73990508",
            "40719199",
            "-8192",
            "48",
            "2000",
            "0",
            "0",
            "0",
            "0",
            "railway=subway",
            "railway=switch",
            "211",
            "116560"
          ],
          [
            "-73988220",
            "40718529",
            "11",
            "207",
            "2000",
            "0",
            "0",
            "0",
            "0",
            "railway=subway",
            "highway=crossing crossing=traffic_signals bicycle=yes",
            "228",
            "125665"
          ],
          [
            "-73986726",
            "40718086",
            "10",
            "135",
            "2000",
            "0",
            "0",
            "0",
            "0",
            "railway=subway",
            "wheelchair=no railway=halt",
            "239",
            "131603"
          ],
          [
            "-73985736",
            "40717689",
            "9",
            "94",
            "2000",
            "0",
            "0",
            "0",
            "0",
            "railway=subway",
            "railway=switch",
            "246",
            "135738"
          ],
          [
            "-73956890",
            "40708016",
            "-8192",
            "2679",
            "2000",
            "0",
            "0",
            "0",
            "0",
            "railway=subway",
            "wheelchair=yes railway=halt",
            "461",
            "251367"
          ],
          [
            "-73956631",
            "40707931",
            "-8192",
            "24",
            "2000",
            "0",
            "0",
            "0",
            "0",
            "railway=subway",
            "railway=switch",
            "463",
            "252423"
          ],
          [
            "-73955855",
            "40707707",
            "-8192",
            "70",
            "2000",
            "0",
            "0",
            "0",
            "0",
            "railway=subway",
            "railway=switch",
            "468",
            "255502"
          ],
          [
            "-73955365",
            "40707541",
            "-8192",
            "45",
            "2000",
            "0",
            "0",
            "0",
            "0",
            "reversedirection=yes railway=subway",
            "railway=switch",
            "472",
            "257481"
          ],
          [
            "-73955120",
            "40707455",
            "-8192",
            "23",
            "2000",
            "0",
            "0",
            "0",
            "0",
            "reversedirection=yes railway=subway",
            "railway=switch",
            "474",
            "258493"
          ],
          [
            "-73954873",
            "40707371",
            "-8192",
            "23",
            "2000",
            "0",
            "0",
            "0",
            "0",
            "reversedirection=yes railway=subway",
            "railway=switch",
            "475",
            "259504"
          ],
          [
            "-73936468",
            "40697664",
            "-8192",
            "1897",
            "2000",
            "0",
            "0",
            "0",
            "0",
            "reversedirection=yes railway=subway",
            "wheelchair=no railway=halt",
            "627",
            "342945"
          ],
          [
            "-73935069",
            "40696878",
            "-8192",
            "147",
            "2000",
            "0",
            "0",
            "0",
            "0",
            "reversedirection=yes railway=subway",
            "",
            "639",
            "349410"
          ],
          [
            "-73934950",
            "40696812",
            "-8192",
            "12",
            "2000",
            "0",
            "0",
            "0",
            "0",
            "reversedirection=yes railway=subway",
            "wheelchair=no railway=halt",
            "0",
            "527"
          ],
          [
            "-73934845",
            "40696753",
            "-8192",
            "11",
            "2000",
            "0",
            "0",
            "0",
            "0",
            "reversedirection=yes railway=subway",
            "railway=switch",
            "1",
            "1011"
          ],
          [
            "-73934571",
            "40696596",
            "-8192",
            "29",
            "2000",
            "0",
            "0",
            "0",
            "0",
            "reversedirection=yes railway=subway",
            "railway=switch",
            "4",
            "2287"
          ],
          [
            "-73934311",
            "40696453",
            "-8192",
            "27",
            "2000",
            "0",
            "0",
            "0",
            "0",
            "reversedirection=yes railway=subway",
            "railway=switch",
            "6",
            "3474"
          ],
          [
            "-73933936",
            "40696193",
            "-8192",
            "43",
            "2000",
            "0",
            "0",
            "0",
            "0",
            "railway=subway",
            "railway=switch",
            "9",
            "5366"
          ],
          [
            "-73933877",
            "40696159",
            "-8192",
            "6",
            "2000",
            "0",
            "0",
            "0",
            "0",
            "railway=subway",
            "railway=switch",
            "10",
            "5630"
          ],
          [
            "-73928073",
            "40692874",
            "-8192",
            "612",
            "2000",
            "0",
            "0",
            "0",
            "0",
            "railway=subway",
            "wheelchair=no railway=halt",
            "59",
            "32549"
          ],
          [
            "-73921509",
            "40689145",
            "-8192",
            "693",
            "2000",
            "0",
            "0",
            "0",
            "0",
            "railway=subway",
            "wheelchair=no railway=halt",
            "114",
            "63030"
          ],
          [
            "-73915852",
            "40685919",
            "-8192",
            "598",
            "2000",
            "0",
            "0",
            "0",
            "0",
            "railway=subway",
            "wheelchair=no railway=halt",
            "162",
            "89334"
          ],
          [
            "-73909864",
            "40682518",
            "-8192",
            "632",
            "2000",
            "0",
            "0",
            "0",
            "0",
            "railway=subway",
            "",
            "213",
            "117132"
          ],
          [
            "-73909745",
            "40682451",
            "-8192",
            "13",
            "2000",
            "0",
            "0",
            "0",
            "0",
            "railway=subway",
            "wheelchair=no railway=halt",
            "1",
            "571"
          ],
          [
            "-73907549",
            "40681195",
            "-8192",
            "232",
            "2000",
            "0",
            "0",
            "0",
            "0",
            "railway=subway",
            "railway=switch",
            "19",
            "10776"
          ],
          [
            "-73907042",
            "40680955",
            "-8192",
            "50",
            "2000",
            "0",
            "0",
            "0",
            "0",
            "railway=subway",
            "railway=switch",
            "23",
            "12975"
          ],
          [
            "-73906972",
            "40680915",
            "-8192",
            "7",
            "2000",
            "0",
            "0",
            "0",
            "0",
            "reversedirection=yes railway=subway",
            "railway=switch",
            "24",
            "13283"
          ],
          [
            "-73906419",
            "40680598",
            "-8192",
            "59",
            "2000",
            "0",
            "0",
            "0",
            "0",
            "reversedirection=yes railway=subway",
            "railway=switch",
            "28",
            "15878"
          ],
          [
            "-73905264",
            "40679937",
            "-8192",
            "122",
            "2000",
            "0",
            "0",
            "0",
            "0",
            "reversedirection=yes railway=subway",
            "wheelchair=no railway=halt",
            "38",
            "21244"
          ],
          [
            "-73903741",
            "40679057",
            "-8192",
            "162",
            "2000",
            "0",
            "0",
            "0",
            "0",
            "reversedirection=yes railway=subway",
            "",
            "51",
            "28370"
          ],
          [
            "-73903617",
            "40678987",
            "-8192",
            "13",
            "2000",
            "0",
            "0",
            "0",
            "0",
            "reversedirection=yes railway=subway",
            "wheelchair=no railway=halt",
            "1",
            "571"
          ],
          [
            "-73903257",
            "40678772",
            "-8192",
            "39",
            "2000",
            "0",
            "0",
            "0",
            "0",
            "reversedirection=yes railway=subway",
            "railway=switch",
            "4",
            "2287"
          ],
          [
            "-73902178",
            "40678146",
            "-8192",
            "115",
            "2000",
            "0",
            "0",
            "0",
            "0",
            "reversedirection=yes railway=subway",
            "railway=switch",
            "13",
            "7345"
          ],
          [
            "-73901122",
            "40677428",
            "-8192",
            "120",
            "2000",
            "0",
            "0",
            "0",
            "0",
            "railway=subway",
            "railway=switch",
            "22",
            "12623"
          ],
          [
            "-73900746",
            "40677210",
            "-8192",
            "40",
            "2000",
            "0",
            "0",
            "0",
            "0",
            "railway=subway",
            "",
            "26",
            "14383"
          ],
          [
            "-73899630",
            "40676818",
            "-8192",
            "109",
            "2000",
            "0",
            "0",
            "0",
            "0",
            "railway=subway",
            "railway=switch",
            "8",
            "4794"
          ],
          [
            "-73897671",
            "40677110",
            "-8192",
            "169",
            "2000",
            "0",
            "0",
            "0",
            "0",
            "railway=subway",
            "wheelchair=no railway=halt",
            "22",
            "12227"
          ],
          [
            "-73890713",
            "40678142",
            "-8192",
            "600",
            "2000",
            "0",
            "0",
            "0",
            "0",
            "railway=subway",
            "wheelchair=no railway=halt",
            "70",
            "38619"
          ],
          [
            "-73883846",
            "40680169",
            "-8192",
            "624",
            "2000",
            "0",
            "0",
            "0",
            "0",
            "railway=subway",
            "wheelchair=no railway=halt",
            "120",
            "66065"
          ],
          [
            "-73879006",
            "40681679",
            "-8192",
            "442",
            "2000",
            "0",
            "0",
            "0",
            "0",
            "railway=subway",
            "wheelchair=no railway=halt",
            "155",
            "85507"
          ],
          [
            "-73872770",
            "40683448",
            "-8192",
            "563",
            "2000",
            "0",
            "0",
            "0",
            "0",
            "railway=subway",
            "wheelchair=no railway=halt",
            "200",
            "110271"
          ],
          [
            "-73872426",
            "40684567",
            "-8192",
            "148",
            "2000",
            "0",
            "0",
            "0",
            "0",
            "railway=subway",
            "railway=switch",
            "212",
            "116780"
          ],
          [
            "-73873228",
            "40687090",
            "-8192",
            "288",
            "2000",
            "0",
            "0",
            "0",
            "0",
            "railway=subway",
            "railway=switch",
            "235",
            "129448"
          ],
          [
            "-73871860",
            "40690199",
            "-8192",
            "444",
            "2000",
            "0",
            "0",
            "0",
            "0",
            "railway=subway",
            "wheelchair=no railway=halt",
            "270",
            "148978"
          ],
          [
            "-73866227",
            "40691431",
            "-8192",
            "497",
            "2000",
            "0",
            "0",
            "0",
            "0",
            "railway=subway",
            "wheelchair=no railway=halt",
            "310",
            "170838"
          ],
          [
            "-73858984",
            "40692498",
            "-8192",
            "624",
            "2000",
            "0",
            "0",
            "0",
            "0",
            "railway=subway",
            "wheelchair=no railway=halt",
            "360",
            "198285"
          ],
          [
            "-73850546",
            "40694186",
            "-8192",
            "749",
            "2000",
            "0",
            "0",
            "0",
            "0",
            "railway=subway",
            "wheelchair=no railway=halt",
            "420",
            "231230"
          ],
          [
            "-73843312",
            "40695163",
            "-8192",
            "625",
            "2000",
            "0",
            "0",
            "0",
            "0",
            "railway=subway",
            "wheelchair=no railway=halt",
            "470",
            "258721"
          ],
          [
            "-73835507",
            "40697869",
            "-8192",
            "756",
            "2000",
            "0",
            "0",
            "0",
            "0",
            "railway=subway",
            "wheelchair=no railway=halt",
            "531",
            "291974"
          ],
          [
            "-73835033",
            "40698129",
            "-8192",
            "49",
            "2000",
            "0",
            "0",
            "0",
            "0",
            "railway=subway",
            "railway=switch",
            "534",
            "294129"
          ],
          [
            "-73827365",
            "40700613",
            "-8192",
            "714",
            "2000",
            "0",
            "0",
            "0",
            "0",
            "railway=subway",
            "wheelchair=no railway=halt",
            "592",
            "325534"
          ],
          [
            "-73827125",
            "40700651",
            "-8192",
            "21",
            "2000",
            "0",
            "0",
            "0",
            "0",
            "railway=subway",
            "railway=switch",
            "593",
            "326458"
          ],
          [
            "-73826672",
            "40700725",
            "-8192",
            "39",
            "2000",
            "0",
            "0",
            "0",
            "0",
            "railway=subway",
            "",
            "596",
            "328174"
          ],
          [
            "-73826215",
            "40700800",
            "-8192",
            "39",
            "2000",
            "0",
            "0",
            "0",
            "0",
            "railway=subway",
            "railway=switch",
            "3",
            "1715"
          ],
          [
            "-73806994",
            "40700703",
            "-8192",
            "1783",
            "2000",
            "0",
            "0",
            "0",
            "0",
            "railway=subway",
            "wheelchair=yes railway=halt",
            "145",
            "77933"
          ],
          [
            "-73805297",
            "40701135",
            "-8192",
            "151",
            "2000",
            "0",
            "0",
            "0",
            "0",
            "railway=subway",
            "railway=switch",
            "157",
            "84575"
          ],
          [
            "-73805151",
            "40701178",
            "-8192",
            "13",
            "2000",
            "0",
            "0",
            "0",
            "0",
            "railway=subway",
            "railway=switch",
            "158",
            "85147"
          ],
          [
            "-73800660",
            "40702235",
            "-8192",
            "398",
            "2000",
            "0",
            "0",
            "0",
            "0",
            "railway=subway",
            "wheelchair=yes railway=halt",
            "190",
            "102653"
          ],
          [
            "-73800067",
            "40702377",
            "-8192",
            "53",
            "2000",
            "0",
            "0",
            "0",
            "0",
            "railway=subway",
            "",
            "194",
            "104984"
          ],
          [
            "-73800660",
            "40702235",
            "-8192",
            "53",
            "2000",
            "0",
            "0",
            "0",
            "0",
            "reversedirection=yes railway=subway",
            "wheelchair=yes railway=halt",
            "4",
            "2331"
          ],
          [
            "-73805151",
            "40701178",
            "-8192",
            "398",
            "2000",
            "0",
            "0",
            "0",
            "0",
            "reversedirection=yes railway=subway",
            "railway=switch",
            "36",
            "19837"
          ],
          [
            "-73805229",
            "40701173",
            "-8192",
            "7",
            "2000",
            "0",
            "0",
            "0",
            "0",
            "railway=subway",
            "railway=unknown",
            "36",
            "20145"
          ],
          [
            "-73805314",
            "40701172",
            "-8192",
            "7",
            "2000",
            "0",
            "0",
            "0",
            "0",
            "railway=subway",
            "railway=switch",
            "37",
            "20453"
          ],
          [
            "-73808669",
            "40700277",
            "-8192",
            "302",
            "2000",
            "0",
            "0",
            "0",
            "0",
            "railway=subway",
            "wheelchair=yes railway=halt",
            "61",
            "33736"
          ],
          [
            "-73826234",
            "40700875",
            "-8192",
            "1637",
            "2000",
            "0",
            "0",
            "0",
            "0",
            "railway=subway",
            "railway=switch",
            "192",
            "107942"
          ],
          [
            "-73826749",
            "40700789",
            "-8192",
            "45",
            "2000",
            "0",
            "0",
            "0",
            "0",
            "railway=subway",
            "",
            "195",
            "109923"
          ],
          [
            "-73827136",
            "40700725",
            "-8192",
            "33",
            "2000",
            "0",
            "0",
            "0",
            "0",
            "railway=subway",
            "railway=switch",
            "2",
            "1451"
          ],
          [
            "-73829254",
            "40700375",
            "-8192",
            "183",
            "2000",
            "0",
            "0",
            "0",
            "0",
            "railway=subway",
            "wheelchair=no railway=halt",
            "17",
            "9500"
          ],
          [
            "-73835425",
            "40698002",
            "-8192",
            "594",
            "2000",
            "0",
            "0",
            "0",
            "0",
            "railway=subway",
            "railway=switch",
            "64",
            "35628"
          ],
          [
            "-73836980",
            "40697053",
            "-8192",
            "168",
            "2000",
            "0",
            "0",
            "0",
            "0",
            "railway=subway",
            "wheelchair=no railway=halt",
            "78",
            "43017"
          ],
          [
            "-73845322",
            "40695212",
            "-8192",
            "767",
            "2000",
            "0",
            "0",
            "0",
            "0",
            "railway=subway",
            "wheelchair=no railway=halt",
            "139",
            "76754"
          ],
          [
            "-73852502",
            "40693587",
            "-8192",
            "638",
            "2000",
            "0",
            "0",
            "0",
            "0",
            "railway=subway",
            "wheelchair=no railway=halt",
            "190",
            "104816"
          ],
          [
            "-73860997",
            "40692344",
            "-8192",
            "737",
            "2000",
            "0",
            "0",
            "0",
            "0",
            "railway=subway",
            "wheelchair=no railway=halt",
            "249",
            "137233"
          ],
          [
            "-73868163",
            "40691206",
            "-8192",
            "620",
            "2000",
            "0",
            "0",
            "0",
            "0",
            "railway=subway",
            "wheelchair=no railway=halt",
            "299",
            "164504"
          ],
          [
            "-73873242",
            "40689692",
            "-8192",
            "463",
            "2000",
            "0",
            "0",
            "0",
            "0",
            "railway=subway",
            "wheelchair=no railway=halt",
            "336",
            "184870"
          ],
          [
            "-73873214",
            "40686787",
            "-8192",
            "359",
            "2000",
            "0",
            "0",
            "0",
            "0",
            "railway=subway",
            "railway=switch",
            "364",
            "200660"
          ],
          [
            "-73872649",
            "40685024",
            "-8192",
            "201",
            "2000",
            "0",
            "0",
            "0",
            "0",
            "railway=subway",
            "",
            "381",
            "209501"
          ],
          [
            "-73872428",
            "40684325",
            "-8192",
            "80",
            "2000",
            "0",
            "0",
            "0",
            "0",
            "railway=subway",
            "railway=switch",
            "6",
            "3518"
          ],
          [
            "-73874624",
            "40683003",
            "-8192",
            "271",
            "2000",
            "0",
            "0",
            "0",
            "0",
            "railway=subway",
            "wheelchair=no railway=halt",
            "28",
            "15438"
          ],
          [
            "-73880865",
            "40681194",
            "-8192",
            "565",
            "2000",
            "0",
            "0",
            "0",
            "0",
            "railway=subway",
            "wheelchair=no railway=halt",
            "73",
            "40290"
          ],
          [
            "-73885681",
            "40679661",
            "-8192",
            "441",
            "2000",
            "0",
            "0",
            "0",
            "0",
            "railway=subway",
            "wheelchair=no railway=halt",
            "108",
            "59687"
          ],
          [
            "-73892657",
            "40677927",
            "-8192",
            "625",
            "2000",
            "0",
            "0",
            "0",
            "0",
            "railway=subway",
            "wheelchair=no railway=halt",
            "158",
            "87178"
          ],
          [
            "-73899640",
            "40676887",
            "-8192",
            "602",
            "2000",
            "0",
            "0",
            "0",
            "0",
            "railway=subway",
            "wheelchair=no railway=halt",
            "206",
            "113657"
          ],
          [
            "-73899683",
            "40676881",
            "-8192",
            "4",
            "2000",
            "0",
            "0",
            "0",
            "0",
            "railway=subway",
            "railway=switch",
            "207",
            "113833"
          ],
          [
            "-73901813",
            "40677978",
            "-8192",
            "223",
            "2000",
            "0",
            "0",
            "0",
            "0",
            "railway=subway",
            "railway=switch",
            "224",
            "123642"
          ],
          [
            "-73902178",
            "40678146",
            "-8192",
            "36",
            "2000",
            "0",
            "0",
            "0",
            "0",
            "railway=subway",
            "railway=switch",
            "227",
            "125226"
          ],
          [
            "-73903257",
            "40678772",
            "-8192",
            "115",
            "2000",
            "0",
            "0",
            "0",
            "0",
            "railway=subway",
            "railway=switch",
            "236",
            "130284"
          ],
          [
            "-73903617",
            "40678987",
            "-8192",
            "39",
            "2000",
            "0",
            "0",
            "0",
            "0",
            "railway=subway",
            "wheelchair=no railway=halt",
            "240",
            "131999"
          ],
          [
            "-73905041",
            "40679808",
            "-8192",
            "151",
            "2000",
            "0",
            "0",
            "0",
            "0",
            "railway=subway",
            "",
            "252",
            "138641"
          ],
          [
            "-73905264",
            "40679937",
            "-8192",
            "24",
            "2000",
            "0",
            "0",
            "0",
            "0",
            "railway=subway",
            "wheelchair=no railway=halt",
            "1",
            "1055"
          ],
          [
            "-73906419",
            "40680598",
            "-8192",
            "122",
            "2000",
            "0",
            "0",
            "0",
            "0",
            "railway=subway",
            "railway=switch",
            "11",
            "6421"
          ],
          [
            "-73906972",
            "40680915",
            "-8192",
            "59",
            "2000",
            "0",
            "0",
            "0",
            "0",
            "railway=subway",
            "railway=switch",
            "16",
            "9016"
          ],
          [
            "-73907042",
            "40680955",
            "-8192",
            "7",
            "2000",
            "0",
            "0",
            "0",
            "0",
            "railway=subway",
            "railway=switch",
            "16",
            "9324"
          ],
          [
            "-73907501",
            "40681217",
            "-8192",
            "49",
            "2000",
            "0",
            "0",
            "0",
            "0",
            "railway=subway",
            "railway=switch",
            "20",
            "11480"
          ],
          [
            "-73907964",
            "40681526",
            "-8192",
            "52",
            "2000",
            "0",
            "0",
            "0",
            "0",
            "railway=subway",
            "railway=switch",
            "25",
            "13767"
          ],
          [
            "-73911139",
            "40683324",
            "-8192",
            "334",
            "2000",
            "0",
            "0",
            "0",
            "0",
            "railway=subway",
            "",
            "51",
            "28458"
          ],
          [
            "-73911194",
            "40683356",
            "-8192",
            "6",
            "2000",
            "0",
            "0",
            "0",
            "0",
            "railway=subway",
            "wheelchair=no railway=halt",
            "0",
            "263"
          ],
          [
            "-73917313",
            "40686833",
            "-8192",
            "646",
            "2000",
            "0",
            "0",
            "0",
            "0",
            "railway=subway",
            "wheelchair=no railway=halt",
            "52",
            "28678"
          ],
          [
            "-73922995",
            "40690074",
            "-8192",
            "601",
            "2000",
            "0",
            "0",
            "0",
            "0",
            "railway=subway",
            "wheelchair=no railway=halt",
            "100",
            "55113"
          ],
          [
            "-73929545",
            "40693794",
            "-8192",
            "691",
            "2000",
            "0",
            "0",
            "0",
            "0",
            "railway=subway",
            "wheelchair=no railway=halt",
            "155",
            "85507"
          ],
          [
            "-73933012",
            "40695767",
            "-8192",
            "366",
            "2000",
            "0",
            "0",
            "0",
            "0",
            "railway=subway",
            "",
            "184",
            "101605"
          ],
          [
            "-73933419",
            "40696000",
            "-8192",
            "43",
            "2000",
            "0",
            "0",
            "0",
            "0",
            "railway=subway",
            "railway=switch",
            "3",
            "1891"
          ],
          [
            "-73933845",
            "40696190",
            "-8192",
            "42",
            "2000",
            "0",
            "0",
            "0",
            "0",
            "railway=subway",
            "railway=switch",
            "6",
            "3738"
          ],
          [
            "-73933905",
            "40696224",
            "-8192",
            "6",
            "2000",
            "0",
            "0",
            "0",
            "0",
            "railway=subway",
            "railway=switch",
            "7",
            "4002"
          ],
          [
            "-73934311",
            "40696453",
            "-8192",
            "43",
            "2000",
            "0",
            "0",
            "0",
            "0",
            "railway=subway",
            "railway=switch",
            "10",
            "5894"
          ],
          [
            "-73934358",
            "40696478",
            "-8192",
            "5",
            "2000",
            "0",
            "0",
            "0",
            "0",
            "railway=subway",
            "",
            "11",
            "6113"
          ],
          [
            "-73934571",
            "40696596",
            "-8192",
            "22",
            "2000",
            "0",
            "0",
            "0",
            "0",
            "railway=subway",
            "railway=switch",
            "1",
            "967"
          ],
          [
            "-73934845",
            "40696753",
            "-8192",
            "29",
            "2000",
            "0",
            "0",
            "0",
            "0",
            "railway=subway",
            "railway=switch",
            "4",
            "2243"
          ],
          [
            "-73934950",
            "40696812",
            "-8192",
            "11",
            "2000",
            "0",
            "0",
            "0",
            "0",
            "railway=subway",
            "wheelchair=no railway=halt",
            "4",
            "2727"
          ],
          [
            "-73935223",
            "40696964",
            "-8192",
            "29",
            "2000",
            "0",
            "0",
            "0",
            "0",
            "railway=subway",
            "",
            "7",
            "4002"
          ],
          [
            "-73936468",
            "40697664",
            "-8192",
            "131",
            "2000",
            "0",
            "0",
            "0",
            "0",
            "railway=subway",
            "wheelchair=no railway=halt",
            "10",
            "5762"
          ],
          [
            "-73954873",
            "40707371",
            "-8192",
            "1897",
            "2000",
            "0",
            "0",
            "0",
            "0",
            "railway=subway",
            "railway=switch",
            "162",
            "89202"
          ],
          [
            "-73955120",
            "40707455",
            "-8192",
            "23",
            "2000",
            "0",
            "0",
            "0",
            "0",
            "railway=subway",
            "railway=switch",
            "164",
            "90213"
          ],
          [
            "-73955365",
            "40707541",
            "-8192",
            "23",
            "2000",
            "0",
            "0",
            "0",
            "0",
            "railway=subway",
            "railway=switch",
            "165",
            "91225"
          ],
          [
            "-73956095",
            "40707831",
            "-8192",
            "70",
            "2000",
            "0",
            "0",
            "0",
            "0",
            "railway=subway",
            "railway=switch",
            "171",
            "94304"
          ],
          [
            "-73958549",
            "40708681",
            "-8192",
            "228",
            "2000",
            "0",
            "0",
            "0",
            "0",
            "railway=subway",
            "wheelchair=yes railway=halt",
            "189",
            "104333"
          ],
          [
            "-73984919",
            "40717467",
            "9",
            "2447",
            "2000",
            "0",
            "0",
            "0",
            "0",
            "railway=subway",
            "",
            "385",
            "211964"
          ],
          [
            "-73986184",
            "40717959",
            "-8192",
            "121",
            "2000",
            "0",
            "0",
            "0",
            "0",
            "railway=subway",
            "railway=switch",
            "9",
            "5322"
          ],
          [
            "-73986521",
            "40718092",
            "-8192",
            "32",
            "2000",
            "0",
            "0",
            "0",
            "0",
            "railway=subway",
            "railway=switch",
            "12",
            "6729"
          ],
          [
            "-73986710",
            "40718157",
            "-8192",
            "18",
            "2000",
            "0",
            "0",
            "0",
            "0",
            "railway=subway",
            "wheelchair=no railway=halt",
            "13",
            "7521"
          ],
          [
            "-73988319",
            "40718634",
            "-8192",
            "146",
            "2000",
            "0",
            "0",
            "0",
            "0",
            "railway=subway",
            "wheelchair=no railway=halt",
            "25",
            "13943"
          ],
          [
            "-73991236",
            "40719494",
            "-8192",
            "264",
            "2000",
            "0",
            "0",
            "0",
            "0",
            "railway=subway",
            "railway=switch",
            "46",
            "25555"
          ],
          [
            "-73991667",
            "40719662",
            "-8192",
            "41",
            "2000",
            "0",
            "0",
            "0",
            "0",
            "railway=subway",
            "railway=switch",
            "49",
            "27358"
          ],
          [
            "-73991873",
            "40719725",
            "-8192",
            "19",
            "2000",
            "0",
            "0",
            "0",
            "0",
            "railway=subway",
            "railway=switch",
            "51",
            "28194"
          ],
          [
            "-73995014",
            "40720743",
            "-8192",
            "289",
            "2000",
            "0",
            "0",
            "0",
            "0",
            "railway=subway",
            "wheelchair=no railway=halt",
            "74",
            "40906"
          ],
          [
            "-74000598",
            "40717461",
            "-8192",
            "700",
            "2000",
            "0",
            "0",
            "0",
            "0",
            "railway=subway",
            "wheelchair=no railway=halt",
            "130",
            "71695"
          ],
          [
            "-74000761",
            "40717234",
            "-8192",
            "29",
            "2000",
            "0",
            "0",
            "0",
            "0",
            "railway=subway",
            "",
            "132",
            "72971"
          ],
          [
            "-74001544",
            "40716051",
            "-8192",
            "147",
            "2000",
            "0",
            "0",
            "0",
            "0",
            "railway=subway",
            "railway=switch",
            "11",
            "6465"
          ],
          [
            "-74001671",
            "40715842",
            "-8192",
            "26",
            "2000",
            "0",
            "0",
            "0",
            "0",
            "railway=subway",
            "railway=unknown",
            "13",
            "7609"
          ],
          [
            "-74001830",
            "40715658",
            "-8192",
            "24",
            "2000",
            "0",
            "0",
            "0",
            "0",
            "railway=subway",
            "railway=switch",
            "15",
            "8665"
          ],
          [
            "-74004302",
            "40712659",
            "-8192",
            "395",
            "2000",
            "0",
            "0",
            "0",
            "0",
            "railway=subway",
            "wheelchair=no railway=halt",
            "47",
            "26039"
          ],
          [
            "-74008124",
            "40709854",
            "-8192",
            "452",
            "2000",
            "0",
            "0",
            "0",
            "0",
            "railway=subway",
            "wheelchair=yes railway=halt",
            "83",
            "45920"
          ],
          [
            "-74011167",
            "40706315",
            "-8192",
            "473",
            "2000",
            "0",
            "0",
            "0",
            "0",
            "railway=subway",
            "",
            "121",
            "66725"
          ]
        ],
        "times": [
          0,
          7.52,
          8.8,
          10.96,
          12.96,
          23.04,
          24.32,
          28.88,
          35.92,
          40.24,
          43.52,
          46.48,
          49.04,
          51.6,
          59.36,
          61.12,
          62.8,
          64.96,
          67.2,
          72.08,
          73.04,
          74,
          85.76,
          91.28,
          92.88,
          94.48,
          96,
          98.96,
          100.4,
          102,
          106,
          110,
          114,
          116,
          118,
          120.08,
          122.16,
          125.04,
          125.76,
          135.12,
          139.36,
          149.44,
          159.6,
          160.64,
          161.68,
          162.72,
          163.76,
          164.8,
          165.84,
          166.88,
          167.92,
          168.96,
          178.64,
          185.12,
          193.28,
          201.76,
          208.16,
          212,
          222.32,
          227.84,
          228.56,
          239.36,
          240.56,
          242.24,
          245.2,
          246.88,
          248.56,
          300,
          421.6,
          425.28,
          427.52,
          428.96,
          430.08,
          441.76,
          443.04,
          444.32,
          461.2,
          463.12,
          468.72,
          472.32,
          473.2,
          474.16,
          476,
          496.48,
          499.36,
          501.76,
          513.44,
          544.72,
          567.68,
          574,
          581.92,
          613.12,
          624.32,
          627.76,
          639.52,
          640.48,
          641.36,
          643.68,
          645.84,
          647.12,
          649.28,
          649.76,
          698.72,
          754.16,
          789.2,
          802,
          852.56,
          853.6,
          872.16,
          876.16,
          876.72,
          881.2,
          881.44,
          887.44,
          891.2,
          904.16,
          905.2,
          908.32,
          917.52,
          920.64,
          921.76,
          923.2,
          927.12,
          930.32,
          934.24,
          935.52,
          936.32,
          937.04,
          937.84,
          938.48,
          939.04,
          952.56,
          959.68,
          1000.56,
          1005.92,
          1007.2,
          1008.64,
          1050.48,
          1060.32,
          1078.64,
          1085.84,
          1117.76,
          1130.88,
          1131.76,
          1132.4,
          1133.2,
          1133.76,
          1134.4,
          1135.12,
          1136.08,
          1137.04,
          1137.92,
          1142.72,
          1158.4,
          1165.76,
          1168.64,
          1181.84,
          1182.56,
          1183.2,
          1183.92,
          1184.64,
          1185.84,
          1187.12,
          1187.92,
          1189.44,
          1201.28,
          1203.6,
          1205.84,
          1223.04,
          1225.2,
          1227.84,
          1241.04,
          1255.84,
          1266.8,
          1285.04,
          1287.12,
          1290.96,
          1304.88,
          1314.08,
          1317.76,
          1320.48,
          1323.12,
          1326,
          1328.8,
          1345.36,
          1347.2,
          1349.44,
          1350.88,
          1354.32,
          1376.96,
          1381.2,
          1383.76,
          1386,
          1388.88,
          1400.88,
          1407.52,
          1411.2,
          1414.4,
          1416.56,
          1419.68,
          1422.08,
          1424,
          1425.36,
          1428,
          1429.36,
          1430.8,
          1433.12,
          1434.72,
          1436.16,
          1439.68,
          1453.68,
          1455.6,
          1457.68,
          1461.36,
          1465.28,
          1474.16,
          1484.56,
          1486.16,
          1488.64,
          1490.88,
          1493.2,
          1502.4,
          1507.04,
          1522.4,
          1524.08,
          1527.2,
          1530.32,
          1533.76,
          1536.32,
          1545.52,
          1546.88,
          1548.32,
          1549.6,
          1551.28,
          1552.72,
          1554.32,
          1555.92,
          1557.36,
          1558.72,
          1559.68,
          1561.04,
          1563.28,
          1564.72,
          1566.24,
          1572.08,
          1579.44,
          1583.28,
          1585.44,
          1587.6,
          1590.88,
          1593.92,
          1596.64,
          1597.76,
          1600.48,
          1603.04,
          1605.6,
          1613.28,
          1614.72,
          1616.32,
          1619.52,
          1620.32,
          1621.12,
          1641.76,
          1655.84,
          1656.48,
          1658.24,
          1659.52,
          1661.52,
          1672.96,
          1674.32,
          1685.04,
          1686.08,
          1694.24,
          1704.64,
          1717.92,
          1720.88,
          1722.16,
          1723.44,
          1726.4,
          1739.68,
          1750.08,
          1758.24,
          1758.8,
          1759.36,
          1767.28,
          1768.64,
          1770.08,
          1777.12,
          1780.16,
          1783.52,
          1784.96,
          1788,
          1788.64,
          1802.8,
          1823.44,
          1825.84,
          1828.56,
          1829.2,
          1830.48,
          1831.92,
          1840,
          1842.32,
          1844.24,
          1846.32,
          1849.2,
          1850.32,
          1854.08,
          1857.76,
          1860.48,
          1862.4,
          1864.72,
          1872,
          1877.76,
          1881.44,
          1883.12,
          1885.76,
          1888.56,
          1890.24,
          1891.92,
          1893.44,
          1895.12,
          1896.48,
          1898,
          1899.36,
          1905.2,
          1908.64,
          1911.12,
          1914.48,
          1918.08,
          1920.72,
          1935.36,
          1937.84,
          1942.56,
          1945.52,
          1951.84,
          1954.24,
          1956.56,
          1959.04,
          1960.8,
          1971.2,
          1982.88,
          1987.68,
          1989.76,
          1996.32,
          2005.68,
          2009.2,
          2010.64,
          2012.24,
          2014.48,
          2015.84,
          2017.12,
          2019.76,
          2021.12,
          2022.96,
          2025.36,
          2028.48,
          2030.64,
          2033.76,
          2037.52,
          2039.92,
          2056,
          2057.68,
          2059.04,
          2061.28,
          2063.92,
          2090.8,
          2093.6,
          2095.84,
          2098.16,
          2108.72,
          2116.48,
          2119.28,
          2122.08,
          2124.8,
          2127.12,
          2130.96,
          2140.16,
          2155.6,
          2157.84,
          2159.92,
          2167.68,
          2178.16,
          2189.2,
          2204,
          2217.28,
          2219.92,
          2222.08,
          2239.36,
          2241.6,
          2243.28,
          2244.48,
          2254.32,
          2257.6,
          2258.4,
          2259.84,
          2260.56,
          2261.2,
          2262,
          2262.8,
          2263.6,
          2277.52,
          2283.04,
          2287.68,
          2299.12,
          2305.52,
          2308.16,
          2309.28,
          2310.56,
          2311.6,
          2312.56,
          2313.6,
          2314.16,
          2327.2,
          2330.64,
          2343.52,
          2363.84,
          2372.4,
          2407.68,
          2421.04,
          2432.88,
          2436.4,
          2437.76,
          2439.04,
          2440.4,
          2457.68,
          2505.84,
          2506.16,
          2507.44,
          2508.08,
          2508.88,
          2509.6,
          2511.12,
          2517.04,
          2523.76,
          2524,
          2526.88,
          2536.08,
          2539.2,
          2551.28,
          2553.2,
          2556.96,
          2562.96,
          2563.2,
          2567.68,
          2568.24,
          2572.16,
          2576.32,
          2590.72,
          2603.04,
          2603.52,
          2655.2,
          2690.24,
          2703.28,
          2758.56,
          2787.84,
          2791.28,
          2794.64,
          2795.12,
          2798.56,
          2798.96,
          2800.72,
          2803.04,
          2803.92,
          2806.24,
          2816.72,
          2820.16,
          2831.36,
          2862.56,
          2870.48,
          2876.8,
          2899.76,
          2931.04,
          2942.72,
          2945.12,
          2948,
          2968.48,
          2970.32,
          2971.28,
          2972.16,
          2977.76,
          2996,
          3000.48,
          3002.24,
          3003.04,
          3014.64,
          3016.16,
          3017.44,
          3018.72,
          3022.96,
          3144.56,
          3191.76,
          3195.92,
          3197.6,
          3199.28,
          3201.44,
          3202.96,
          3204,
          3205.44,
          3217.12,
          3222.4,
          3238.24,
          3241.52,
          3243.04,
          3251.52,
          3259.68,
          3266.16,
          3275.84,
          3277.04,
          3278.24,
          3279.44,
          3280.64,
          3281.84,
          3283.04,
          3284.24,
          3285.44,
          3286.64,
          3296.8,
          3305.12,
          3306.8,
          3309.28,
          3310.72,
          3320.64,
          3322.16,
          3324.24,
          3324.48,
          3326.24,
          3328.24,
          3336.24,
          3338.32,
          3340.24,
          3344.24,
          3345.92,
          3350.4,
          3351.92,
          3354.72,
          3360.24,
          3371.84,
          3372.88,
          3373.84,
          3375.84,
          3378.24,
          3382.64,
          3384.32,
          3386.32,
          3408,
          3422.56,
          3432.8,
          3434.88,
          3437.04,
          3445.84
        ]
      },
      "geometry": {
        "type": "LineString",
        "coordinates": [
          [
            -74.011125,
            40.706302,
            12
          ],
          [
            -74.010663,
            40.707072,
            12
          ],
          [
            -74.010585,
            40.707202,
            12
          ],
          [
            -74.010433,
            40.707414,
            12
          ],
          [
            -74.010274,
            40.707609,
            12
          ],
          [
            -74.009431,
            40.708548,
            12
          ],
          [
            -74.009315,
            40.708665,
            12
          ],
          [
            -74.008876,
            40.709049,
            12
          ],
          [
            -74.008244,
            40.709676,
            12
          ],
          [
            -74.00788,
            40.710079,
            12
          ],
          [
            -74.007578,
            40.710369,
            12
          ],
          [
            -74.007284,
            40.710613,
            12
          ],
          [
            -74.00701,
            40.710814,
            12
          ],
          [
            -74.00674,
            40.711016,
            12
          ],
          [
            -74.005908,
            40.711618,
            12
          ],
          [
            -74.005713,
            40.711748,
            12
          ],
          [
            -74.005511,
            40.711858,
            12
          ],
          [
            -74.005237,
            40.71199,
            12
          ],
          [
            -74.00494,
            40.712108,
            12
          ],
          [
            -74.004309,
            40.712384,
            12
          ],
          [
            -74.004193,
            40.712448,
            12
          ],
          [
            -74.004094,
            40.712527,
            12
          ],
          [
            -74.003064,
            40.713597,
            12
          ],
          [
            -74.002587,
            40.714105,
            12
          ],
          [
            -74.002468,
            40.714261,
            12
          ],
          [
            -74.002375,
            40.714423,
            12
          ],
          [
            -74.0023,
            40.714582,
            12
          ],
          [
            -74.002183,
            40.7149,
            12
          ],
          [
            -74.002111,
            40.715056,
            12
          ],
          [
            -74.001998,
            40.715216,
            12
          ],
          [
            -74.001712,
            40.715609,
            12
          ],
          [
            -74.001465,
            40.716018,
            12
          ],
          [
            -74.001179,
            40.71641,
            12
          ],
          [
            -74.001056,
            40.716615,
            12
          ],
          [
            -74.000933,
            40.71682,
            12
          ],
          [
            -74.000796,
            40.717025,
            12
          ],
          [
            -74.000622,
            40.71722,
            12
          ],
          [
            -74.000333,
            40.717458,
            12
          ],
          [
            -74.000273,
            40.717522,
            12
          ],
          [
            -73.999555,
            40.718419,
            12
          ],
          [
            -73.999227,
            40.718829,
            12
          ],
          [
            -73.99845,
            40.719798,
            12
          ],
          [
            -73.997616,
            40.720749,
            12
          ],
          [
            -73.997523,
            40.720843,
            12
          ],
          [
            -73.997413,
            40.720925,
            12
          ],
          [
            -73.997288,
            40.720994,
            12
          ],
          [
            -73.997151,
            40.721049,
            12
          ],
          [
            -73.997005,
            40.721087,
            12
          ],
          [
            -73.996852,
            40.721108,
            12
          ],
          [
            -73.996698,
            40.721112,
            12
          ],
          [
            -73.996544,
            40.721098,
            12
          ],
          [
            -73.996395,
            40.721068,
            12
          ],
          [
            -73.995084,
            40.720625,
            12
          ],
          [
            -73.99423,
            40.720284,
            12
          ],
          [
            -73.993109,
            40.719942,
            12
          ],
          [
            -73.991923,
            40.71963,
            12
          ],
          [
            -73.99104,
            40.719361,
            12
          ],
          [
            -73.990508,
            40.719199,
            12
          ],
          [
            -73.989091,
            40.718769,
            12
          ],
          [
            -73.988317,
            40.718561,
            12
          ],
          [
            -73.98822,
            40.718529,
            11.75
          ],
          [
            -73.986726,
            40.718086,
            10.5
          ],
          [
            -73.986564,
            40.718032,
            10.25
          ],
          [
            -73.986341,
            40.717944,
            10.25
          ],
          [
            -73.98596,
            40.717773,
            9.75
          ],
          [
            -73.985736,
            40.717689,
            9.5
          ],
          [
            -73.985513,
            40.71761,
            9.25
          ],
          [
            -73.978438,
            40.715474
          ],
          [
            -73.961723,
            40.710402
          ],
          [
            -73.961221,
            40.710249
          ],
          [
            -73.960926,
            40.710127
          ],
          [
            -73.960759,
            40.71002
          ],
          [
            -73.960639,
            40.70993
          ],
          [
            -73.959458,
            40.708974
          ],
          [
            -73.959318,
            40.708875
          ],
          [
            -73.959159,
            40.708802
          ],
          [
            -73.95689,
            40.708016
          ],
          [
            -73.956631,
            40.707931
          ],
          [
            -73.955855,
            40.707707
          ],
          [
            -73.955365,
            40.707541
          ],
          [
            -73.955246,
            40.707499
          ],
          [
            -73.95512,
            40.707455
          ],
          [
            -73.954873,
            40.707371
          ],
          [
            -73.952111,
            40.706417
          ],
          [
            -73.951738,
            40.706269
          ],
          [
            -73.951443,
            40.706121
          ],
          [
            -73.950046,
            40.705342
          ],
          [
            -73.946328,
            40.70325
          ],
          [
            -73.943572,
            40.701732
          ],
          [
            -73.942825,
            40.701297
          ],
          [
            -73.941914,
            40.700729
          ],
          [
            -73.938217,
            40.698635
          ],
          [
            -73.936872,
            40.697893
          ],
          [
            -73.936468,
            40.697664
          ],
          [
            -73.935069,
            40.696878
          ],
          [
            -73.93495,
            40.696812
          ],
          [
            -73.934845,
            40.696753
          ],
          [
            -73.934571,
            40.696596
          ],
          [
            -73.934311,
            40.696453
          ],
          [
            -73.934171,
            40.696359
          ],
          [
            -73.933936,
            40.696193
          ],
          [
            -73.933877,
            40.696159
          ],
          [
            -73.928073,
            40.692874
          ],
          [
            -73.921509,
            40.689145
          ],
          [
            -73.917371,
            40.686781
          ],
          [
            -73.915852,
            40.685919
          ],
          [
            -73.909864,
            40.682518
          ],
          [
            -73.909745,
            40.682451
          ],
          [
            -73.907549,
            40.681195
          ],
          [
            -73.907042,
            40.680955
          ],
          [
            -73.906972,
            40.680915
          ],
          [
            -73.906443,
            40.680612
          ],
          [
            -73.906419,
            40.680598
          ],
          [
            -73.905708,
            40.680197
          ],
          [
            -73.905264,
            40.679937
          ],
          [
            -73.903741,
            40.679057
          ],
          [
            -73.903617,
            40.678987
          ],
          [
            -73.903257,
            40.678772
          ],
          [
            -73.902178,
            40.678146
          ],
          [
            -73.901813,
            40.677936
          ],
          [
            -73.901679,
            40.677857
          ],
          [
            -73.901521,
            40.677743
          ],
          [
            -73.901122,
            40.677428
          ],
          [
            -73.900746,
            40.67721
          ],
          [
            -73.900285,
            40.676944
          ],
          [
            -73.900127,
            40.676867
          ],
          [
            -73.900024,
            40.67683
          ],
          [
            -73.899917,
            40.676806
          ],
          [
            -73.899801,
            40.676793
          ],
          [
            -73.899709,
            40.676797
          ],
          [
            -73.89963,
            40.676818
          ],
          [
            -73.897671,
            40.67711
          ],
          [
            -73.896637,
            40.677259
          ],
          [
            -73.890713,
            40.678142
          ],
          [
            -73.889937,
            40.678262
          ],
          [
            -73.889754,
            40.678301
          ],
          [
            -73.889553,
            40.678353
          ],
          [
            -73.883846,
            40.680169
          ],
          [
            -73.88251,
            40.680603
          ],
          [
            -73.880008,
            40.681397
          ],
          [
            -73.879006,
            40.681679
          ],
          [
            -73.874593,
            40.682937
          ],
          [
            -73.87277,
            40.683448
          ],
          [
            -73.872648,
            40.683482
          ],
          [
            -73.872559,
            40.683517
          ],
          [
            -73.872467,
            40.683569
          ],
          [
            -73.872407,
            40.683613
          ],
          [
            -73.872351,
            40.683671
          ],
          [
            -73.8723,
            40.683739
          ],
          [
            -73.872256,
            40.683845
          ],
          [
            -73.87224,
            40.68395
          ],
          [
            -73.872257,
            40.684046
          ],
          [
            -73.872426,
            40.684567
          ],
          [
            -73.872947,
            40.686286
          ],
          [
            -73.873228,
            40.68709
          ],
          [
            -73.873325,
            40.687406
          ],
          [
            -73.87383,
            40.688839
          ],
          [
            -73.873857,
            40.688916
          ],
          [
            -73.873869,
            40.688991
          ],
          [
            -73.873868,
            40.689075
          ],
          [
            -73.87385,
            40.689154
          ],
          [
            -73.873788,
            40.689278
          ],
          [
            -73.873676,
            40.689396
          ],
          [
            -73.873584,
            40.689456
          ],
          [
            -73.873394,
            40.68955
          ],
          [
            -73.87186,
            40.690199
          ],
          [
            -73.871552,
            40.690308
          ],
          [
            -73.871239,
            40.690392
          ],
          [
            -73.868826,
            40.691005
          ],
          [
            -73.868523,
            40.691072
          ],
          [
            -73.868143,
            40.691139
          ],
          [
            -73.866227,
            40.691431
          ],
          [
            -73.86409,
            40.691793
          ],
          [
            -73.862506,
            40.692068
          ],
          [
            -73.859849,
            40.692432
          ],
          [
            -73.859545,
            40.692461
          ],
          [
            -73.858984,
            40.692498
          ],
          [
            -73.856935,
            40.692618
          ],
          [
            -73.855575,
            40.692689
          ],
          [
            -73.855035,
            40.692742
          ],
          [
            -73.854639,
            40.692805
          ],
          [
            -73.85427,
            40.692891
          ],
          [
            -73.853873,
            40.693008
          ],
          [
            -73.853495,
            40.693136
          ],
          [
            -73.851301,
            40.693953
          ],
          [
            -73.851051,
            40.69404
          ],
          [
            -73.850742,
            40.694134
          ],
          [
            -73.850546,
            40.694186
          ],
          [
            -73.85006,
            40.694298
          ],
          [
            -73.84682,
            40.694929
          ],
          [
            -73.846207,
            40.695044
          ],
          [
            -73.845834,
            40.695096
          ],
          [
            -73.845508,
            40.695127
          ],
          [
            -73.845082,
            40.695146
          ],
          [
            -73.843312,
            40.695163
          ],
          [
            -73.842336,
            40.695178
          ],
          [
            -73.841791,
            40.695204
          ],
          [
            -73.841322,
            40.695239
          ],
          [
            -73.841006,
            40.695269
          ],
          [
            -73.840555,
            40.695325
          ],
          [
            -73.840207,
            40.695378
          ],
          [
            -73.839937,
            40.695429
          ],
          [
            -73.839743,
            40.695476
          ],
          [
            -73.839379,
            40.695582
          ],
          [
            -73.8392,
            40.695642
          ],
          [
            -73.839011,
            40.695716
          ],
          [
            -73.838718,
            40.695848
          ],
          [
            -73.838519,
            40.695945
          ],
          [
            -73.838346,
            40.696044
          ],
          [
            -73.837946,
            40.6963
          ],
          [
            -73.836402,
            40.69735
          ],
          [
            -73.836188,
            40.697488
          ],
          [
            -73.835946,
            40.697628
          ],
          [
            -73.835507,
            40.697869
          ],
          [
            -73.835033,
            40.698129
          ],
          [
            -73.833964,
            40.698705
          ],
          [
            -73.832714,
            40.699393
          ],
          [
            -73.832511,
            40.699489
          ],
          [
            -73.832185,
            40.699619
          ],
          [
            -73.831878,
            40.699723
          ],
          [
            -73.83155,
            40.699811
          ],
          [
            -73.830254,
            40.700124
          ],
          [
            -73.829585,
            40.700249
          ],
          [
            -73.827365,
            40.700613
          ],
          [
            -73.827125,
            40.700651
          ],
          [
            -73.826672,
            40.700725,
            20.75
          ],
          [
            -73.826215,
            40.7008,
            20.75
          ],
          [
            -73.825725,
            40.700894,
            20.75
          ],
          [
            -73.82536,
            40.700976,
            20.75
          ],
          [
            -73.824076,
            40.701318,
            20.75
          ],
          [
            -73.823878,
            40.70136,
            20.75
          ],
          [
            -73.823667,
            40.701395,
            20.75
          ],
          [
            -73.823478,
            40.701411,
            20.75
          ],
          [
            -73.823232,
            40.701412,
            20.75
          ],
          [
            -73.823014,
            40.701405,
            20.75
          ],
          [
            -73.822774,
            40.701382,
            20.75
          ],
          [
            -73.822541,
            40.701337,
            20.75
          ],
          [
            -73.822341,
            40.701284,
            20.75
          ],
          [
            -73.822157,
            40.701225,
            20.75
          ],
          [
            -73.822024,
            40.701176,
            20.75
          ],
          [
            -73.821848,
            40.701099,
            20.75
          ],
          [
            -73.821582,
            40.700952,
            20.75
          ],
          [
            -73.821419,
            40.700841,
            20.75
          ],
          [
            -73.821263,
            40.700718,
            20.75
          ],
          [
            -73.820669,
            40.700239,
            20.5
          ],
          [
            -73.819873,
            40.69968,
            18.25
          ],
          [
            -73.819419,
            40.699414
          ],
          [
            -73.819151,
            40.699277
          ],
          [
            -73.818882,
            40.699151
          ],
          [
            -73.818463,
            40.698972
          ],
          [
            -73.818066,
            40.698816
          ],
          [
            -73.817694,
            40.698691
          ],
          [
            -73.81754,
            40.698645
          ],
          [
            -73.817152,
            40.698558
          ],
          [
            -73.81678,
            40.698509
          ],
          [
            -73.816409,
            40.698484
          ],
          [
            -73.815269,
            40.69845
          ],
          [
            -73.815058,
            40.698452
          ],
          [
            -73.814826,
            40.698474
          ],
          [
            -73.814363,
            40.698556
          ],
          [
            -73.814245,
            40.698582
          ],
          [
            -73.814135,
            40.698609
          ],
          [
            -73.811281,
            40.699425
          ],
          [
            -73.809319,
            40.699963
          ],
          [
            -73.809233,
            40.699995
          ],
          [
            -73.80901,
            40.700098
          ],
          [
            -73.808842,
            40.700163
          ],
          [
            -73.808572,
            40.700246
          ],
          [
            -73.806994,
            40.700703
          ],
          [
            -73.806801,
            40.700759
          ],
          [
            -73.805297,
            40.701135
          ],
          [
            -73.805151,
            40.701178
          ],
          [
            -73.804015,
            40.701489
          ],
          [
            -73.802524,
            40.701775
          ],
          [
            -73.80066,
            40.702235
          ],
          [
            -73.800248,
            40.702337
          ],
          [
            -73.800067,
            40.702377,
            18.25
          ],
          [
            -73.800248,
            40.702337,
            18.25
          ],
          [
            -73.80066,
            40.702235,
            18.25
          ],
          [
            -73.802524,
            40.701775,
            18.25
          ],
          [
            -73.804015,
            40.701489,
            18.25
          ],
          [
            -73.805151,
            40.701178,
            18.25
          ],
          [
            -73.805229,
            40.701173,
            18.25
          ],
          [
            -73.805314,
            40.701172,
            18.25
          ],
          [
            -73.806424,
            40.700893,
            18.25
          ],
          [
            -73.806613,
            40.700853,
            18.25
          ],
          [
            -73.806823,
            40.700817,
            18.25
          ],
          [
            -73.807807,
            40.700569,
            18.25
          ],
          [
            -73.808222,
            40.700435,
            18.25
          ],
          [
            -73.808669,
            40.700277,
            18.25
          ],
          [
            -73.808861,
            40.7002,
            18.25
          ],
          [
            -73.80925,
            40.70003,
            18.25
          ],
          [
            -73.809335,
            40.699999,
            18.25
          ],
          [
            -73.811298,
            40.699459,
            18.25
          ],
          [
            -73.814153,
            40.698642,
            18.25
          ],
          [
            -73.814493,
            40.69857,
            18.25
          ],
          [
            -73.814889,
            40.698503,
            18.25
          ],
          [
            -73.814981,
            40.698492,
            18.25
          ],
          [
            -73.815174,
            40.698484,
            18.25
          ],
          [
            -73.815392,
            40.698486,
            18.25
          ],
          [
            -73.816589,
            40.698527,
            18.25
          ],
          [
            -73.816927,
            40.698557,
            18.25
          ],
          [
            -73.817202,
            40.698595,
            18.25
          ],
          [
            -73.817499,
            40.698662,
            18.25
          ],
          [
            -73.817895,
            40.698777,
            18.25
          ],
          [
            -73.818046,
            40.698828,
            18.25
          ],
          [
            -73.818537,
            40.699029,
            18.25
          ],
          [
            -73.819004,
            40.699243,
            18.25
          ],
          [
            -73.819341,
            40.699417,
            18.25
          ],
          [
            -73.819567,
            40.699549,
            18.25
          ],
          [
            -73.819832,
            40.69972,
            18.25
          ],
          [
            -73.820634,
            40.700266,
            20.5
          ],
          [
            -73.821213,
            40.700748,
            20.75
          ],
          [
            -73.821605,
            40.701037
          ],
          [
            -73.821798,
            40.701151
          ],
          [
            -73.822134,
            40.701294
          ],
          [
            -73.822524,
            40.701412
          ],
          [
            -73.822764,
            40.701458
          ],
          [
            -73.823011,
            40.701482
          ],
          [
            -73.823235,
            40.701489
          ],
          [
            -73.823486,
            40.701488
          ],
          [
            -73.823682,
            40.701471
          ],
          [
            -73.823899,
            40.701436
          ],
          [
            -73.824098,
            40.701393
          ],
          [
            -73.824911,
            40.701169
          ],
          [
            -73.825395,
            40.701043
          ],
          [
            -73.825752,
            40.700966
          ],
          [
            -73.826234,
            40.700875
          ],
          [
            -73.826749,
            40.700789
          ],
          [
            -73.827136,
            40.700725
          ],
          [
            -73.829254,
            40.700375
          ],
          [
            -73.829608,
            40.70032
          ],
          [
            -73.830282,
            40.70019
          ],
          [
            -73.830697,
            40.700096
          ],
          [
            -73.831581,
            40.699878
          ],
          [
            -73.831911,
            40.69979
          ],
          [
            -73.832228,
            40.699684
          ],
          [
            -73.832552,
            40.699556
          ],
          [
            -73.832768,
            40.699449
          ],
          [
            -73.834017,
            40.698761
          ],
          [
            -73.835425,
            40.698002
          ],
          [
            -73.836002,
            40.697682
          ],
          [
            -73.836245,
            40.69754
          ],
          [
            -73.83698,
            40.697053
          ],
          [
            -73.838008,
            40.696353
          ],
          [
            -73.838404,
            40.696097
          ],
          [
            -73.83857,
            40.696001
          ],
          [
            -73.838765,
            40.695906
          ],
          [
            -73.839058,
            40.695781
          ],
          [
            -73.839241,
            40.69571
          ],
          [
            -73.839418,
            40.695651
          ],
          [
            -73.839779,
            40.695545
          ],
          [
            -73.839965,
            40.6955
          ],
          [
            -73.840228,
            40.695448
          ],
          [
            -73.840573,
            40.695397
          ],
          [
            -73.841023,
            40.695341
          ],
          [
            -73.841336,
            40.69531
          ],
          [
            -73.841796,
            40.695274
          ],
          [
            -73.842345,
            40.695249
          ],
          [
            -73.842697,
            40.695241
          ],
          [
            -73.845079,
            40.695218
          ],
          [
            -73.845322,
            40.695212
          ],
          [
            -73.845518,
            40.695203
          ],
          [
            -73.845844,
            40.695173
          ],
          [
            -73.846221,
            40.695116
          ],
          [
            -73.850073,
            40.69437
          ],
          [
            -73.850468,
            40.694282
          ],
          [
            -73.850775,
            40.694199
          ],
          [
            -73.851093,
            40.694102
          ],
          [
            -73.852502,
            40.693587
          ],
          [
            -73.85353,
            40.693203
          ],
          [
            -73.853913,
            40.693074
          ],
          [
            -73.854306,
            40.692962
          ],
          [
            -73.854695,
            40.692869
          ],
          [
            -73.855027,
            40.692822
          ],
          [
            -73.85559,
            40.692764
          ],
          [
            -73.856943,
            40.692689
          ],
          [
            -73.85922,
            40.692554
          ],
          [
            -73.859554,
            40.69253
          ],
          [
            -73.859863,
            40.6925
          ],
          [
            -73.860997,
            40.692344
          ],
          [
            -73.862524,
            40.692135
          ],
          [
            -73.86411,
            40.69186
          ],
          [
            -73.866241,
            40.691504
          ],
          [
            -73.868163,
            40.691206
          ],
          [
            -73.868538,
            40.691142
          ],
          [
            -73.86885,
            40.691073
          ],
          [
            -73.871269,
            40.690456
          ],
          [
            -73.871581,
            40.690371
          ],
          [
            -73.871807,
            40.690298
          ],
          [
            -73.87197,
            40.690236
          ],
          [
            -73.873242,
            40.689692
          ],
          [
            -73.873662,
            40.689506
          ],
          [
            -73.873757,
            40.68945
          ],
          [
            -73.873895,
            40.689322
          ],
          [
            -73.873936,
            40.68925
          ],
          [
            -73.873959,
            40.68918
          ],
          [
            -73.873971,
            40.689091
          ],
          [
            -73.873976,
            40.688999
          ],
          [
            -73.873958,
            40.688906
          ],
          [
            -73.873412,
            40.687391
          ],
          [
            -73.873214,
            40.686787
          ],
          [
            -73.873044,
            40.686277
          ],
          [
            -73.872649,
            40.685024
          ],
          [
            -73.872428,
            40.684325
          ],
          [
            -73.872348,
            40.684031
          ],
          [
            -73.872365,
            40.68391
          ],
          [
            -73.872426,
            40.683777
          ],
          [
            -73.87251,
            40.683677
          ],
          [
            -73.872609,
            40.683602
          ],
          [
            -73.872736,
            40.683542
          ],
          [
            -73.872813,
            40.683517
          ],
          [
            -73.874624,
            40.683003
          ],
          [
            -73.875105,
            40.682873
          ],
          [
            -73.876888,
            40.682368
          ],
          [
            -73.879699,
            40.681561
          ],
          [
            -73.880865,
            40.681194
          ],
          [
            -73.885681,
            40.679661
          ],
          [
            -73.887501,
            40.679083
          ],
          [
            -73.889107,
            40.678565
          ],
          [
            -73.889585,
            40.678419
          ],
          [
            -73.889781,
            40.678369
          ],
          [
            -73.889957,
            40.67833
          ],
          [
            -73.890156,
            40.678298
          ],
          [
            -73.892657,
            40.677927
          ],
          [
            -73.89964,
            40.676887
          ],
          [
            -73.899683,
            40.676881
          ],
          [
            -73.899869,
            40.676888
          ],
          [
            -73.899957,
            40.676902
          ],
          [
            -73.900064,
            40.676933
          ],
          [
            -73.900152,
            40.676971
          ],
          [
            -73.900329,
            40.67707
          ],
          [
            -73.901021,
            40.677484
          ],
          [
            -73.901786,
            40.677962
          ],
          [
            -73.901813,
            40.677978
          ],
          [
            -73.902178,
            40.678146
          ],
          [
            -73.903257,
            40.678772
          ],
          [
            -73.903617,
            40.678987
          ],
          [
            -73.905041,
            40.679808
          ],
          [
            -73.905264,
            40.679937
          ],
          [
            -73.905708,
            40.680197
          ],
          [
            -73.906419,
            40.680598
          ],
          [
            -73.906443,
            40.680612
          ],
          [
            -73.906972,
            40.680915
          ],
          [
            -73.907042,
            40.680955
          ],
          [
            -73.907501,
            40.681217
          ],
          [
            -73.907964,
            40.681526
          ],
          [
            -73.909674,
            40.682498
          ],
          [
            -73.911139,
            40.683324
          ],
          [
            -73.911194,
            40.683356
          ],
          [
            -73.917313,
            40.686833
          ],
          [
            -73.921454,
            40.689197
          ],
          [
            -73.922995,
            40.690074
          ],
          [
            -73.929545,
            40.693794
          ],
          [
            -73.933012,
            40.695767
          ],
          [
            -73.933419,
            40.696
          ],
          [
            -73.933845,
            40.69619
          ],
          [
            -73.933905,
            40.696224
          ],
          [
            -73.934311,
            40.696453
          ],
          [
            -73.934358,
            40.696478
          ],
          [
            -73.934571,
            40.696596
          ],
          [
            -73.934845,
            40.696753
          ],
          [
            -73.93495,
            40.696812
          ],
          [
            -73.935223,
            40.696964,
            9.75
          ],
          [
            -73.936468,
            40.697664,
            9.75
          ],
          [
            -73.936872,
            40.697893,
            9.75
          ],
          [
            -73.938217,
            40.698635,
            9.75
          ],
          [
            -73.941914,
            40.700729,
            9.75
          ],
          [
            -73.942825,
            40.701297,
            9.75
          ],
          [
            -73.943572,
            40.701732,
            9.75
          ],
          [
            -73.946328,
            40.70325,
            9.75
          ],
          [
            -73.950046,
            40.705342,
            9.75
          ],
          [
            -73.951443,
            40.706121,
            9.75
          ],
          [
            -73.951738,
            40.706269,
            9.75
          ],
          [
            -73.952111,
            40.706417,
            9.75
          ],
          [
            -73.954873,
            40.707371,
            9.75
          ],
          [
            -73.95512,
            40.707455,
            9.75
          ],
          [
            -73.955246,
            40.707499,
            9.75
          ],
          [
            -73.955365,
            40.707541,
            9.75
          ],
          [
            -73.956095,
            40.707831,
            9.75
          ],
          [
            -73.958549,
            40.708681,
            9.75
          ],
          [
            -73.959157,
            40.708887,
            9.75
          ],
          [
            -73.959385,
            40.708976,
            9.75
          ],
          [
            -73.95947,
            40.709035,
            9.75
          ],
          [
            -73.960641,
            40.709991,
            9.75
          ],
          [
            -73.960806,
            40.710109,
            9.75
          ],
          [
            -73.960957,
            40.71019,
            9.75
          ],
          [
            -73.961128,
            40.710258,
            9.75
          ],
          [
            -73.961704,
            40.710438,
            9.75
          ],
          [
            -73.978422,
            40.715506,
            9.75
          ],
          [
            -73.984919,
            40.717467,
            9.75
          ],
          [
            -73.985494,
            40.717641,
            9.75
          ],
          [
            -73.985715,
            40.71772
          ],
          [
            -73.985929,
            40.717808
          ],
          [
            -73.986184,
            40.717959
          ],
          [
            -73.986382,
            40.718045
          ],
          [
            -73.986521,
            40.718092
          ],
          [
            -73.98671,
            40.718157
          ],
          [
            -73.988319,
            40.718634
          ],
          [
            -73.989056,
            40.718832
          ],
          [
            -73.991236,
            40.719494
          ],
          [
            -73.991667,
            40.719662
          ],
          [
            -73.991873,
            40.719725
          ],
          [
            -73.993019,
            40.720106
          ],
          [
            -73.994137,
            40.720446
          ],
          [
            -73.995014,
            40.720743
          ],
          [
            -73.99634,
            40.721161
          ],
          [
            -73.996509,
            40.721196
          ],
          [
            -73.996683,
            40.721212
          ],
          [
            -73.996858,
            40.721208
          ],
          [
            -73.997031,
            40.721184
          ],
          [
            -73.997197,
            40.721142
          ],
          [
            -73.997353,
            40.721081
          ],
          [
            -73.997496,
            40.721004
          ],
          [
            -73.997622,
            40.720911
          ],
          [
            -73.997729,
            40.720806
          ],
          [
            -73.998564,
            40.719853
          ],
          [
            -73.999212,
            40.719052
          ],
          [
            -73.99937,
            40.718907
          ],
          [
            -73.999615,
            40.718702
          ],
          [
            -73.99971,
            40.718558
          ],
          [
            -74.000486,
            40.717614
          ],
          [
            -74.000598,
            40.717461
          ],
          [
            -74.000746,
            40.717259
          ],
          [
            -74.000761,
            40.717234
          ],
          [
            -74.000865,
            40.717048
          ],
          [
            -74.000972,
            40.716837
          ],
          [
            -74.001544,
            40.716051
          ],
          [
            -74.001671,
            40.715842
          ],
          [
            -74.00183,
            40.715658
          ],
          [
            -74.002116,
            40.715266
          ],
          [
            -74.002232,
            40.715102
          ],
          [
            -74.002502,
            40.714644
          ],
          [
            -74.0026,
            40.714492
          ],
          [
            -74.002812,
            40.71422
          ],
          [
            -74.003286,
            40.713714
          ],
          [
            -74.004302,
            40.712659
          ],
          [
            -74.0044,
            40.712563
          ],
          [
            -74.004498,
            40.712485
          ],
          [
            -74.004713,
            40.71233
          ],
          [
            -74.004996,
            40.712171
          ],
          [
            -74.005535,
            40.711889
          ],
          [
            -74.005739,
            40.711775
          ],
          [
            -74.006015,
            40.711694
          ],
          [
            -74.008124,
            40.709854
          ],
          [
            -74.009543,
            40.708617
          ],
          [
            -74.010312,
            40.707628
          ],
          [
            -74.010472,
            40.707431
          ],
          [
            -74.010625,
            40.707218
          ],
          [
            -74.011167,
            40.706315
          ]
        ]
      }
    }
  ]
}