{
  "type": "FeatureCollection",
  "features": [
    {
      "type": "Feature",
      "properties": {
        "creator": "BRouter-1.7.9",
        "name": "[MTA] L Train",
        "track-length": "32972",
        "filtered ascend": "41",
        "plain-ascend": "7",
        "total-time": "2637",
        "total-energy": "1462464",
        "cost": "65946",
        "messages": [
          [
            "Longitude",
            "Latitude",
            "Elevation",
            "Distance",
            "CostPerKm",
            "ElevCost",
            "TurnCost",
            "NodeCost",
            "InitialCost",
            "WayTags",
            "NodeTags",
            "Time",
            "Energy"
          ],
          [
            "-74001485",
            "40739379",
            "-8192",
            "170",
            "2000",
            "0",
            "0",
            "0",
            "0",
            "reversedirection=yes railway=subway",
            "railway=switch",
            "13",
            "7477"
          ],
          [
            "-74001430",
            "40739312",
            "-8192",
            "9",
            "2000",
            "0",
            "0",
            "0",
            "0",
            "railway=subway",
            "railway=unknown",
            "14",
            "7873"
          ],
          [
            "-74001373",
            "40739243",
            "-8192",
            "9",
            "2000",
            "0",
            "0",
            "0",
            "0",
            "railway=subway",
            "railway=switch",
            "15",
            "8269"
          ],
          [
            "-74000967",
            "40739070",
            "-8192",
            "39",
            "2000",
            "0",
            "0",
            "0",
            "0",
            "railway=subway",
            "",
            "18",
            "9984"
          ],
          [
            "-73996058",
            "40736996",
            "-8192",
            "474",
            "2000",
            "0",
            "0",
            "0",
            "0",
            "railway=subway",
            "wheelchair=no railway=halt",
            "37",
            "20849"
          ],
          [
            "-73989951",
            "40734401",
            "-8192",
            "591",
            "2000",
            "0",
            "0",
            "0",
            "0",
            "railway=subway",
            "wheelchair=yes railway=halt",
            "85",
            "46844"
          ],
          [
            "-73985343",
            "40732500",
            "-8192",
            "443",
            "2000",
            "0",
            "0",
            "0",
            "0",
            "railway=subway",
            "wheelchair=no railway=halt",
            "120",
            "66329"
          ],
          [
            "-73980655",
            "40730518",
            "-8192",
            "453",
            "2000",
            "0",
            "0",
            "0",
            "0",
            "railway=subway",
            "wheelchair=no railway=halt",
            "156",
            "86255"
          ],
          [
            "-73956372",
            "40716944",
            "-8192",
            "2553",
            "2000",
            "0",
            "0",
            "0",
            "0",
            "railway=subway",
            "wheelchair=no railway=halt",
            "361",
            "198549"
          ],
          [
            "-73956204",
            "40716874",
            "-8192",
            "16",
            "2000",
            "0",
            "0",
            "0",
            "0",
            "railway=subway",
            "railway=switch",
            "362",
            "199253"
          ],
          [
            "-73956106",
            "40716813",
            "-8192",
            "11",
            "2000",
            "0",
            "0",
            "0",
            "0",
            "railway=subway",
            "railway=switch",
            "363",
            "199737"
          ],
          [
            "-73949204",
            "40714074",
            "-8192",
            "688",
            "2000",
            "0",
            "0",
            "0",
            "0",
            "railway=subway",
            "wheelchair=no railway=halt",
            "418",
            "229998"
          ],
          [
            "-73943472",
            "40714612",
            "-8192",
            "488",
            "2000",
            "0",
            "0",
            "0",
            "0",
            "railway=subway",
            "wheelchair=no railway=halt",
            "457",
            "251463"
          ],
          [
            "-73940462",
            "40711322",
            "-8192",
            "503",
            "2000",
            "0",
            "0",
            "0",
            "0",
            "railway=subway",
            "wheelchair=no railway=halt",
            "497",
            "273588"
          ],
          [
            "-73939774",
            "40707144",
            "18",
            "468",
            "2000",
            "0",
            "0",
            "0",
            "0",
            "railway=subway",
            "wheelchair=no railway=halt",
            "535",
            "294173"
          ],
          [
            "-73931968",
            "40706332",
            "19",
            "804",
            "2000",
            "0",
            "0",
            "0",
            "0",
            "railway=subway",
            "wheelchair=no railway=halt",
            "599",
            "329537"
          ],
          [
            "-73922203",
            "40706148",
            "21",
            "885",
            "2000",
            "0",
            "0",
            "0",
            "0",
            "railway=subway",
            "wheelchair=no railway=halt",
            "670",
            "368464"
          ],
          [
            "-73917838",
            "40703426",
            "22",
            "477",
            "2000",
            "0",
            "0",
            "0",
            "0",
            "railway=subway",
            "wheelchair=no railway=halt",
            "708",
            "389445"
          ],
          [
            "-73910402",
            "40699103",
            "23",
            "790",
            "2000",
            "0",
            "0",
            "0",
            "0",
            "railway=subway",
            "wheelchair=yes railway=halt",
            "771",
            "424193"
          ],
          [
            "-73903575",
            "40695291",
            "24",
            "716",
            "2000",
            "0",
            "0",
            "0",
            "0",
            "railway=subway",
            "wheelchair=no railway=halt",
            "828",
            "455687"
          ],
          [
            "-73904586",
            "40688148",
            "21",
            "986",
            "2000",
            "0",
            "0",
            "0",
            "0",
            "railway=subway",
            "wheelchair=no railway=halt",
            "907",
            "503449"
          ],
          [
            "-73904829",
            "40682092",
            "30",
            "706",
            "2000",
            "0",
            "0",
            "0",
            "0",
            "railway=subway",
            "wheelchair=no railway=halt",
            "964",
            "536015"
          ],
          [
            "-73903764",
            "40680423",
            "32",
            "208",
            "2000",
            "0",
            "0",
            "0",
            "0",
            "railway=subway",
            "railway=switch",
            "980",
            "548573"
          ],
          [
            "-73903675",
            "40680221",
            "32",
            "24",
            "2000",
            "0",
            "0",
            "0",
            "0",
            "railway=subway",
            "railway=unknown",
            "982",
            "549902"
          ],
          [
            "-73903635",
            "40680015",
            "31",
            "23",
            "2000",
            "0",
            "0",
            "0",
            "0",
            "railway=subway",
            "railway=switch",
            "984",
            "551121"
          ],
          [
            "-73903076",
            "40678069",
            "29",
            "222",
            "2000",
            "0",
            "0",
            "0",
            "0",
            "railway=subway",
            "wheelchair=no railway=halt",
            "1002",
            "561599"
          ],
          [
            "-73902891",
            "40677219",
            "28",
            "96",
            "2000",
            "0",
            "0",
            "0",
            "0",
            "railway=subway",
            "railway=switch",
            "1009",
            "565875"
          ],
          [
            "-73903318",
            "40674720",
            "25",
            "281",
            "2000",
            "0",
            "0",
            "0",
            "0",
            "railway=subway",
            "wheelchair=no railway=halt",
            "1032",
            "578266"
          ],
          [
            "-73903077",
            "40673204",
            "23",
            "171",
            "2000",
            "0",
            "0",
            "0",
            "0",
            "railway=subway",
            "railway=switch",
            "1046",
            "585789"
          ],
          [
            "-73901818",
            "40668686",
            "18",
            "513",
            "2000",
            "0",
            "0",
            "0",
            "0",
            "railway=subway",
            "wheelchair=no railway=halt",
            "1087",
            "608354"
          ],
          [
            "-73900836",
            "40664990",
            "13",
            "419",
            "2000",
            "0",
            "0",
            "0",
            "0",
            "railway=subway",
            "railway=switch",
            "1120",
            "626784"
          ],
          [
            "-73900426",
            "40663388",
            "11",
            "181",
            "2000",
            "0",
            "0",
            "0",
            "0",
            "railway=subway",
            "wheelchair=no railway=halt",
            "1135",
            "636960"
          ],
          [
            "-73900412",
            "40663335",
            "11",
            "6",
            "2000",
            "0",
            "0",
            "0",
            "0",
            "railway=subway",
            "railway=switch",
            "1135",
            "637249"
          ],
          [
            "-73899042",
            "40657887",
            "6",
            "615",
            "2000",
            "0",
            "0",
            "0",
            "0",
            "railway=subway",
            "wheelchair=no railway=halt",
            "1184",
            "653373"
          ],
          [
            "-73899823",
            "40650111",
            "10",
            "904",
            "2000",
            "0",
            "0",
            "0",
            "0",
            "railway=subway",
            "wheelchair=no railway=halt",
            "1257",
            "689733"
          ],
          [
            "-73899974",
            "40649854",
            "9",
            "31",
            "2000",
            "0",
            "0",
            "0",
            "0",
            "railway=subway",
            "railway=switch",
            "1259",
            "691756"
          ],
          [
            "-73900961",
            "40648232",
            "3",
            "199",
            "2000",
            "0",
            "0",
            "0",
            "0",
            "railway=subway",
            "railway=switch",
            "1275",
            "699978"
          ],
          [
            "-73901350",
            "40647588",
            "5",
            "79",
            "2000",
            "0",
            "0",
            "0",
            "0",
            "railway=subway",
            "railway=switch",
            "1281",
            "702563"
          ],
          [
            "-73902467",
            "40645779",
            "7",
            "222",
            "2000",
            "0",
            "0",
            "0",
            "0",
            "reversedirection=yes railway=subway",
            "",
            "1299",
            "713121"
          ],
          [
            "-73901350",
            "40647588",
            "5",
            "222",
            "2000",
            "0",
            "0",
            "0",
            "0",
            "railway=subway",
            "railway=switch",
            "17",
            "8447"
          ],
          [
            "-73901078",
            "40647952",
            "4",
            "47",
            "2000",
            "0",
            "0",
            "0",
            "0",
            "railway=subway",
            "railway=unknown",
            "21",
            "10015"
          ],
          [
            "-73900903",
            "40648243",
            "3",
            "36",
            "2000",
            "0",
            "0",
            "0",
            "0",
            "railway=subway",
            "railway=switch",
            "24",
            "11280"
          ],
          [
            "-73900401",
            "40649064",
            "4",
            "101",
            "2000",
            "0",
            "0",
            "0",
            "0",
            "railway=subway",
            "railway=switch",
            "32",
            "15536"
          ],
          [
            "-73900261",
            "40649226",
            "4",
            "22",
            "2000",
            "0",
            "0",
            "0",
            "0",
            "railway=subway",
            "railway=unknown",
            "34",
            "16570"
          ],
          [
            "-73900185",
            "40649410",
            "6",
            "21",
            "2000",
            "0",
            "0",
            "0",
            "0",
            "railway=subway",
            "railway=switch",
            "35",
            "17754"
          ],
          [
            "-73900111",
            "40649531",
            "7",
            "15",
            "2000",
            "0",
            "0",
            "0",
            "0",
            "railway=subway",
            "railway=switch",
            "37",
            "18691"
          ],
          [
            "-73899579",
            "40650372",
            "7",
            "104",
            "2000",
            "0",
            "0",
            "0",
            "0",
            "railway=subway",
            "",
            "45",
            "24301"
          ],
          [
            "-73898973",
            "40651367",
            "7",
            "122",
            "2000",
            "0",
            "0",
            "0",
            "0",
            "railway=subway",
            "wheelchair=no railway=halt",
            "9",
            "4277"
          ],
          [
            "-73899417",
            "40659535",
            "8",
            "936",
            "2000",
            "0",
            "0",
            "0",
            "0",
            "railway=subway",
            "wheelchair=no railway=halt",
            "84",
            "45086"
          ],
          [
            "-73900729",
            "40664742",
            "14",
            "589",
            "2000",
            "0",
            "0",
            "0",
            "0",
            "railway=subway",
            "wheelchair=no railway=halt",
            "131",
            "70898"
          ],
          [
            "-73900876",
            "40665320",
            "14",
            "65",
            "2000",
            "0",
            "0",
            "0",
            "0",
            "railway=subway",
            "railway=switch",
            "136",
            "73757"
          ],
          [
            "-73902120",
            "40670041",
            "20",
            "535",
            "2000",
            "0",
            "0",
            "0",
            "0",
            "railway=subway",
            "wheelchair=no railway=halt",
            "179",
            "97289"
          ],
          [
            "-73903133",
            "40673616",
            "24",
            "408",
            "2000",
            "0",
            "0",
            "0",
            "0",
            "railway=subway",
            "railway=switch",
            "212",
            "115235"
          ],
          [
            "-73902881",
            "40676001",
            "27",
            "269",
            "2000",
            "0",
            "0",
            "0",
            "0",
            "railway=subway",
            "wheelchair=no railway=halt",
            "233",
            "127067"
          ],
          [
            "-73902830",
            "40676190",
            "27",
            "21",
            "2000",
            "0",
            "0",
            "0",
            "0",
            "railway=subway",
            "railway=switch",
            "235",
            "127991"
          ],
          [
            "-73902553",
            "40677266",
            "28",
            "123",
            "2000",
            "0",
            "0",
            "0",
            "0",
            "railway=subway",
            "railway=switch",
            "245",
            "133401"
          ],
          [
            "-73903435",
            "40679525",
            "31",
            "266",
            "2000",
            "0",
            "0",
            "0",
            "0",
            "railway=subway",
            "wheelchair=no railway=halt",
            "266",
            "145101"
          ],
          [
            "-73903588",
            "40680026",
            "32",
            "57",
            "2000",
            "0",
            "0",
            "0",
            "0",
            "railway=subway",
            "railway=switch",
            "271",
            "147608"
          ],
          [
            "-73903716",
            "40680434",
            "32",
            "47",
            "2000",
            "0",
            "0",
            "0",
            "0",
            "railway=subway",
            "railway=switch",
            "275",
            "149676"
          ],
          [
            "-73905547",
            "40683428",
            "28",
            "370",
            "2000",
            "0",
            "0",
            "0",
            "0",
            "railway=subway",
            "wheelchair=no railway=halt",
            "304",
            "185733"
          ],
          [
            "-73903538",
            "40689396",
            "22",
            "709",
            "2000",
            "0",
            "0",
            "0",
            "0",
            "railway=subway",
            "wheelchair=yes railway=halt",
            "361",
            "213340"
          ],
          [
            "-73904957",
            "40696129",
            "-8192",
            "975",
            "2000",
            "0",
            "0",
            "0",
            "0",
            "railway=subway",
            "wheelchair=no railway=halt",
            "439",
            "255897"
          ],
          [
            "-73911733",
            "40699958",
            "-8192",
            "714",
            "2000",
            "0",
            "0",
            "0",
            "0",
            "railway=subway",
            "wheelchair=yes railway=halt",
            "496",
            "287303"
          ],
          [
            "-73919154",
            "40704300",
            "-8192",
            "791",
            "2000",
            "0",
            "0",
            "0",
            "0",
            "railway=subway",
            "wheelchair=no railway=halt",
            "559",
            "322095"
          ],
          [
            "-73923520",
            "40707020",
            "-8192",
            "477",
            "2000",
            "0",
            "0",
            "0",
            "0",
            "railway=subway",
            "wheelchair=no railway=halt",
            "597",
            "343076"
          ],
          [
            "-73933722",
            "40706087",
            "-8192",
            "893",
            "2000",
            "0",
            "0",
            "0",
            "0",
            "railway=subway",
            "wheelchair=no railway=halt",
            "669",
            "382355"
          ],
          [
            "-73939941",
            "40708485",
            "-8192",
            "794",
            "2000",
            "0",
            "0",
            "0",
            "0",
            "railway=subway",
            "wheelchair=no railway=halt",
            "732",
            "417279"
          ],
          [
            "-73940988",
            "40712630",
            "-8192",
            "471",
            "2000",
            "0",
            "0",
            "0",
            "0",
            "railway=subway",
            "wheelchair=no railway=halt",
            "770",
            "437996"
          ],
          [
            "-73945233",
            "40714487",
            "-8192",
            "507",
            "2000",
            "0",
            "0",
            "0",
            "0",
            "railway=subway",
            "wheelchair=no railway=halt",
            "811",
            "460297"
          ],
          [
            "-73951078",
            "40714067",
            "-8192",
            "496",
            "2000",
            "0",
            "0",
            "0",
            "0",
            "railway=subway",
            "wheelchair=no railway=halt",
            "850",
            "482113"
          ],
          [
            "-73955750",
            "40716642",
            "-8192",
            "493",
            "2000",
            "0",
            "0",
            "0",
            "0",
            "railway=subway",
            "",
            "890",
            "503798"
          ],
          [
            "-73956076",
            "40716847",
            "-8192",
            "36",
            "2000",
            "0",
            "0",
            "0",
            "0",
            "railway=subway",
            "railway=switch",
            "2",
            "1583"
          ],
          [
            "-73956169",
            "40716905",
            "-8192",
            "10",
            "2000",
            "0",
            "0",
            "0",
            "0",
            "railway=subway",
            "railway=switch",
            "3",
            "2023"
          ],
          [
            "-73957648",
            "40717852",
            "-8192",
            "163",
            "2000",
            "0",
            "0",
            "0",
            "0",
            "railway=subway",
            "wheelchair=no railway=halt",
            "16",
            "9192"
          ],
          [
            "-73982153",
            "40731198",
            "-8192",
            "2554",
            "2000",
            "0",
            "0",
            "0",
            "0",
            "railway=subway",
            "wheelchair=no railway=halt",
            "221",
            "121531"
          ],
          [
            "-73986874",
            "40733198",
            "-8192",
            "457",
            "2000",
            "0",
            "0",
            "0",
            "0",
            "railway=subway",
            "wheelchair=no railway=halt",
            "257",
            "141632"
          ],
          [
            "-73991588",
            "40735204",
            "-8192",
            "457",
            "2000",
            "0",
            "0",
            "0",
            "0",
            "railway=subway",
            "wheelchair=yes railway=halt",
            "294",
            "161733"
          ],
          [
            "-73997542",
            "40737698",
            "-8192",
            "575",
            "2000",
            "0",
            "0",
            "0",
            "0",
            "railway=subway",
            "wheelchair=no railway=halt",
            "340",
            "187025"
          ],
          [
            "-74001065",
            "40739200",
            "-8192",
            "341",
            "2000",
            "0",
            "0",
            "0",
            "0",
            "railway=subway",
            "",
            "367",
            "202024"
          ],
          [
            "-74001327",
            "40739312",
            "-8192",
            "25",
            "2000",
            "0",
            "0",
            "0",
            "0",
            "railway=subway",
            "railway=switch",
            "2",
            "1099"
          ],
          [
            "-74001485",
            "40739379",
            "-8192",
            "15",
            "2000",
            "0",
            "0",
            "0",
            "0",
            "railway=subway",
            "railway=switch",
            "3",
            "1759"
          ],
          [
            "-74003238",
            "40740129",
            "-8192",
            "170",
            "2000",
            "0",
            "0",
            "0",
            "0",
            "railway=subway",
            "",
            "16",
            "9236"
          ]
        ],
        "times": [
          0,
          13.6,
          14.32,
          15.04,
          17.04,
          18.16,
          38.88,
          56.08,
          71.28,
          103.36,
          115.52,
          120.32,
          138.8,
          175.04,
          232.64,
          235.28,
          238.08,
          318.24,
          323.36,
          366,
          367.52,
          379.28,
          380.56,
          381.44,
          417.36,
          418.96,
          420.56,
          422.16,
          423.76,
          433.68,
          436.48,
          438.56,
          446.4,
          475.52,
          480.24,
          481.52,
          482.8,
          484.08,
          485.36,
          486.64,
          487.92,
          512.88,
          513.84,
          515.76,
          522.96,
          529.36,
          553.2,
          561.04,
          562.08,
          563.04,
          563.92,
          565.04,
          566.16,
          567.44,
          569.04,
          570.08,
          571.36,
          572.48,
          573.52,
          583.28,
          584.96,
          586.64,
          602.88,
          605.44,
          617.52,
          664.48,
          666.8,
          669.12,
          671.44,
          673.76,
          688.32,
          726.48,
          745.84,
          752.32,
          764.72,
          777.92,
          789.68,
          798.8,
          832.64,
          846.96,
          854.56,
          864.48,
          866.48,
          868.48,
          870.48,
          872.48,
          874.48,
          876.64,
          878.8,
          880.96,
          883.12,
          885.28,
          887.12,
          888.96,
          906.96,
          925.84,
          930.08,
          931.76,
          933.52,
          937.76,
          939.92,
          942,
          944.24,
          946.56,
          950.56,
          953.12,
          956.8,
          960.96,
          962.72,
          965.2,
          967.68,
          969.52,
          972.16,
          974.72,
          979.6,
          982.32,
          987.28,
          989.6,
          991.92,
          993.84,
          995.52,
          996.96,
          998.96,
          1000.88,
          1002.72,
          1007.36,
          1020.48,
          1021.92,
          1025.68,
          1028.16,
          1030.24,
          1032.72,
          1037.6,
          1038.4,
          1050.64,
          1052.32,
          1053.28,
          1054.4,
          1056.32,
          1064.32,
          1080.8,
          1084.72,
          1086.64,
          1105.36,
          1126.32,
          1127.76,
          1131.36,
          1138.88,
          1153.36,
          1153.84,
          1169.28,
          1178.56,
          1188.8,
          1190.24,
          1194.88,
          1203.04,
          1203.52,
          1209.44,
          1220.72,
          1222.48,
          1235.68,
          1237.44,
          1239.52,
          1240.48,
          1242.24,
          1243.12,
          1244.96,
          1247.12,
          1248.24,
          1250.8,
          1253.12,
          1264.24,
          1275.36,
          1277.84,
          1293.76,
          1300.08,
          1305.68,
          1317.84,
          1330,
          1335.6,
          1339.36,
          1340.4,
          1342.24,
          1350.32,
          1352.08,
          1353.76,
          1354.96,
          1360.08,
          1363.28,
          1373.04,
          1383.76,
          1386.32,
          1388.08,
          1389.04,
          1390.24,
          1391.44,
          1393.68,
          1394.8,
          1396.8,
          1397.84,
          1400.4,
          1413.68,
          1415.44,
          1420.64,
          1426.72,
          1432.64,
          1441.28,
          1445.92,
          1447.92,
          1457.6,
          1468.56,
          1495.04,
          1500.24,
          1504.08,
          1510.64,
          1543.04,
          1548.56,
          1550.32,
          1551.28,
          1555.2,
          1555.92,
          1575.68,
          1579.04,
          1581.04,
          1582.96,
          1583.84,
          1586.16,
          1597.2,
          1598.88,
          1605.44,
          1607.68,
          1608.72,
          1611.36,
          1612.16,
          1612.96,
          1614,
          1614.96,
          1616.88,
          1620.8,
          1621.68,
          1626.24,
          1630,
          1634.56,
          1638.32,
          1641.76,
          1643.52,
          1645.44,
          1647.76,
          1650.08,
          1652.24,
          1655.04,
          1657.76,
          1662.64,
          1665.28,
          1667.92,
          1672.08,
          1674.16,
          1676,
          1678,
          1684.16,
          1686.8,
          1690.8,
          1693.12,
          1695.36,
          1697.44,
          1699.6,
          1703.84,
          1705.6,
          1707.28,
          1710,
          1724.64,
          1730.32,
          1748.32,
          1750.16,
          1752,
          1755.04,
          1757.12,
          1759.12,
          1761.12,
          1763.12,
          1765.12,
          1767.12,
          1769.12,
          1771.12,
          1773.2,
          1783.12,
          1802.64,
          1838.88,
          1848,
          1859.76,
          1872.96,
          1885.36,
          1891.84,
          1911.2,
          1923.04,
          1961.2,
          1964,
          1966.4,
          1968.8,
          1971.2,
          1973.6,
          2016.32,
          2032.64,
          2035.12,
          2051.36,
          2053.04,
          2054.72,
          2064.4,
          2065.36,
          2066.4,
          2067.6,
          2068.64,
          2070.24,
          2071.44,
          2072.56,
          2073.6,
          2074.48,
          2075.36,
          2076.4,
          2096.16,
          2108,
          2121.6,
          2123.6,
          2124.64,
          2133.84,
          2149.6,
          2150.96,
          2152.32,
          2153.68,
          2155.04,
          2156.4,
          2157.76,
          2174.4,
          2191.6,
          2199.44,
          2204.32,
          2209.12,
          2214.08,
          2215.68,
          2217.28,
          2218.88,
          2220.48,
          2253.52,
          2256.4,
          2257.2,
          2258.48,
          2270.24,
          2271.68,
          2314.4,
          2399.68,
          2402.48,
          2405.2,
          2474.56,
          2499.04,
          2511.12,
          2522.32,
          2534.56,
          2547.68,
          2566.64,
          2581.84,
          2593.68,
          2620.96,
          2622.96,
          2624.16,
          2637.76
        ]
      },
      "geometry": {
        "type": "LineString",
        "coordinates": [
          [
            -74.003238,
            40.740129
          ],
          [
            -74.001485,
            40.739379
          ],
          [
            -74.00143,
            40.739312
          ],
          [
            -74.001373,
            40.739243
          ],
          [
            -74.001114,
            40.739133
          ],
          [
            -74.000967,
            40.73907,
            17.5
          ],
          [
            -73.998294,
            40.737929,
            17.5
          ],
          [
            -73.996058,
            40.736996,
            17.5
          ],
          [
            -73.994097,
            40.736152,
            17.5
          ],
          [
            -73.989951,
            40.734401,
            17.5
          ],
          [
            -73.988357,
            40.733758,
            17.5
          ],
          [
            -73.987731,
            40.733507,
            17.5
          ],
          [
            -73.985343,
            40.7325,
            17.5
          ],
          [
            -73.980655,
            40.730518,
            17.5
          ],
          [
            -73.973208,
            40.727367,
            17.5
          ],
          [
            -73.972875,
            40.727207,
            17.5
          ],
          [
            -73.972542,
            40.727018,
            17.5
          ],
          [
            -73.963347,
            40.721309,
            17.5
          ],
          [
            -73.962764,
            40.720946,
            17.5
          ],
          [
            -73.957871,
            40.717911,
            17.5
          ],
          [
            -73.957716,
            40.717786,
            17.5
          ],
          [
            -73.956372,
            40.716944,
            17.5
          ],
          [
            -73.956204,
            40.716874,
            17.5
          ],
          [
            -73.956106,
            40.716813,
            17.5
          ],
          [
            -73.952002,
            40.714249,
            17.5
          ],
          [
            -73.951789,
            40.714163,
            17.5
          ],
          [
            -73.951564,
            40.714096,
            17.5
          ],
          [
            -73.95133,
            40.71405,
            17.5
          ],
          [
            -73.951089,
            40.714031,
            17.5
          ],
          [
            -73.949623,
            40.714049,
            17.5
          ],
          [
            -73.949204,
            40.714074,
            17.5
          ],
          [
            -73.948901,
            40.714096,
            17.5
          ],
          [
            -73.947752,
            40.7142,
            17.5
          ],
          [
            -73.943472,
            40.714612,
            17.5
          ],
          [
            -73.942779,
            40.714675,
            17.5
          ],
          [
            -73.942585,
            40.714681,
            17.5
          ],
          [
            -73.942399,
            40.714654,
            17.5
          ],
          [
            -73.942226,
            40.714596,
            17.5
          ],
          [
            -73.942074,
            40.71451,
            17.5
          ],
          [
            -73.941951,
            40.714401,
            17.5
          ],
          [
            -73.941862,
            40.714272,
            17.5
          ],
          [
            -73.940551,
            40.711647,
            17.5
          ],
          [
            -73.940506,
            40.71154,
            17.5
          ],
          [
            -73.940462,
            40.711322,
            17.5
          ],
          [
            -73.94033,
            40.71052,
            17.5
          ],
          [
            -73.940212,
            40.709804,
            17.75
          ],
          [
            -73.939774,
            40.707144,
            18.25
          ],
          [
            -73.939628,
            40.706268,
            18.25
          ],
          [
            -73.939598,
            40.706153,
            18.5
          ],
          [
            -73.93956,
            40.706052,
            18.5
          ],
          [
            -73.939513,
            40.705957,
            18.5
          ],
          [
            -73.939433,
            40.705847,
            18.5
          ],
          [
            -73.939329,
            40.705745,
            18.5
          ],
          [
            -73.939185,
            40.70565,
            18.5
          ],
          [
            -73.938988,
            40.705549,
            18.5
          ],
          [
            -73.938849,
            40.705495,
            18.5
          ],
          [
            -73.938673,
            40.705444,
            18.5
          ],
          [
            -73.938506,
            40.705433,
            18.5
          ],
          [
            -73.938354,
            40.705448,
            18.75
          ],
          [
            -73.936958,
            40.705713,
            18.75
          ],
          [
            -73.936714,
            40.705752,
            18.75
          ],
          [
            -73.936468,
            40.705781,
            19
          ],
          [
            -73.934081,
            40.706003,
            19.25
          ],
          [
            -73.933712,
            40.706046,
            19.25
          ],
          [
            -73.931968,
            40.706332,
            19.5
          ],
          [
            -73.925166,
            40.707424,
            20.5
          ],
          [
            -73.924824,
            40.707446,
            20.75
          ],
          [
            -73.924486,
            40.707413,
            20.75
          ],
          [
            -73.924165,
            40.707326,
            20.75
          ],
          [
            -73.923874,
            40.707187,
            20.75
          ],
          [
            -73.922203,
            40.706148,
            21
          ],
          [
            -73.917838,
            40.703426,
            22
          ],
          [
            -73.915629,
            40.702032,
            22.25
          ],
          [
            -73.914853,
            40.701598,
            22.5
          ],
          [
            -73.913366,
            40.700783,
            22.75
          ],
          [
            -73.911801,
            40.699891,
            23
          ],
          [
            -73.910402,
            40.699103,
            23.25
          ],
          [
            -73.909294,
            40.698517,
            23.5
          ],
          [
            -73.905268,
            40.696252,
            24.25
          ],
          [
            -73.903575,
            40.695291,
            24.5
          ],
          [
            -73.90268,
            40.694777,
            24.75
          ],
          [
            -73.901547,
            40.69407,
            25
          ],
          [
            -73.901342,
            40.693909,
            25
          ],
          [
            -73.90117,
            40.693727,
            25
          ],
          [
            -73.901034,
            40.693529,
            25
          ],
          [
            -73.900936,
            40.693319,
            25
          ],
          [
            -73.900877,
            40.693099,
            25.25
          ],
          [
            -73.900871,
            40.692852,
            25.25
          ],
          [
            -73.900902,
            40.692606,
            25.25
          ],
          [
            -73.900971,
            40.692365,
            25.25
          ],
          [
            -73.901075,
            40.692131,
            25.25
          ],
          [
            -73.901213,
            40.691907,
            25
          ],
          [
            -73.901347,
            40.691731,
            24.75
          ],
          [
            -73.901499,
            40.69156,
            24.5
          ],
          [
            -73.903086,
            40.689935,
            22.75
          ],
          [
            -73.904586,
            40.688148,
            21
          ],
          [
            -73.904913,
            40.687744,
            20.75
          ],
          [
            -73.905018,
            40.68757,
            20.75
          ],
          [
            -73.905113,
            40.68739,
            20.75
          ],
          [
            -73.90532,
            40.686936,
            20.75
          ],
          [
            -73.905409,
            40.686701,
            20.75
          ],
          [
            -73.905487,
            40.686478,
            21.25
          ],
          [
            -73.905556,
            40.686228,
            21.5
          ],
          [
            -73.905611,
            40.685973,
            21.5
          ],
          [
            -73.905677,
            40.685524,
            22
          ],
          [
            -73.905704,
            40.685236,
            22.75
          ],
          [
            -73.90576,
            40.684821,
            23.5
          ],
          [
            -73.905813,
            40.684356,
            24.75
          ],
          [
            -73.905815,
            40.684155,
            25.25
          ],
          [
            -73.90577,
            40.683879,
            25.75
          ],
          [
            -73.905684,
            40.683607,
            26.5
          ],
          [
            -73.905602,
            40.683408,
            27
          ],
          [
            -73.905472,
            40.683128,
            27.75
          ],
          [
            -73.905328,
            40.682859,
            28.25
          ],
          [
            -73.905019,
            40.682359,
            29.5
          ],
          [
            -73.904829,
            40.682092,
            30.25
          ],
          [
            -73.904433,
            40.681627,
            31.75
          ],
          [
            -73.90425,
            40.681404,
            32.25
          ],
          [
            -73.904085,
            40.68117,
            33
          ],
          [
            -73.903976,
            40.680974,
            33
          ],
          [
            -73.903893,
            40.680795,
            32.75
          ],
          [
            -73.903835,
            40.680643,
            32.5
          ],
          [
            -73.903764,
            40.680423,
            32.25
          ],
          [
            -73.903675,
            40.680221,
            32
          ],
          [
            -73.903635,
            40.680015,
            31.75
          ],
          [
            -73.903498,
            40.679506,
            31
          ],
          [
            -73.903076,
            40.678069,
            29.25
          ],
          [
            -73.903034,
            40.677912,
            29
          ],
          [
            -73.902932,
            40.677492,
            28.5
          ],
          [
            -73.902891,
            40.677219,
            28.25
          ],
          [
            -73.902875,
            40.676982,
            28
          ],
          [
            -73.90289,
            40.6767,
            27.75
          ],
          [
            -73.90294,
            40.676155,
            27
          ],
          [
            -73.902958,
            40.676066,
            27
          ],
          [
            -73.903318,
            40.67472,
            25.25
          ],
          [
            -73.90335,
            40.674537,
            25
          ],
          [
            -73.903354,
            40.674426,
            25
          ],
          [
            -73.903347,
            40.674298,
            24.75
          ],
          [
            -73.903305,
            40.674087,
            24.5
          ],
          [
            -73.903077,
            40.673204,
            23.5
          ],
          [
            -73.902605,
            40.671382,
            21.25
          ],
          [
            -73.902423,
            40.670962,
            20.75
          ],
          [
            -73.902345,
            40.670753,
            20.5
          ],
          [
            -73.901818,
            40.668686,
            18
          ],
          [
            -73.901226,
            40.666368,
            15
          ],
          [
            -73.901172,
            40.666212,
            15
          ],
          [
            -73.901058,
            40.665817,
            14.5
          ],
          [
            -73.900836,
            40.66499,
            13.5
          ],
          [
            -73.900426,
            40.663388,
            11.5
          ],
          [
            -73.900412,
            40.663335,
            11.5
          ],
          [
            -73.899979,
            40.661625,
            9.25
          ],
          [
            -73.899728,
            40.660595,
            8
          ],
          [
            -73.899444,
            40.659466,
            8.25
          ],
          [
            -73.899402,
            40.659307,
            8.5
          ],
          [
            -73.899273,
            40.658792,
            8
          ],
          [
            -73.899042,
            40.657887,
            6.75
          ],
          [
            -73.89903,
            40.657838,
            6.5
          ],
          [
            -73.898852,
            40.657188,
            6
          ],
          [
            -73.898533,
            40.655945,
            4
          ],
          [
            -73.898485,
            40.655754,
            4
          ],
          [
            -73.898111,
            40.654292,
            3.25
          ],
          [
            -73.898067,
            40.654094,
            2.75
          ],
          [
            -73.898032,
            40.653863,
            2.5
          ],
          [
            -73.898023,
            40.653756,
            2.5
          ],
          [
            -73.898024,
            40.653558,
            2.25
          ],
          [
            -73.89803,
            40.65346,
            2
          ],
          [
            -73.898062,
            40.65325,
            2.25
          ],
          [
            -73.898124,
            40.653008,
            2.75
          ],
          [
            -73.898164,
            40.652889,
            3
          ],
          [
            -73.89829,
            40.652619,
            3.5
          ],
          [
            -73.898428,
            40.65238,
            4.5
          ],
          [
            -73.899132,
            40.651244,
            8.25
          ],
          [
            -73.899823,
            40.650111,
            10.25
          ],
          [
            -73.899974,
            40.649854,
            9.5
          ],
          [
            -73.900961,
            40.648232,
            3.75
          ],
          [
            -73.90135,
            40.647588,
            5
          ],
          [
            -73.901722,
            40.647023,
            5.75
          ],
          [
            -73.902467,
            40.645779,
            7
          ],
          [
            -73.901722,
            40.647023,
            5.75
          ],
          [
            -73.90135,
            40.647588,
            5
          ],
          [
            -73.901078,
            40.647952,
            4
          ],
          [
            -73.901009,
            40.648057,
            3.75
          ],
          [
            -73.900903,
            40.648243,
            3.75
          ],
          [
            -73.900401,
            40.649064,
            4.25
          ],
          [
            -73.900261,
            40.649226,
            4.75
          ],
          [
            -73.900185,
            40.64941,
            6
          ],
          [
            -73.900111,
            40.649531,
            7
          ],
          [
            -73.899777,
            40.650045,
            10.25
          ],
          [
            -73.899579,
            40.650372,
            7.75
          ],
          [
            -73.898973,
            40.651367,
            7.75
          ],
          [
            -73.898324,
            40.652467,
            4
          ],
          [
            -73.898183,
            40.652737,
            3.5
          ],
          [
            -73.898105,
            40.65293,
            3.25
          ],
          [
            -73.898072,
            40.653032,
            3
          ],
          [
            -73.898033,
            40.653162,
            2.5
          ],
          [
            -73.898004,
            40.653298,
            2.25
          ],
          [
            -73.897975,
            40.653545,
            2.25
          ],
          [
            -73.897972,
            40.653669,
            2.5
          ],
          [
            -73.897984,
            40.653898,
            2.75
          ],
          [
            -73.898002,
            40.654011,
            2.75
          ],
          [
            -73.898067,
            40.654294,
            3.25
          ],
          [
            -73.898437,
            40.65576,
            4
          ],
          [
            -73.898486,
            40.655952,
            4
          ],
          [
            -73.898626,
            40.656528,
            5
          ],
          [
            -73.89881,
            40.657194,
            5.75
          ],
          [
            -73.898982,
            40.657845,
            6.5
          ],
          [
            -73.899229,
            40.658799,
            8
          ],
          [
            -73.89936,
            40.659315,
            8.5
          ],
          [
            -73.899417,
            40.659535,
            8
          ],
          [
            -73.899686,
            40.660601,
            9.25
          ],
          [
            -73.899982,
            40.661813,
            10.5
          ],
          [
            -73.900729,
            40.664742,
            14
          ],
          [
            -73.900876,
            40.66532,
            14.75
          ],
          [
            -73.900987,
            40.665746,
            15.25
          ],
          [
            -73.901205,
            40.666463,
            16
          ],
          [
            -73.90212,
            40.670041,
            20.25
          ],
          [
            -73.902272,
            40.670652,
            21
          ],
          [
            -73.902325,
            40.670844,
            21.25
          ],
          [
            -73.902363,
            40.670944,
            21.25
          ],
          [
            -73.902548,
            40.67136,
            21.75
          ],
          [
            -73.902572,
            40.671435,
            22
          ],
          [
            -73.903133,
            40.673616,
            24.5
          ],
          [
            -73.903225,
            40.673987,
            25
          ],
          [
            -73.903269,
            40.674208,
            25.25
          ],
          [
            -73.903272,
            40.674424,
            25.5
          ],
          [
            -73.903263,
            40.674521,
            25.5
          ],
          [
            -73.903207,
            40.674781,
            26
          ],
          [
            -73.902881,
            40.676001,
            27.25
          ],
          [
            -73.90283,
            40.67619,
            27.5
          ],
          [
            -73.902605,
            40.676904,
            28.5
          ],
          [
            -73.902561,
            40.67715,
            28.75
          ],
          [
            -73.902553,
            40.677266,
            28.75
          ],
          [
            -73.902523,
            40.677563,
            29.25
          ],
          [
            -73.902524,
            40.677652,
            29.25
          ],
          [
            -73.90254,
            40.67774,
            29.25
          ],
          [
            -73.902587,
            40.677852,
            29.5
          ],
          [
            -73.90264,
            40.677952,
            29.75
          ],
          [
            -73.902771,
            40.678144,
            30
          ],
          [
            -73.90302,
            40.678543,
            30.5
          ],
          [
            -73.903068,
            40.678633,
            30.5
          ],
          [
            -73.903291,
            40.67912,
            31
          ],
          [
            -73.903435,
            40.679525,
            31.5
          ],
          [
            -73.903588,
            40.680026,
            32.25
          ],
          [
            -73.903716,
            40.680434,
            32.75
          ],
          [
            -73.903843,
            40.680807,
            33.25
          ],
          [
            -73.903927,
            40.68099,
            33.25
          ],
          [
            -73.904034,
            40.681187,
            32.75
          ],
          [
            -73.904192,
            40.681417,
            32.25
          ],
          [
            -73.904374,
            40.681641,
            31.75
          ],
          [
            -73.904551,
            40.681841,
            31.5
          ],
          [
            -73.904771,
            40.682108,
            30.75
          ],
          [
            -73.904962,
            40.682377,
            30.25
          ],
          [
            -73.905269,
            40.682874,
            29.5
          ],
          [
            -73.905417,
            40.683148,
            28.75
          ],
          [
            -73.905547,
            40.683428,
            28.25
          ],
          [
            -73.905728,
            40.68388,
            27.5
          ],
          [
            -73.905774,
            40.684112,
            27
          ],
          [
            -73.90579,
            40.684323,
            26.75
          ],
          [
            -73.905787,
            40.684545,
            26.25
          ],
          [
            -73.905704,
            40.685232,
            25.25
          ],
          [
            -73.905676,
            40.685525,
            24.75
          ],
          [
            -73.905608,
            40.685974,
            23.75
          ],
          [
            -73.905555,
            40.686229,
            23.5
          ],
          [
            -73.905484,
            40.686478,
            23
          ],
          [
            -73.905408,
            40.686703,
            22.5
          ],
          [
            -73.905318,
            40.686938,
            22.25
          ],
          [
            -73.905111,
            40.687391,
            21.25
          ],
          [
            -73.905016,
            40.687572,
            21
          ],
          [
            -73.904911,
            40.687746,
            20.75
          ],
          [
            -73.904705,
            40.688005,
            20.75
          ],
          [
            -73.903538,
            40.689396,
            22.5
          ],
          [
            -73.903085,
            40.689935,
            23
          ],
          [
            -73.901499,
            40.691559,
            25.25
          ],
          [
            -73.901347,
            40.69173,
            25.5
          ],
          [
            -73.901211,
            40.691907,
            25.5
          ],
          [
            -73.901014,
            40.692211
          ],
          [
            -73.900904,
            40.692425
          ],
          [
            -73.900835,
            40.692648
          ],
          [
            -73.900809,
            40.692876
          ],
          [
            -73.900825,
            40.693105
          ],
          [
            -73.900884,
            40.69333
          ],
          [
            -73.900984,
            40.693546
          ],
          [
            -73.901124,
            40.693749
          ],
          [
            -73.9013,
            40.693935
          ],
          [
            -73.90151,
            40.6941
          ],
          [
            -73.902646,
            40.694809
          ],
          [
            -73.904957,
            40.696129
          ],
          [
            -73.909262,
            40.69855
          ],
          [
            -73.910335,
            40.69917
          ],
          [
            -73.911733,
            40.699958
          ],
          [
            -73.913334,
            40.700816
          ],
          [
            -73.914821,
            40.701631
          ],
          [
            -73.915595,
            40.702064
          ],
          [
            -73.917803,
            40.703457
          ],
          [
            -73.919154,
            40.7043
          ],
          [
            -73.92352,
            40.70702
          ],
          [
            -73.923842,
            40.707221
          ],
          [
            -73.924141,
            40.707363
          ],
          [
            -73.924473,
            40.707453
          ],
          [
            -73.924823,
            40.707488
          ],
          [
            -73.925174,
            40.707465
          ],
          [
            -73.931362,
            40.706473
          ],
          [
            -73.933722,
            40.706087
          ],
          [
            -73.934087,
            40.706043
          ],
          [
            -73.936476,
            40.705822
          ],
          [
            -73.936724,
            40.705792
          ],
          [
            -73.936971,
            40.705753
          ],
          [
            -73.938364,
            40.705489
          ],
          [
            -73.938508,
            40.705474
          ],
          [
            -73.93866,
            40.705484
          ],
          [
            -73.938827,
            40.705533
          ],
          [
            -73.93896,
            40.705584
          ],
          [
            -73.939152,
            40.705683
          ],
          [
            -73.939289,
            40.705773
          ],
          [
            -73.939388,
            40.70587
          ],
          [
            -73.939463,
            40.705975
          ],
          [
            -73.939509,
            40.706065
          ],
          [
            -73.939545,
            40.706162
          ],
          [
            -73.939575,
            40.706275
          ],
          [
            -73.939941,
            40.708485
          ],
          [
            -73.940158,
            40.709809
          ],
          [
            -73.940408,
            40.711326
          ],
          [
            -73.940453,
            40.711549
          ],
          [
            -73.9405,
            40.71166
          ],
          [
            -73.940988,
            40.71263
          ],
          [
            -73.941813,
            40.714288
          ],
          [
            -73.941906,
            40.714424
          ],
          [
            -73.942036,
            40.71454
          ],
          [
            -73.942198,
            40.714632
          ],
          [
            -73.942383,
            40.714693
          ],
          [
            -73.942581,
            40.714722
          ],
          [
            -73.942783,
            40.714716
          ],
          [
            -73.945233,
            40.714487
          ],
          [
            -73.947759,
            40.714241
          ],
          [
            -73.948908,
            40.714131
          ],
          [
            -73.949627,
            40.714085
          ],
          [
            -73.95034,
            40.714069
          ],
          [
            -73.951078,
            40.714067
          ],
          [
            -73.951313,
            40.71409
          ],
          [
            -73.951543,
            40.714134
          ],
          [
            -73.951764,
            40.714199
          ],
          [
            -73.951972,
            40.714284
          ],
          [
            -73.95575,
            40.716642
          ],
          [
            -73.956076,
            40.716847
          ],
          [
            -73.956169,
            40.716905
          ],
          [
            -73.956303,
            40.717009
          ],
          [
            -73.957648,
            40.717852
          ],
          [
            -73.957832,
            40.71794
          ],
          [
            -73.962731,
            40.720978
          ],
          [
            -73.972508,
            40.727051
          ],
          [
            -73.972842,
            40.72724
          ],
          [
            -73.97318,
            40.727403
          ],
          [
            -73.982153,
            40.731198
          ],
          [
            -73.985317,
            40.732536
          ],
          [
            -73.986874,
            40.733198
          ],
          [
            -73.988326,
            40.733802
          ],
          [
            -73.989892,
            40.734488
          ],
          [
            -73.991588,
            40.735204
          ],
          [
            -73.994053,
            40.73622
          ],
          [
            -73.99601,
            40.737058
          ],
          [
            -73.997542,
            40.737698
          ],
          [
            -74.001065,
            40.7392
          ],
          [
            -74.001327,
            40.739312
          ],
          [
            -74.001485,
            40.739379
          ],
          [
            -74.003238,
            40.740129
          ]
        ]
      }
    }
  ]
}