{
  "type": "FeatureCollection",
  "features": [
    {
      "type": "Feature",
      "properties": {
        "creator": "BRouter-1.7.9",
        "name": "[MTA] R Train",
        "track-length": "65391",
        "filtered ascend": "9",
        "plain-ascend": "10",
        "total-time": "5232",
        "total-energy": "2884624",
        "cost": "130782",
        "messages": [
          [
            "Longitude",
            "Latitude",
            "Elevation",
            "Distance",
            "CostPerKm",
            "ElevCost",
            "TurnCost",
            "NodeCost",
            "InitialCost",
            "WayTags",
            "NodeTags",
            "Time",
            "Energy"
          ],
          [
            "-74030424",
            "40617621",
            "-8192",
            "196",
            "2000",
            "0",
            "0",
            "0",
            "0",
            "railway=subway",
            "railway=switch",
            "15",
            "8621"
          ],
          [
            "-74030385",
            "40617717",
            "-8192",
            "11",
            "2000",
            "0",
            "0",
            "0",
            "0",
            "railway=subway",
            "railway=switch",
            "16",
            "9104"
          ],
          [
            "-74030347",
            "40617811",
            "-8192",
            "11",
            "2000",
            "0",
            "0",
            "0",
            "0",
            "railway=subway",
            "railway=switch",
            "17",
            "9588"
          ],
          [
            "-74027968",
            "40623636",
            "-8192",
            "677",
            "2000",
            "0",
            "0",
            "0",
            "0",
            "railway=subway",
            "wheelchair=no railway=halt",
            "71",
            "39366"
          ],
          [
            "-74025150",
            "40630594",
            "-8192",
            "808",
            "2000",
            "0",
            "0",
            "0",
            "0",
            "railway=subway",
            "wheelchair=no railway=halt",
            "136",
            "74906"
          ],
          [
            "-74022941",
            "40635999",
            "-8192",
            "629",
            "2000",
            "0",
            "0",
            "0",
            "0",
            "railway=subway",
            "wheelchair=no railway=halt",
            "186",
            "102573"
          ],
          [
            "-74020145",
            "40639122",
            "-8192",
            "424",
            "2000",
            "0",
            "0",
            "0",
            "0",
            "railway=subway",
            "railway=switch",
            "220",
            "121223"
          ],
          [
            "-74019925",
            "40639361",
            "-8192",
            "32",
            "2000",
            "0",
            "0",
            "0",
            "0",
            "railway=subway",
            "railway=unknown",
            "223",
            "122630"
          ],
          [
            "-74019706",
            "40639599",
            "-8192",
            "32",
            "2000",
            "0",
            "0",
            "0",
            "0",
            "railway=subway",
            "railway=switch",
            "225",
            "124038"
          ],
          [
            "-74017288",
            "40641920",
            "-8192",
            "329",
            "2000",
            "0",
            "0",
            "0",
            "0",
            "railway=subway",
            "wheelchair=no railway=halt",
            "251",
            "138509"
          ],
          [
            "-74005651",
            "40653111",
            "13",
            "1585",
            "2000",
            "0",
            "0",
            "0",
            "0",
            "railway=subway",
            "barrier=kerb",
            "378",
            "208226"
          ],
          [
            "-74004479",
            "40654239",
            "13",
            "160",
            "2000",
            "0",
            "0",
            "0",
            "0",
            "railway=subway",
            "railway=switch",
            "391",
            "215263"
          ],
          [
            "-74002971",
            "40655685",
            "13",
            "205",
            "2000",
            "0",
            "0",
            "0",
            "0",
            "railway=subway",
            "wheelchair=no railway=halt",
            "407",
            "224280"
          ],
          [
            "-73978280",
            "40684383",
            "17",
            "3822",
            "2000",
            "0",
            "0",
            "0",
            "0",
            "railway=subway",
            "wheelchair=yes railway=halt",
            "713",
            "392392"
          ],
          [
            "-73983284",
            "40693617",
            "18",
            "1175",
            "2000",
            "0",
            "0",
            "0",
            "0",
            "railway=subway",
            "railway=switch",
            "807",
            "444075"
          ],
          [
            "-73983571",
            "40694273",
            "19",
            "77",
            "2000",
            "0",
            "0",
            "0",
            "0",
            "railway=subway",
            "railway=switch",
            "813",
            "447461"
          ],
          [
            "-74001107",
            "40718875",
            "-8192",
            "3179",
            "2000",
            "0",
            "0",
            "0",
            "0",
            "railway=subway",
            "wheelchair=no railway=halt",
            "1068",
            "594354"
          ],
          [
            "-73999075",
            "40722696",
            "-8192",
            "504",
            "2000",
            "0",
            "0",
            "0",
            "0",
            "railway=subway",
            "railway=switch",
            "1108",
            "616522"
          ],
          [
            "-73998791",
            "40723031",
            "-8192",
            "44",
            "2000",
            "0",
            "0",
            "0",
            "0",
            "railway=subway",
            "railway=switch",
            "1112",
            "618457"
          ],
          [
            "-73990355",
            "40736536",
            "-8192",
            "1689",
            "2000",
            "0",
            "0",
            "0",
            "0",
            "railway=subway",
            "wheelchair=yes railway=halt",
            "1247",
            "692748"
          ],
          [
            "-73987794",
            "40750318",
            "-8192",
            "1546",
            "2000",
            "0",
            "0",
            "0",
            "0",
            "railway=subway",
            "wheelchair=yes railway=halt",
            "1370",
            "760750"
          ],
          [
            "-73987699",
            "40750850",
            "-8192",
            "60",
            "2000",
            "0",
            "0",
            "0",
            "0",
            "railway=subway",
            "railway=switch",
            "1375",
            "763389"
          ],
          [
            "-73987635",
            "40751075",
            "-8192",
            "26",
            "2000",
            "0",
            "0",
            "0",
            "0",
            "railway=subway",
            "railway=unknown",
            "1377",
            "764532"
          ],
          [
            "-73987572",
            "40751301",
            "-8192",
            "26",
            "2000",
            "0",
            "0",
            "0",
            "0",
            "railway=subway",
            "railway=switch",
            "1379",
            "765676"
          ],
          [
            "-73986340",
            "40755482",
            "-8192",
            "476",
            "2000",
            "0",
            "0",
            "0",
            "0",
            "railway=subway",
            "wheelchair=yes railway=halt",
            "1417",
            "786613"
          ],
          [
            "-73983378",
            "40760805",
            "-8192",
            "645",
            "2000",
            "0",
            "0",
            "0",
            "0",
            "railway=subway",
            "wheelchair=yes railway=halt",
            "1469",
            "814984"
          ],
          [
            "-73982535",
            "40761977",
            "-8192",
            "148",
            "2000",
            "0",
            "0",
            "0",
            "0",
            "railway=subway",
            "railway=switch",
            "1481",
            "821493"
          ],
          [
            "-73982061",
            "40762636",
            "-8192",
            "83",
            "2000",
            "0",
            "0",
            "0",
            "0",
            "railway=subway",
            "railway=switch",
            "1487",
            "825144"
          ],
          [
            "-73979860",
            "40765562",
            "-8192",
            "374",
            "2000",
            "0",
            "0",
            "0",
            "0",
            "railway=subway",
            "wheelchair=no railway=halt",
            "1517",
            "841595"
          ],
          [
            "-73979625",
            "40765970",
            "-8192",
            "49",
            "2000",
            "0",
            "0",
            "0",
            "0",
            "railway=subway",
            "railway=switch",
            "1521",
            "843750"
          ],
          [
            "-73978435",
            "40766878",
            "-8192",
            "151",
            "2000",
            "0",
            "0",
            "0",
            "0",
            "railway=subway",
            "",
            "1533",
            "850392"
          ],
          [
            "-73972506",
            "40764809",
            "-8192",
            "571",
            "2000",
            "0",
            "0",
            "0",
            "0",
            "railway=subway",
            "wheelchair=no railway=halt",
            "45",
            "25115"
          ],
          [
            "-73965972",
            "40762088",
            "-8192",
            "630",
            "2000",
            "0",
            "0",
            "0",
            "0",
            "railway=subway",
            "wheelchair=no railway=halt",
            "96",
            "52826"
          ],
          [
            "-73948816",
            "40754605",
            "-8192",
            "1671",
            "2000",
            "0",
            "0",
            "0",
            "0",
            "railway=subway",
            "railway=switch",
            "229",
            "126325"
          ],
          [
            "-73938023",
            "40748646",
            "-8192",
            "1355",
            "2000",
            "0",
            "0",
            "0",
            "0",
            "railway=subway",
            "railway=switch",
            "338",
            "185925"
          ],
          [
            "-73936046",
            "40749673",
            "-8192",
            "205",
            "2000",
            "0",
            "0",
            "0",
            "0",
            "railway=subway",
            "wheelchair=yes railway=halt",
            "354",
            "194942"
          ],
          [
            "-73936004",
            "40749712",
            "-8192",
            "6",
            "2000",
            "0",
            "0",
            "0",
            "0",
            "railway=subway",
            "railway=switch",
            "355",
            "195206"
          ],
          [
            "-73935744",
            "40750008",
            "-8192",
            "40",
            "2000",
            "0",
            "0",
            "0",
            "0",
            "railway=subway",
            "railway=unknown",
            "358",
            "196965"
          ],
          [
            "-73935442",
            "40750342",
            "-8192",
            "45",
            "2000",
            "0",
            "0",
            "0",
            "0",
            "railway=subway",
            "railway=switch",
            "361",
            "198945"
          ],
          [
            "-73935233",
            "40750533",
            "-8192",
            "28",
            "2000",
            "0",
            "0",
            "0",
            "0",
            "railway=subway",
            "railway=switch",
            "364",
            "200176"
          ],
          [
            "-73934929",
            "40750813",
            "-8192",
            "40",
            "2000",
            "0",
            "0",
            "0",
            "0",
            "railway=subway",
            "railway=switch",
            "367",
            "201936"
          ],
          [
            "-73931641",
            "40751978",
            "-8192",
            "313",
            "2000",
            "0",
            "0",
            "0",
            "0",
            "railway=subway",
            "railway=switch",
            "392",
            "215703"
          ],
          [
            "-73931452",
            "40751981",
            "-8192",
            "16",
            "2000",
            "0",
            "0",
            "0",
            "0",
            "railway=subway",
            "railway=switch",
            "393",
            "216407"
          ],
          [
            "-73930693",
            "40751994",
            "-8192",
            "64",
            "2000",
            "0",
            "0",
            "0",
            "0",
            "railway=subway",
            "railway=switch",
            "398",
            "219222"
          ],
          [
            "-73890364",
            "40746218",
            "-8192",
            "3651",
            "2000",
            "0",
            "0",
            "0",
            "0",
            "railway=subway",
            "wheelchair=yes railway=halt",
            "690",
            "379812"
          ],
          [
            "-73889800",
            "40745978",
            "-8192",
            "55",
            "2000",
            "0",
            "0",
            "0",
            "0",
            "railway=subway",
            "railway=switch",
            "695",
            "382231"
          ],
          [
            "-73889323",
            "40745775",
            "-8192",
            "46",
            "2000",
            "0",
            "0",
            "0",
            "0",
            "railway=subway",
            "railway=switch",
            "698",
            "384255"
          ],
          [
            "-73847200",
            "40722865",
            "-8192",
            "4501",
            "2000",
            "0",
            "0",
            "0",
            "0",
            "railway=subway",
            "",
            "1058",
            "582232"
          ],
          [
            "-73845884",
            "40722281",
            "-8192",
            "129",
            "2000",
            "0",
            "0",
            "0",
            "0",
            "railway=subway",
            "railway=switch",
            "10",
            "5674"
          ],
          [
            "-73845706",
            "40722201",
            "-8192",
            "17",
            "2000",
            "0",
            "0",
            "0",
            "0",
            "railway=subway",
            "railway=switch",
            "11",
            "6421"
          ],
          [
            "-73845526",
            "40722121",
            "-8192",
            "18",
            "2000",
            "0",
            "0",
            "0",
            "0",
            "railway=subway",
            "railway=switch",
            "13",
            "7213"
          ],
          [
            "-73844181",
            "40721521",
            "-8192",
            "132",
            "2000",
            "0",
            "0",
            "0",
            "0",
            "railway=subway",
            "",
            "23",
            "13019"
          ],
          [
            "-73845526",
            "40722121",
            "-8192",
            "132",
            "2000",
            "0",
            "0",
            "0",
            "0",
            "reversedirection=yes railway=subway",
            "railway=switch",
            "10",
            "5806"
          ],
          [
            "-73845706",
            "40722201",
            "-8192",
            "18",
            "2000",
            "0",
            "0",
            "0",
            "0",
            "reversedirection=yes railway=subway",
            "railway=switch",
            "12",
            "6597"
          ],
          [
            "-73845779",
            "40722254",
            "-8192",
            "9",
            "2000",
            "0",
            "0",
            "0",
            "0",
            "reversedirection=yes railway=subway",
            "railway=unknown",
            "12",
            "6993"
          ],
          [
            "-73845860",
            "40722310",
            "-8192",
            "9",
            "2000",
            "0",
            "0",
            "0",
            "0",
            "reversedirection=yes railway=subway",
            "railway=switch",
            "13",
            "7389"
          ],
          [
            "-73848622",
            "40723585",
            "-8192",
            "273",
            "2000",
            "0",
            "0",
            "0",
            "0",
            "railway=subway",
            "",
            "35",
            "19397"
          ],
          [
            "-73892324",
            "40747091",
            "-8192",
            "4642",
            "2000",
            "0",
            "0",
            "0",
            "0",
            "railway=subway",
            "wheelchair=yes railway=halt",
            "371",
            "204179"
          ],
          [
            "-73892896",
            "40747334",
            "-8192",
            "55",
            "2000",
            "0",
            "0",
            "0",
            "0",
            "railway=subway",
            "railway=switch",
            "375",
            "206598"
          ],
          [
            "-73893124",
            "40747450",
            "-8192",
            "23",
            "2000",
            "0",
            "0",
            "0",
            "0",
            "railway=subway",
            "railway=unknown",
            "377",
            "207610"
          ],
          [
            "-73893373",
            "40747537",
            "-8192",
            "23",
            "2000",
            "0",
            "0",
            "0",
            "0",
            "railway=subway",
            "railway=switch",
            "379",
            "208622"
          ],
          [
            "-73930694",
            "40752028",
            "-8192",
            "3358",
            "2000",
            "0",
            "0",
            "0",
            "0",
            "railway=subway",
            "railway=switch",
            "648",
            "356324"
          ],
          [
            "-73930874",
            "40752025",
            "-8192",
            "15",
            "2000",
            "0",
            "0",
            "0",
            "0",
            "railway=subway",
            "railway=switch",
            "649",
            "356984"
          ],
          [
            "-73931452",
            "40751981",
            "-8192",
            "49",
            "2000",
            "0",
            "0",
            "0",
            "0",
            "reversedirection=yes railway=subway",
            "railway=switch",
            "653",
            "359139"
          ],
          [
            "-73931641",
            "40751978",
            "-8192",
            "16",
            "2000",
            "0",
            "0",
            "0",
            "0",
            "reversedirection=yes railway=subway",
            "railway=switch",
            "654",
            "359843"
          ],
          [
            "-73934929",
            "40750813",
            "-8192",
            "313",
            "2000",
            "0",
            "0",
            "0",
            "0",
            "reversedirection=yes railway=subway",
            "railway=switch",
            "679",
            "373610"
          ],
          [
            "-73935267",
            "40750555",
            "-8192",
            "40",
            "2000",
            "0",
            "0",
            "0",
            "0",
            "railway=subway",
            "railway=switch",
            "682",
            "375370"
          ],
          [
            "-73937988",
            "40748784",
            "-8192",
            "307",
            "2000",
            "0",
            "0",
            "0",
            "0",
            "railway=subway",
            "wheelchair=yes railway=halt",
            "707",
            "388873"
          ],
          [
            "-73939114",
            "40748331",
            "-8192",
            "108",
            "2000",
            "0",
            "0",
            "0",
            "0",
            "railway=subway",
            "railway=switch",
            "715",
            "393624"
          ],
          [
            "-73939416",
            "40748242",
            "-8192",
            "27",
            "2000",
            "0",
            "0",
            "0",
            "0",
            "railway=subway",
            "railway=unknown",
            "718",
            "394811"
          ],
          [
            "-73939706",
            "40748157",
            "-8192",
            "26",
            "2000",
            "0",
            "0",
            "0",
            "0",
            "railway=subway",
            "railway=switch",
            "720",
            "395955"
          ],
          [
            "-73939786",
            "40748128",
            "-8192",
            "7",
            "2000",
            "0",
            "0",
            "0",
            "0",
            "railway=subway",
            "railway=switch",
            "720",
            "396263"
          ],
          [
            "-73948794",
            "40754635",
            "-8192",
            "1162",
            "2000",
            "0",
            "0",
            "0",
            "0",
            "railway=subway",
            "railway=switch",
            "813",
            "447374"
          ],
          [
            "-73967833",
            "40762953",
            "-8192",
            "1855",
            "2000",
            "0",
            "0",
            "0",
            "0",
            "railway=subway",
            "wheelchair=no railway=halt",
            "962",
            "528966"
          ],
          [
            "-73974659",
            "40765086",
            "-8192",
            "631",
            "2000",
            "0",
            "0",
            "0",
            "0",
            "railway=subway",
            "wheelchair=no railway=halt",
            "1012",
            "556721"
          ],
          [
            "-73978584",
            "40766992",
            "-8192",
            "404",
            "2000",
            "0",
            "0",
            "0",
            "0",
            "railway=subway",
            "",
            "1044",
            "574491"
          ],
          [
            "-73979767",
            "40766024",
            "-8192",
            "154",
            "2000",
            "0",
            "0",
            "0",
            "0",
            "railway=subway",
            "railway=switch",
            "12",
            "6773"
          ],
          [
            "-73981155",
            "40764201",
            "-8192",
            "234",
            "2000",
            "0",
            "0",
            "0",
            "0",
            "railway=subway",
            "wheelchair=no railway=halt",
            "31",
            "17066"
          ],
          [
            "-73982180",
            "40762686",
            "-8192",
            "189",
            "2000",
            "0",
            "0",
            "0",
            "0",
            "railway=subway",
            "railway=switch",
            "46",
            "25379"
          ],
          [
            "-73982654",
            "40762027",
            "-8192",
            "83",
            "2000",
            "0",
            "0",
            "0",
            "0",
            "railway=subway",
            "railway=switch",
            "52",
            "29030"
          ],
          [
            "-73984548",
            "40759395",
            "-8192",
            "333",
            "2000",
            "0",
            "0",
            "0",
            "0",
            "railway=subway",
            "wheelchair=no railway=halt",
            "79",
            "43677"
          ],
          [
            "-73987136",
            "40753906",
            "-8192",
            "651",
            "2000",
            "0",
            "0",
            "0",
            "0",
            "railway=subway",
            "wheelchair=yes railway=halt",
            "131",
            "72311"
          ],
          [
            "-73987706",
            "40751315",
            "-8192",
            "292",
            "2000",
            "0",
            "0",
            "0",
            "0",
            "railway=subway",
            "railway=switch",
            "154",
            "85155"
          ],
          [
            "-73987788",
            "40750859",
            "-8192",
            "51",
            "2000",
            "0",
            "0",
            "0",
            "0",
            "railway=subway",
            "railway=switch",
            "158",
            "87398"
          ],
          [
            "-73988251",
            "40748655",
            "-8192",
            "248",
            "2000",
            "0",
            "0",
            "0",
            "0",
            "railway=subway",
            "wheelchair=yes railway=halt",
            "178",
            "98307"
          ],
          [
            "-73988915",
            "40744698",
            "-8192",
            "443",
            "2000",
            "0",
            "0",
            "0",
            "0",
            "railway=subway",
            "wheelchair=no railway=halt",
            "214",
            "117792"
          ],
          [
            "-73989566",
            "40740602",
            "-8192",
            "458",
            "2000",
            "0",
            "0",
            "0",
            "0",
            "railway=subway",
            "wheelchair=no railway=halt",
            "250",
            "137937"
          ],
          [
            "-73990874",
            "40734969",
            "-8192",
            "635",
            "2000",
            "0",
            "0",
            "0",
            "0",
            "railway=subway",
            "wheelchair=yes railway=halt",
            "301",
            "165868"
          ],
          [
            "-73993280",
            "40729666",
            "-8192",
            "635",
            "2000",
            "0",
            "0",
            "0",
            "0",
            "railway=subway",
            "wheelchair=no railway=halt",
            "352",
            "193799"
          ],
          [
            "-73998319",
            "40723713",
            "-8192",
            "786",
            "2000",
            "0",
            "0",
            "0",
            "0",
            "railway=subway",
            "wheelchair=no railway=halt",
            "415",
            "228371"
          ],
          [
            "-73998867",
            "40723068",
            "-8192",
            "85",
            "2000",
            "0",
            "0",
            "0",
            "0",
            "railway=subway",
            "railway=switch",
            "422",
            "232110"
          ],
          [
            "-73998989",
            "40722892",
            "-8192",
            "22",
            "2000",
            "0",
            "0",
            "0",
            "0",
            "railway=subway",
            "railway=unknown",
            "423",
            "233077"
          ],
          [
            "-73999112",
            "40722715",
            "-8192",
            "22",
            "2000",
            "0",
            "0",
            "0",
            "0",
            "railway=subway",
            "railway=switch",
            "425",
            "234045"
          ],
          [
            "-73999562",
            "40717714",
            "-8192",
            "689",
            "2000",
            "0",
            "0",
            "0",
            "0",
            "railway=subway",
            "wheelchair=no railway=halt",
            "480",
            "264351"
          ],
          [
            "-73985281",
            "40697378",
            "-8192",
            "2625",
            "2000",
            "0",
            "0",
            "0",
            "0",
            "railway=subway",
            "railway=switch",
            "690",
            "381137"
          ],
          [
            "-73983411",
            "40693581",
            "-8192",
            "451",
            "2000",
            "0",
            "0",
            "0",
            "0",
            "railway=subway",
            "railway=switch",
            "726",
            "400974"
          ],
          [
            "-73982839",
            "40692440",
            "-8192",
            "136",
            "2000",
            "0",
            "0",
            "0",
            "0",
            "railway=subway",
            "railway=switch",
            "737",
            "406956"
          ],
          [
            "-73981544",
            "40689757",
            "-8192",
            "318",
            "2000",
            "0",
            "0",
            "0",
            "0",
            "railway=subway",
            "wheelchair=yes railway=halt",
            "763",
            "420943"
          ],
          [
            "-73980574",
            "40688820",
            "-8192",
            "135",
            "2000",
            "0",
            "0",
            "0",
            "0",
            "railway=subway",
            "railway=switch",
            "773",
            "426881"
          ],
          [
            "-73980024",
            "40688564",
            "-8192",
            "55",
            "2000",
            "0",
            "0",
            "0",
            "0",
            "railway=subway",
            "railway=switch",
            "778",
            "429300"
          ],
          [
            "-73979443",
            "40682890",
            "-8192",
            "724",
            "2000",
            "0",
            "0",
            "0",
            "0",
            "railway=subway",
            "wheelchair=yes railway=halt",
            "836",
            "461146"
          ],
          [
            "-73983701",
            "40676562",
            "-8192",
            "789",
            "2000",
            "0",
            "0",
            "0",
            "0",
            "railway=subway",
            "wheelchair=no railway=halt",
            "899",
            "495850"
          ],
          [
            "-73988934",
            "40670192",
            "-8192",
            "834",
            "2000",
            "0",
            "0",
            "0",
            "0",
            "railway=subway",
            "wheelchair=no railway=halt",
            "966",
            "532534"
          ],
          [
            "-73993784",
            "40664629",
            "-8192",
            "742",
            "2000",
            "0",
            "0",
            "0",
            "0",
            "railway=subway",
            "wheelchair=no railway=halt",
            "1025",
            "565171"
          ],
          [
            "-73998870",
            "40659739",
            "-8192",
            "693",
            "2000",
            "0",
            "0",
            "0",
            "0",
            "railway=subway",
            "wheelchair=no railway=halt",
            "1080",
            "595652"
          ],
          [
            "-74004438",
            "40654445",
            "-8192",
            "754",
            "2000",
            "0",
            "0",
            "0",
            "0",
            "railway=subway",
            "wheelchair=no railway=halt",
            "1141",
            "628817"
          ],
          [
            "-74004587",
            "40654301",
            "-8192",
            "20",
            "2000",
            "0",
            "0",
            "0",
            "0",
            "railway=subway",
            "railway=switch",
            "1142",
            "629697"
          ],
          [
            "-74010660",
            "40648404",
            "-8192",
            "833",
            "2000",
            "0",
            "0",
            "0",
            "0",
            "railway=subway",
            "wheelchair=no railway=halt",
            "1209",
            "666337"
          ],
          [
            "-74014652",
            "40644568",
            "-8192",
            "544",
            "2000",
            "0",
            "0",
            "0",
            "0",
            "railway=subway",
            "wheelchair=no railway=halt",
            "1253",
            "690265"
          ],
          [
            "-74018757",
            "40640674",
            "-8192",
            "554",
            "2000",
            "0",
            "0",
            "0",
            "0",
            "railway=subway",
            "wheelchair=no railway=halt",
            "1297",
            "714633"
          ],
          [
            "-74019777",
            "40639641",
            "-8192",
            "144",
            "2000",
            "0",
            "0",
            "0",
            "0",
            "railway=subway",
            "railway=switch",
            "1308",
            "720966"
          ],
          [
            "-74019997",
            "40639402",
            "-8192",
            "32",
            "2000",
            "0",
            "0",
            "0",
            "0",
            "railway=subway",
            "railway=unknown",
            "1311",
            "722374"
          ],
          [
            "-74020253",
            "40639184",
            "-8192",
            "32",
            "2000",
            "0",
            "0",
            "0",
            "0",
            "railway=subway",
            "railway=switch",
            "1313",
            "723781"
          ],
          [
            "-74023636",
            "40634412",
            "-8192",
            "612",
            "2000",
            "0",
            "0",
            "0",
            "0",
            "railway=subway",
            "wheelchair=no railway=halt",
            "1362",
            "750700"
          ],
          [
            "-74025840",
            "40629018",
            "-8192",
            "627",
            "2000",
            "0",
            "0",
            "0",
            "0",
            "railway=subway",
            "wheelchair=no railway=halt",
            "1413",
            "778279"
          ],
          [
            "-74028705",
            "40622061",
            "-8192",
            "809",
            "2000",
            "0",
            "0",
            "0",
            "0",
            "railway=subway",
            "wheelchair=no railway=halt",
            "1477",
            "813863"
          ],
          [
            "-74030434",
            "40617830",
            "-8192",
            "492",
            "2000",
            "0",
            "0",
            "0",
            "0",
            "railway=subway",
            "railway=switch",
            "1517",
            "835504"
          ],
          [
            "-74030473",
            "40617734",
            "-8192",
            "11",
            "2000",
            "0",
            "0",
            "0",
            "0",
            "railway=subway",
            "railway=switch",
            "1518",
            "835988"
          ],
          [
            "-74030512",
            "40617637",
            "-8192",
            "11",
            "2000",
            "0",
            "0",
            "0",
            "0",
            "railway=subway",
            "railway=switch",
            "1518",
            "836472"
          ],
          [
            "-74031197",
            "40615951",
            "-8192",
            "196",
            "2000",
            "0",
            "0",
            "0",
            "0",
            "railway=subway",
            "",
            "1534",
            "845093"
          ]
        ],
        "times": [
          0,
          15.68,
          16.56,
          17.44,
          71.6,
          75.28,
          121.52,
          136.24,
          186.56,
          191.68,
          193.04,
          194.16,
          195.52,
          207.44,
          212.08,
          220.48,
          223.04,
          225.6,
          251.92,
          378.72,
          391.52,
          407.92,
          424.88,
          433.92,
          460.08,
          517.84,
          520.08,
          523.76,
          629.76,
          632,
          641.92,
          694.32,
          698.4,
          713.68,
          715.36,
          717.04,
          718.72,
          720.4,
          722.08,
          723.76,
          739.92,
          740.8,
          741.68,
          742.56,
          743.44,
          744.32,
          745.2,
          746.08,
          746.96,
          748.72,
          753.28,
          756.96,
          761.28,
          762.56,
          763.84,
          765.12,
          766.4,
          767.68,
          768.96,
          770.24,
          771.52,
          775.36,
          789.36,
          807.68,
          813.84,
          819.04,
          824.88,
          840.08,
          843.6,
          849.6,
          866.16,
          1007.2,
          1013.84,
          1016.32,
          1017.92,
          1025.92,
          1027.12,
          1028.32,
          1029.52,
          1045.6,
          1046.88,
          1048.16,
          1049.36,
          1068.16,
          1071.04,
          1071.92,
          1072.72,
          1073.6,
          1074.48,
          1075.36,
          1076.24,
          1077.12,
          1078,
          1089.68,
          1108.48,
          1112,
          1202.4,
          1203.36,
          1204.32,
          1205.28,
          1216,
          1228.88,
          1247.12,
          1252.16,
          1255.04,
          1274,
          1276,
          1278.08,
          1304.72,
          1338,
          1370.8,
          1375.6,
          1377.68,
          1379.76,
          1386.72,
          1388.32,
          1395.84,
          1403.2,
          1417.84,
          1424.72,
          1427.12,
          1429.52,
          1437.04,
          1440.8,
          1445.68,
          1469.44,
          1481.28,
          1487.92,
          1496.8,
          1503.04,
          1517.84,
          1521.76,
          1526.64,
          1527.44,
          1528.24,
          1529.04,
          1529.84,
          1530.641,
          1531.441,
          1532.241,
          1533.041,
          1533.841,
          1534.561,
          1535.361,
          1536.161,
          1536.961,
          1537.761,
          1538.561,
          1539.361,
          1545.121,
          1550.001,
          1552.241,
          1554.561,
          1560.961,
          1561.761,
          1562.561,
          1563.361,
          1564.161,
          1579.521,
          1580.721,
          1581.361,
          1615.201,
          1629.921,
          1638.081,
          1689.761,
          1763.601,
          1768.161,
          1782.721,
          1802.161,
          1803.681,
          1805.201,
          1806.721,
          1808.241,
          1809.761,
          1811.281,
          1812.801,
          1814.241,
          1824.401,
          1826.081,
          1827.921,
          1829.521,
          1830.641,
          1832.001,
          1833.441,
          1834.561,
          1837.921,
          1838.721,
          1839.521,
          1841.681,
          1842.801,
          1844.081,
          1848.401,
          1849.441,
          1850.481,
          1851.761,
          1853.041,
          1854.481,
          1855.761,
          1857.281,
          1858.881,
          1860.721,
          1862.241,
          1868.081,
          1869.441,
          1872.001,
          1878.161,
          1880.961,
          1882.801,
          1884.321,
          1888.401,
          1888.881,
          1892.081,
          1895.681,
          1897.921,
          1901.121,
          1902.881,
          1904.561,
          1906.721,
          1908.881,
          1911.041,
          1913.201,
          1915.361,
          1917.521,
          1919.681,
          1921.841,
          1924.001,
          1926.161,
          1927.441,
          1932.561,
          1963.761,
          1965.281,
          1966.801,
          1973.601,
          2014.801,
          2018.081,
          2021.361,
          2024.561,
          2027.841,
          2031.121,
          2034.401,
          2037.681,
          2069.601,
          2071.441,
          2073.281,
          2075.121,
          2076.961,
          2093.361,
          2094.321,
          2095.281,
          2096.241,
          2097.201,
          2098.161,
          2099.121,
          2121.201,
          2129.361,
          2184.961,
          2191.761,
          2224.641,
          2229.041,
          2232.721,
          2264.881,
          2266.321,
          2284.081,
          2292.881,
          2294.081,
          2295.281,
          2298.881,
          2309.921,
          2313.521,
          2317.121,
          2320.721,
          2324.321,
          2350.881,
          2354.321,
          2357.841,
          2361.361,
          2364.881,
          2368.401,
          2371.921,
          2375.441,
          2378.961,
          2382.481,
          2410.401,
          2415.841,
          2421.201,
          2426.641,
          2432.001,
          2441.201,
          2442.801,
          2444.401,
          2475.121,
          2542.001,
          2545.281,
          2548.561,
          2551.841,
          2555.121,
          2558.401,
          2561.681,
          2565.201,
          2568.641,
          2572.081,
          2575.521,
          2578.961,
          2582.401,
          2585.841,
          2592.801,
          2603.121,
          2604.481,
          2605.921,
          2616.481,
          2627.041,
          2628.481,
          2629.201,
          2629.921,
          2647.121,
          2650.561,
          2651.761,
          2653.921,
          2657.361,
          2660.721,
          2664.161,
          2667.521,
          2671.041,
          2674.321,
          2677.601,
          2680.881,
          2684.161,
          2687.441,
          2690.721,
          2757.601,
          2788.321,
          2789.921,
          2791.521,
          2800.721,
          2806.161,
          2811.601,
          2817.041,
          2822.481,
          2850.321,
          2853.761,
          2857.201,
          2860.641,
          2864.081,
          2867.521,
          2870.961,
          2874.401,
          2877.841,
          2881.281,
          2907.841,
          2911.441,
          2915.041,
          2918.641,
          2922.241,
          2933.281,
          2936.961,
          2938.241,
          2939.521,
          2948.321,
          2966.081,
          2967.521,
          3023.121,
          3027.521,
          3029.361,
          3031.201,
          3040.641,
          3103.041,
          3131.361,
          3134.241,
          3135.201,
          3136.161,
          3137.121,
          3138.081,
          3155.441,
          3157.281,
          3159.121,
          3160.961,
          3162.801,
          3194.721,
          3198.001,
          3201.281,
          3204.561,
          3207.841,
          3211.121,
          3214.401,
          3217.681,
          3258.881,
          3265.601,
          3267.121,
          3268.641,
          3299.841,
          3301.041,
          3304.961,
          3306.241,
          3308.401,
          3310.561,
          3312.721,
          3314.881,
          3317.041,
          3319.201,
          3321.361,
          3323.521,
          3325.681,
          3327.841,
          3329.521,
          3331.281,
          3334.481,
          3343.841,
          3346.081,
          3347.281,
          3348.321,
          3350.001,
          3359.041,
          3367.681,
          3369.841,
          3371.921,
          3372.481,
          3374.481,
          3376.401,
          3378.001,
          3379.601,
          3380.961,
          3382.961,
          3384.001,
          3385.121,
          3386.401,
          3387.441,
          3389.601,
          3390.401,
          3391.281,
          3394.721,
          3395.761,
          3397.121,
          3398.401,
          3399.441,
          3400.161,
          3400.961,
          3401.841,
          3403.601,
          3404.401,
          3414.561,
          3416.081,
          3417.601,
          3419.121,
          3420.641,
          3422.161,
          3423.681,
          3425.281,
          3426.801,
          3428.401,
          3434.401,
          3446.321,
          3460.801,
          3465.441,
          3539.281,
          3590.961,
          3599.121,
          3613.841,
          3647.681,
          3648.321,
          3648.961,
          3649.601,
          3664.321,
          3665.681,
          3666.401,
          3667.121,
          3667.841,
          3674.241,
          3676.481,
          3678.721,
          3683.601,
          3689.841,
          3690.641,
          3691.441,
          3692.241,
          3693.041,
          3693.841,
          3694.641,
          3695.441,
          3696.241,
          3696.641,
          3697.041,
          3697.841,
          3698.641,
          3699.441,
          3700.241,
          3701.041,
          3701.841,
          3702.641,
          3703.441,
          3708.961,
          3712.881,
          3727.681,
          3733.921,
          3742.801,
          3749.441,
          3776.081,
          3785.121,
          3790.081,
          3793.921,
          3801.521,
          3804.001,
          3806.401,
          3813.761,
          3828.161,
          3835.281,
          3842.881,
          3844.481,
          3851.521,
          3855.601,
          3860.321,
          3864.001,
          3871.921,
          3875.441,
          3880.161,
          3893.201,
          3910.881,
          3926.481,
          3947.521,
          3953.121,
          3955.201,
          3957.201,
          3978.721,
          3984.081,
          3998.321,
          4002.161,
          4006.241,
          4015.121,
          4025.761,
          4026.641,
          4027.521,
          4028.401,
          4049.121,
          4112.001,
          4118.801,
          4120.561,
          4122.321,
          4141.121,
          4152.801,
          4153.681,
          4154.561,
          4155.441,
          4156.321,
          4157.201,
          4158.081,
          4158.961,
          4159.841,
          4165.361,
          4177.441,
          4181.601,
          4182.881,
          4184.241,
          4185.601,
          4201.681,
          4202.321,
          4203.441,
          4204.001,
          4205.201,
          4213.201,
          4214.801,
          4217.281,
          4223.921,
          4364.961,
          4378.481,
          4381.521,
          4387.441,
          4391.041,
          4401.041,
          4412.161,
          4423.521,
          4434.401,
          4437.601,
          4441.921,
          4459.841,
          4461.201,
          4462.561,
          4463.921,
          4465.281,
          4466.641,
          4468.001,
          4469.361,
          4470.641,
          4475.041,
          4478.721,
          4483.281,
          4484.961,
          4485.841,
          4486.641,
          4487.441,
          4488.241,
          4489.121,
          4489.921,
          4491.521,
          4507.681,
          4508.961,
          4510.241,
          4511.521,
          4512.801,
          4514.081,
          4529.041,
          4531.121,
          4532.961,
          4536.881,
          4596.081,
          4599.121,
          4601.281,
          4662.801,
          4707.281,
          4710.881,
          4713.121,
          4722.161,
          4777.601,
          4797.041,
          4806.161,
          4823.121,
          4837.921,
          4839.521,
          4848.241,
          4857.441,
          4906.161,
          4949.681,
          4979.201,
          4994.001,
          5005.521,
          5008.081,
          5010.641,
          5019.041,
          5023.681,
          5035.601,
          5037.041,
          5038.241,
          5039.601,
          5059.601,
          5109.761,
          5156.001,
          5159.681,
          5174.481,
          5195.041,
          5213.841,
          5214.721,
          5215.601,
          5231.281
        ]
      },
      "geometry": {
        "type": "LineString",
        "coordinates": [
          [
            -74.031111,
            40.615931,
            11.75
          ],
          [
            -74.030424,
            40.617621,
            11.75
          ],
          [
            -74.030385,
            40.617717,
            11.75
          ],
          [
            -74.030347,
            40.617811,
            11.75
          ],
          [
            -74.027968,
            40.623636,
            11.75
          ],
          [
            -74.027828,
            40.624038,
            11.75
          ],
          [
            -74.025798,
            40.629008,
            11.75
          ],
          [
            -74.02515,
            40.630594,
            11.75
          ],
          [
            -74.022941,
            40.635999,
            11.75
          ],
          [
            -74.022715,
            40.636552,
            11.75
          ],
          [
            -74.022651,
            40.636693,
            11.75
          ],
          [
            -74.022577,
            40.63681,
            11.75
          ],
          [
            -74.022468,
            40.636941,
            11.75
          ],
          [
            -74.021373,
            40.637995,
            11.75
          ],
          [
            -74.020915,
            40.638381,
            11.75
          ],
          [
            -74.020145,
            40.639122,
            11.75
          ],
          [
            -74.019925,
            40.639361,
            11.75
          ],
          [
            -74.019706,
            40.639599,
            11.75
          ],
          [
            -74.017288,
            40.64192,
            11.75
          ],
          [
            -74.005651,
            40.653111,
            13.25
          ],
          [
            -74.004479,
            40.654239,
            13.5
          ],
          [
            -74.002971,
            40.655685,
            13.75
          ],
          [
            -74.001415,
            40.657182,
            14
          ],
          [
            -74.000584,
            40.657981,
            14
          ],
          [
            -73.998184,
            40.660287,
            14.25
          ],
          [
            -73.992882,
            40.665386,
            15
          ],
          [
            -73.992686,
            40.665592,
            15
          ],
          [
            -73.992383,
            40.665933,
            15.25
          ],
          [
            -73.983988,
            40.676005,
            16.5
          ],
          [
            -73.983827,
            40.676223,
            16.5
          ],
          [
            -73.983159,
            40.67722,
            16.75
          ],
          [
            -73.979608,
            40.682458,
            17.5
          ],
          [
            -73.979314,
            40.682857,
            17.5
          ],
          [
            -73.97828,
            40.684383,
            17.75
          ],
          [
            -73.978174,
            40.684556,
            17.75
          ],
          [
            -73.978086,
            40.684736,
            17.75
          ],
          [
            -73.978023,
            40.684921,
            17.75
          ],
          [
            -73.977987,
            40.685111,
            17.75
          ],
          [
            -73.977976,
            40.685302,
            17.75
          ],
          [
            -73.977994,
            40.685493,
            17.75
          ],
          [
            -73.978268,
            40.687299,
            18
          ],
          [
            -73.978291,
            40.687399,
            18
          ],
          [
            -73.978325,
            40.687496,
            18
          ],
          [
            -73.978369,
            40.687592,
            18
          ],
          [
            -73.978424,
            40.687684,
            18
          ],
          [
            -73.978489,
            40.687772,
            18
          ],
          [
            -73.978563,
            40.687856,
            18
          ],
          [
            -73.978646,
            40.687935,
            18
          ],
          [
            -73.978737,
            40.688009,
            18
          ],
          [
            -73.978941,
            40.688139,
            18
          ],
          [
            -73.979498,
            40.68842,
            18.25
          ],
          [
            -73.979946,
            40.688648,
            18.25
          ],
          [
            -73.980466,
            40.68893,
            18.25
          ],
          [
            -73.980613,
            40.689016,
            18.25
          ],
          [
            -73.980753,
            40.68911,
            18.25
          ],
          [
            -73.980884,
            40.689212,
            18.25
          ],
          [
            -73.981005,
            40.68932,
            18.25
          ],
          [
            -73.981115,
            40.689435,
            18.25
          ],
          [
            -73.981214,
            40.689555,
            18.25
          ],
          [
            -73.981302,
            40.689681,
            18.5
          ],
          [
            -73.981377,
            40.689809,
            18.5
          ],
          [
            -73.981584,
            40.690212,
            18.5
          ],
          [
            -73.982312,
            40.69169,
            18.5
          ],
          [
            -73.983284,
            40.693617,
            18.75
          ],
          [
            -73.983571,
            40.694273,
            19
          ],
          [
            -73.983846,
            40.694824,
            19
          ],
          [
            -73.984156,
            40.695442,
            19
          ],
          [
            -73.984934,
            40.697047,
            19.25
          ],
          [
            -73.985125,
            40.697419,
            19.25
          ],
          [
            -73.985511,
            40.698024,
            19.5
          ],
          [
            -73.986474,
            40.699737,
            19.5
          ],
          [
            -73.994645,
            40.714348,
            19.75
          ],
          [
            -73.995022,
            40.715037
          ],
          [
            -73.995193,
            40.715284
          ],
          [
            -73.995324,
            40.715437
          ],
          [
            -73.996046,
            40.716153
          ],
          [
            -73.996163,
            40.716256
          ],
          [
            -73.996299,
            40.716344
          ],
          [
            -73.996454,
            40.716417
          ],
          [
            -73.998614,
            40.717178
          ],
          [
            -73.998786,
            40.717246
          ],
          [
            -73.998949,
            40.717327
          ],
          [
            -73.999084,
            40.717419
          ],
          [
            -74.001107,
            40.718875
          ],
          [
            -74.001419,
            40.7191
          ],
          [
            -74.001494,
            40.719177
          ],
          [
            -74.001553,
            40.71926
          ],
          [
            -74.001594,
            40.71935
          ],
          [
            -74.001616,
            40.719444
          ],
          [
            -74.001619,
            40.719539
          ],
          [
            -74.001603,
            40.719633
          ],
          [
            -74.001568,
            40.719724
          ],
          [
            -74.001514,
            40.719811
          ],
          [
            -74.000583,
            40.720914
          ],
          [
            -73.999075,
            40.722696
          ],
          [
            -73.998791,
            40.723031
          ],
          [
            -73.991546,
            40.731591
          ],
          [
            -73.991472,
            40.731686
          ],
          [
            -73.991419,
            40.731788
          ],
          [
            -73.991388,
            40.731896
          ],
          [
            -73.991124,
            40.733082
          ],
          [
            -73.990818,
            40.734515
          ],
          [
            -73.990355,
            40.736536
          ],
          [
            -73.990251,
            40.737099
          ],
          [
            -73.990192,
            40.737417
          ],
          [
            -73.98965,
            40.73951
          ],
          [
            -73.989602,
            40.739732
          ],
          [
            -73.989562,
            40.739966
          ],
          [
            -73.989153,
            40.742953
          ],
          [
            -73.988451,
            40.74666
          ],
          [
            -73.987794,
            40.750318
          ],
          [
            -73.987699,
            40.75085
          ],
          [
            -73.987635,
            40.751075
          ],
          [
            -73.987572,
            40.751301
          ],
          [
            -73.987432,
            40.752081
          ],
          [
            -73.987394,
            40.752255
          ],
          [
            -73.987179,
            40.753088
          ],
          [
            -73.986848,
            40.753876
          ],
          [
            -73.98634,
            40.755482
          ],
          [
            -73.986181,
            40.756246
          ],
          [
            -73.986091,
            40.756507
          ],
          [
            -73.985985,
            40.756767
          ],
          [
            -73.985594,
            40.757564
          ],
          [
            -73.985379,
            40.757958
          ],
          [
            -73.985069,
            40.758458
          ],
          [
            -73.983378,
            40.760805
          ],
          [
            -73.982535,
            40.761977
          ],
          [
            -73.982061,
            40.762636
          ],
          [
            -73.98143,
            40.763513
          ],
          [
            -73.980925,
            40.764105
          ],
          [
            -73.97986,
            40.765562
          ],
          [
            -73.979625,
            40.76597
          ],
          [
            -73.979279,
            40.76645
          ],
          [
            -73.979218,
            40.766526
          ],
          [
            -73.979146,
            40.766596
          ],
          [
            -73.979065,
            40.76666
          ],
          [
            -73.978975,
            40.766718
          ],
          [
            -73.978878,
            40.766767
          ],
          [
            -73.978774,
            40.766808
          ],
          [
            -73.978664,
            40.766841
          ],
          [
            -73.978551,
            40.766864
          ],
          [
            -73.978435,
            40.766878
          ],
          [
            -73.978318,
            40.766882
          ],
          [
            -73.9782,
            40.766877
          ],
          [
            -73.978085,
            40.766862
          ],
          [
            -73.977972,
            40.766838
          ],
          [
            -73.977863,
            40.766804
          ],
          [
            -73.977759,
            40.766762
          ],
          [
            -73.977663,
            40.766712
          ],
          [
            -73.977022,
            40.766283
          ],
          [
            -73.976509,
            40.7659
          ],
          [
            -73.976262,
            40.765735
          ],
          [
            -73.975987,
            40.765582
          ],
          [
            -73.975194,
            40.765186
          ],
          [
            -73.975093,
            40.765142
          ],
          [
            -73.974985,
            40.765107
          ],
          [
            -73.974873,
            40.76508
          ],
          [
            -73.974758,
            40.765063
          ],
          [
            -73.972506,
            40.764809
          ],
          [
            -73.972335,
            40.764778
          ],
          [
            -73.97225,
            40.76475
          ],
          [
            -73.967888,
            40.762882
          ],
          [
            -73.965972,
            40.762088
          ],
          [
            -73.964903,
            40.761662
          ],
          [
            -73.958213,
            40.75885
          ],
          [
            -73.948816,
            40.754605
          ],
          [
            -73.948256,
            40.754311
          ],
          [
            -73.946406,
            40.753477
          ],
          [
            -73.943911,
            40.752386
          ],
          [
            -73.943735,
            40.752285
          ],
          [
            -73.943576,
            40.752167
          ],
          [
            -73.943439,
            40.752036
          ],
          [
            -73.943323,
            40.751893
          ],
          [
            -73.943232,
            40.75174
          ],
          [
            -73.943166,
            40.75158
          ],
          [
            -73.943126,
            40.751415
          ],
          [
            -73.943107,
            40.751255
          ],
          [
            -73.943211,
            40.750113
          ],
          [
            -73.943195,
            40.749923
          ],
          [
            -73.943143,
            40.749718
          ],
          [
            -73.943061,
            40.749549
          ],
          [
            -73.942988,
            40.74944
          ],
          [
            -73.94287,
            40.749317
          ],
          [
            -73.942721,
            40.749204
          ],
          [
            -73.942596,
            40.749123
          ],
          [
            -73.942201,
            40.74889
          ],
          [
            -73.942113,
            40.748825
          ],
          [
            -73.94204,
            40.748759
          ],
          [
            -73.941842,
            40.748563
          ],
          [
            -73.941728,
            40.748471
          ],
          [
            -73.941586,
            40.748375
          ],
          [
            -73.941102,
            40.748055
          ],
          [
            -73.940975,
            40.747985
          ],
          [
            -73.940836,
            40.747927
          ],
          [
            -73.940662,
            40.747865
          ],
          [
            -73.940483,
            40.74782
          ],
          [
            -73.940277,
            40.747795
          ],
          [
            -73.940087,
            40.747782
          ],
          [
            -73.939862,
            40.747797
          ],
          [
            -73.939636,
            40.747843
          ],
          [
            -73.93939,
            40.747927
          ],
          [
            -73.939193,
            40.748014
          ],
          [
            -73.938517,
            40.748418
          ],
          [
            -73.938353,
            40.748503
          ],
          [
            -73.938023,
            40.748646
          ],
          [
            -73.937203,
            40.74895
          ],
          [
            -73.936838,
            40.749093
          ],
          [
            -73.93661,
            40.749206
          ],
          [
            -73.936433,
            40.749317
          ],
          [
            -73.936046,
            40.749673
          ],
          [
            -73.936004,
            40.749712
          ],
          [
            -73.935744,
            40.750008
          ],
          [
            -73.935442,
            40.750342
          ],
          [
            -73.935233,
            40.750533
          ],
          [
            -73.934929,
            40.750813
          ],
          [
            -73.934753,
            40.750963
          ],
          [
            -73.934572,
            40.751098
          ],
          [
            -73.93433,
            40.75126
          ],
          [
            -73.934072,
            40.751408
          ],
          [
            -73.933801,
            40.75154
          ],
          [
            -73.933516,
            40.751656
          ],
          [
            -73.933221,
            40.751755
          ],
          [
            -73.932916,
            40.751836
          ],
          [
            -73.932604,
            40.7519
          ],
          [
            -73.932286,
            40.751944
          ],
          [
            -73.931965,
            40.75197
          ],
          [
            -73.931641,
            40.751978
          ],
          [
            -73.931452,
            40.751981
          ],
          [
            -73.930693,
            40.751994
          ],
          [
            -73.926073,
            40.752072
          ],
          [
            -73.925845,
            40.752087
          ],
          [
            -73.925622,
            40.752126
          ],
          [
            -73.924663,
            40.752348
          ],
          [
            -73.918816,
            40.75365
          ],
          [
            -73.918351,
            40.753746
          ],
          [
            -73.91788,
            40.753817
          ],
          [
            -73.917404,
            40.753861
          ],
          [
            -73.916924,
            40.75388
          ],
          [
            -73.916444,
            40.753873
          ],
          [
            -73.915966,
            40.75384
          ],
          [
            -73.915492,
            40.753781
          ],
          [
            -73.910876,
            40.753007
          ],
          [
            -73.91061,
            40.752972
          ],
          [
            -73.91034,
            40.752955
          ],
          [
            -73.910069,
            40.752956
          ],
          [
            -73.9098,
            40.752976
          ],
          [
            -73.907394,
            40.753231
          ],
          [
            -73.907252,
            40.753243
          ],
          [
            -73.907112,
            40.753243
          ],
          [
            -73.906972,
            40.753229
          ],
          [
            -73.906835,
            40.753203
          ],
          [
            -73.906704,
            40.753165
          ],
          [
            -73.906577,
            40.753115
          ],
          [
            -73.903726,
            40.751904
          ],
          [
            -73.902674,
            40.751457
          ],
          [
            -73.895491,
            40.748398
          ],
          [
            -73.894612,
            40.748027
          ],
          [
            -73.890364,
            40.746218
          ],
          [
            -73.8898,
            40.745978
          ],
          [
            -73.889323,
            40.745775
          ],
          [
            -73.88517,
            40.744003
          ],
          [
            -73.884988,
            40.743921
          ],
          [
            -73.882771,
            40.742845
          ],
          [
            -73.881689,
            40.742298
          ],
          [
            -73.881542,
            40.742215
          ],
          [
            -73.881405,
            40.742123
          ],
          [
            -73.881016,
            40.74184
          ],
          [
            -73.879851,
            40.740974
          ],
          [
            -73.879487,
            40.740681
          ],
          [
            -73.879164,
            40.740362
          ],
          [
            -73.878885,
            40.740021
          ],
          [
            -73.878651,
            40.73966
          ],
          [
            -73.877107,
            40.736914
          ],
          [
            -73.876914,
            40.736551
          ],
          [
            -73.876653,
            40.736211
          ],
          [
            -73.876353,
            40.73589
          ],
          [
            -73.876016,
            40.735593
          ],
          [
            -73.875645,
            40.735319
          ],
          [
            -73.875243,
            40.735072
          ],
          [
            -73.874812,
            40.734854
          ],
          [
            -73.874358,
            40.734666
          ],
          [
            -73.873884,
            40.73451
          ],
          [
            -73.870037,
            40.733373
          ],
          [
            -73.869307,
            40.733125
          ],
          [
            -73.868601,
            40.732841
          ],
          [
            -73.86792,
            40.732522
          ],
          [
            -73.867269,
            40.73217
          ],
          [
            -73.866194,
            40.731533
          ],
          [
            -73.866001,
            40.731432
          ],
          [
            -73.865796,
            40.731343
          ],
          [
            -73.861686,
            40.729864
          ],
          [
            -73.85276,
            40.726604
          ],
          [
            -73.852336,
            40.726421
          ],
          [
            -73.851933,
            40.726215
          ],
          [
            -73.851552,
            40.725985
          ],
          [
            -73.851196,
            40.725733
          ],
          [
            -73.850867,
            40.725461
          ],
          [
            -73.850566,
            40.72517
          ],
          [
            -73.85027,
            40.724845
          ],
          [
            -73.849968,
            40.724537
          ],
          [
            -73.849639,
            40.724243
          ],
          [
            -73.849285,
            40.723968
          ],
          [
            -73.848907,
            40.723711
          ],
          [
            -73.848506,
            40.723474
          ],
          [
            -73.848086,
            40.723259
          ],
          [
            -73.8472,
            40.722865
          ],
          [
            -73.845884,
            40.722281
          ],
          [
            -73.845706,
            40.722201
          ],
          [
            -73.845526,
            40.722121
          ],
          [
            -73.844181,
            40.721521
          ],
          [
            -73.845526,
            40.722121
          ],
          [
            -73.845706,
            40.722201
          ],
          [
            -73.845779,
            40.722254
          ],
          [
            -73.84586,
            40.72231
          ],
          [
            -73.848061,
            40.723288
          ],
          [
            -73.84848,
            40.723502
          ],
          [
            -73.848622,
            40.723585
          ],
          [
            -73.848878,
            40.723737
          ],
          [
            -73.849254,
            40.723993
          ],
          [
            -73.849606,
            40.724266
          ],
          [
            -73.849933,
            40.724558
          ],
          [
            -73.850233,
            40.724865
          ],
          [
            -73.85053,
            40.72519
          ],
          [
            -73.850832,
            40.725483
          ],
          [
            -73.851164,
            40.725757
          ],
          [
            -73.851522,
            40.726011
          ],
          [
            -73.851906,
            40.726242
          ],
          [
            -73.852312,
            40.72645
          ],
          [
            -73.852739,
            40.726634
          ],
          [
            -73.861667,
            40.729895
          ],
          [
            -73.865775,
            40.731374
          ],
          [
            -73.865977,
            40.731461
          ],
          [
            -73.866168,
            40.73156
          ],
          [
            -73.867242,
            40.732197
          ],
          [
            -73.867895,
            40.732551
          ],
          [
            -73.868578,
            40.732871
          ],
          [
            -73.869287,
            40.733156
          ],
          [
            -73.87002,
            40.733405
          ],
          [
            -73.873866,
            40.734542
          ],
          [
            -73.874338,
            40.734697
          ],
          [
            -73.874789,
            40.734883
          ],
          [
            -73.875216,
            40.735099
          ],
          [
            -73.875615,
            40.735344
          ],
          [
            -73.875983,
            40.735616
          ],
          [
            -73.876318,
            40.735912
          ],
          [
            -73.876615,
            40.736229
          ],
          [
            -73.876873,
            40.736566
          ],
          [
            -73.877066,
            40.736927
          ],
          [
            -73.87861,
            40.739674
          ],
          [
            -73.878845,
            40.740038
          ],
          [
            -73.879127,
            40.740382
          ],
          [
            -73.879452,
            40.740703
          ],
          [
            -73.879819,
            40.740997
          ],
          [
            -73.880984,
            40.741865
          ],
          [
            -73.881375,
            40.742148
          ],
          [
            -73.881514,
            40.742241
          ],
          [
            -73.881663,
            40.742326
          ],
          [
            -73.882746,
            40.742874
          ],
          [
            -73.884965,
            40.74395
          ],
          [
            -73.885148,
            40.744032
          ],
          [
            -73.892324,
            40.747091
          ],
          [
            -73.892896,
            40.747334
          ],
          [
            -73.893124,
            40.74745
          ],
          [
            -73.893373,
            40.747537
          ],
          [
            -73.894589,
            40.748056
          ],
          [
            -73.902652,
            40.751486
          ],
          [
            -73.90631,
            40.753041
          ],
          [
            -73.906685,
            40.753196
          ],
          [
            -73.906822,
            40.753236
          ],
          [
            -73.906964,
            40.753263
          ],
          [
            -73.907109,
            40.753277
          ],
          [
            -73.907255,
            40.753277
          ],
          [
            -73.909805,
            40.75301
          ],
          [
            -73.910071,
            40.752991
          ],
          [
            -73.910338,
            40.752989
          ],
          [
            -73.910604,
            40.753006
          ],
          [
            -73.910867,
            40.75304
          ],
          [
            -73.915483,
            40.753815
          ],
          [
            -73.91596,
            40.753874
          ],
          [
            -73.916442,
            40.753907
          ],
          [
            -73.916925,
            40.753914
          ],
          [
            -73.917408,
            40.753895
          ],
          [
            -73.917887,
            40.75385
          ],
          [
            -73.918361,
            40.75378
          ],
          [
            -73.918828,
            40.753683
          ],
          [
            -73.924677,
            40.752381
          ],
          [
            -73.925633,
            40.752159
          ],
          [
            -73.925852,
            40.752121
          ],
          [
            -73.926075,
            40.752106
          ],
          [
            -73.930694,
            40.752028
          ],
          [
            -73.930874,
            40.752025
          ],
          [
            -73.931452,
            40.751981
          ],
          [
            -73.931641,
            40.751978
          ],
          [
            -73.931965,
            40.75197
          ],
          [
            -73.932286,
            40.751944
          ],
          [
            -73.932604,
            40.7519
          ],
          [
            -73.932916,
            40.751836
          ],
          [
            -73.933221,
            40.751755
          ],
          [
            -73.933516,
            40.751656
          ],
          [
            -73.933801,
            40.75154
          ],
          [
            -73.934072,
            40.751408
          ],
          [
            -73.93433,
            40.75126
          ],
          [
            -73.934572,
            40.751098
          ],
          [
            -73.934753,
            40.750963
          ],
          [
            -73.934929,
            40.750813
          ],
          [
            -73.935267,
            40.750555
          ],
          [
            -73.936147,
            40.749742
          ],
          [
            -73.936368,
            40.749551
          ],
          [
            -73.936494,
            40.749451
          ],
          [
            -73.93661,
            40.74937
          ],
          [
            -73.936812,
            40.749261
          ],
          [
            -73.937988,
            40.748784
          ],
          [
            -73.939114,
            40.748331
          ],
          [
            -73.939416,
            40.748242
          ],
          [
            -73.939706,
            40.748157
          ],
          [
            -73.939786,
            40.748128
          ],
          [
            -73.940072,
            40.748084
          ],
          [
            -73.940357,
            40.74807
          ],
          [
            -73.940591,
            40.748087
          ],
          [
            -73.94082,
            40.748123
          ],
          [
            -73.941015,
            40.748174
          ],
          [
            -73.941284,
            40.748272
          ],
          [
            -73.941418,
            40.748329
          ],
          [
            -73.941555,
            40.7484
          ],
          [
            -73.941696,
            40.748495
          ],
          [
            -73.941805,
            40.748583
          ],
          [
            -73.942002,
            40.748778
          ],
          [
            -73.942079,
            40.748848
          ],
          [
            -73.942171,
            40.748916
          ],
          [
            -73.94257,
            40.749151
          ],
          [
            -73.942691,
            40.74923
          ],
          [
            -73.942836,
            40.749339
          ],
          [
            -73.942949,
            40.749458
          ],
          [
            -73.943019,
            40.749563
          ],
          [
            -73.943059,
            40.749639
          ],
          [
            -73.943099,
            40.749727
          ],
          [
            -73.943129,
            40.749827
          ],
          [
            -73.943161,
            40.75002
          ],
          [
            -73.943166,
            40.750112
          ],
          [
            -73.943062,
            40.751253
          ],
          [
            -73.943064,
            40.751427
          ],
          [
            -73.943095,
            40.7516
          ],
          [
            -73.943155,
            40.751769
          ],
          [
            -73.943242,
            40.751931
          ],
          [
            -73.943355,
            40.752083
          ],
          [
            -73.943493,
            40.752223
          ],
          [
            -73.943653,
            40.75235
          ],
          [
            -73.943832,
            40.752459
          ],
          [
            -73.944035,
            40.75256
          ],
          [
            -73.94481,
            40.752894
          ],
          [
            -73.946337,
            40.753565
          ],
          [
            -73.948178,
            40.754395
          ],
          [
            -73.948794,
            40.754635
          ],
          [
            -73.95819,
            40.758879
          ],
          [
            -73.964881,
            40.761692
          ],
          [
            -73.965919,
            40.762159
          ],
          [
            -73.967833,
            40.762953
          ],
          [
            -73.97223,
            40.764781
          ],
          [
            -73.972317,
            40.764809
          ],
          [
            -73.972407,
            40.76483
          ],
          [
            -73.9725,
            40.764843
          ],
          [
            -73.974659,
            40.765086
          ],
          [
            -73.974851,
            40.765117
          ],
          [
            -73.974957,
            40.765142
          ],
          [
            -73.97506,
            40.765176
          ],
          [
            -73.975156,
            40.765218
          ],
          [
            -73.975953,
            40.765615
          ],
          [
            -73.976223,
            40.765765
          ],
          [
            -73.976468,
            40.765929
          ],
          [
            -73.976981,
            40.766311
          ],
          [
            -73.97767,
            40.766775
          ],
          [
            -73.977759,
            40.766833
          ],
          [
            -73.977856,
            40.766883
          ],
          [
            -73.977959,
            40.766926
          ],
          [
            -73.978068,
            40.766959
          ],
          [
            -73.978181,
            40.766983
          ],
          [
            -73.978297,
            40.766998
          ],
          [
            -73.978414,
            40.767003
          ],
          [
            -73.978531,
            40.766999
          ],
          [
            -73.978584,
            40.766992,
            19.75
          ],
          [
            -73.978647,
            40.766985,
            19.75
          ],
          [
            -73.97876,
            40.766962,
            19.75
          ],
          [
            -73.97887,
            40.766929,
            19.75
          ],
          [
            -73.978974,
            40.766888,
            19.75
          ],
          [
            -73.979071,
            40.766839,
            19.75
          ],
          [
            -73.979161,
            40.766782,
            19.75
          ],
          [
            -73.979242,
            40.766717,
            19.75
          ],
          [
            -73.979314,
            40.766647,
            19.75
          ],
          [
            -73.979375,
            40.766571,
            19.75
          ],
          [
            -73.979767,
            40.766024,
            19.75
          ],
          [
            -73.980092,
            40.765656,
            19.75
          ],
          [
            -73.981155,
            40.764201,
            19.75
          ],
          [
            -73.981549,
            40.763562,
            19.75
          ],
          [
            -73.98218,
            40.762686,
            19.75
          ],
          [
            -73.982654,
            40.762027,
            19.75
          ],
          [
            -73.984548,
            40.759395,
            19.75
          ],
          [
            -73.98519,
            40.758505,
            19.75
          ],
          [
            -73.985503,
            40.757999,
            19.75
          ],
          [
            -73.98572,
            40.757602,
            19.75
          ],
          [
            -73.986113,
            40.7568,
            19.75
          ],
          [
            -73.986222,
            40.756534,
            19.75
          ],
          [
            -73.986312,
            40.756272,
            19.75
          ],
          [
            -73.986638,
            40.755482,
            19.75
          ],
          [
            -73.987136,
            40.753906,
            19.75
          ],
          [
            -73.987311,
            40.753114,
            19.75
          ],
          [
            -73.987527,
            40.752273,
            19.75
          ],
          [
            -73.987566,
            40.752096,
            19.75
          ],
          [
            -73.987706,
            40.751315,
            19.75
          ],
          [
            -73.987788,
            40.750859,
            19.75
          ],
          [
            -73.987948,
            40.750338,
            19.75
          ],
          [
            -73.988036,
            40.749933,
            19.75
          ],
          [
            -73.988195,
            40.749048,
            19.75
          ],
          [
            -73.988251,
            40.748655,
            19.75
          ],
          [
            -73.98828,
            40.748125,
            19.75
          ],
          [
            -73.988541,
            40.74667,
            19.75
          ],
          [
            -73.988915,
            40.744698,
            19.75
          ],
          [
            -73.989243,
            40.742961,
            19.75
          ],
          [
            -73.989566,
            40.740602,
            19.75
          ],
          [
            -73.989652,
            40.739974,
            19.75
          ],
          [
            -73.989691,
            40.739742,
            19.75
          ],
          [
            -73.989739,
            40.739522,
            19.75
          ],
          [
            -73.990355,
            40.737143,
            19.75
          ],
          [
            -73.990506,
            40.736549,
            19.75
          ],
          [
            -73.990874,
            40.734969,
            19.75
          ],
          [
            -73.99092,
            40.734535,
            19.75
          ],
          [
            -73.991004,
            40.734081,
            19.75
          ],
          [
            -73.991213,
            40.733093,
            19.75
          ],
          [
            -73.991477,
            40.731909,
            19.75
          ],
          [
            -73.991506,
            40.731808,
            19.75
          ],
          [
            -73.991554,
            40.731716,
            19.75
          ],
          [
            -73.991623,
            40.731627,
            19.75
          ],
          [
            -73.99328,
            40.729666,
            19.75
          ],
          [
            -73.998319,
            40.723713,
            19.75
          ],
          [
            -73.998867,
            40.723068,
            19.75
          ],
          [
            -73.998989,
            40.722892,
            19.75
          ],
          [
            -73.999112,
            40.722715,
            19.75
          ],
          [
            -74.000621,
            40.720933,
            19.75
          ],
          [
            -74.001552,
            40.719829,
            19.75
          ],
          [
            -74.00161,
            40.719737,
            19.75
          ],
          [
            -74.001647,
            40.71964,
            19.75
          ],
          [
            -74.001664,
            40.719541,
            19.75
          ],
          [
            -74.001661,
            40.71944,
            19.75
          ],
          [
            -74.001638,
            40.719342,
            19.75
          ],
          [
            -74.001594,
            40.719247,
            19.75
          ],
          [
            -74.001533,
            40.719158,
            19.75
          ],
          [
            -74.001453,
            40.719078,
            19.75
          ],
          [
            -74.000864,
            40.718652,
            19.75
          ],
          [
            -73.999562,
            40.717714,
            19.75
          ],
          [
            -73.999115,
            40.717394,
            19.75
          ],
          [
            -73.998976,
            40.717299,
            19.75
          ],
          [
            -73.998808,
            40.717216,
            19.75
          ],
          [
            -73.998633,
            40.717147,
            19.75
          ],
          [
            -73.996475,
            40.716386,
            19.75
          ],
          [
            -73.996397,
            40.716353,
            19.75
          ],
          [
            -73.99626,
            40.716277,
            19.75
          ],
          [
            -73.996195,
            40.716232,
            19.75
          ],
          [
            -73.996082,
            40.716132,
            19.75
          ],
          [
            -73.99536,
            40.715417,
            19.75
          ],
          [
            -73.995232,
            40.715266,
            19.75
          ],
          [
            -73.995063,
            40.715023,
            19.75
          ],
          [
            -73.994688,
            40.714336,
            19.75
          ],
          [
            -73.986516,
            40.699724,
            21.25
          ],
          [
            -73.985734,
            40.698324
          ],
          [
            -73.985572,
            40.698004
          ],
          [
            -73.985281,
            40.697378
          ],
          [
            -73.985102,
            40.696999
          ],
          [
            -73.984594,
            40.695944
          ],
          [
            -73.984015,
            40.694775
          ],
          [
            -73.983411,
            40.693581
          ],
          [
            -73.982839,
            40.69244
          ],
          [
            -73.982671,
            40.692105
          ],
          [
            -73.982481,
            40.691643
          ],
          [
            -73.981544,
            40.689757
          ],
          [
            -73.981465,
            40.689621
          ],
          [
            -73.981371,
            40.689487
          ],
          [
            -73.981265,
            40.689358
          ],
          [
            -73.981147,
            40.689235
          ],
          [
            -73.981017,
            40.689119
          ],
          [
            -73.980878,
            40.689011
          ],
          [
            -73.980728,
            40.68891
          ],
          [
            -73.980574,
            40.68882
          ],
          [
            -73.980024,
            40.688564
          ],
          [
            -73.979575,
            40.688336
          ],
          [
            -73.979018,
            40.688054
          ],
          [
            -73.978822,
            40.687939
          ],
          [
            -73.978734,
            40.687872
          ],
          [
            -73.978654,
            40.6878
          ],
          [
            -73.978582,
            40.687723
          ],
          [
            -73.978519,
            40.687642
          ],
          [
            -73.978464,
            40.687557
          ],
          [
            -73.978419,
            40.687469
          ],
          [
            -73.978358,
            40.687291
          ],
          [
            -73.978082,
            40.685487
          ],
          [
            -73.978066,
            40.685346
          ],
          [
            -73.978068,
            40.685204
          ],
          [
            -73.978089,
            40.685062
          ],
          [
            -73.978128,
            40.684923
          ],
          [
            -73.978185,
            40.684788
          ],
          [
            -73.979198,
            40.68329
          ],
          [
            -73.979332,
            40.683084
          ],
          [
            -73.979443,
            40.68289
          ],
          [
            -73.979689,
            40.682489
          ],
          [
            -73.983701,
            40.676562
          ],
          [
            -73.983906,
            40.676255
          ],
          [
            -73.984065,
            40.67604
          ],
          [
            -73.988934,
            40.670192
          ],
          [
            -73.992458,
            40.66597
          ],
          [
            -73.992759,
            40.665632
          ],
          [
            -73.992953,
            40.665428
          ],
          [
            -73.993784,
            40.664629
          ],
          [
            -73.99887,
            40.659739
          ],
          [
            -74.000655,
            40.658024
          ],
          [
            -74.001524,
            40.657244
          ],
          [
            -74.003082,
            40.655747
          ],
          [
            -74.004438,
            40.654445
          ],
          [
            -74.004587,
            40.654301
          ],
          [
            -74.005384,
            40.653535
          ],
          [
            -74.006189,
            40.652702
          ],
          [
            -74.01066,
            40.648404
          ],
          [
            -74.014652,
            40.644568
          ],
          [
            -74.017398,
            40.641981
          ],
          [
            -74.018757,
            40.640674
          ],
          [
            -74.019777,
            40.639641
          ],
          [
            -74.019997,
            40.639402
          ],
          [
            -74.020253,
            40.639184
          ],
          [
            -74.021021,
            40.638445
          ],
          [
            -74.021408,
            40.638016
          ],
          [
            -74.022504,
            40.636961
          ],
          [
            -74.022616,
            40.636827
          ],
          [
            -74.022693,
            40.636706
          ],
          [
            -74.022758,
            40.636562
          ],
          [
            -74.023636,
            40.634412
          ],
          [
            -74.02584,
            40.629018
          ],
          [
            -74.027871,
            40.624046
          ],
          [
            -74.028054,
            40.623656
          ],
          [
            -74.028705,
            40.622061
          ],
          [
            -74.029615,
            40.61985
          ],
          [
            -74.030434,
            40.61783
          ],
          [
            -74.030473,
            40.617734
          ],
          [
            -74.030512,
            40.617637
          ],
          [
            -74.031197,
            40.615951
          ]
        ]
      }
    }
  ]
}