{
  "type": "FeatureCollection",
  "features": [
    {
      "type": "Feature",
      "properties": {
        "creator": "BRouter-1.7.9",
        "name": "[MTA] Shuttle (Prospect Pk)",
        "track-length": "4535",
        "filtered ascend": "33",
        "plain-ascend": "3",
        "total-time": "363",
        "total-energy": "199411",
        "cost": "9070",
        "messages": [
          [
            "Longitude",
            "Latitude",
            "Elevation",
            "Distance",
            "CostPerKm",
            "ElevCost",
            "TurnCost",
            "NodeCost",
            "InitialCost",
            "WayTags",
            "NodeTags",
            "Time",
            "Energy"
          ],
          [
            "-73962110",
            "40661591",
            "25",
            "62",
            "2000",
            "0",
            "0",
            "0",
            "0",
            "railway=subway",
            "wheelchair=yes railway=halt",
            "4",
            "1605"
          ],
          [
            "-73961734",
            "40663577",
            "27",
            "226",
            "2000",
            "0",
            "0",
            "0",
            "0",
            "railway=subway",
            "railway=switch",
            "23",
            "11247"
          ],
          [
            "-73959012",
            "40670945",
            "43",
            "850",
            "2000",
            "0",
            "0",
            "0",
            "0",
            "railway=subway",
            "wheelchair=no railway=halt",
            "91",
            "60552"
          ],
          [
            "-73958144",
            "40673333",
            "39",
            "275",
            "2000",
            "0",
            "0",
            "0",
            "0",
            "railway=subway",
            "railway=switch",
            "113",
            "72471"
          ],
          [
            "-73957697",
            "40674577",
            "37",
            "143",
            "2000",
            "0",
            "0",
            "0",
            "0",
            "railway=subway",
            "wheelchair=yes railway=halt",
            "124",
            "77349"
          ],
          [
            "-73957537",
            "40675008",
            "36",
            "50",
            "2000",
            "0",
            "0",
            "0",
            "0",
            "railway=subway",
            "wheelchair=yes railway=halt",
            "128",
            "78909"
          ],
          [
            "-73955762",
            "40680743",
            "25",
            "655",
            "2000",
            "0",
            "0",
            "0",
            "0",
            "railway=subway",
            "",
            "180",
            "98059"
          ],
          [
            "-73957537",
            "40675008",
            "36",
            "655",
            "2000",
            "0",
            "0",
            "0",
            "0",
            "reversedirection=yes railway=subway",
            "wheelchair=yes railway=halt",
            "52",
            "35332"
          ],
          [
            "-73957697",
            "40674577",
            "37",
            "50",
            "2000",
            "0",
            "0",
            "0",
            "0",
            "reversedirection=yes railway=subway",
            "wheelchair=yes railway=halt",
            "56",
            "38179"
          ],
          [
            "-73958144",
            "40673333",
            "39",
            "143",
            "2000",
            "0",
            "0",
            "0",
            "0",
            "reversedirection=yes railway=subway",
            "railway=switch",
            "67",
            "46368"
          ],
          [
            "-73959250",
            "40670398",
            "43",
            "340",
            "2000",
            "0",
            "0",
            "0",
            "0",
            "railway=subway",
            "wheelchair=no railway=halt",
            "95",
            "66146"
          ],
          [
            "-73959414",
            "40669947",
            "43",
            "52",
            "2000",
            "0",
            "0",
            "0",
            "0",
            "railway=subway",
            "",
            "99",
            "69334"
          ],
          [
            "-73961595",
            "40663976",
            "27",
            "689",
            "2000",
            "0",
            "0",
            "0",
            "0",
            "railway=subway",
            "railway=switch",
            "55",
            "18956"
          ],
          [
            "-73962295",
            "40661062",
            "29",
            "338",
            "2000",
            "0",
            "0",
            "0",
            "0",
            "railway=subway",
            "wheelchair=yes railway=halt",
            "82",
            "31646"
          ],
          [
            "-73962280",
            "40661009",
            "30",
            "7",
            "2000",
            "0",
            "0",
            "0",
            "0",
            "railway=subway",
            "",
            "82",
            "32018"
          ]
        ],
        "times": [
          0,
          4.96,
          8.4,
          11.68,
          14.8,
          17.92,
          21.2,
          23.04,
          31.6,
          36.8,
          47.04,
          57.28,
          65.6,
          81.52,
          91.04,
          92.72,
          105.28,
          113.04,
          117.76,
          119.68,
          121.92,
          123.84,
          124.48,
          128.48,
          130,
          140.16,
          143.52,
          146.16,
          148.16,
          152.64,
          155.84,
          160.24,
          162.24,
          166.8,
          170,
          171.84,
          172.8,
          175.28,
          177.68,
          180.88,
          184.08,
          186.48,
          188.96,
          189.92,
          191.76,
          194.96,
          199.52,
          201.52,
          205.92,
          209.12,
          213.6,
          215.6,
          218.24,
          221.6,
          231.76,
          233.28,
          237.28,
          237.92,
          239.84,
          242.08,
          244,
          248.72,
          250.48,
          252.24,
          253.52,
          269.12,
          275.92,
          280.08,
          280.32,
          296.24,
          304.56,
          323.04,
          324.56,
          329.76,
          333.2,
          335.2,
          338.48,
          340.8,
          342.08,
          344,
          345.84,
          347.44,
          348.96,
          350.8,
          352.56,
          354.16,
          361.12,
          362.24,
          362.72,
          362.8
        ]
      },
      "geometry": {
        "type": "LineString",
        "coordinates": [
          [
            -73.962026,
            40.661038,
            28.5
          ],
          [
            -73.96211,
            40.661591,
            25.75
          ],
          [
            -73.962178,
            40.661974,
            26
          ],
          [
            -73.962174,
            40.662344,
            26.25
          ],
          [
            -73.962107,
            40.662691,
            26.5
          ],
          [
            -73.96198,
            40.663028,
            26.75
          ],
          [
            -73.961828,
            40.663379,
            27
          ],
          [
            -73.961734,
            40.663577,
            27.25
          ],
          [
            -73.961339,
            40.664491,
            26.5
          ],
          [
            -73.961147,
            40.665057,
            27
          ],
          [
            -73.960736,
            40.666163,
            33.75
          ],
          [
            -73.96034,
            40.66728,
            43
          ],
          [
            -73.960004,
            40.668184,
            41.25
          ],
          [
            -73.959379,
            40.669914,
            42.75
          ],
          [
            -73.959012,
            40.670945,
            43.75
          ],
          [
            -73.958945,
            40.671126,
            44
          ],
          [
            -73.958446,
            40.672486,
            44
          ],
          [
            -73.958144,
            40.673333,
            39.75
          ],
          [
            -73.957961,
            40.673846,
            38.75
          ],
          [
            -73.957887,
            40.674051,
            38.5
          ],
          [
            -73.957797,
            40.674295,
            38
          ],
          [
            -73.957723,
            40.674506,
            37.5
          ],
          [
            -73.957697,
            40.674577,
            37.5
          ],
          [
            -73.957537,
            40.675008,
            36.75
          ],
          [
            -73.957478,
            40.675173,
            36.75
          ],
          [
            -73.957081,
            40.676276,
            33
          ],
          [
            -73.956945,
            40.676637,
            32.5
          ],
          [
            -73.956845,
            40.676928,
            32
          ],
          [
            -73.956769,
            40.677148,
            31.5
          ],
          [
            -73.956592,
            40.677636,
            30.25
          ],
          [
            -73.956467,
            40.677988,
            28.75
          ],
          [
            -73.956297,
            40.678464,
            27
          ],
          [
            -73.956216,
            40.678678,
            26.5
          ],
          [
            -73.956039,
            40.679176,
            25.5
          ],
          [
            -73.955915,
            40.679525,
            24.5
          ],
          [
            -73.955848,
            40.679725,
            23.75
          ],
          [
            -73.955825,
            40.679829,
            23.5
          ],
          [
            -73.955781,
            40.680109,
            23.25
          ],
          [
            -73.955774,
            40.680379,
            24.25
          ],
          [
            -73.955762,
            40.680743,
            25.25
          ],
          [
            -73.955774,
            40.680379,
            24.25
          ],
          [
            -73.955781,
            40.680109,
            23.25
          ],
          [
            -73.955825,
            40.679829,
            23.5
          ],
          [
            -73.955848,
            40.679725,
            23.75
          ],
          [
            -73.955915,
            40.679525,
            24.5
          ],
          [
            -73.956039,
            40.679176,
            25.5
          ],
          [
            -73.956216,
            40.678678,
            26.5
          ],
          [
            -73.956297,
            40.678464,
            27
          ],
          [
            -73.956467,
            40.677988,
            28.75
          ],
          [
            -73.956592,
            40.677636,
            30.25
          ],
          [
            -73.956769,
            40.677148,
            31.5
          ],
          [
            -73.956845,
            40.676928,
            32
          ],
          [
            -73.956945,
            40.676637,
            32.5
          ],
          [
            -73.957081,
            40.676276,
            33
          ],
          [
            -73.957478,
            40.675173,
            36.75
          ],
          [
            -73.957537,
            40.675008,
            36.75
          ],
          [
            -73.957697,
            40.674577,
            37.5
          ],
          [
            -73.957723,
            40.674506,
            37.5
          ],
          [
            -73.957797,
            40.674295,
            38
          ],
          [
            -73.957887,
            40.674051,
            38.5
          ],
          [
            -73.957961,
            40.673846,
            38.75
          ],
          [
            -73.958144,
            40.673333,
            39.75
          ],
          [
            -73.958224,
            40.673147,
            40.5
          ],
          [
            -73.958319,
            40.672962,
            41.75
          ],
          [
            -73.958373,
            40.672826,
            42.25
          ],
          [
            -73.95899,
            40.671135,
            42.75
          ],
          [
            -73.95925,
            40.670398,
            43.25
          ],
          [
            -73.959414,
            40.669947,
            43.5
          ],
          [
            -73.959424,
            40.669918,
            43.5
          ],
          [
            -73.960047,
            40.668194,
            41.25
          ],
          [
            -73.960375,
            40.667289,
            43
          ],
          [
            -73.961099,
            40.665287,
            28.75
          ],
          [
            -73.961165,
            40.665123,
            27.75
          ],
          [
            -73.961352,
            40.664557,
            26.75
          ],
          [
            -73.961499,
            40.664191,
            27
          ],
          [
            -73.961595,
            40.663976,
            27.25
          ],
          [
            -73.96175,
            40.663622,
            27.5
          ],
          [
            -73.961889,
            40.663379,
            27.5
          ],
          [
            -73.961972,
            40.663247,
            27.5
          ],
          [
            -73.962127,
            40.663064,
            27.75
          ],
          [
            -73.962254,
            40.662883,
            27.75
          ],
          [
            -73.962354,
            40.662721,
            27.75
          ],
          [
            -73.962408,
            40.662556,
            28
          ],
          [
            -73.96245,
            40.662349,
            28
          ],
          [
            -73.962459,
            40.662147,
            28
          ],
          [
            -73.962455,
            40.661966,
            28.25
          ],
          [
            -73.962324,
            40.661189,
            28.25
          ],
          [
            -73.962295,
            40.661062,
            29
          ],
          [
            -73.96228,
            40.66101,
            29.25
          ],
          [
            -73.96228,
            40.661009,
            30
          ]
        ]
      }
    }
  ]
}