{
  "type": "FeatureCollection",
  "features": [
    {
      "type": "Feature",
      "properties": {
        "creator": "BRouter-1.7.9",
        "name": "[MTA] 1 Train",
        "track-length": "47286",
        "filtered ascend": "73",
        "plain-ascend": "8",
        "total-time": "3784",
        "total-energy": "2100298",
        "cost": "94572",
        "messages": [
          [
            "Longitude",
            "Latitude",
            "Elevation",
            "Distance",
            "CostPerKm",
            "ElevCost",
            "TurnCost",
            "NodeCost",
            "InitialCost",
            "WayTags",
            "NodeTags",
            "Time",
            "Energy"
          ],
          [
            "-74014759",
            "40702982",
            "-8192",
            "206",
            "2000",
            "0",
            "0",
            "0",
            "0",
            "reversedirection=yes railway=subway",
            "railway=switch",
            "16",
            "9060"
          ],
          [
            "-74014789",
            "40703035",
            "-8192",
            "6",
            "2000",
            "0",
            "0",
            "0",
            "0",
            "railway=subway",
            "",
            "16",
            "9324"
          ],
          [
            "-74014822",
            "40703094",
            "-8192",
            "7",
            "2000",
            "0",
            "0",
            "0",
            "0",
            "railway=subway",
            "railway=switch",
            "0",
            "307"
          ],
          [
            "-74014935",
            "40704721",
            "-8192",
            "187",
            "2000",
            "0",
            "0",
            "0",
            "0",
            "railway=subway",
            "railway=unknown",
            "15",
            "8533"
          ],
          [
            "-74014865",
            "40704875",
            "-8192",
            "18",
            "2000",
            "0",
            "0",
            "0",
            "0",
            "railway=subway",
            "railway=switch",
            "16",
            "9324"
          ],
          [
            "-74013612",
            "40707870",
            "-8192",
            "349",
            "2000",
            "0",
            "0",
            "0",
            "0",
            "railway=subway",
            "wheelchair=no railway=halt",
            "44",
            "24675"
          ],
          [
            "-74012347",
            "40710869",
            "5",
            "350",
            "2000",
            "0",
            "0",
            "0",
            "0",
            "railway=subway",
            "barrier=kerb wheelchair=yes kerb=lowered",
            "72",
            "40070"
          ],
          [
            "-74011719",
            "40712352",
            "-8192",
            "173",
            "2000",
            "0",
            "0",
            "0",
            "0",
            "railway=subway",
            "wheelchair=yes railway=halt",
            "86",
            "47680"
          ],
          [
            "-74008582",
            "40716162",
            "-8192",
            "500",
            "2000",
            "0",
            "0",
            "0",
            "0",
            "railway=subway",
            "wheelchair=yes railway=halt",
            "126",
            "69672"
          ],
          [
            "-74008512",
            "40716323",
            "-8192",
            "19",
            "2000",
            "0",
            "0",
            "0",
            "0",
            "railway=subway",
            "railway=switch",
            "128",
            "70508"
          ],
          [
            "-74008425",
            "40716466",
            "-8192",
            "17",
            "2000",
            "0",
            "0",
            "0",
            "0",
            "railway=subway",
            "railway=unknown",
            "129",
            "71256"
          ],
          [
            "-74008339",
            "40716607",
            "-8192",
            "17",
            "2000",
            "0",
            "0",
            "0",
            "0",
            "railway=subway",
            "railway=switch",
            "130",
            "72003"
          ],
          [
            "-74008263",
            "40716703",
            "-8192",
            "12",
            "2000",
            "0",
            "0",
            "0",
            "0",
            "railway=subway",
            "railway=switch",
            "131",
            "72531"
          ],
          [
            "-74007956",
            "40717092",
            "-8192",
            "50",
            "2000",
            "0",
            "0",
            "0",
            "0",
            "railway=subway",
            "",
            "135",
            "74730"
          ],
          [
            "-73999647",
            "40738560",
            "-8192",
            "2515",
            "2000",
            "0",
            "0",
            "0",
            "0",
            "railway=subway",
            "wheelchair=no railway=halt",
            "201",
            "110622"
          ],
          [
            "-73999396",
            "40738903",
            "-8192",
            "44",
            "2000",
            "0",
            "0",
            "0",
            "0",
            "railway=subway",
            "railway=switch",
            "204",
            "112558"
          ],
          [
            "-73999327",
            "40738997",
            "-8192",
            "12",
            "2000",
            "0",
            "0",
            "0",
            "0",
            "railway=subway",
            "railway=switch",
            "205",
            "113086"
          ],
          [
            "-73990362",
            "40751288",
            "-8192",
            "1560",
            "2000",
            "0",
            "0",
            "0",
            "0",
            "railway=subway",
            "wheelchair=yes railway=halt",
            "330",
            "181703"
          ],
          [
            "-73990303",
            "40751369",
            "-8192",
            "10",
            "2000",
            "0",
            "0",
            "0",
            "0",
            "railway=subway",
            "railway=switch",
            "331",
            "182142"
          ],
          [
            "-73990137",
            "40751597",
            "-8192",
            "29",
            "2000",
            "0",
            "0",
            "0",
            "0",
            "railway=subway",
            "",
            "333",
            "183418"
          ],
          [
            "-73989912",
            "40751907",
            "-8192",
            "39",
            "2000",
            "0",
            "0",
            "0",
            "0",
            "railway=subway",
            "railway=switch",
            "3",
            "1715"
          ],
          [
            "-73988483",
            "40753872",
            "-8192",
            "250",
            "2000",
            "0",
            "0",
            "0",
            "0",
            "railway=subway",
            "railway=switch",
            "23",
            "12711"
          ],
          [
            "-73988103",
            "40754429",
            "-8192",
            "70",
            "2000",
            "0",
            "0",
            "0",
            "0",
            "railway=subway",
            "railway=switch",
            "28",
            "15790"
          ],
          [
            "-73987813",
            "40754832",
            "-8192",
            "51",
            "2000",
            "0",
            "0",
            "0",
            "0",
            "railway=subway",
            "",
            "32",
            "18033"
          ],
          [
            "-73987095",
            "40755832",
            "-8192",
            "127",
            "2000",
            "0",
            "0",
            "0",
            "0",
            "railway=subway",
            "wheelchair=yes railway=halt",
            "10",
            "5586"
          ],
          [
            "-73981752",
            "40779362",
            "-8192",
            "2710",
            "2000",
            "0",
            "0",
            "0",
            "0",
            "railway=subway",
            "wheelchair=yes railway=halt",
            "226",
            "124786"
          ],
          [
            "-73971774",
            "40794656",
            "-8192",
            "1910",
            "2000",
            "0",
            "0",
            "0",
            "0",
            "railway=subway",
            "wheelchair=yes railway=halt",
            "379",
            "208797"
          ],
          [
            "-73971605",
            "40794888",
            "-8192",
            "29",
            "2000",
            "0",
            "0",
            "0",
            "0",
            "railway=subway",
            "railway=switch",
            "382",
            "210073"
          ],
          [
            "-73971505",
            "40794987",
            "-8192",
            "14",
            "2000",
            "0",
            "0",
            "0",
            "0",
            "railway=subway",
            "railway=unknown",
            "383",
            "210689"
          ],
          [
            "-73971409",
            "40795088",
            "-8192",
            "14",
            "2000",
            "0",
            "0",
            "0",
            "0",
            "railway=subway",
            "railway=switch",
            "384",
            "211305"
          ],
          [
            "-73970330",
            "40796598",
            "-8192",
            "191",
            "2000",
            "0",
            "0",
            "0",
            "0",
            "railway=subway",
            "railway=switch",
            "399",
            "219706"
          ],
          [
            "-73967945",
            "40800503",
            "-8192",
            "481",
            "2000",
            "0",
            "0",
            "0",
            "0",
            "railway=subway",
            "wheelchair=no railway=halt",
            "438",
            "240863"
          ],
          [
            "-73966783",
            "40804009",
            "-8192",
            "409",
            "2000",
            "0",
            "0",
            "0",
            "0",
            "railway=subway",
            "",
            "470",
            "258853"
          ],
          [
            "-73966163",
            "40804849",
            "-8192",
            "107",
            "2000",
            "0",
            "0",
            "0",
            "0",
            "railway=subway",
            "wheelchair=no railway=halt",
            "8",
            "4706"
          ],
          [
            "-73963550",
            "40808440",
            "-8192",
            "456",
            "2000",
            "0",
            "0",
            "0",
            "0",
            "railway=subway",
            "wheelchair=no railway=halt",
            "45",
            "24763"
          ],
          [
            "-73957922",
            "40816139",
            "34",
            "978",
            "2000",
            "0",
            "0",
            "0",
            "0",
            "railway=subway",
            "wheelchair=no railway=halt",
            "123",
            "61190"
          ],
          [
            "-73955448",
            "40819542",
            "28",
            "432",
            "2000",
            "0",
            "0",
            "0",
            "0",
            "railway=subway",
            "railway=switch",
            "157",
            "73662"
          ],
          [
            "-73953638",
            "40822079",
            "-8192",
            "320",
            "2000",
            "0",
            "0",
            "0",
            "0",
            "railway=subway",
            "wheelchair=no railway=halt",
            "183",
            "88466"
          ],
          [
            "-73953540",
            "40822210",
            "-8192",
            "17",
            "2000",
            "0",
            "0",
            "0",
            "0",
            "railway=subway",
            "railway=switch",
            "184",
            "89219"
          ],
          [
            "-73953407",
            "40822395",
            "-8192",
            "23",
            "2000",
            "0",
            "0",
            "0",
            "0",
            "railway=subway",
            "railway=switch",
            "186",
            "90236"
          ],
          [
            "-73951371",
            "40825197",
            "-8192",
            "355",
            "2000",
            "0",
            "0",
            "0",
            "0",
            "railway=subway",
            "railway=switch",
            "215",
            "105871"
          ],
          [
            "-73951140",
            "40825514",
            "-8192",
            "40",
            "2000",
            "0",
            "0",
            "0",
            "0",
            "railway=subway",
            "railway=switch",
            "218",
            "107630"
          ],
          [
            "-73950359",
            "40826578",
            "-8192",
            "135",
            "2000",
            "0",
            "0",
            "0",
            "0",
            "railway=subway",
            "",
            "229",
            "113569"
          ],
          [
            "-73950166",
            "40826840",
            "-8192",
            "33",
            "2000",
            "0",
            "0",
            "0",
            "0",
            "railway=subway",
            "wheelchair=no railway=halt",
            "2",
            "1451"
          ],
          [
            "-73949960",
            "40827195",
            "-8192",
            "43",
            "2000",
            "0",
            "0",
            "0",
            "0",
            "railway=subway",
            "railway=switch",
            "6",
            "3342"
          ],
          [
            "-73949535",
            "40827751",
            "-8192",
            "71",
            "2000",
            "0",
            "0",
            "0",
            "0",
            "railway=subway",
            "railway=switch",
            "11",
            "6465"
          ],
          [
            "-73944440",
            "40834689",
            "36",
            "882",
            "2000",
            "0",
            "0",
            "0",
            "0",
            "railway=subway",
            "wheelchair=no railway=halt",
            "82",
            "45260"
          ],
          [
            "-73939730",
            "40841099",
            "33",
            "815",
            "2000",
            "0",
            "0",
            "0",
            "0",
            "railway=subway",
            "wheelchair=no railway=halt",
            "147",
            "81108"
          ],
          [
            "-73933040",
            "40850253",
            "30",
            "1162",
            "2000",
            "0",
            "0",
            "0",
            "0",
            "railway=subway",
            "wheelchair=no railway=halt",
            "240",
            "132219"
          ],
          [
            "-73928736",
            "40856124",
            "27",
            "746",
            "2000",
            "0",
            "0",
            "0",
            "0",
            "railway=subway",
            "wheelchair=no railway=halt",
            "300",
            "165032"
          ],
          [
            "-73925077",
            "40861108",
            "21",
            "633",
            "2000",
            "0",
            "0",
            "0",
            "0",
            "railway=subway",
            "wheelchair=no railway=halt",
            "350",
            "183621"
          ],
          [
            "-73923372",
            "40862084",
            "20",
            "184",
            "2000",
            "0",
            "0",
            "0",
            "0",
            "railway=subway",
            "railway=switch",
            "365",
            "191700"
          ],
          [
            "-73918915",
            "40864438",
            "15",
            "470",
            "2000",
            "0",
            "0",
            "0",
            "0",
            "railway=subway",
            "wheelchair=no railway=halt",
            "403",
            "212371"
          ],
          [
            "-73917976",
            "40865706",
            "14",
            "162",
            "2000",
            "0",
            "0",
            "0",
            "0",
            "railway=subway",
            "railway=switch",
            "416",
            "219496"
          ],
          [
            "-73917836",
            "40865899",
            "14",
            "24",
            "2000",
            "0",
            "0",
            "0",
            "0",
            "railway=subway",
            "railway=switch",
            "417",
            "220552"
          ],
          [
            "-73914824",
            "40870014",
            "9",
            "523",
            "2000",
            "0",
            "0",
            "0",
            "0",
            "railway=subway",
            "wheelchair=no railway=halt",
            "459",
            "243556"
          ],
          [
            "-73914715",
            "40870162",
            "9",
            "19",
            "2000",
            "0",
            "0",
            "0",
            "0",
            "railway=subway",
            "railway=switch",
            "461",
            "243934"
          ],
          [
            "-73909104",
            "40875066",
            "-8192",
            "726",
            "2000",
            "0",
            "0",
            "0",
            "0",
            "railway=subway",
            "wheelchair=no railway=halt",
            "519",
            "264666"
          ],
          [
            "-73904267",
            "40879605",
            "-8192",
            "661",
            "2000",
            "0",
            "0",
            "0",
            "0",
            "railway=subway",
            "wheelchair=yes railway=halt",
            "572",
            "293079"
          ],
          [
            "-73900495",
            "40885313",
            "-8192",
            "709",
            "2000",
            "0",
            "0",
            "0",
            "0",
            "railway=subway",
            "wheelchair=no railway=halt",
            "629",
            "324264"
          ],
          [
            "-73900486",
            "40885332",
            "-8192",
            "2",
            "2000",
            "0",
            "0",
            "0",
            "0",
            "railway=subway",
            "railway=switch",
            "629",
            "324351"
          ],
          [
            "-73899492",
            "40887364",
            "-8192",
            "241",
            "2000",
            "0",
            "0",
            "0",
            "0",
            "railway=subway",
            "railway=switch",
            "648",
            "334952"
          ],
          [
            "-73899292",
            "40887760",
            "-8192",
            "47",
            "2000",
            "0",
            "0",
            "0",
            "0",
            "railway=subway",
            "",
            "652",
            "337019"
          ],
          [
            "-73899038",
            "40888265",
            "-8192",
            "60",
            "2000",
            "0",
            "0",
            "0",
            "0",
            "railway=subway",
            "railway=switch",
            "4",
            "2639"
          ],
          [
            "-73898233",
            "40889881",
            "-8192",
            "192",
            "2000",
            "0",
            "0",
            "0",
            "0",
            "railway=subway",
            "",
            "20",
            "11084"
          ],
          [
            "-73899038",
            "40888265",
            "-8192",
            "192",
            "2000",
            "0",
            "0",
            "0",
            "0",
            "reversedirection=yes railway=subway",
            "railway=switch",
            "15",
            "8445"
          ],
          [
            "-73899232",
            "40887965",
            "-8192",
            "37",
            "2000",
            "0",
            "0",
            "0",
            "0",
            "reversedirection=yes railway=subway",
            "railway=switch",
            "18",
            "10072"
          ],
          [
            "-73899285",
            "40887861",
            "-8192",
            "12",
            "2000",
            "0",
            "0",
            "0",
            "0",
            "railway=subway",
            "railway=switch",
            "19",
            "10600"
          ],
          [
            "-73899489",
            "40887548",
            "-8192",
            "39",
            "2000",
            "0",
            "0",
            "0",
            "0",
            "railway=subway",
            "railway=switch",
            "22",
            "12315"
          ],
          [
            "-73900063",
            "40886370",
            "-8192",
            "139",
            "2000",
            "0",
            "0",
            "0",
            "0",
            "railway=subway",
            "railway=switch",
            "33",
            "18429"
          ],
          [
            "-73900255",
            "40885990",
            "-8192",
            "45",
            "2000",
            "0",
            "0",
            "0",
            "0",
            "railway=subway",
            "railway=switch",
            "37",
            "20409"
          ],
          [
            "-73900285",
            "40885929",
            "-8192",
            "7",
            "2000",
            "0",
            "0",
            "0",
            "0",
            "railway=subway",
            "railway=switch",
            "37",
            "20717"
          ],
          [
            "-73900606",
            "40885286",
            "-8192",
            "76",
            "2000",
            "0",
            "0",
            "0",
            "0",
            "railway=subway",
            "railway=switch",
            "43",
            "24059"
          ],
          [
            "-73900691",
            "40885114",
            "-8192",
            "20",
            "2000",
            "0",
            "0",
            "0",
            "0",
            "railway=subway",
            "railway=switch",
            "45",
            "24939"
          ],
          [
            "-73901308",
            "40884032",
            "-8192",
            "130",
            "2000",
            "0",
            "0",
            "0",
            "0",
            "railway=subway",
            "",
            "55",
            "30657"
          ],
          [
            "-73901443",
            "40883815",
            "-8192",
            "27",
            "2000",
            "0",
            "0",
            "0",
            "0",
            "railway=subway",
            "wheelchair=no railway=halt",
            "2",
            "1187"
          ],
          [
            "-73905417",
            "40878128",
            "-8192",
            "715",
            "2000",
            "0",
            "0",
            "0",
            "0",
            "railway=subway",
            "wheelchair=yes railway=halt",
            "59",
            "32637"
          ],
          [
            "-73910497",
            "40874152",
            "-8192",
            "621",
            "2000",
            "0",
            "0",
            "0",
            "0",
            "railway=subway",
            "wheelchair=no railway=halt",
            "109",
            "59951"
          ],
          [
            "-73914908",
            "40870041",
            "10",
            "592",
            "2000",
            "0",
            "0",
            "0",
            "0",
            "railway=subway",
            "railway=switch",
            "156",
            "84012"
          ],
          [
            "-73915864",
            "40868728",
            "12",
            "167",
            "2000",
            "0",
            "0",
            "0",
            "0",
            "railway=subway",
            "wheelchair=no railway=halt",
            "169",
            "91351"
          ],
          [
            "-73916099",
            "40868412",
            "12",
            "40",
            "2000",
            "0",
            "0",
            "0",
            "0",
            "railway=subway",
            "railway=switch",
            "172",
            "93110"
          ],
          [
            "-73919304",
            "40864023",
            "18",
            "557",
            "2000",
            "0",
            "0",
            "0",
            "0",
            "railway=subway",
            "wheelchair=no railway=halt",
            "217",
            "117609"
          ],
          [
            "-73923098",
            "40862252",
            "21",
            "381",
            "2000",
            "0",
            "0",
            "0",
            "0",
            "railway=subway",
            "railway=switch",
            "247",
            "134367"
          ],
          [
            "-73925890",
            "40860087",
            "25",
            "346",
            "2000",
            "0",
            "0",
            "0",
            "0",
            "railway=subway",
            "wheelchair=yes railway=halt",
            "275",
            "147021"
          ],
          [
            "-73929705",
            "40854870",
            "37",
            "662",
            "2000",
            "0",
            "0",
            "0",
            "0",
            "railway=subway",
            "wheelchair=no railway=halt",
            "328",
            "195895"
          ],
          [
            "-73934016",
            "40848970",
            "50",
            "749",
            "2000",
            "0",
            "0",
            "0",
            "0",
            "railway=subway",
            "wheelchair=no railway=halt",
            "388",
            "228866"
          ],
          [
            "-73938381",
            "40842968",
            "64",
            "761",
            "2000",
            "0",
            "0",
            "0",
            "0",
            "railway=subway",
            "highway=crossing estimated_crossing_class=0 crossing=traffic_signals",
            "449",
            "284842"
          ],
          [
            "-73940668",
            "40839974",
            "-8192",
            "385",
            "2000",
            "0",
            "0",
            "0",
            "0",
            "railway=subway",
            "wheelchair=no railway=halt",
            "480",
            "313452"
          ],
          [
            "-73945423",
            "40833416",
            "-8192",
            "831",
            "2000",
            "0",
            "0",
            "0",
            "0",
            "railway=subway",
            "wheelchair=no railway=halt",
            "546",
            "350258"
          ],
          [
            "-73949739",
            "40827546",
            "-8192",
            "747",
            "2000",
            "0",
            "0",
            "0",
            "0",
            "railway=subway",
            "railway=switch",
            "606",
            "383115"
          ],
          [
            "-73950801",
            "40826111",
            "-8192",
            "183",
            "2000",
            "0",
            "0",
            "0",
            "0",
            "railway=subway",
            "wheelchair=no railway=halt",
            "621",
            "393388"
          ],
          [
            "-73951219",
            "40825539",
            "-8192",
            "73",
            "2000",
            "0",
            "0",
            "0",
            "0",
            "railway=subway",
            "railway=switch",
            "626",
            "396819"
          ],
          [
            "-73951341",
            "40825372",
            "-8192",
            "21",
            "2000",
            "0",
            "0",
            "0",
            "0",
            "railway=subway",
            "railway=switch",
            "628",
            "397781"
          ],
          [
            "-73953063",
            "40823005",
            "-8192",
            "300",
            "2000",
            "0",
            "0",
            "0",
            "0",
            "railway=subway",
            "",
            "652",
            "411135"
          ],
          [
            "-73953391",
            "40822555",
            "-8192",
            "57",
            "2000",
            "0",
            "0",
            "0",
            "0",
            "railway=subway",
            "railway=switch",
            "4",
            "2507"
          ],
          [
            "-73953629",
            "40822226",
            "-8192",
            "42",
            "2000",
            "0",
            "0",
            "0",
            "0",
            "railway=subway",
            "railway=switch",
            "7",
            "4354"
          ],
          [
            "-73954659",
            "40820821",
            "-8192",
            "179",
            "2000",
            "0",
            "0",
            "0",
            "0",
            "railway=subway",
            "wheelchair=no railway=halt",
            "22",
            "12227"
          ],
          [
            "-73955337",
            "40819809",
            "29",
            "126",
            "2000",
            "0",
            "0",
            "0",
            "0",
            "railway=subway",
            "railway=switch",
            "32",
            "17722"
          ],
          [
            "-73958897",
            "40814943",
            "40",
            "618",
            "2000",
            "0",
            "0",
            "0",
            "0",
            "railway=subway",
            "wheelchair=no railway=halt",
            "81",
            "44071"
          ],
          [
            "-73964560",
            "40807192",
            "-8192",
            "984",
            "2000",
            "0",
            "0",
            "0",
            "0",
            "railway=subway",
            "wheelchair=no railway=halt",
            "160",
            "98164"
          ],
          [
            "-73967177",
            "40803607",
            "-8192",
            "455",
            "2000",
            "0",
            "0",
            "0",
            "0",
            "railway=subway",
            "wheelchair=no railway=halt",
            "196",
            "118180"
          ],
          [
            "-73968623",
            "40799081",
            "-8192",
            "523",
            "2000",
            "0",
            "0",
            "0",
            "0",
            "railway=subway",
            "wheelchair=no railway=halt",
            "238",
            "141184"
          ],
          [
            "-73970412",
            "40796625",
            "-8192",
            "312",
            "2000",
            "0",
            "0",
            "0",
            "0",
            "railway=subway",
            "railway=switch",
            "263",
            "154908"
          ],
          [
            "-73971525",
            "40795135",
            "-8192",
            "190",
            "2000",
            "0",
            "0",
            "0",
            "0",
            "railway=subway",
            "railway=switch",
            "278",
            "165517"
          ],
          [
            "-73971588",
            "40795021",
            "-8192",
            "14",
            "2000",
            "0",
            "0",
            "0",
            "0",
            "railway=subway",
            "railway=unknown",
            "280",
            "166185"
          ],
          [
            "-73971643",
            "40794905",
            "-8192",
            "14",
            "2000",
            "0",
            "0",
            "0",
            "0",
            "railway=subway",
            "railway=switch",
            "281",
            "166846"
          ],
          [
            "-73972757",
            "40793380",
            "-8192",
            "194",
            "2000",
            "0",
            "0",
            "0",
            "0",
            "railway=subway",
            "wheelchair=yes railway=halt",
            "296",
            "175635"
          ],
          [
            "-73982098",
            "40777860",
            "-8192",
            "1916",
            "2000",
            "0",
            "0",
            "0",
            "0",
            "railway=subway",
            "wheelchair=yes railway=halt",
            "449",
            "259954"
          ],
          [
            "-73988039",
            "40754599",
            "-8192",
            "2698",
            "2000",
            "0",
            "0",
            "0",
            "0",
            "railway=subway",
            "wheelchair=yes railway=halt",
            "665",
            "378626"
          ],
          [
            "-73988139",
            "40754449",
            "-8192",
            "19",
            "2000",
            "0",
            "0",
            "0",
            "0",
            "railway=subway",
            "railway=switch",
            "667",
            "379462"
          ],
          [
            "-73988559",
            "40753905",
            "-8192",
            "70",
            "2000",
            "0",
            "0",
            "0",
            "0",
            "railway=subway",
            "railway=switch",
            "672",
            "382541"
          ],
          [
            "-73989991",
            "40751937",
            "-8192",
            "250",
            "2000",
            "0",
            "0",
            "0",
            "0",
            "railway=subway",
            "railway=switch",
            "692",
            "393537"
          ],
          [
            "-73990224",
            "40751615",
            "-8192",
            "41",
            "2000",
            "0",
            "0",
            "0",
            "0",
            "railway=subway",
            "",
            "696",
            "395340"
          ],
          [
            "-73990378",
            "40751403",
            "-8192",
            "27",
            "2000",
            "0",
            "0",
            "0",
            "0",
            "railway=subway",
            "railway=switch",
            "2",
            "1187"
          ],
          [
            "-73991348",
            "40750079",
            "-8192",
            "168",
            "2000",
            "0",
            "0",
            "0",
            "0",
            "railway=subway",
            "wheelchair=yes railway=halt",
            "15",
            "8577"
          ],
          [
            "-73992868",
            "40747914",
            "33",
            "273",
            "2000",
            "0",
            "0",
            "0",
            "0",
            "railway=subway",
            "highway=crossing estimated_crossing_class=0 crossing=traffic_signals",
            "37",
            "20585"
          ],
          [
            "-73995108",
            "40744835",
            "30",
            "391",
            "2000",
            "0",
            "0",
            "0",
            "0",
            "railway=subway",
            "highway=crossing estimated_crossing_class=0 crossing=traffic_signals",
            "68",
            "37043"
          ],
          [
            "-73995201",
            "40744707",
            "30",
            "16",
            "2000",
            "0",
            "0",
            "0",
            "0",
            "railway=subway",
            "highway=crossing estimated_crossing_class=0 crossing=traffic_signals",
            "70",
            "37628"
          ],
          [
            "-73996085",
            "40743493",
            "15",
            "154",
            "2000",
            "0",
            "0",
            "0",
            "0",
            "railway=subway",
            "highway=crossing estimated_crossing_class=0 crossing=traffic_signals",
            "82",
            "37628"
          ],
          [
            "-73999230",
            "40739198",
            "-8192",
            "546",
            "2000",
            "0",
            "0",
            "0",
            "0",
            "railway=subway",
            "",
            "126",
            "58764"
          ],
          [
            "-73999369",
            "40739009",
            "-8192",
            "24",
            "2000",
            "0",
            "0",
            "0",
            "0",
            "railway=subway",
            "railway=switch",
            "1",
            "1055"
          ],
          [
            "-73999485",
            "40738851",
            "-8192",
            "20",
            "2000",
            "0",
            "0",
            "0",
            "0",
            "railway=subway",
            "railway=switch",
            "3",
            "1935"
          ],
          [
            "-74000568",
            "40737342",
            "-8192",
            "191",
            "2000",
            "0",
            "0",
            "0",
            "0",
            "railway=subway",
            "wheelchair=no railway=halt",
            "18",
            "10336"
          ],
          [
            "-74008085",
            "40716995",
            "-8192",
            "2373",
            "2000",
            "0",
            "0",
            "0",
            "0",
            "railway=subway",
            "railway=switch",
            "208",
            "114713"
          ],
          [
            "-74008383",
            "40716617",
            "-8192",
            "49",
            "2000",
            "0",
            "0",
            "0",
            "0",
            "railway=subway",
            "railway=switch",
            "212",
            "116868"
          ],
          [
            "-74008504",
            "40716496",
            "-8192",
            "17",
            "2000",
            "0",
            "0",
            "0",
            "0",
            "railway=subway",
            "railway=unknown",
            "213",
            "117616"
          ],
          [
            "-74008625",
            "40716375",
            "-8192",
            "17",
            "2000",
            "0",
            "0",
            "0",
            "0",
            "railway=subway",
            "railway=switch",
            "215",
            "118364"
          ],
          [
            "-74009735",
            "40715042",
            "-8192",
            "176",
            "2000",
            "0",
            "0",
            "0",
            "0",
            "railway=subway",
            "wheelchair=yes railway=halt",
            "229",
            "126105"
          ],
          [
            "-74012332",
            "40711020",
            "-8192",
            "501",
            "2000",
            "0",
            "0",
            "0",
            "0",
            "railway=subway",
            "wheelchair=yes railway=halt",
            "269",
            "148142"
          ],
          [
            "-74014211",
            "40706538",
            "-8192",
            "522",
            "2000",
            "0",
            "0",
            "0",
            "0",
            "railway=subway",
            "wheelchair=no railway=halt",
            "311",
            "171102"
          ],
          [
            "-74014906",
            "40704886",
            "-8192",
            "193",
            "2000",
            "0",
            "0",
            "0",
            "0",
            "railway=subway",
            "railway=switch",
            "326",
            "179591"
          ],
          [
            "-74014923",
            "40703184",
            "-8192",
            "195",
            "2000",
            "0",
            "0",
            "0",
            "0",
            "railway=subway",
            "",
            "342",
            "188168"
          ],
          [
            "-74014865",
            "40703084",
            "-8192",
            "12",
            "2000",
            "0",
            "0",
            "0",
            "0",
            "railway=subway",
            "railway=switch",
            "0",
            "527"
          ],
          [
            "-74014810",
            "40703031",
            "-8192",
            "7",
            "2000",
            "0",
            "0",
            "0",
            "0",
            "railway=subway",
            "railway=unknown",
            "1",
            "835"
          ],
          [
            "-74014759",
            "40702982",
            "-8192",
            "7",
            "2000",
            "0",
            "0",
            "0",
            "0",
            "railway=subway",
            "railway=switch",
            "2",
            "1143"
          ],
          [
            "-74013055",
            "40701686",
            "-8192",
            "206",
            "2000",
            "0",
            "0",
            "0",
            "0",
            "railway=subway",
            "",
            "18",
            "10204"
          ]
        ],
        "times": [
          0,
          4.24,
          10.64,
          11.92,
          15.36,
          16.48,
          16.96,
          17.52,
          18.72,
          21.68,
          24.64,
          27.2,
          29.84,
          32.48,
          33.92,
          37.68,
          61.84,
          89.84,
          101.36,
          103.68,
          107.76,
          113.84,
          122.08,
          122.96,
          123.6,
          131.2,
          143.68,
          145.2,
          146.56,
          147.92,
          148.88,
          152.88,
          161.12,
          164.32,
          165.52,
          168.08,
          196.72,
          203.36,
          221.76,
          262.08,
          266.4,
          272.32,
          295.12,
          333.6,
          337.6,
          354.08,
          357.6,
          358.56,
          373.68,
          426.56,
          460.16,
          470.72,
          483.36,
          484.16,
          486.48,
          489.6,
          499.68,
          509.6,
          512.4,
          515.2,
          519.28,
          529.44,
          533.6,
          540.48,
          547.6,
          551.28,
          556.08,
          566.96,
          572.64,
          577.68,
          588.32,
          603.84,
          610.16,
          617.84,
          623.36,
          631.12,
          635.84,
          638.48,
          641.04,
          643.12,
          645.12,
          652.48,
          657.28,
          692,
          696.8,
          708.8,
          732.72,
          743.12,
          746.24,
          752.08,
          769.44,
          774.72,
          781.2,
          788.24,
          817.52,
          827.04,
          840.96,
          871.28,
          899.04,
          901.36,
          902.48,
          903.6,
          904.4,
          916.24,
          918.88,
          941.28,
          944.56,
          947.44,
          950.32,
          953.76,
          957.36,
          973.6,
          976,
          978,
          978.64,
          980.64,
          990.08,
          998.64,
          1010.96,
          1035.12,
          1070.48,
          1088.16,
          1113.36,
          1141.12,
          1147.92,
          1152.24,
          1160.4,
          1173.52,
          1174.88,
          1176.72,
          1205.12,
          1208.32,
          1219.12,
          1221.76,
          1223.04,
          1225.2,
          1230.88,
          1289.44,
          1301.44,
          1329.68,
          1346.96,
          1366.64,
          1378.96,
          1394.08,
          1439.92,
          1446.48,
          1459.6,
          1519.28,
          1556.32,
          1568.4,
          1569.92,
          1571.12,
          1572.96,
          1574.64,
          1576.8,
          1578.88,
          1584.64,
          1607.92,
          1609.36,
          1611.44,
          1613.68,
          1615.68,
          1622.24,
          1635.2,
          1637.12,
          1678.96,
          1680.48,
          1686.96,
          1690.88,
          1693.6,
          1696.24,
          1699.2,
          1704.24,
          1713.76,
          1715.92,
          1723.12,
          1726.16,
          1728.32,
          1733.92,
          1738.56,
          1749.2,
          1751.36,
          1753.2,
          1757.92,
          1761.52,
          1762.88,
          1764.72,
          1766.16,
          1768.56,
          1770.56,
          1791.44,
          1793.28,
          1820.48,
          1826.48,
          1841.36,
          1844.72,
          1848.16,
          1848.32,
          1858.8,
          1863.2,
          1865.84,
          1867.6,
          1871.36,
          1876.16,
          1891.52,
          1906.88,
          1908.72,
          1909.84,
          1910.8,
          1913.92,
          1917.2,
          1925.04,
          1928.64,
          1929.2,
          1935.28,
          1936.88,
          1940.32,
          1944.88,
          1947.28,
          1949.44,
          1956.4,
          1962.4,
          1985.2,
          2006.64,
          2012.64,
          2014.16,
          2015.68,
          2017.2,
          2018.64,
          2020.08,
          2022.4,
          2027.68,
          2030.56,
          2033.36,
          2042.64,
          2048.72,
          2054.56,
          2056.32,
          2059.36,
          2066.56,
          2069.6,
          2071.84,
          2081.68,
          2087.28,
          2091.36,
          2095.52,
          2103.68,
          2117.04,
          2120.24,
          2164.8,
          2166.8,
          2168.8,
          2170.72,
          2172.4,
          2174.16,
          2195.28,
          2200.72,
          2203.44,
          2205.84,
          2208.24,
          2209.44,
          2210.56,
          2212.32,
          2213.92,
          2222.96,
          2225.92,
          2275.92,
          2335.84,
          2342.4,
          2388.24,
          2396.72,
          2403.36,
          2419.36,
          2427.52,
          2435.28,
          2452.64,
          2494,
          2553.76,
          2555.36,
          2568.4,
          2574.24,
          2575.92,
          2599.92,
          2604.48,
          2607.84,
          2622.16,
          2630.32,
          2632.24,
          2641.44,
          2681.68,
          2694.4,
          2712.08,
          2760.4,
          2771.52,
          2796.8,
          2801.84,
          2803.92,
          2804.8,
          2805.68,
          2809.12,
          2825.28,
          2828.88,
          2832.24,
          2835.04,
          2837.84,
          2838.64,
          2840.88,
          2863.6,
          2866.24,
          2876,
          2878,
          2878.8,
          2879.92,
          2881.04,
          2883.44,
          2896.56,
          2911.2,
          2941.44,
          2955.28,
          2964.88,
          2994.24,
          3001.28,
          3007.84,
          3013.12,
          3030.48,
          3039.44,
          3049.84,
          3073.76,
          3085.76,
          3090.56,
          3125.28,
          3130.08,
          3137.52,
          3139.44,
          3141.52,
          3144.08,
          3146.64,
          3151.36,
          3159.12,
          3164.56,
          3172.24,
          3178.48,
          3194,
          3204.72,
          3209.76,
          3215.44,
          3226.32,
          3231.12,
          3234.8,
          3241.92,
          3248.88,
          3253.04,
          3263.92,
          3265.68,
          3267.2,
          3270,
          3272.8,
          3282.72,
          3292.8,
          3296.08,
          3298.24,
          3311.68,
          3313.2,
          3333.52,
          3338.56,
          3355.92,
          3364.8,
          3366.08,
          3378.4,
          3408.8,
          3422.08,
          3424,
          3425.6,
          3440.88,
          3444.88,
          3448.88,
          3487.36,
          3510.16,
          3516.16,
          3520.48,
          3560.8,
          3579.2,
          3585.84,
          3614.48,
          3617.04,
          3618.16,
          3621.28,
          3630.72,
          3634.64,
          3636,
          3637.36,
          3638.96,
          3651.44,
          3659.04,
          3660.64,
          3668.72,
          3674.8,
          3681.28,
          3691.52,
          3720.8,
          3733.28,
          3744.96,
          3748.72,
          3752.8,
          3755.52,
          3758.16,
          3761.2,
          3764.16,
          3764.32,
          3765.28,
          3765.84,
          3766.4,
          3767.52,
          3770.96,
          3772.24,
          3778.64,
          3782.88
        ]
      },
      "geometry": {
        "type": "LineString",
        "coordinates": [
          [
            -74.013055,
            40.701686
          ],
          [
            -74.013543,
            40.70198
          ],
          [
            -74.014247,
            40.702456
          ],
          [
            -74.014369,
            40.702566
          ],
          [
            -74.014675,
            40.702871
          ],
          [
            -74.014759,
            40.702982
          ],
          [
            -74.014789,
            40.703035,
            5.5
          ],
          [
            -74.014822,
            40.703094,
            5.5
          ],
          [
            -74.014891,
            40.703215,
            5.5
          ],
          [
            -74.015025,
            40.70353,
            5.5
          ],
          [
            -74.015115,
            40.703858,
            5.5
          ],
          [
            -74.015136,
            40.704147,
            5.5
          ],
          [
            -74.015062,
            40.704441,
            5.5
          ],
          [
            -74.014935,
            40.704721,
            5.5
          ],
          [
            -74.014865,
            40.704875,
            5.5
          ],
          [
            -74.014684,
            40.705272,
            5.5
          ],
          [
            -74.013612,
            40.70787,
            5.5
          ],
          [
            -74.012347,
            40.710869,
            5.5
          ],
          [
            -74.011851,
            40.712108
          ],
          [
            -74.011719,
            40.712352
          ],
          [
            -74.011488,
            40.712777
          ],
          [
            -74.010965,
            40.713331
          ],
          [
            -74.010303,
            40.714106
          ],
          [
            -74.010215,
            40.714178
          ],
          [
            -74.010158,
            40.714238
          ],
          [
            -74.009535,
            40.714955
          ],
          [
            -74.008582,
            40.716162
          ],
          [
            -74.008512,
            40.716323
          ],
          [
            -74.008425,
            40.716466
          ],
          [
            -74.008339,
            40.716607
          ],
          [
            -74.008263,
            40.716703
          ],
          [
            -74.007956,
            40.717092
          ],
          [
            -74.007326,
            40.717891
          ],
          [
            -74.007118,
            40.718213
          ],
          [
            -74.00707,
            40.718339
          ],
          [
            -74.007023,
            40.718628
          ],
          [
            -74.006386,
            40.721813
          ],
          [
            -74.006273,
            40.722557
          ],
          [
            -74.005918,
            40.724613
          ],
          [
            -74.0052,
            40.729116
          ],
          [
            -74.005028,
            40.729584
          ],
          [
            -74.004718,
            40.730211
          ],
          [
            -74.003394,
            40.732575
          ],
          [
            -74.001091,
            40.736533
          ],
          [
            -74.000813,
            40.736926
          ],
          [
            -73.999647,
            40.73856
          ],
          [
            -73.999396,
            40.738903
          ],
          [
            -73.999327,
            40.738997
          ],
          [
            -73.998238,
            40.740487
          ],
          [
            -73.99443,
            40.745692
          ],
          [
            -73.992047,
            40.749013
          ],
          [
            -73.991268,
            40.750047
          ],
          [
            -73.990362,
            40.751288
          ],
          [
            -73.990303,
            40.751369
          ],
          [
            -73.990137,
            40.751597
          ],
          [
            -73.989912,
            40.751907
          ],
          [
            -73.989192,
            40.752897
          ],
          [
            -73.988483,
            40.753872
          ],
          [
            -73.988282,
            40.754149
          ],
          [
            -73.988103,
            40.754429
          ],
          [
            -73.987813,
            40.754832
          ],
          [
            -73.987095,
            40.755832
          ],
          [
            -73.986784,
            40.75624
          ],
          [
            -73.986289,
            40.756921
          ],
          [
            -73.985802,
            40.757631
          ],
          [
            -73.985589,
            40.758017
          ],
          [
            -73.985362,
            40.758529
          ],
          [
            -73.984937,
            40.759708
          ],
          [
            -73.984681,
            40.760315
          ],
          [
            -73.984404,
            40.760839
          ],
          [
            -73.983707,
            40.761917
          ],
          [
            -73.982731,
            40.763498
          ],
          [
            -73.982413,
            40.764163
          ],
          [
            -73.982116,
            40.764997
          ],
          [
            -73.981945,
            40.7656
          ],
          [
            -73.981757,
            40.76646
          ],
          [
            -73.981682,
            40.766989
          ],
          [
            -73.981661,
            40.767282
          ],
          [
            -73.981669,
            40.767574
          ],
          [
            -73.981703,
            40.767804
          ],
          [
            -73.981757,
            40.768029
          ],
          [
            -73.982009,
            40.768833
          ],
          [
            -73.98209,
            40.769369
          ],
          [
            -73.98218,
            40.773277
          ],
          [
            -73.982198,
            40.773816
          ],
          [
            -73.982162,
            40.775166
          ],
          [
            -73.982055,
            40.777855
          ],
          [
            -73.981833,
            40.779012
          ],
          [
            -73.981752,
            40.779362
          ],
          [
            -73.981602,
            40.780007
          ],
          [
            -73.981004,
            40.781908
          ],
          [
            -73.980803,
            40.782478
          ],
          [
            -73.980468,
            40.783164
          ],
          [
            -73.97997,
            40.783856
          ],
          [
            -73.977832,
            40.786727
          ],
          [
            -73.97708,
            40.787638
          ],
          [
            -73.975954,
            40.788946
          ],
          [
            -73.973771,
            40.791923
          ],
          [
            -73.971774,
            40.794656
          ],
          [
            -73.971605,
            40.794888
          ],
          [
            -73.971505,
            40.794987
          ],
          [
            -73.971409,
            40.795088
          ],
          [
            -73.971351,
            40.795167
          ],
          [
            -73.970502,
            40.796328
          ],
          [
            -73.97033,
            40.796598
          ],
          [
            -73.968721,
            40.798799
          ],
          [
            -73.968493,
            40.799127
          ],
          [
            -73.968334,
            40.799429
          ],
          [
            -73.968195,
            40.799734
          ],
          [
            -73.968059,
            40.800104
          ],
          [
            -73.967945,
            40.800503
          ],
          [
            -73.96774,
            40.80232
          ],
          [
            -73.967693,
            40.802592
          ],
          [
            -73.967633,
            40.802816
          ],
          [
            -73.967603,
            40.80288
          ],
          [
            -73.967469,
            40.803078
          ],
          [
            -73.966783,
            40.804009,
            43.5
          ],
          [
            -73.966163,
            40.804849,
            43.5
          ],
          [
            -73.965281,
            40.806062,
            43.5
          ],
          [
            -73.96355,
            40.80844,
            43.5
          ],
          [
            -73.961004,
            40.811924,
            43.5
          ],
          [
            -73.959733,
            40.813662,
            39.75
          ],
          [
            -73.957922,
            40.816139,
            34.5
          ],
          [
            -73.955931,
            40.818869,
            28.75
          ],
          [
            -73.955448,
            40.819542,
            28.75
          ],
          [
            -73.955129,
            40.819968,
            29.5
          ],
          [
            -73.954581,
            40.820787
          ],
          [
            -73.953638,
            40.822079
          ],
          [
            -73.95354,
            40.82221
          ],
          [
            -73.953407,
            40.822395
          ],
          [
            -73.951371,
            40.825197
          ],
          [
            -73.95114,
            40.825514
          ],
          [
            -73.950359,
            40.826578,
            39.5
          ],
          [
            -73.950166,
            40.82684,
            39.5
          ],
          [
            -73.950075,
            40.82697,
            39.5
          ],
          [
            -73.94996,
            40.827195,
            39.5
          ],
          [
            -73.949535,
            40.827751,
            39.5
          ],
          [
            -73.945303,
            40.833511,
            37
          ],
          [
            -73.94444,
            40.834689,
            36.5
          ],
          [
            -73.942414,
            40.837474,
            35.25
          ],
          [
            -73.941231,
            40.839201,
            34.5
          ],
          [
            -73.93973,
            40.841099,
            33.75
          ],
          [
            -73.938808,
            40.842294,
            33.25
          ],
          [
            -73.93775,
            40.843795,
            32.5
          ],
          [
            -73.934448,
            40.848305,
            30.75
          ],
          [
            -73.933983,
            40.848958,
            30.5
          ],
          [
            -73.93304,
            40.850253,
            30
          ],
          [
            -73.928736,
            40.856124,
            27.5
          ],
          [
            -73.926078,
            40.859777,
            23.25
          ],
          [
            -73.925198,
            40.860963,
            21.75
          ],
          [
            -73.925077,
            40.861108,
            21.5
          ],
          [
            -73.924978,
            40.861216,
            21.5
          ],
          [
            -73.924806,
            40.861374,
            21.25
          ],
          [
            -73.924626,
            40.861508,
            21
          ],
          [
            -73.924379,
            40.861659,
            20.75
          ],
          [
            -73.924129,
            40.861789,
            20.5
          ],
          [
            -73.923372,
            40.862084,
            20
          ],
          [
            -73.920263,
            40.863227,
            17.25
          ],
          [
            -73.920078,
            40.863306,
            17
          ],
          [
            -73.919824,
            40.86344,
            16.75
          ],
          [
            -73.919583,
            40.863616,
            16.5
          ],
          [
            -73.919393,
            40.863793,
            16.25
          ],
          [
            -73.918915,
            40.864438,
            15.5
          ],
          [
            -73.917976,
            40.865706,
            14
          ],
          [
            -73.917836,
            40.865899,
            14
          ],
          [
            -73.914824,
            40.870014,
            9
          ],
          [
            -73.914715,
            40.870162,
            9
          ],
          [
            -73.914242,
            40.870795,
            8.25
          ],
          [
            -73.91395,
            40.871174,
            7.75
          ],
          [
            -73.913716,
            40.871422,
            7.5
          ],
          [
            -73.913478,
            40.871654,
            7.25
          ],
          [
            -73.913192,
            40.871912,
            6.75
          ],
          [
            -73.912686,
            40.87233,
            6.25
          ],
          [
            -73.911723,
            40.873114,
            5
          ],
          [
            -73.911489,
            40.873283,
            4.75
          ],
          [
            -73.910737,
            40.873859,
            5
          ],
          [
            -73.910434,
            40.874107
          ],
          [
            -73.910207,
            40.874274
          ],
          [
            -73.909586,
            40.874698
          ],
          [
            -73.909104,
            40.875066
          ],
          [
            -73.908001,
            40.875926
          ],
          [
            -73.907771,
            40.87609
          ],
          [
            -73.907561,
            40.87622
          ],
          [
            -73.906986,
            40.876517
          ],
          [
            -73.906553,
            40.876755
          ],
          [
            -73.906403,
            40.876854
          ],
          [
            -73.90621,
            40.877001
          ],
          [
            -73.906074,
            40.877121
          ],
          [
            -73.905879,
            40.877345
          ],
          [
            -73.905732,
            40.877536
          ],
          [
            -73.904267,
            40.879605
          ],
          [
            -73.904144,
            40.87979
          ],
          [
            -73.902215,
            40.882475
          ],
          [
            -73.901794,
            40.883073
          ],
          [
            -73.900876,
            40.884596
          ],
          [
            -73.90068,
            40.884948
          ],
          [
            -73.900495,
            40.885313
          ],
          [
            -73.900486,
            40.885332
          ],
          [
            -73.899941,
            40.886433
          ],
          [
            -73.899725,
            40.886896
          ],
          [
            -73.899584,
            40.887178
          ],
          [
            -73.899492,
            40.887364
          ],
          [
            -73.899292,
            40.88776
          ],
          [
            -73.899038,
            40.888265
          ],
          [
            -73.898233,
            40.889881
          ],
          [
            -73.899038,
            40.888265
          ],
          [
            -73.899167,
            40.888078
          ],
          [
            -73.899232,
            40.887965
          ],
          [
            -73.899285,
            40.887861
          ],
          [
            -73.899489,
            40.887548
          ],
          [
            -73.899659,
            40.887199
          ],
          [
            -73.900063,
            40.88637
          ],
          [
            -73.900255,
            40.88599
          ],
          [
            -73.900285,
            40.885929
          ],
          [
            -73.900606,
            40.885286
          ],
          [
            -73.900691,
            40.885114
          ],
          [
            -73.900879,
            40.884752
          ],
          [
            -73.901155,
            40.88428
          ],
          [
            -73.901308,
            40.884032,
            5.25
          ],
          [
            -73.901443,
            40.883815,
            5.25
          ],
          [
            -73.901873,
            40.883101,
            5.25
          ],
          [
            -73.90229,
            40.882504,
            5.25
          ],
          [
            -73.903907,
            40.880253,
            5.25
          ],
          [
            -73.905417,
            40.878128,
            5.25
          ],
          [
            -73.905839,
            40.877533,
            5.25
          ],
          [
            -73.905952,
            40.877384,
            5.25
          ],
          [
            -73.906074,
            40.877239,
            5.25
          ],
          [
            -73.906209,
            40.877106,
            5.25
          ],
          [
            -73.906347,
            40.876987,
            5.25
          ],
          [
            -73.9065,
            40.876875,
            5.25
          ],
          [
            -73.906772,
            40.876712,
            5.25
          ],
          [
            -73.907418,
            40.876379,
            5.25
          ],
          [
            -73.907762,
            40.876182,
            5.25
          ],
          [
            -73.908073,
            40.875968,
            5.25
          ],
          [
            -73.909035,
            40.875217,
            5.25
          ],
          [
            -73.909668,
            40.874732,
            5.25
          ],
          [
            -73.910306,
            40.874291,
            5.25
          ],
          [
            -73.910497,
            40.874152,
            5.25
          ],
          [
            -73.910798,
            40.873899,
            5.25
          ],
          [
            -73.911547,
            40.873324,
            6
          ],
          [
            -73.911876,
            40.873088,
            6.25
          ],
          [
            -73.912111,
            40.872905,
            6.75
          ],
          [
            -73.9131,
            40.872095,
            7.75
          ],
          [
            -73.913643,
            40.871615,
            8.5
          ],
          [
            -73.913997,
            40.871239,
            9
          ],
          [
            -73.914315,
            40.870843,
            9.5
          ],
          [
            -73.914908,
            40.870041,
            10.5
          ],
          [
            -73.915864,
            40.868728,
            12.25
          ],
          [
            -73.916099,
            40.868412,
            12.5
          ],
          [
            -73.919304,
            40.864023,
            18
          ],
          [
            -73.919465,
            40.863832,
            18.25
          ],
          [
            -73.919649,
            40.863654,
            18.5
          ],
          [
            -73.919857,
            40.863505,
            18.75
          ],
          [
            -73.920053,
            40.863392,
            18.75
          ],
          [
            -73.920281,
            40.863292,
            19
          ],
          [
            -73.923098,
            40.862252,
            21.75
          ],
          [
            -73.923828,
            40.861985,
            22.25
          ],
          [
            -73.924184,
            40.861833,
            22.75
          ],
          [
            -73.924478,
            40.861676,
            23
          ],
          [
            -73.924733,
            40.861494,
            23.25
          ],
          [
            -73.924856,
            40.861396,
            23.25
          ],
          [
            -73.924961,
            40.861294,
            23.5
          ],
          [
            -73.925116,
            40.861131,
            23.75
          ],
          [
            -73.925237,
            40.860979,
            24
          ],
          [
            -73.92589,
            40.860087,
            25
          ],
          [
            -73.926108,
            40.859795,
            25.5
          ],
          [
            -73.929705,
            40.85487,
            37
          ],
          [
            -73.934016,
            40.84897,
            50.5
          ],
          [
            -73.934485,
            40.848319,
            52
          ],
          [
            -73.937784,
            40.843808,
            62.5
          ],
          [
            -73.938381,
            40.842968,
            64.5
          ],
          [
            -73.938849,
            40.842311
          ],
          [
            -73.940043,
            40.840759
          ],
          [
            -73.940668,
            40.839974
          ],
          [
            -73.941267,
            40.839225
          ],
          [
            -73.942451,
            40.837491
          ],
          [
            -73.945423,
            40.833416
          ],
          [
            -73.949739,
            40.827546
          ],
          [
            -73.949861,
            40.827396
          ],
          [
            -73.950801,
            40.826111
          ],
          [
            -73.951219,
            40.825539
          ],
          [
            -73.951341,
            40.825372
          ],
          [
            -73.953063,
            40.823005,
            29.25
          ],
          [
            -73.953391,
            40.822555,
            29.25
          ],
          [
            -73.953629,
            40.822226,
            29.25
          ],
          [
            -73.954659,
            40.820821,
            29.25
          ],
          [
            -73.955203,
            40.819996,
            29.25
          ],
          [
            -73.955337,
            40.819809,
            29
          ],
          [
            -73.956003,
            40.818903,
            31
          ],
          [
            -73.958897,
            40.814943,
            40.5
          ],
          [
            -73.95981,
            40.813694,
            43.5
          ],
          [
            -73.96108,
            40.811949,
            43.5
          ],
          [
            -73.96456,
            40.807192
          ],
          [
            -73.965359,
            40.806094
          ],
          [
            -73.967177,
            40.803607
          ],
          [
            -73.967547,
            40.80311
          ],
          [
            -73.967686,
            40.802903
          ],
          [
            -73.967733,
            40.802807
          ],
          [
            -73.967763,
            40.802714
          ],
          [
            -73.967828,
            40.802327
          ],
          [
            -73.968032,
            40.800513
          ],
          [
            -73.968145,
            40.80012
          ],
          [
            -73.968279,
            40.799754
          ],
          [
            -73.968416,
            40.799453
          ],
          [
            -73.968571,
            40.799157
          ],
          [
            -73.968623,
            40.799081
          ],
          [
            -73.968778,
            40.798859
          ],
          [
            -73.970412,
            40.796625
          ],
          [
            -73.970617,
            40.796376
          ],
          [
            -73.971318,
            40.795417
          ],
          [
            -73.971465,
            40.795217
          ],
          [
            -73.971525,
            40.795135
          ],
          [
            -73.971588,
            40.795021
          ],
          [
            -73.971643,
            40.794905
          ],
          [
            -73.971813,
            40.794672
          ],
          [
            -73.972757,
            40.79338
          ],
          [
            -73.97381,
            40.79194
          ],
          [
            -73.975992,
            40.788963
          ],
          [
            -73.977117,
            40.787656
          ],
          [
            -73.977872,
            40.786742
          ],
          [
            -73.980011,
            40.783869
          ],
          [
            -73.980509,
            40.783178
          ],
          [
            -73.980845,
            40.782489
          ],
          [
            -73.981047,
            40.781917
          ],
          [
            -73.981645,
            40.780014
          ],
          [
            -73.981878,
            40.77902
          ],
          [
            -73.982098,
            40.77786
          ],
          [
            -73.982206,
            40.775167
          ],
          [
            -73.982242,
            40.773817
          ],
          [
            -73.982224,
            40.773276
          ],
          [
            -73.982137,
            40.769365
          ],
          [
            -73.982052,
            40.768826
          ],
          [
            -73.981797,
            40.768012
          ],
          [
            -73.981747,
            40.767799
          ],
          [
            -73.981713,
            40.767568
          ],
          [
            -73.981705,
            40.767282
          ],
          [
            -73.981726,
            40.766992
          ],
          [
            -73.981801,
            40.766465
          ],
          [
            -73.981989,
            40.765606
          ],
          [
            -73.982159,
            40.765005
          ],
          [
            -73.982455,
            40.764173
          ],
          [
            -73.982771,
            40.763511
          ],
          [
            -73.983746,
            40.761932
          ],
          [
            -73.984445,
            40.760852
          ],
          [
            -73.984723,
            40.760326
          ],
          [
            -73.984979,
            40.759717
          ],
          [
            -73.985404,
            40.758539
          ],
          [
            -73.98563,
            40.758029
          ],
          [
            -73.985842,
            40.757646
          ],
          [
            -73.98633,
            40.756936
          ],
          [
            -73.986825,
            40.756254
          ],
          [
            -73.987138,
            40.755854
          ],
          [
            -73.987907,
            40.754773
          ],
          [
            -73.988039,
            40.754599
          ],
          [
            -73.988139,
            40.754449
          ],
          [
            -73.988357,
            40.754184
          ],
          [
            -73.988559,
            40.753905
          ],
          [
            -73.989269,
            40.75293
          ],
          [
            -73.989991,
            40.751937
          ],
          [
            -73.990224,
            40.751615,
            35
          ],
          [
            -73.990378,
            40.751403,
            35
          ],
          [
            -73.991348,
            40.750079,
            35
          ],
          [
            -73.991455,
            40.749933,
            35
          ],
          [
            -73.992868,
            40.747914,
            33
          ],
          [
            -73.993237,
            40.747424,
            32.5
          ],
          [
            -73.994469,
            40.745708,
            31
          ],
          [
            -73.995108,
            40.744835,
            30.25
          ],
          [
            -73.995201,
            40.744707,
            30.25
          ],
          [
            -73.996085,
            40.743493,
            15.75
          ],
          [
            -73.998276,
            40.740503
          ],
          [
            -73.99923,
            40.739198
          ],
          [
            -73.999369,
            40.739009
          ],
          [
            -73.999485,
            40.738851
          ],
          [
            -74.000568,
            40.737342
          ],
          [
            -74.000852,
            40.736942
          ],
          [
            -74.00113,
            40.736548
          ],
          [
            -74.003434,
            40.732588
          ],
          [
            -74.004759,
            40.730223
          ],
          [
            -74.00507,
            40.729594
          ],
          [
            -74.005243,
            40.729123
          ],
          [
            -74.005962,
            40.724617
          ],
          [
            -74.006317,
            40.722561
          ],
          [
            -74.00643,
            40.721817
          ],
          [
            -74.007067,
            40.718633
          ],
          [
            -74.007113,
            40.718346
          ],
          [
            -74.007159,
            40.718225
          ],
          [
            -74.007365,
            40.717907
          ],
          [
            -74.008085,
            40.716995
          ],
          [
            -74.008383,
            40.716617
          ],
          [
            -74.008504,
            40.716496
          ],
          [
            -74.008625,
            40.716375
          ],
          [
            -74.008785,
            40.716246
          ],
          [
            -74.009735,
            40.715042
          ],
          [
            -74.010271,
            40.71429
          ],
          [
            -74.010366,
            40.714126
          ],
          [
            -74.011001,
            40.71335
          ],
          [
            -74.011527,
            40.712793
          ],
          [
            -74.011893,
            40.71212
          ],
          [
            -74.012332,
            40.71102
          ],
          [
            -74.013655,
            40.707879
          ],
          [
            -74.014211,
            40.706538
          ],
          [
            -74.014726,
            40.705282
          ],
          [
            -74.014906,
            40.704886
          ],
          [
            -74.015105,
            40.704449
          ],
          [
            -74.015181,
            40.704149
          ],
          [
            -74.015159,
            40.703853
          ],
          [
            -74.015068,
            40.703522
          ],
          [
            -74.014933,
            40.703203
          ],
          [
            -74.014923,
            40.703184
          ],
          [
            -74.014865,
            40.703084
          ],
          [
            -74.01481,
            40.703031
          ],
          [
            -74.014759,
            40.702982
          ],
          [
            -74.014675,
            40.702871
          ],
          [
            -74.014369,
            40.702566
          ],
          [
            -74.014247,
            40.702456
          ],
          [
            -74.013543,
            40.70198
          ],
          [
            -74.013055,
            40.701686
          ]
        ]
      }
    }
  ]
}