{
  "type": "FeatureCollection",
  "features": [
    {
      "type": "Feature",
      "properties": {
        "creator": "BRouter-1.7.9",
        "name": "[MTA] 6 Train (Local)",
        "track-length": "48557",
        "filtered ascend": "2",
        "plain-ascend": "1",
        "total-time": "3883",
        "total-energy": "2135566",
        "cost": "97114",
        "messages": [
          [
            "Longitude",
            "Latitude",
            "Elevation",
            "Distance",
            "CostPerKm",
            "ElevCost",
            "TurnCost",
            "NodeCost",
            "InitialCost",
            "WayTags",
            "NodeTags",
            "Time",
            "Energy"
          ],
          [
            "-74003764",
            "40713443",
            "-8192",
            "171",
            "2000",
            "0",
            "0",
            "0",
            "0",
            "railway=subway",
            "wheelchair=yes railway=halt",
            "13",
            "7521"
          ],
          [
            "-74002826",
            "40715858",
            "-8192",
            "282",
            "2000",
            "0",
            "0",
            "0",
            "0",
            "railway=subway",
            "railway=switch",
            "36",
            "19925"
          ],
          [
            "-74002418",
            "40716338",
            "-8192",
            "63",
            "2000",
            "0",
            "0",
            "0",
            "0",
            "railway=subway",
            "railway=switch",
            "41",
            "22696"
          ],
          [
            "-73989968",
            "40735006",
            "-8192",
            "2377",
            "2000",
            "0",
            "0",
            "0",
            "0",
            "railway=subway",
            "wheelchair=no railway=halt",
            "231",
            "127249"
          ],
          [
            "-73975962",
            "40751914",
            "-8192",
            "2271",
            "2000",
            "0",
            "0",
            "0",
            "0",
            "railway=subway",
            "wheelchair=yes railway=halt",
            "413",
            "227139"
          ],
          [
            "-73967390",
            "40763273",
            "-8192",
            "1459",
            "2000",
            "0",
            "0",
            "0",
            "0",
            "railway=subway",
            "wheelchair=no railway=halt",
            "529",
            "291314"
          ],
          [
            "-73955115",
            "40780111",
            "-8192",
            "2138",
            "2000",
            "0",
            "0",
            "0",
            "0",
            "railway=subway",
            "wheelchair=no railway=halt",
            "700",
            "385354"
          ],
          [
            "-73939809",
            "40801081",
            "-8192",
            "2664",
            "2000",
            "0",
            "0",
            "0",
            "0",
            "railway=subway",
            "",
            "914",
            "502531"
          ],
          [
            "-73938822",
            "40802394",
            "-8192",
            "169",
            "2000",
            "0",
            "0",
            "0",
            "0",
            "railway=subway",
            "railway=switch",
            "13",
            "7433"
          ],
          [
            "-73936918",
            "40804996",
            "-8192",
            "330",
            "2000",
            "0",
            "0",
            "0",
            "0",
            "railway=subway",
            "wheelchair=yes railway=halt",
            "39",
            "21948"
          ],
          [
            "-73936434",
            "40805659",
            "-8192",
            "84",
            "2000",
            "0",
            "0",
            "0",
            "0",
            "railway=subway",
            "railway=switch",
            "46",
            "25643"
          ],
          [
            "-73935067",
            "40807527",
            "-8192",
            "237",
            "2000",
            "0",
            "0",
            "0",
            "0",
            "railway=subway",
            "railway=switch",
            "65",
            "36067"
          ],
          [
            "-73928533",
            "40812011",
            "-8192",
            "813",
            "2000",
            "0",
            "0",
            "0",
            "0",
            "railway=subway",
            "railway=switch",
            "130",
            "71827"
          ],
          [
            "-73925301",
            "40810075",
            "-8192",
            "351",
            "2000",
            "0",
            "0",
            "0",
            "0",
            "railway=subway",
            "wheelchair=no railway=halt",
            "158",
            "87266"
          ],
          [
            "-73918549",
            "40807238",
            "-8192",
            "650",
            "2000",
            "0",
            "0",
            "0",
            "0",
            "railway=subway",
            "wheelchair=no railway=halt",
            "210",
            "115857"
          ],
          [
            "-73913519",
            "40805116",
            "-8192",
            "485",
            "2000",
            "0",
            "0",
            "0",
            "0",
            "railway=subway",
            "wheelchair=no railway=halt",
            "249",
            "137189"
          ],
          [
            "-73907375",
            "40809424",
            "-8192",
            "819",
            "2000",
            "0",
            "0",
            "0",
            "0",
            "railway=subway",
            "wheelchair=no railway=halt",
            "315",
            "173213"
          ],
          [
            "-73903288",
            "40812350",
            "-8192",
            "489",
            "2000",
            "0",
            "0",
            "0",
            "0",
            "railway=subway",
            "wheelchair=no railway=halt",
            "354",
            "194722"
          ],
          [
            "-73895623",
            "40816839",
            "-8192",
            "846",
            "2000",
            "0",
            "0",
            "0",
            "0",
            "railway=subway",
            "wheelchair=no railway=halt",
            "421",
            "231934"
          ],
          [
            "-73890125",
            "40820944",
            "-8192",
            "666",
            "2000",
            "0",
            "0",
            "0",
            "0",
            "railway=subway",
            "wheelchair=yes railway=halt",
            "475",
            "261228"
          ],
          [
            "-73886142",
            "40827114",
            "-8192",
            "810",
            "2000",
            "0",
            "0",
            "0",
            "0",
            "railway=subway",
            "wheelchair=no railway=halt",
            "539",
            "294259"
          ],
          [
            "-73878296",
            "40828626",
            "-8192",
            "730",
            "2000",
            "0",
            "0",
            "0",
            "0",
            "railway=subway",
            "wheelchair=no railway=halt",
            "598",
            "326317"
          ],
          [
            "-73873757",
            "40829710",
            "-8192",
            "403",
            "2000",
            "0",
            "0",
            "0",
            "0",
            "railway=subway",
            "wheelchair=no railway=halt",
            "630",
            "344043"
          ],
          [
            "-73866683",
            "40831746",
            "-8192",
            "638",
            "2000",
            "0",
            "0",
            "0",
            "0",
            "railway=subway",
            "wheelchair=no railway=halt",
            "681",
            "372105"
          ],
          [
            "-73860001",
            "40833243",
            "-8192",
            "591",
            "2000",
            "0",
            "0",
            "0",
            "0",
            "railway=subway",
            "wheelchair=no railway=halt",
            "728",
            "398100"
          ],
          [
            "-73857876",
            "40833511",
            "-8192",
            "182",
            "2000",
            "0",
            "0",
            "0",
            "0",
            "railway=subway",
            "railway=switch",
            "743",
            "406106"
          ],
          [
            "-73857321",
            "40833571",
            "-8192",
            "47",
            "2000",
            "0",
            "0",
            "0",
            "0",
            "railway=subway",
            "",
            "747",
            "408173"
          ],
          [
            "-73856752",
            "40833633",
            "-8192",
            "48",
            "2000",
            "0",
            "0",
            "0",
            "0",
            "railway=subway",
            "railway=switch",
            "3",
            "2111"
          ],
          [
            "-73850304",
            "40834325",
            "-8192",
            "549",
            "2000",
            "0",
            "0",
            "0",
            "0",
            "railway=subway",
            "wheelchair=no railway=halt",
            "47",
            "26259"
          ],
          [
            "-73846426",
            "40836951",
            "-8192",
            "448",
            "2000",
            "0",
            "0",
            "0",
            "0",
            "railway=subway",
            "wheelchair=no railway=halt",
            "83",
            "45964"
          ],
          [
            "-73842390",
            "40840309",
            "-8192",
            "505",
            "2000",
            "0",
            "0",
            "0",
            "0",
            "railway=subway",
            "wheelchair=no railway=halt",
            "124",
            "68177"
          ],
          [
            "-73840803",
            "40841264",
            "-8192",
            "172",
            "2000",
            "0",
            "0",
            "0",
            "0",
            "railway=subway",
            "railway=switch",
            "137",
            "75742"
          ],
          [
            "-73838967",
            "40842218",
            "-8192",
            "188",
            "2000",
            "0",
            "0",
            "0",
            "0",
            "railway=subway",
            "railway=switch",
            "152",
            "84011"
          ],
          [
            "-73835646",
            "40844345",
            "-8192",
            "368",
            "2000",
            "0",
            "0",
            "0",
            "0",
            "railway=subway",
            "wheelchair=no railway=halt",
            "182",
            "100198"
          ],
          [
            "-73831877",
            "40847303",
            "-8192",
            "457",
            "2000",
            "0",
            "0",
            "0",
            "0",
            "railway=subway",
            "wheelchair=no railway=halt",
            "218",
            "120299"
          ],
          [
            "-73830189",
            "40850039",
            "-8192",
            "338",
            "2000",
            "0",
            "0",
            "0",
            "0",
            "railway=subway",
            "railway=switch",
            "245",
            "135166"
          ],
          [
            "-73830060",
            "40850514",
            "-8192",
            "54",
            "2000",
            "0",
            "0",
            "0",
            "0",
            "railway=subway",
            "",
            "250",
            "137541"
          ],
          [
            "-73829960",
            "40850881",
            "-8192",
            "42",
            "2000",
            "0",
            "0",
            "0",
            "0",
            "railway=subway",
            "railway=switch",
            "3",
            "1847"
          ],
          [
            "-73829076",
            "40851991",
            "-8192",
            "150",
            "2000",
            "0",
            "0",
            "0",
            "0",
            "railway=subway",
            "railway=switch",
            "15",
            "8445"
          ],
          [
            "-73827172",
            "40852857",
            "-8192",
            "187",
            "2000",
            "0",
            "0",
            "0",
            "0",
            "reversedirection=yes railway=subway",
            "",
            "30",
            "16670"
          ],
          [
            "-73829076",
            "40851991",
            "-8192",
            "187",
            "2000",
            "0",
            "0",
            "0",
            "0",
            "railway=subway",
            "railway=switch",
            "14",
            "8225"
          ],
          [
            "-73829426",
            "40851831",
            "-8192",
            "34",
            "2000",
            "0",
            "0",
            "0",
            "0",
            "railway=subway",
            "railway=unknown",
            "17",
            "9720"
          ],
          [
            "-73829715",
            "40851621",
            "-8192",
            "34",
            "2000",
            "0",
            "0",
            "0",
            "0",
            "railway=subway",
            "railway=switch",
            "20",
            "11216"
          ],
          [
            "-73830082",
            "40850778",
            "-8192",
            "99",
            "2000",
            "0",
            "0",
            "0",
            "0",
            "railway=subway",
            "",
            "28",
            "15570"
          ],
          [
            "-73830201",
            "40850333",
            "-8192",
            "50",
            "2000",
            "0",
            "0",
            "0",
            "0",
            "railway=subway",
            "railway=switch",
            "4",
            "2199"
          ],
          [
            "-73833231",
            "40846344",
            "-8192",
            "522",
            "2000",
            "0",
            "0",
            "0",
            "0",
            "railway=subway",
            "wheelchair=no railway=halt",
            "45",
            "25159"
          ],
          [
            "-73836877",
            "40843477",
            "-8192",
            "443",
            "2000",
            "0",
            "0",
            "0",
            "0",
            "railway=subway",
            "wheelchair=no railway=halt",
            "81",
            "44645"
          ],
          [
            "-73837538",
            "40843044",
            "-8192",
            "74",
            "2000",
            "0",
            "0",
            "0",
            "0",
            "railway=subway",
            "railway=switch",
            "87",
            "47899"
          ],
          [
            "-73842153",
            "40840611",
            "-8192",
            "475",
            "2000",
            "0",
            "0",
            "0",
            "0",
            "railway=subway",
            "railway=switch",
            "125",
            "68792"
          ],
          [
            "-73843592",
            "40839415",
            "-8192",
            "180",
            "2000",
            "0",
            "0",
            "0",
            "0",
            "railway=subway",
            "wheelchair=no railway=halt",
            "139",
            "76710"
          ],
          [
            "-73847680",
            "40836010",
            "-8192",
            "511",
            "2000",
            "0",
            "0",
            "0",
            "0",
            "railway=subway",
            "wheelchair=no railway=halt",
            "180",
            "99186"
          ],
          [
            "-73852195",
            "40834191",
            "-8192",
            "454",
            "2000",
            "0",
            "0",
            "0",
            "0",
            "railway=subway",
            "wheelchair=no railway=halt",
            "216",
            "119156"
          ],
          [
            "-73857122",
            "40833660",
            "-8192",
            "420",
            "2000",
            "0",
            "0",
            "0",
            "0",
            "railway=subway",
            "railway=switch",
            "250",
            "137629"
          ],
          [
            "-73857461",
            "40833624",
            "-8192",
            "29",
            "2000",
            "0",
            "0",
            "0",
            "0",
            "railway=subway",
            "railway=switch",
            "252",
            "138905"
          ],
          [
            "-73858445",
            "40833518",
            "-8192",
            "84",
            "2000",
            "0",
            "0",
            "0",
            "0",
            "railway=subway",
            "",
            "259",
            "142600"
          ],
          [
            "-73861761",
            "40833203",
            "-8192",
            "282",
            "2000",
            "0",
            "0",
            "0",
            "0",
            "railway=subway",
            "wheelchair=no railway=halt",
            "22",
            "12403"
          ],
          [
            "-73868476",
            "40831305",
            "-8192",
            "604",
            "2000",
            "0",
            "0",
            "0",
            "0",
            "railway=subway",
            "wheelchair=no railway=halt",
            "70",
            "38970"
          ],
          [
            "-73875467",
            "40829292",
            "-8192",
            "630",
            "2000",
            "0",
            "0",
            "0",
            "0",
            "railway=subway",
            "wheelchair=no railway=halt",
            "121",
            "66681"
          ],
          [
            "-73880046",
            "40828554",
            "-8192",
            "398",
            "2000",
            "0",
            "0",
            "0",
            "0",
            "railway=subway",
            "wheelchair=no railway=halt",
            "153",
            "84187"
          ],
          [
            "-73886464",
            "40825676",
            "-8192",
            "758",
            "2000",
            "0",
            "0",
            "0",
            "0",
            "railway=subway",
            "wheelchair=no railway=halt",
            "213",
            "117528"
          ],
          [
            "-73891718",
            "40820580",
            "-8192",
            "780",
            "2000",
            "0",
            "0",
            "0",
            "0",
            "railway=subway",
            "wheelchair=yes railway=halt",
            "276",
            "154257"
          ],
          [
            "-73896813",
            "40815791",
            "-8192",
            "686",
            "2000",
            "0",
            "0",
            "0",
            "0",
            "railway=subway",
            "wheelchair=no railway=halt",
            "331",
            "184438"
          ],
          [
            "-73904876",
            "40811682",
            "-8192",
            "845",
            "2000",
            "0",
            "0",
            "0",
            "0",
            "railway=subway",
            "wheelchair=no railway=halt",
            "398",
            "221606"
          ],
          [
            "-73907932",
            "40808088",
            "-8192",
            "495",
            "2000",
            "0",
            "0",
            "0",
            "0",
            "railway=subway",
            "wheelchair=no railway=halt",
            "438",
            "243379"
          ],
          [
            "-73915095",
            "40805861",
            "-8192",
            "807",
            "2000",
            "0",
            "0",
            "0",
            "0",
            "railway=subway",
            "wheelchair=no railway=halt",
            "502",
            "278875"
          ],
          [
            "-73919975",
            "40807915",
            "-8192",
            "471",
            "2000",
            "0",
            "0",
            "0",
            "0",
            "railway=subway",
            "wheelchair=no railway=halt",
            "540",
            "299592"
          ],
          [
            "-73926931",
            "40810875",
            "-8192",
            "673",
            "2000",
            "0",
            "0",
            "0",
            "0",
            "railway=subway",
            "wheelchair=no railway=halt",
            "594",
            "329194"
          ],
          [
            "-73928506",
            "40812038",
            "-8192",
            "186",
            "2000",
            "0",
            "0",
            "0",
            "0",
            "railway=subway",
            "railway=switch",
            "609",
            "337375"
          ],
          [
            "-73937845",
            "40803729",
            "-8192",
            "1302",
            "2000",
            "0",
            "0",
            "0",
            "0",
            "railway=subway",
            "wheelchair=yes railway=halt",
            "713",
            "394644"
          ],
          [
            "-73938335",
            "40803060",
            "-8192",
            "85",
            "2000",
            "0",
            "0",
            "0",
            "0",
            "railway=subway",
            "railway=switch",
            "720",
            "398383"
          ],
          [
            "-73939832",
            "40801119",
            "-8192",
            "250",
            "2000",
            "0",
            "0",
            "0",
            "0",
            "railway=subway",
            "railway=switch",
            "740",
            "409379"
          ],
          [
            "-73942091",
            "40798024",
            "-8192",
            "393",
            "2000",
            "0",
            "0",
            "0",
            "0",
            "railway=subway",
            "wheelchair=no railway=halt",
            "771",
            "426665"
          ],
          [
            "-73944720",
            "40794495",
            "-8192",
            "450",
            "2000",
            "0",
            "0",
            "0",
            "0",
            "railway=subway",
            "wheelchair=no railway=halt",
            "807",
            "446459"
          ],
          [
            "-73948017",
            "40789987",
            "-8192",
            "573",
            "2000",
            "0",
            "0",
            "0",
            "0",
            "railway=subway",
            "wheelchair=no railway=halt",
            "853",
            "471662"
          ],
          [
            "-73951539",
            "40785088",
            "-8192",
            "620",
            "2000",
            "0",
            "0",
            "0",
            "0",
            "railway=subway",
            "wheelchair=no railway=halt",
            "903",
            "498933"
          ],
          [
            "-73956055",
            "40778895",
            "-8192",
            "787",
            "2000",
            "0",
            "0",
            "0",
            "0",
            "railway=subway",
            "wheelchair=no railway=halt",
            "965",
            "533549"
          ],
          [
            "-73960266",
            "40773117",
            "-8192",
            "734",
            "2000",
            "0",
            "0",
            "0",
            "0",
            "railway=subway",
            "wheelchair=no railway=halt",
            "1024",
            "565835"
          ],
          [
            "-73964507",
            "40767299",
            "-8192",
            "739",
            "2000",
            "0",
            "0",
            "0",
            "0",
            "railway=subway",
            "wheelchair=no railway=halt",
            "1083",
            "598340"
          ],
          [
            "-73968327",
            "40762059",
            "-8192",
            "665",
            "2000",
            "0",
            "0",
            "0",
            "0",
            "railway=subway",
            "wheelchair=no railway=halt",
            "1137",
            "627590"
          ],
          [
            "-73972371",
            "40756510",
            "-8192",
            "705",
            "2000",
            "0",
            "0",
            "0",
            "0",
            "railway=subway",
            "wheelchair=yes railway=halt",
            "1193",
            "658600"
          ],
          [
            "-73977739",
            "40751714",
            "-8192",
            "741",
            "2000",
            "0",
            "0",
            "0",
            "0",
            "railway=subway",
            "wheelchair=yes railway=halt",
            "1252",
            "691193"
          ],
          [
            "-73979608",
            "40749637",
            "-8192",
            "288",
            "2000",
            "0",
            "0",
            "0",
            "0",
            "railway=subway",
            "railway=switch",
            "1275",
            "703860"
          ],
          [
            "-73982572",
            "40745516",
            "-8192",
            "522",
            "2000",
            "0",
            "0",
            "0",
            "0",
            "railway=subway",
            "wheelchair=no railway=halt",
            "1317",
            "726821"
          ],
          [
            "-73984595",
            "40742728",
            "-8192",
            "354",
            "2000",
            "0",
            "0",
            "0",
            "0",
            "railway=subway",
            "wheelchair=yes railway=halt",
            "1345",
            "742392"
          ],
          [
            "-73986864",
            "40739619",
            "-8192",
            "395",
            "2000",
            "0",
            "0",
            "0",
            "0",
            "railway=subway",
            "wheelchair=yes railway=halt",
            "1377",
            "759766"
          ],
          [
            "-73990006",
            "40734387",
            "-8192",
            "654",
            "2000",
            "0",
            "0",
            "0",
            "0",
            "railway=subway",
            "wheelchair=no railway=halt",
            "1429",
            "788532"
          ],
          [
            "-73992145",
            "40729167",
            "-8192",
            "632",
            "2000",
            "0",
            "0",
            "0",
            "0",
            "railway=subway",
            "wheelchair=no railway=halt",
            "1480",
            "816331"
          ],
          [
            "-73995442",
            "40725069",
            "-8192",
            "534",
            "2000",
            "0",
            "0",
            "0",
            "0",
            "railway=subway",
            "wheelchair=yes railway=halt",
            "1523",
            "839819"
          ],
          [
            "-73997360",
            "40722174",
            "-8192",
            "362",
            "2000",
            "0",
            "0",
            "0",
            "0",
            "railway=subway",
            "",
            "1552",
            "855741"
          ],
          [
            "-73998003",
            "40721399",
            "-8192",
            "102",
            "2000",
            "0",
            "0",
            "0",
            "0",
            "railway=subway",
            "wheelchair=no railway=halt",
            "8",
            "4486"
          ],
          [
            "-74000850",
            "40718179",
            "-8192",
            "431",
            "2000",
            "0",
            "0",
            "0",
            "0",
            "railway=subway",
            "wheelchair=yes railway=halt",
            "42",
            "23444"
          ],
          [
            "-74002493",
            "40716376",
            "-8192",
            "244",
            "2000",
            "0",
            "0",
            "0",
            "0",
            "railway=subway",
            "railway=switch",
            "62",
            "34176"
          ],
          [
            "-74002901",
            "40715896",
            "-8192",
            "63",
            "2000",
            "0",
            "0",
            "0",
            "0",
            "railway=subway",
            "railway=switch",
            "67",
            "36947"
          ],
          [
            "-74005049",
            "40712415",
            "-8192",
            "439",
            "2000",
            "0",
            "0",
            "0",
            "0",
            "railway=subway",
            "wheelchair=yes railway=halt",
            "102",
            "56257"
          ],
          [
            "-74005151",
            "40712360",
            "-8192",
            "11",
            "2000",
            "0",
            "0",
            "0",
            "0",
            "railway=subway",
            "",
            "103",
            "56740"
          ]
        ],
        "times": [
          0,
          0.96,
          3.76,
          6.8,
          8.48,
          10.48,
          13.68,
          15.28,
          16.32,
          17.6,
          25.44,
          27.36,
          32.32,
          33.44,
          34.56,
          35.68,
          36.24,
          41.28,
          67.76,
          80.16,
          96.8,
          104.48,
          106.24,
          108.08,
          114.88,
          116.08,
          117.2,
          141.2,
          154.88,
          181.12,
          182.56,
          186.32,
          187.6,
          188.88,
          191.84,
          193.2,
          194.64,
          210,
          215.84,
          218.72,
          219.76,
          221.36,
          222.72,
          229.76,
          231.44,
          233.36,
          234.08,
          235.2,
          246.88,
          315.68,
          335.12,
          350.08,
          357.12,
          382.72,
          385.6,
          390.16,
          391.44,
          392.56,
          396.8,
          397.36,
          398.56,
          399.28,
          400.16,
          400.96,
          402.24,
          413.12,
          413.84,
          414.48,
          415.04,
          415.68,
          416.32,
          416.88,
          456.56,
          512.96,
          529.84,
          541.6,
          700.88,
          759.6,
          785.28,
          864.8,
          914,
          914.24,
          921.2,
          927.52,
          928,
          953.92,
          960.64,
          979.6,
          985.92,
          992.08,
          993.92,
          1008.16,
          1009.92,
          1011.68,
          1026.16,
          1028.48,
          1030.64,
          1032.72,
          1034.72,
          1036.48,
          1038.08,
          1039.68,
          1041.52,
          1043.2,
          1044.64,
          1048.56,
          1057.92,
          1059.6,
          1061.12,
          1072.72,
          1081.44,
          1094.48,
          1124.72,
          1163.52,
          1166.72,
          1168.32,
          1169.76,
          1171.04,
          1172.64,
          1173.68,
          1174.4,
          1175.12,
          1175.84,
          1199.68,
          1200.88,
          1202.08,
          1203.28,
          1204.48,
          1229.04,
          1232.56,
          1233.84,
          1235.12,
          1236.4,
          1237.68,
          1255.84,
          1260.08,
          1261.84,
          1263.12,
          1264.56,
          1268.16,
          1295.68,
          1297.28,
          1298.88,
          1300.48,
          1314,
          1329.2,
          1335.84,
          1374,
          1375.36,
          1376.72,
          1377.92,
          1388,
          1389.12,
          1391.76,
          1395.28,
          1396.48,
          1410.32,
          1412.8,
          1415.28,
          1417.76,
          1420.24,
          1423.2,
          1425.68,
          1427.92,
          1433.6,
          1440.96,
          1453.92,
          1456,
          1457.68,
          1458.56,
          1460.08,
          1460.88,
          1462.24,
          1463.6,
          1465.28,
          1466.08,
          1466.96,
          1468.88,
          1487.28,
          1512.32,
          1516.08,
          1517.68,
          1519.36,
          1521.04,
          1522.96,
          1544.56,
          1595.6,
          1624.24,
          1625.6,
          1626.96,
          1628.4,
          1642.88,
          1645.04,
          1648.48,
          1650.88,
          1657.44,
          1661.2,
          1665.04,
          1708.96,
          1711.36,
          1712.32,
          1713.36,
          1714.4,
          1715.28,
          1716.4,
          1717.52,
          1744.8,
          1772.72,
          1785.2,
          1787.76,
          1789.36,
          1790.64,
          1795.52,
          1798.96,
          1804.08,
          1814,
          1817.52,
          1827.2,
          1828.32,
          1830.88,
          1843.44,
          1880,
          1881.6,
          1883.44,
          1885.28,
          1886.56,
          1890.48,
          1896.24,
          1899.28,
          1900.64,
          1903.12,
          1904.48,
          1907.04,
          1911.36,
          1914.72,
          1917.36,
          1918.32,
          1920.08,
          1921.04,
          1921.76,
          1922.8,
          1924.08,
          1925.28,
          1926.72,
          1941.68,
          1956.64,
          1959.36,
          1960.56,
          1960.96,
          1962.08,
          1962.72,
          1963.6,
          1965.44,
          1967.84,
          1970,
          1974,
          1977.36,
          1980.72,
          1982.24,
          1985.76,
          1987.52,
          1995.68,
          1997.04,
          1998.96,
          2000.64,
          2015.76,
          2051.2,
          2053.52,
          2055.84,
          2057.12,
          2061.36,
          2064.48,
          2090.48,
          2092.4,
          2093.76,
          2095.12,
          2109.52,
          2137.68,
          2150.4,
          2164.64,
          2166.72,
          2167.68,
          2168.64,
          2169.6,
          2170.48,
          2172.4,
          2186.72,
          2220.32,
          2222.64,
          2229.36,
          2232.08,
          2238,
          2239.44,
          2251.92,
          2252.8,
          2254,
          2300.24,
          2350.64,
          2360.08,
          2361.92,
          2363.6,
          2366.88,
          2382.48,
          2395.68,
          2415.04,
          2416.88,
          2418.72,
          2419.6,
          2420.4,
          2421.2,
          2422,
          2423.6,
          2425.36,
          2426.24,
          2427.12,
          2428.08,
          2443.12,
          2450.48,
          2456.16,
          2458.32,
          2460.8,
          2463.6,
          2466.08,
          2468.48,
          2470.88,
          2473.28,
          2487.12,
          2488.32,
          2489.52,
          2492.08,
          2494.4,
          2505.52,
          2506.64,
          2508.32,
          2509.92,
          2554.08,
          2560.4,
          2569.92,
          2581.84,
          2583.36,
          2584.88,
          2586.4,
          2587.92,
          2615.44,
          2619.04,
          2620.56,
          2621.84,
          2623.68,
          2628,
          2646.16,
          2647.52,
          2648.88,
          2650.24,
          2651.6,
          2667.6,
          2679.68,
          2680.8,
          2681.92,
          2683.04,
          2684.16,
          2708,
          2708.64,
          2709.92,
          2710.88,
          2712.32,
          2713.52,
          2714.96,
          2716.48,
          2719.68,
          2732.16,
          2769.84,
          2788.8,
          2801.84,
          2810.56,
          2822.16,
          2823.68,
          2825.2,
          2834.56,
          2838.56,
          2840,
          2841.68,
          2843.6,
          2845.28,
          2846.88,
          2848.72,
          2850.72,
          2852.88,
          2855.2,
          2857.52,
          2872,
          2873.76,
          2875.52,
          2889.76,
          2891.6,
          2897.76,
          2942.72,
          2949.52,
          2962.56,
          2969.52,
          2975.12,
          3000.96,
          3013.68,
          3018.88,
          3036.96,
          3082.8,
          3098.4,
          3104.72,
          3132.4,
          3182.8,
          3195.36,
          3254.08,
          3313.2,
          3366.4,
          3410.24,
          3422.8,
          3427.28,
          3465.44,
          3466.08,
          3466.72,
          3467.92,
          3468.64,
          3469.44,
          3470.4,
          3482.08,
          3483.2,
          3484.08,
          3484.88,
          3485.68,
          3486.24,
          3486.88,
          3487.6,
          3488.32,
          3497.92,
          3499.36,
          3505.12,
          3527.12,
          3534.4,
          3546.88,
          3549.28,
          3562.64,
          3575.2,
          3606.8,
          3637.52,
          3642.08,
          3644.64,
          3649.84,
          3650.72,
          3651.6,
          3652.64,
          3653.92,
          3655.84,
          3657.04,
          3658.08,
          3659.12,
          3659.76,
          3661.2,
          3662.4,
          3663.36,
          3665.36,
          3667.28,
          3669.28,
          3675.12,
          3690.48,
          3691.84,
          3693.12,
          3696.08,
          3697.28,
          3698.48,
          3702.24,
          3703.76,
          3709.68,
          3730,
          3743.68,
          3752.4,
          3767.68,
          3768.88,
          3770.08,
          3776.88,
          3778.64,
          3780.32,
          3781.36,
          3789.52,
          3804.64,
          3824,
          3843.52,
          3848.56,
          3849.2,
          3850.4,
          3851.6,
          3852.8,
          3857.76,
          3859.6,
          3867.36,
          3868.56,
          3869.52,
          3871.12,
          3874.32,
          3876.32,
          3878,
          3880.96,
          3883.68,
          3884.56
        ]
      },
      "geometry": {
        "type": "LineString",
        "coordinates": [
          [
            -74.005091,
            40.712286,
            54
          ],
          [
            -74.004974,
            40.712345,
            54
          ],
          [
            -74.004667,
            40.71256,
            54
          ],
          [
            -74.004349,
            40.712808,
            54
          ],
          [
            -74.004194,
            40.712955,
            54
          ],
          [
            -74.004024,
            40.713138,
            54
          ],
          [
            -74.003764,
            40.713443,
            54
          ],
          [
            -74.00364,
            40.713597,
            54
          ],
          [
            -74.003577,
            40.713702,
            54
          ],
          [
            -74.003517,
            40.713834,
            54
          ],
          [
            -74.003172,
            40.714677,
            54
          ],
          [
            -74.003115,
            40.714889,
            54
          ],
          [
            -74.003031,
            40.715441,
            54
          ],
          [
            -74.003001,
            40.715568,
            54
          ],
          [
            -74.002948,
            40.715688,
            54
          ],
          [
            -74.002872,
            40.715804,
            54
          ],
          [
            -74.002826,
            40.715858,
            54
          ],
          [
            -74.002418,
            40.716338,
            54
          ],
          [
            -74.000187,
            40.718786,
            54
          ],
          [
            -73.999144,
            40.719932,
            54
          ],
          [
            -73.997807,
            40.721502,
            54
          ],
          [
            -73.997202,
            40.722235,
            54
          ],
          [
            -73.997084,
            40.722414,
            54
          ],
          [
            -73.996986,
            40.722608,
            54
          ],
          [
            -73.996691,
            40.723339,
            54
          ],
          [
            -73.99663,
            40.723462,
            54
          ],
          [
            -73.996554,
            40.723572,
            54
          ],
          [
            -73.994687,
            40.725867,
            54
          ],
          [
            -73.993699,
            40.727207,
            54
          ],
          [
            -73.991594,
            40.729686,
            54
          ],
          [
            -73.991455,
            40.729811,
            54
          ],
          [
            -73.991037,
            40.730086,
            54
          ],
          [
            -73.990911,
            40.730189,
            54
          ],
          [
            -73.990806,
            40.73031,
            54
          ],
          [
            -73.990591,
            40.730603,
            54
          ],
          [
            -73.990513,
            40.730741,
            54
          ],
          [
            -73.990458,
            40.730893,
            54
          ],
          [
            -73.990035,
            40.732595,
            54
          ],
          [
            -73.989895,
            40.733247,
            54
          ],
          [
            -73.989851,
            40.733571,
            54
          ],
          [
            -73.989843,
            40.733691,
            54
          ],
          [
            -73.989838,
            40.733873,
            54
          ],
          [
            -73.989844,
            40.734024,
            54
          ],
          [
            -73.989961,
            40.734814,
            54
          ],
          [
            -73.989968,
            40.735006,
            54
          ],
          [
            -73.989932,
            40.735221,
            54
          ],
          [
            -73.989902,
            40.735302,
            54
          ],
          [
            -73.989837,
            40.735419,
            54
          ],
          [
            -73.988993,
            40.736565,
            54
          ],
          [
            -73.984051,
            40.743332,
            54
          ],
          [
            -73.982648,
            40.74524,
            54
          ],
          [
            -73.981596,
            40.746717,
            54
          ],
          [
            -73.981019,
            40.747382,
            54
          ],
          [
            -73.979135,
            40.749882,
            54
          ],
          [
            -73.978932,
            40.750162,
            54
          ],
          [
            -73.978664,
            40.750633,
            54
          ],
          [
            -73.978581,
            40.750765,
            54
          ],
          [
            -73.9785,
            40.750876,
            54
          ],
          [
            -73.978192,
            40.751296
          ],
          [
            -73.978147,
            40.751349
          ],
          [
            -73.978019,
            40.751446
          ],
          [
            -73.977936,
            40.751491
          ],
          [
            -73.977826,
            40.751536
          ],
          [
            -73.977714,
            40.751571
          ],
          [
            -73.977527,
            40.751612
          ],
          [
            -73.975962,
            40.751914
          ],
          [
            -73.975862,
            40.751938
          ],
          [
            -73.975772,
            40.751968
          ],
          [
            -73.975699,
            40.752003
          ],
          [
            -73.975624,
            40.752048
          ],
          [
            -73.975559,
            40.752104
          ],
          [
            -73.975511,
            40.752159
          ],
          [
            -73.97265,
            40.756055
          ],
          [
            -73.968603,
            40.761608
          ],
          [
            -73.96739,
            40.763273
          ],
          [
            -73.966546,
            40.764429
          ],
          [
            -73.955115,
            40.780111
          ],
          [
            -73.950903,
            40.785889
          ],
          [
            -73.949059,
            40.78842
          ],
          [
            -73.943339,
            40.796242
          ],
          [
            -73.939809,
            40.801081,
            13.5
          ],
          [
            -73.939792,
            40.801103,
            13.5
          ],
          [
            -73.939273,
            40.801775,
            13.5
          ],
          [
            -73.938822,
            40.802394,
            13.5
          ],
          [
            -73.938787,
            40.802443,
            13.5
          ],
          [
            -73.936918,
            40.804996,
            13.5
          ],
          [
            -73.936434,
            40.805659,
            13.5
          ],
          [
            -73.935067,
            40.807527,
            13.5
          ],
          [
            -73.93461,
            40.808152,
            13.5
          ],
          [
            -73.934149,
            40.808746,
            13.5
          ],
          [
            -73.93401,
            40.80892,
            13.5
          ],
          [
            -73.932817,
            40.810242,
            13.5
          ],
          [
            -73.932648,
            40.810395,
            13.5
          ],
          [
            -73.93246,
            40.810528,
            13.5
          ],
          [
            -73.93097,
            40.811704,
            13.5
          ],
          [
            -73.930736,
            40.811899,
            13.5
          ],
          [
            -73.930473,
            40.812043,
            13.5
          ],
          [
            -73.930205,
            40.812162,
            13.5
          ],
          [
            -73.929928,
            40.812235,
            13.5
          ],
          [
            -73.929663,
            40.812258,
            13.5
          ],
          [
            -73.92942,
            40.812258,
            13.5
          ],
          [
            -73.929189,
            40.812248,
            13.5
          ],
          [
            -73.928929,
            40.812192,
            13.5
          ],
          [
            -73.928705,
            40.812108,
            13.5
          ],
          [
            -73.928533,
            40.812011,
            13.5
          ],
          [
            -73.928142,
            40.811686,
            13.5
          ],
          [
            -73.927182,
            40.810929,
            13.5
          ],
          [
            -73.92699,
            40.810805,
            13.5
          ],
          [
            -73.926801,
            40.810716,
            13.5
          ],
          [
            -73.925301,
            40.810075,
            13.5
          ],
          [
            -73.924164,
            40.809602,
            13.5
          ],
          [
            -73.922476,
            40.808886,
            13.5
          ],
          [
            -73.918549,
            40.807238,
            13.5
          ],
          [
            -73.913519,
            40.805116,
            13.5
          ],
          [
            -73.913089,
            40.804956,
            13.5
          ],
          [
            -73.912862,
            40.804898,
            13.5
          ],
          [
            -73.912649,
            40.804862,
            13.5
          ],
          [
            -73.912465,
            40.804857,
            13.5
          ],
          [
            -73.912233,
            40.804863,
            13.5
          ],
          [
            -73.912085,
            40.804883,
            13.5
          ],
          [
            -73.911983,
            40.804909,
            13.5
          ],
          [
            -73.911887,
            40.804936,
            13.5
          ],
          [
            -73.911795,
            40.80497,
            13.5
          ],
          [
            -73.908762,
            40.806346,
            13.5
          ],
          [
            -73.908614,
            40.806419,
            13.5
          ],
          [
            -73.908485,
            40.806514,
            13.5
          ],
          [
            -73.908382,
            40.806626,
            13.5
          ],
          [
            -73.908308,
            40.806749,
            13.5
          ],
          [
            -73.907375,
            40.809424,
            13.5
          ],
          [
            -73.907241,
            40.809811,
            13.5
          ],
          [
            -73.907177,
            40.809947,
            13.5
          ],
          [
            -73.90709,
            40.810073,
            13.5
          ],
          [
            -73.906979,
            40.810189,
            13.5
          ],
          [
            -73.906848,
            40.810293,
            13.5
          ],
          [
            -73.904815,
            40.811632,
            13.5
          ],
          [
            -73.90434,
            40.811945,
            13.5
          ],
          [
            -73.904134,
            40.812066,
            13.5
          ],
          [
            -73.903977,
            40.812139,
            13.5
          ],
          [
            -73.903783,
            40.81221,
            13.5
          ],
          [
            -73.903288,
            40.81235,
            13.5
          ],
          [
            -73.899462,
            40.813428,
            13.5
          ],
          [
            -73.899247,
            40.813501,
            13.5
          ],
          [
            -73.899048,
            40.813599,
            13.5
          ],
          [
            -73.89887,
            40.813717,
            13.5
          ],
          [
            -73.897608,
            40.814899,
            13.5
          ],
          [
            -73.896228,
            40.816254,
            13.5
          ],
          [
            -73.895623,
            40.816839,
            13.5
          ],
          [
            -73.892132,
            40.82022,
            13.5
          ],
          [
            -73.891989,
            40.820326,
            13.5
          ],
          [
            -73.891818,
            40.820412,
            13.5
          ],
          [
            -73.891658,
            40.820465,
            13.5
          ],
          [
            -73.890268,
            40.820884,
            13.5
          ],
          [
            -73.890125,
            40.820944,
            13.5
          ],
          [
            -73.889791,
            40.821103,
            13.5
          ],
          [
            -73.889365,
            40.821325,
            13.5
          ],
          [
            -73.889223,
            40.821407,
            13.5
          ],
          [
            -73.887661,
            40.822423,
            13.5
          ],
          [
            -73.887411,
            40.822633,
            13.5
          ],
          [
            -73.887197,
            40.822864,
            13.5
          ],
          [
            -73.887022,
            40.823113,
            13.5
          ],
          [
            -73.886882,
            40.823373,
            13.5
          ],
          [
            -73.886742,
            40.823689,
            12
          ],
          [
            -73.886657,
            40.823963,
            11
          ],
          [
            -73.8866,
            40.824212,
            10.5
          ],
          [
            -73.886501,
            40.824843,
            10.5
          ],
          [
            -73.886377,
            40.825665
          ],
          [
            -73.886142,
            40.827114
          ],
          [
            -73.886095,
            40.827347
          ],
          [
            -73.886027,
            40.82753
          ],
          [
            -73.885973,
            40.82762
          ],
          [
            -73.885853,
            40.827765
          ],
          [
            -73.885773,
            40.827836
          ],
          [
            -73.885628,
            40.82794
          ],
          [
            -73.885463,
            40.828031
          ],
          [
            -73.885239,
            40.828113
          ],
          [
            -73.885119,
            40.828138
          ],
          [
            -73.884992,
            40.828161
          ],
          [
            -73.884708,
            40.828186
          ],
          [
            -73.881986,
            40.828329
          ],
          [
            -73.878296,
            40.828626
          ],
          [
            -73.877741,
            40.828671
          ],
          [
            -73.877503,
            40.828696
          ],
          [
            -73.877261,
            40.82873
          ],
          [
            -73.877016,
            40.828781
          ],
          [
            -73.876751,
            40.828847
          ],
          [
            -73.873757,
            40.82971
          ],
          [
            -73.866683,
            40.831746
          ],
          [
            -73.862709,
            40.832892
          ],
          [
            -73.862521,
            40.832941
          ],
          [
            -73.862332,
            40.83298
          ],
          [
            -73.862122,
            40.833014
          ],
          [
            -73.860001,
            40.833243
          ],
          [
            -73.85969,
            40.833281
          ],
          [
            -73.859185,
            40.83336
          ],
          [
            -73.858835,
            40.833407
          ],
          [
            -73.857876,
            40.833511
          ],
          [
            -73.857321,
            40.833571
          ],
          [
            -73.856752,
            40.833633
          ],
          [
            -73.850304,
            40.834325
          ],
          [
            -73.849948,
            40.834367
          ],
          [
            -73.849814,
            40.834392
          ],
          [
            -73.849666,
            40.834432
          ],
          [
            -73.849525,
            40.834481
          ],
          [
            -73.849411,
            40.834533
          ],
          [
            -73.849279,
            40.834602
          ],
          [
            -73.849153,
            40.834684
          ],
          [
            -73.846426,
            40.836951
          ],
          [
            -73.843637,
            40.839271
          ],
          [
            -73.84239,
            40.840309
          ],
          [
            -73.84213,
            40.840521
          ],
          [
            -73.841961,
            40.840643
          ],
          [
            -73.841807,
            40.840732
          ],
          [
            -73.841219,
            40.841047
          ],
          [
            -73.840803,
            40.841264
          ],
          [
            -73.840176,
            40.841582
          ],
          [
            -73.838967,
            40.842218
          ],
          [
            -73.838532,
            40.842444
          ],
          [
            -73.837351,
            40.84306
          ],
          [
            -73.837222,
            40.843136
          ],
          [
            -73.836938,
            40.843332
          ],
          [
            -73.835646,
            40.844345
          ],
          [
            -73.831877,
            40.847303
          ],
          [
            -73.831708,
            40.847435
          ],
          [
            -73.831525,
            40.847594
          ],
          [
            -73.831364,
            40.84776
          ],
          [
            -73.83126,
            40.847882
          ],
          [
            -73.831002,
            40.84828
          ],
          [
            -73.83065,
            40.848868
          ],
          [
            -73.830489,
            40.849192
          ],
          [
            -73.830425,
            40.849333
          ],
          [
            -73.830322,
            40.849602
          ],
          [
            -73.83027,
            40.849753
          ],
          [
            -73.830189,
            40.850039
          ],
          [
            -73.83006,
            40.850514
          ],
          [
            -73.82996,
            40.850881
          ],
          [
            -73.829873,
            40.851168
          ],
          [
            -73.829831,
            40.851272
          ],
          [
            -73.82973,
            40.851456
          ],
          [
            -73.829658,
            40.851549
          ],
          [
            -73.829597,
            40.851619
          ],
          [
            -73.829506,
            40.851708
          ],
          [
            -73.829379,
            40.851811
          ],
          [
            -73.829247,
            40.851897
          ],
          [
            -73.829076,
            40.851991
          ],
          [
            -73.827172,
            40.852857
          ],
          [
            -73.829076,
            40.851991
          ],
          [
            -73.829426,
            40.851831
          ],
          [
            -73.829571,
            40.85175
          ],
          [
            -73.829611,
            40.85172
          ],
          [
            -73.829715,
            40.851621
          ],
          [
            -73.829765,
            40.851565
          ],
          [
            -73.829827,
            40.851478
          ],
          [
            -73.829929,
            40.851282
          ],
          [
            -73.830016,
            40.85102
          ],
          [
            -73.830082,
            40.850778
          ],
          [
            -73.830201,
            40.850333
          ],
          [
            -73.830303,
            40.849959
          ],
          [
            -73.830417,
            40.849592
          ],
          [
            -73.830478,
            40.849425
          ],
          [
            -73.830651,
            40.849047
          ],
          [
            -73.830751,
            40.848862
          ],
          [
            -73.831266,
            40.848026
          ],
          [
            -73.831361,
            40.847893
          ],
          [
            -73.831516,
            40.847715
          ],
          [
            -73.831671,
            40.847569
          ],
          [
            -73.833231,
            40.846344
          ],
          [
            -73.836877,
            40.843477
          ],
          [
            -73.837126,
            40.843293
          ],
          [
            -73.837382,
            40.843125
          ],
          [
            -73.837538,
            40.843044
          ],
          [
            -73.838085,
            40.842818
          ],
          [
            -73.838474,
            40.842621
          ],
          [
            -73.841651,
            40.840967
          ],
          [
            -73.841871,
            40.840837
          ],
          [
            -73.842014,
            40.840728
          ],
          [
            -73.842153,
            40.840611
          ],
          [
            -73.843592,
            40.839415
          ],
          [
            -73.846406,
            40.837071
          ],
          [
            -73.84768,
            40.83601
          ],
          [
            -73.849104,
            40.834825
          ],
          [
            -73.849332,
            40.834666
          ],
          [
            -73.849443,
            40.834603
          ],
          [
            -73.849564,
            40.834549
          ],
          [
            -73.849697,
            40.834502
          ],
          [
            -73.849821,
            40.834467
          ],
          [
            -73.850096,
            40.834417
          ],
          [
            -73.852195,
            40.834191
          ],
          [
            -73.857122,
            40.83366
          ],
          [
            -73.857461,
            40.833624
          ],
          [
            -73.858445,
            40.833518,
            11.25
          ],
          [
            -73.858848,
            40.833475,
            11.25
          ],
          [
            -73.859718,
            40.833417,
            11.25
          ],
          [
            -73.859926,
            40.833397,
            11.25
          ],
          [
            -73.861761,
            40.833203,
            11.25
          ],
          [
            -73.86189,
            40.833185,
            11.25
          ],
          [
            -73.862062,
            40.833151,
            11.25
          ],
          [
            -73.868476,
            40.831305,
            11.25
          ],
          [
            -73.875467,
            40.829292,
            11.25
          ],
          [
            -73.876777,
            40.828915,
            11.25
          ],
          [
            -73.877035,
            40.828851,
            11.25
          ],
          [
            -73.877271,
            40.828804,
            11.25
          ],
          [
            -73.877751,
            40.828741,
            11.25
          ],
          [
            -73.880046,
            40.828554,
            11.25
          ],
          [
            -73.881989,
            40.828398,
            11.25
          ],
          [
            -73.884853,
            40.828246,
            11.25
          ],
          [
            -73.885126,
            40.828214,
            11.25
          ],
          [
            -73.885381,
            40.82815,
            11.25
          ],
          [
            -73.885497,
            40.828103,
            11.25
          ],
          [
            -73.8856,
            40.828054,
            11.25
          ],
          [
            -73.885694,
            40.828,
            11.25
          ],
          [
            -73.885779,
            40.827943,
            11.25
          ],
          [
            -73.885936,
            40.82781,
            11.25
          ],
          [
            -73.886069,
            40.827644,
            11.25
          ],
          [
            -73.886124,
            40.82755,
            11.25
          ],
          [
            -73.886165,
            40.827459,
            11.25
          ],
          [
            -73.886199,
            40.827355,
            11.25
          ],
          [
            -73.886464,
            40.825676,
            11.25
          ],
          [
            -73.886599,
            40.82485,
            11.25
          ],
          [
            -73.886703,
            40.82422,
            11.25
          ],
          [
            -73.886758,
            40.823977,
            11.75
          ],
          [
            -73.886839,
            40.823701,
            12.75
          ],
          [
            -73.886979,
            40.8234,
            14
          ],
          [
            -73.887105,
            40.823141
          ],
          [
            -73.887275,
            40.8229
          ],
          [
            -73.887482,
            40.822675
          ],
          [
            -73.887725,
            40.822472
          ],
          [
            -73.88928,
            40.82146
          ],
          [
            -73.889417,
            40.821381
          ],
          [
            -73.889563,
            40.821312
          ],
          [
            -73.889884,
            40.821166
          ],
          [
            -73.890189,
            40.821046
          ],
          [
            -73.891718,
            40.82058
          ],
          [
            -73.891858,
            40.820517
          ],
          [
            -73.892049,
            40.820396
          ],
          [
            -73.892203,
            40.820263
          ],
          [
            -73.896242,
            40.816351
          ],
          [
            -73.896813,
            40.815791
          ],
          [
            -73.897679,
            40.814942
          ],
          [
            -73.898789,
            40.813897
          ],
          [
            -73.898935,
            40.813765
          ],
          [
            -73.899103,
            40.813653
          ],
          [
            -73.899291,
            40.813561
          ],
          [
            -73.899497,
            40.813491
          ],
          [
            -73.903319,
            40.812414
          ],
          [
            -73.903817,
            40.812274
          ],
          [
            -73.90402,
            40.812199
          ],
          [
            -73.904184,
            40.812122
          ],
          [
            -73.904396,
            40.811998
          ],
          [
            -73.904876,
            40.811682
          ],
          [
            -73.906911,
            40.810343
          ],
          [
            -73.907049,
            40.810233
          ],
          [
            -73.907167,
            40.810109
          ],
          [
            -73.90726,
            40.809974
          ],
          [
            -73.907327,
            40.809831
          ],
          [
            -73.907932,
            40.808088
          ],
          [
            -73.908394,
            40.806772
          ],
          [
            -73.908461,
            40.80666
          ],
          [
            -73.908554,
            40.806559
          ],
          [
            -73.908671,
            40.806473
          ],
          [
            -73.90881,
            40.806404
          ],
          [
            -73.911839,
            40.80503
          ],
          [
            -73.911923,
            40.804999
          ],
          [
            -73.912103,
            40.80495
          ],
          [
            -73.912241,
            40.804931
          ],
          [
            -73.912454,
            40.804925
          ],
          [
            -73.912629,
            40.804928
          ],
          [
            -73.912832,
            40.804963
          ],
          [
            -73.913049,
            40.805018
          ],
          [
            -73.913475,
            40.805175
          ],
          [
            -73.915095,
            40.805861
          ],
          [
            -73.919975,
            40.807915
          ],
          [
            -73.922432,
            40.808946
          ],
          [
            -73.92412,
            40.809661
          ],
          [
            -73.925236,
            40.810156
          ],
          [
            -73.926743,
            40.810786
          ],
          [
            -73.926931,
            40.810875
          ],
          [
            -73.927109,
            40.810984
          ],
          [
            -73.928076,
            40.811734
          ],
          [
            -73.928506,
            40.812038
          ],
          [
            -73.928682,
            40.812137
          ],
          [
            -73.928905,
            40.812222
          ],
          [
            -73.929176,
            40.812281
          ],
          [
            -73.929419,
            40.812293
          ],
          [
            -73.929655,
            40.812292
          ],
          [
            -73.929932,
            40.812269
          ],
          [
            -73.930214,
            40.812194
          ],
          [
            -73.93049,
            40.812072
          ],
          [
            -73.930769,
            40.811921
          ],
          [
            -73.931003,
            40.811727
          ],
          [
            -73.932493,
            40.810551
          ],
          [
            -73.932683,
            40.810417
          ],
          [
            -73.932854,
            40.810262
          ],
          [
            -73.934048,
            40.808939
          ],
          [
            -73.934189,
            40.808762
          ],
          [
            -73.93461,
            40.808151
          ],
          [
            -73.937845,
            40.803729
          ],
          [
            -73.938335,
            40.80306
          ],
          [
            -73.939273,
            40.801776
          ],
          [
            -73.939832,
            40.801119
          ],
          [
            -73.940234,
            40.80057
          ],
          [
            -73.942091,
            40.798024
          ],
          [
            -73.943006,
            40.796768
          ],
          [
            -73.943418,
            40.796275
          ],
          [
            -73.94472,
            40.794495
          ],
          [
            -73.948017,
            40.789987
          ],
          [
            -73.949139,
            40.788454
          ],
          [
            -73.94955,
            40.787817
          ],
          [
            -73.951539,
            40.785088
          ],
          [
            -73.955155,
            40.780128
          ],
          [
            -73.956055,
            40.778895
          ],
          [
            -73.960266,
            40.773117
          ],
          [
            -73.964507,
            40.767299
          ],
          [
            -73.968327,
            40.762059
          ],
          [
            -73.971471,
            40.757744
          ],
          [
            -73.972371,
            40.75651
          ],
          [
            -73.972729,
            40.756088
          ],
          [
            -73.975482,
            40.75234
          ],
          [
            -73.975528,
            40.752282
          ],
          [
            -73.975586,
            40.752228
          ],
          [
            -73.975718,
            40.752142
          ],
          [
            -73.975815,
            40.752101
          ],
          [
            -73.975924,
            40.752066
          ],
          [
            -73.976061,
            40.752035
          ],
          [
            -73.977739,
            40.751714
          ],
          [
            -73.977902,
            40.751681
          ],
          [
            -73.978019,
            40.751646
          ],
          [
            -73.978122,
            40.751603
          ],
          [
            -73.978217,
            40.751554
          ],
          [
            -73.978283,
            40.751512
          ],
          [
            -73.978352,
            40.751464
          ],
          [
            -73.978424,
            40.751399
          ],
          [
            -73.978488,
            40.75133
          ],
          [
            -73.979179,
            40.750386
          ],
          [
            -73.979273,
            40.750238
          ],
          [
            -73.979608,
            40.749637
          ],
          [
            -73.981201,
            40.747482
          ],
          [
            -73.981676,
            40.746749
          ],
          [
            -73.982572,
            40.745516
          ],
          [
            -73.982752,
            40.745286
          ],
          [
            -73.983694,
            40.743963
          ],
          [
            -73.984595,
            40.742728
          ],
          [
            -73.986864,
            40.739619
          ],
          [
            -73.989072,
            40.736598
          ],
          [
            -73.989402,
            40.736147
          ],
          [
            -73.989627,
            40.73592
          ],
          [
            -73.990012,
            40.735413
          ],
          [
            -73.99007,
            40.73532
          ],
          [
            -73.990106,
            40.735221
          ],
          [
            -73.99013,
            40.735106
          ],
          [
            -73.990139,
            40.734965
          ],
          [
            -73.990117,
            40.734748
          ],
          [
            -73.990092,
            40.734617
          ],
          [
            -73.990057,
            40.734502
          ],
          [
            -73.990006,
            40.734387
          ],
          [
            -73.989982,
            40.734314
          ],
          [
            -73.989949,
            40.734157
          ],
          [
            -73.989935,
            40.734025
          ],
          [
            -73.989929,
            40.733915
          ],
          [
            -73.989938,
            40.733692
          ],
          [
            -73.989956,
            40.73348
          ],
          [
            -73.989985,
            40.733257
          ],
          [
            -73.990124,
            40.732607
          ],
          [
            -73.990547,
            40.730908
          ],
          [
            -73.990598,
            40.730763
          ],
          [
            -73.990672,
            40.730633
          ],
          [
            -73.990883,
            40.730346
          ],
          [
            -73.990982,
            40.730232
          ],
          [
            -73.9911,
            40.730135
          ],
          [
            -73.991519,
            40.72986
          ],
          [
            -73.991666,
            40.729727
          ],
          [
            -73.992145,
            40.729167
          ],
          [
            -73.993776,
            40.727243
          ],
          [
            -73.994765,
            40.725902
          ],
          [
            -73.995442,
            40.725069
          ],
          [
            -73.996632,
            40.723606
          ],
          [
            -73.996713,
            40.72349
          ],
          [
            -73.996776,
            40.723361
          ],
          [
            -73.997071,
            40.72263
          ],
          [
            -73.997167,
            40.722442
          ],
          [
            -73.99728,
            40.72227
          ],
          [
            -73.99736,
            40.722174
          ],
          [
            -73.998003,
            40.721399
          ],
          [
            -73.999219,
            40.71997
          ],
          [
            -74.00085,
            40.718179
          ],
          [
            -74.002493,
            40.716376
          ],
          [
            -74.002901,
            40.715896
          ],
          [
            -74.002951,
            40.715838
          ],
          [
            -74.003032,
            40.715715
          ],
          [
            -74.003089,
            40.715585
          ],
          [
            -74.00312,
            40.715451
          ],
          [
            -74.003204,
            40.7149
          ],
          [
            -74.00326,
            40.714693
          ],
          [
            -74.003603,
            40.713855
          ],
          [
            -74.003661,
            40.713728
          ],
          [
            -74.003721,
            40.713629
          ],
          [
            -74.003858,
            40.713487
          ],
          [
            -74.00412,
            40.713188
          ],
          [
            -74.00429,
            40.713009
          ],
          [
            -74.004445,
            40.712863
          ],
          [
            -74.004753,
            40.712624
          ],
          [
            -74.005049,
            40.712415
          ],
          [
            -74.005151,
            40.71236
          ]
        ]
      }
    }
  ]
}