{
  "type": "FeatureCollection",
  "features": [
    {
      "type": "Feature",
      "properties": {
        "creator": "BRouter-1.7.9",
        "name": "[MTA] 7 Train (Express)",
        "track-length": "33600",
        "filtered ascend": "6",
        "plain-ascend": "1",
        "total-time": "2688",
        "total-energy": "1477432",
        "cost": "67200",
        "messages": [
          [
            "Longitude",
            "Latitude",
            "Elevation",
            "Distance",
            "CostPerKm",
            "ElevCost",
            "TurnCost",
            "NodeCost",
            "InitialCost",
            "WayTags",
            "NodeTags",
            "Time",
            "Energy"
          ],
          [
            "-74001829",
            "40755884",
            "-8192",
            "82",
            "2000",
            "0",
            "0",
            "0",
            "0",
            "railway=subway",
            "wheelchair=yes railway=halt",
            "6",
            "3606"
          ],
          [
            "-74001202",
            "40756743",
            "-8192",
            "109",
            "2000",
            "0",
            "0",
            "0",
            "0",
            "railway=subway",
            "railway=switch",
            "15",
            "8401"
          ],
          [
            "-74000731",
            "40757391",
            "-8192",
            "82",
            "2000",
            "0",
            "0",
            "0",
            "0",
            "railway=subway",
            "railway=switch",
            "21",
            "12007"
          ],
          [
            "-73986847",
            "40755092",
            "-8192",
            "1406",
            "2000",
            "0",
            "0",
            "0",
            "0",
            "railway=subway",
            "wheelchair=yes railway=halt",
            "134",
            "73851"
          ],
          [
            "-73986540",
            "40754998",
            "-8192",
            "28",
            "2000",
            "0",
            "0",
            "0",
            "0",
            "railway=subway",
            "railway=switch",
            "136",
            "75082"
          ],
          [
            "-73986372",
            "40754927",
            "-8192",
            "16",
            "2000",
            "0",
            "0",
            "0",
            "0",
            "railway=subway",
            "",
            "137",
            "75786"
          ],
          [
            "-73986213",
            "40754861",
            "-8192",
            "15",
            "2000",
            "0",
            "0",
            "0",
            "0",
            "railway=subway",
            "railway=switch",
            "1",
            "659"
          ],
          [
            "-73981002",
            "40753354",
            "-8192",
            "480",
            "2000",
            "0",
            "0",
            "0",
            "0",
            "railway=subway",
            "wheelchair=no railway=halt",
            "39",
            "21772"
          ],
          [
            "-73975219",
            "40751052",
            "-8192",
            "553",
            "2000",
            "0",
            "0",
            "0",
            "0",
            "railway=subway",
            "wheelchair=yes railway=halt",
            "83",
            "46096"
          ],
          [
            "-73959462",
            "40744403",
            "-8192",
            "1522",
            "2000",
            "0",
            "0",
            "0",
            "0",
            "railway=subway",
            "",
            "205",
            "113042"
          ],
          [
            "-73952426",
            "40742400",
            "-8192",
            "640",
            "2000",
            "0",
            "0",
            "0",
            "0",
            "railway=subway",
            "wheelchair=no railway=halt",
            "51",
            "28150"
          ],
          [
            "-73947883",
            "40742447",
            "-8192",
            "395",
            "2000",
            "0",
            "0",
            "0",
            "0",
            "railway=subway",
            "wheelchair=no railway=halt",
            "82",
            "45524"
          ],
          [
            "-73947680",
            "40742504",
            "3",
            "19",
            "2000",
            "0",
            "0",
            "0",
            "0",
            "railway=subway",
            "railway=switch",
            "84",
            "46298"
          ],
          [
            "-73947483",
            "40742582",
            "3",
            "19",
            "2000",
            "0",
            "0",
            "0",
            "0",
            "railway=subway",
            "railway=unknown",
            "85",
            "47068"
          ],
          [
            "-73947282",
            "40742625",
            "3",
            "17",
            "2000",
            "0",
            "0",
            "0",
            "0",
            "reversedirection=yes railway=subway",
            "railway=switch",
            "87",
            "47714"
          ],
          [
            "-73944996",
            "40747743",
            "-8192",
            "722",
            "2000",
            "0",
            "0",
            "0",
            "0",
            "railway=subway",
            "",
            "144",
            "78377"
          ],
          [
            "-73944981",
            "40747788",
            "-8192",
            "5",
            "2000",
            "0",
            "0",
            "0",
            "0",
            "railway=subway",
            "wheelchair=yes railway=halt",
            "0",
            "219"
          ],
          [
            "-73939499",
            "40750235",
            "-8192",
            "707",
            "2000",
            "0",
            "0",
            "0",
            "0",
            "railway=subway",
            "wheelchair=limited railway=halt",
            "56",
            "31317"
          ],
          [
            "-73939439",
            "40750209",
            "-8192",
            "6",
            "2000",
            "0",
            "0",
            "0",
            "0",
            "railway=subway",
            "railway=switch",
            "57",
            "31581"
          ],
          [
            "-73939032",
            "40750055",
            "-8192",
            "38",
            "2000",
            "0",
            "0",
            "0",
            "0",
            "railway=subway",
            "railway=unknown",
            "60",
            "33252"
          ],
          [
            "-73938765",
            "40749858",
            "-8192",
            "31",
            "2000",
            "0",
            "0",
            "0",
            "0",
            "railway=subway",
            "railway=switch",
            "62",
            "34616"
          ],
          [
            "-73936620",
            "40748095",
            "-8192",
            "270",
            "2000",
            "0",
            "0",
            "0",
            "0",
            "railway=subway",
            "railway=switch",
            "84",
            "46492"
          ],
          [
            "-73936309",
            "40747794",
            "-8192",
            "43",
            "2000",
            "0",
            "0",
            "0",
            "0",
            "railway=subway",
            "",
            "88",
            "48383"
          ],
          [
            "-73935985",
            "40747482",
            "-8192",
            "44",
            "2000",
            "0",
            "0",
            "0",
            "0",
            "railway=subway",
            "railway=switch",
            "3",
            "1935"
          ],
          [
            "-73935169",
            "40746688",
            "-8192",
            "112",
            "2000",
            "0",
            "0",
            "0",
            "0",
            "railway=subway",
            "railway=switch",
            "12",
            "6861"
          ],
          [
            "-73934479",
            "40746114",
            "-8192",
            "87",
            "2000",
            "0",
            "0",
            "0",
            "0",
            "railway=subway",
            "railway=switch",
            "19",
            "10688"
          ],
          [
            "-73903973",
            "40745532",
            "-8192",
            "2701",
            "2000",
            "0",
            "0",
            "0",
            "0",
            "railway=subway",
            "wheelchair=yes railway=halt",
            "235",
            "129492"
          ],
          [
            "-73901977",
            "40745741",
            "-8192",
            "170",
            "2000",
            "0",
            "0",
            "0",
            "0",
            "railway=subway",
            "wheelchair=yes railway=halt",
            "249",
            "136970"
          ],
          [
            "-73894179",
            "40746563",
            "-8192",
            "665",
            "2000",
            "0",
            "0",
            "0",
            "0",
            "railway=subway",
            "railway=switch",
            "302",
            "166220"
          ],
          [
            "-73893320",
            "40746653",
            "-8192",
            "73",
            "2000",
            "0",
            "0",
            "0",
            "0",
            "railway=subway",
            "railway=switch",
            "308",
            "169431"
          ],
          [
            "-73890549",
            "40746945",
            "-8192",
            "236",
            "2000",
            "0",
            "0",
            "0",
            "0",
            "railway=subway",
            "",
            "327",
            "179811"
          ],
          [
            "-73889419",
            "40747064",
            "-8192",
            "96",
            "2000",
            "0",
            "0",
            "0",
            "0",
            "railway=subway",
            "railway=switch",
            "7",
            "4222"
          ],
          [
            "-73888613",
            "40747148",
            "-8192",
            "69",
            "2000",
            "0",
            "0",
            "0",
            "0",
            "railway=subway",
            "railway=switch",
            "13",
            "7257"
          ],
          [
            "-73889331",
            "40747108",
            "-8192",
            "61",
            "2000",
            "0",
            "0",
            "0",
            "0",
            "railway=subway",
            "railway=switch",
            "18",
            "9940"
          ],
          [
            "-73884764",
            "40747590",
            "-8192",
            "389",
            "2000",
            "0",
            "0",
            "0",
            "0",
            "reversedirection=yes railway=subway",
            "wheelchair=no railway=halt",
            "49",
            "27050"
          ],
          [
            "-73877696",
            "40748331",
            "-8192",
            "603",
            "2000",
            "0",
            "0",
            "0",
            "0",
            "reversedirection=yes railway=subway",
            "wheelchair=no railway=halt",
            "97",
            "53574"
          ],
          [
            "-73870578",
            "40749109",
            "-8192",
            "608",
            "2000",
            "0",
            "0",
            "0",
            "0",
            "reversedirection=yes railway=subway",
            "wheelchair=yes railway=halt",
            "146",
            "80317"
          ],
          [
            "-73863690",
            "40749803",
            "-8192",
            "587",
            "2000",
            "0",
            "0",
            "0",
            "0",
            "reversedirection=yes railway=subway",
            "wheelchair=no railway=halt",
            "193",
            "106136"
          ],
          [
            "-73856325",
            "40751500",
            "-8192",
            "652",
            "2000",
            "0",
            "0",
            "0",
            "0",
            "reversedirection=yes railway=subway",
            "wheelchair=no railway=halt",
            "245",
            "134814"
          ],
          [
            "-73854276",
            "40752112",
            "-8192",
            "186",
            "2000",
            "0",
            "0",
            "0",
            "0",
            "reversedirection=yes railway=subway",
            "railway=switch",
            "260",
            "142996"
          ],
          [
            "-73854032",
            "40752164",
            "-8192",
            "21",
            "2000",
            "0",
            "0",
            "0",
            "0",
            "reversedirection=yes railway=subway",
            "railway=unknown",
            "261",
            "143919"
          ],
          [
            "-73853791",
            "40752215",
            "-8192",
            "21",
            "2000",
            "0",
            "0",
            "0",
            "0",
            "reversedirection=yes railway=subway",
            "railway=switch",
            "263",
            "144843"
          ],
          [
            "-73853554",
            "40752290",
            "-8192",
            "22",
            "2000",
            "0",
            "0",
            "0",
            "0",
            "reversedirection=yes railway=subway",
            "railway=switch",
            "265",
            "145811"
          ],
          [
            "-73852998",
            "40752455",
            "-8192",
            "50",
            "2000",
            "0",
            "0",
            "0",
            "0",
            "reversedirection=yes railway=subway",
            "railway=switch",
            "269",
            "148010"
          ],
          [
            "-73852250",
            "40752679",
            "-8192",
            "68",
            "2000",
            "0",
            "0",
            "0",
            "0",
            "reversedirection=yes railway=subway",
            "railway=switch",
            "274",
            "151001"
          ],
          [
            "-73849976",
            "40753316",
            "-8192",
            "206",
            "2000",
            "0",
            "0",
            "0",
            "0",
            "reversedirection=yes railway=subway",
            "",
            "291",
            "160062"
          ],
          [
            "-73848379",
            "40753786",
            "-8192",
            "144",
            "2000",
            "0",
            "0",
            "0",
            "0",
            "reversedirection=yes railway=subway",
            "railway=switch",
            "11",
            "6333"
          ],
          [
            "-73848184",
            "40753843",
            "-8192",
            "18",
            "2000",
            "0",
            "0",
            "0",
            "0",
            "reversedirection=yes railway=subway",
            "",
            "12",
            "7125"
          ],
          [
            "-73847938",
            "40753915",
            "-8192",
            "22",
            "2000",
            "0",
            "0",
            "0",
            "0",
            "reversedirection=yes railway=subway",
            "railway=switch",
            "1",
            "967"
          ],
          [
            "-73847598",
            "40753978",
            "-8192",
            "30",
            "2000",
            "0",
            "0",
            "0",
            "0",
            "reversedirection=yes railway=subway",
            "railway=switch",
            "4",
            "2287"
          ],
          [
            "-73847183",
            "40754109",
            "-8192",
            "38",
            "2000",
            "0",
            "0",
            "0",
            "0",
            "railway=subway",
            "railway=switch",
            "7",
            "3958"
          ],
          [
            "-73845006",
            "40754713",
            "-8192",
            "196",
            "2000",
            "0",
            "0",
            "0",
            "0",
            "railway=subway",
            "",
            "22",
            "12579"
          ],
          [
            "-73844596",
            "40754836",
            "-8192",
            "37",
            "2000",
            "0",
            "0",
            "0",
            "0",
            "railway=subway",
            "wheelchair=limited railway=halt",
            "2",
            "1627"
          ],
          [
            "-73843831",
            "40755123",
            "-8192",
            "72",
            "2000",
            "0",
            "0",
            "0",
            "0",
            "railway=subway",
            "railway=switch",
            "8",
            "4794"
          ],
          [
            "-73831722",
            "40758992",
            "-8192",
            "1115",
            "2000",
            "0",
            "0",
            "0",
            "0",
            "railway=subway",
            "railway=switch",
            "97",
            "55573"
          ],
          [
            "-73831319",
            "40759128",
            "-8192",
            "37",
            "2000",
            "0",
            "0",
            "0",
            "0",
            "railway=subway",
            "",
            "100",
            "57210"
          ],
          [
            "-73830956",
            "40759250",
            "-8192",
            "34",
            "2000",
            "0",
            "0",
            "0",
            "0",
            "railway=subway",
            "railway=switch",
            "2",
            "1495"
          ],
          [
            "-73829063",
            "40759782",
            "-8192",
            "171",
            "2000",
            "0",
            "0",
            "0",
            "0",
            "railway=subway",
            "wheelchair=yes railway=halt",
            "16",
            "9016"
          ],
          [
            "-73828996",
            "40759797",
            "-8192",
            "6",
            "2000",
            "0",
            "0",
            "0",
            "0",
            "railway=subway",
            "",
            "16",
            "9280"
          ],
          [
            "-73829063",
            "40759782",
            "-8192",
            "6",
            "2000",
            "0",
            "0",
            "0",
            "0",
            "reversedirection=yes railway=subway",
            "wheelchair=yes railway=halt",
            "0",
            "263"
          ],
          [
            "-73830956",
            "40759250",
            "-8192",
            "171",
            "2000",
            "0",
            "0",
            "0",
            "0",
            "reversedirection=yes railway=subway",
            "railway=switch",
            "14",
            "7785"
          ],
          [
            "-73831231",
            "40759195",
            "-8192",
            "24",
            "2000",
            "0",
            "0",
            "0",
            "0",
            "railway=subway",
            "railway=switch",
            "16",
            "8841"
          ],
          [
            "-73831505",
            "40759101",
            "-8192",
            "25",
            "2000",
            "0",
            "0",
            "0",
            "0",
            "reversedirection=yes railway=subway",
            "railway=switch",
            "18",
            "9940"
          ],
          [
            "-73831753",
            "40759015",
            "-8192",
            "23",
            "2000",
            "0",
            "0",
            "0",
            "0",
            "reversedirection=yes railway=subway",
            "railway=switch",
            "19",
            "10952"
          ],
          [
            "-73831970",
            "40758969",
            "-8192",
            "19",
            "2000",
            "0",
            "0",
            "0",
            "0",
            "railway=subway",
            "railway=switch",
            "21",
            "11788"
          ],
          [
            "-73843413",
            "40755326",
            "-8192",
            "1055",
            "2000",
            "0",
            "0",
            "0",
            "0",
            "railway=subway",
            "railway=switch",
            "105",
            "56206"
          ],
          [
            "-73846401",
            "40754434",
            "-8192",
            "271",
            "2000",
            "0",
            "0",
            "0",
            "0",
            "railway=subway",
            "",
            "127",
            "68126"
          ],
          [
            "-73846534",
            "40754394",
            "-8192",
            "12",
            "2000",
            "0",
            "0",
            "0",
            "0",
            "railway=subway",
            "wheelchair=no railway=halt",
            "0",
            "527"
          ],
          [
            "-73846963",
            "40754269",
            "-8192",
            "39",
            "2000",
            "0",
            "0",
            "0",
            "0",
            "railway=subway",
            "railway=switch",
            "4",
            "2243"
          ],
          [
            "-73847195",
            "40754182",
            "-8192",
            "22",
            "2000",
            "0",
            "0",
            "0",
            "0",
            "railway=subway",
            "railway=unknown",
            "5",
            "3210"
          ],
          [
            "-73847417",
            "40754091",
            "-8192",
            "21",
            "2000",
            "0",
            "0",
            "0",
            "0",
            "railway=subway",
            "railway=switch",
            "7",
            "4134"
          ],
          [
            "-73847960",
            "40753954",
            "-8192",
            "48",
            "2000",
            "0",
            "0",
            "0",
            "0",
            "reversedirection=yes railway=subway",
            "railway=switch",
            "11",
            "6245"
          ],
          [
            "-73848213",
            "40753878",
            "-8192",
            "23",
            "2000",
            "0",
            "0",
            "0",
            "0",
            "reversedirection=yes railway=subway",
            "",
            "13",
            "7257"
          ],
          [
            "-73848401",
            "40753822",
            "-8192",
            "17",
            "2000",
            "0",
            "0",
            "0",
            "0",
            "reversedirection=yes railway=subway",
            "railway=switch",
            "1",
            "747"
          ],
          [
            "-73868577",
            "40749255",
            "-8192",
            "1788",
            "2000",
            "0",
            "0",
            "0",
            "0",
            "reversedirection=yes railway=subway",
            "wheelchair=yes railway=halt",
            "144",
            "79393"
          ],
          [
            "-73870568",
            "40749045",
            "-8192",
            "170",
            "2000",
            "0",
            "0",
            "0",
            "0",
            "reversedirection=yes railway=subway",
            "wheelchair=yes railway=halt",
            "158",
            "86870"
          ],
          [
            "-73888613",
            "40747148",
            "-8192",
            "1539",
            "2000",
            "0",
            "0",
            "0",
            "0",
            "reversedirection=yes railway=subway",
            "railway=switch",
            "281",
            "154564"
          ],
          [
            "-73889419",
            "40747064",
            "-8192",
            "69",
            "2000",
            "0",
            "0",
            "0",
            "0",
            "reversedirection=yes railway=subway",
            "railway=switch",
            "286",
            "157599"
          ],
          [
            "-73891482",
            "40746846",
            "-8192",
            "176",
            "2000",
            "0",
            "0",
            "0",
            "0",
            "reversedirection=yes railway=subway",
            "",
            "300",
            "165340"
          ],
          [
            "-73893320",
            "40746653",
            "-8192",
            "157",
            "2000",
            "0",
            "0",
            "0",
            "0",
            "reversedirection=yes railway=subway",
            "railway=switch",
            "12",
            "6905"
          ],
          [
            "-73894179",
            "40746563",
            "-8192",
            "73",
            "2000",
            "0",
            "0",
            "0",
            "0",
            "reversedirection=yes railway=subway",
            "railway=switch",
            "18",
            "10116"
          ],
          [
            "-73901977",
            "40745741",
            "-8192",
            "665",
            "2000",
            "0",
            "0",
            "0",
            "0",
            "reversedirection=yes railway=subway",
            "wheelchair=yes railway=halt",
            "71",
            "39366"
          ],
          [
            "-73903973",
            "40745532",
            "-8192",
            "170",
            "2000",
            "0",
            "0",
            "0",
            "0",
            "reversedirection=yes railway=subway",
            "wheelchair=yes railway=halt",
            "85",
            "46844"
          ],
          [
            "-73934479",
            "40746114",
            "-8192",
            "2701",
            "2000",
            "0",
            "0",
            "0",
            "0",
            "reversedirection=yes railway=subway",
            "railway=switch",
            "301",
            "165648"
          ],
          [
            "-73935614",
            "40747243",
            "-8192",
            "158",
            "2000",
            "0",
            "0",
            "0",
            "0",
            "railway=subway",
            "railway=switch",
            "313",
            "172598"
          ],
          [
            "-73935906",
            "40747530",
            "-8192",
            "40",
            "2000",
            "0",
            "0",
            "0",
            "0",
            "railway=subway",
            "railway=switch",
            "317",
            "174357"
          ],
          [
            "-73936251",
            "40747863",
            "-8192",
            "47",
            "2000",
            "0",
            "0",
            "0",
            "0",
            "railway=subway",
            "",
            "320",
            "176424"
          ],
          [
            "-73936540",
            "40748142",
            "-8192",
            "39",
            "2000",
            "0",
            "0",
            "0",
            "0",
            "railway=subway",
            "railway=switch",
            "3",
            "1715"
          ],
          [
            "-73941050",
            "40750914",
            "-8192",
            "496",
            "2000",
            "0",
            "0",
            "0",
            "0",
            "railway=subway",
            "wheelchair=limited railway=halt",
            "42",
            "23532"
          ],
          [
            "-73945484",
            "40746428",
            "-8192",
            "716",
            "2000",
            "0",
            "0",
            "0",
            "0",
            "railway=subway",
            "",
            "100",
            "55025"
          ],
          [
            "-73945505",
            "40746366",
            "-8192",
            "7",
            "2000",
            "0",
            "0",
            "0",
            "0",
            "railway=subway",
            "wheelchair=yes railway=halt",
            "0",
            "307"
          ],
          [
            "-73947298",
            "40742656",
            "3",
            "556",
            "2000",
            "0",
            "0",
            "0",
            "0",
            "railway=subway",
            "railway=switch",
            "45",
            "24874"
          ],
          [
            "-73947483",
            "40742582",
            "3",
            "18",
            "2000",
            "0",
            "0",
            "0",
            "0",
            "reversedirection=yes railway=subway",
            "railway=unknown",
            "46",
            "25793"
          ],
          [
            "-73947690",
            "40742539",
            "3",
            "18",
            "2000",
            "0",
            "0",
            "0",
            "0",
            "railway=subway",
            "railway=switch",
            "47",
            "26691"
          ],
          [
            "-73949919",
            "40742071",
            "-8192",
            "195",
            "2000",
            "0",
            "0",
            "0",
            "0",
            "railway=subway",
            "wheelchair=no railway=halt",
            "63",
            "35919"
          ],
          [
            "-73954318",
            "40742797",
            "-8192",
            "382",
            "2000",
            "0",
            "0",
            "0",
            "0",
            "railway=subway",
            "wheelchair=no railway=halt",
            "94",
            "52827"
          ],
          [
            "-73960392",
            "40744878",
            "-8192",
            "567",
            "2000",
            "0",
            "0",
            "0",
            "0",
            "railway=subway",
            "",
            "139",
            "77769"
          ],
          [
            "-73976943",
            "40751873",
            "-8192",
            "1598",
            "2000",
            "0",
            "0",
            "0",
            "0",
            "railway=subway",
            "wheelchair=yes railway=halt",
            "127",
            "70288"
          ],
          [
            "-73982819",
            "40754105",
            "-8192",
            "556",
            "2000",
            "0",
            "0",
            "0",
            "0",
            "railway=subway",
            "wheelchair=no railway=halt",
            "172",
            "94744"
          ],
          [
            "-73986186",
            "40754897",
            "-8192",
            "308",
            "2000",
            "0",
            "0",
            "0",
            "0",
            "railway=subway",
            "railway=switch",
            "196",
            "108291"
          ],
          [
            "-73986340",
            "40754963",
            "-8192",
            "15",
            "2000",
            "0",
            "0",
            "0",
            "0",
            "railway=subway",
            "",
            "198",
            "108951"
          ],
          [
            "-73986440",
            "40755007",
            "-8192",
            "10",
            "2000",
            "0",
            "0",
            "0",
            "0",
            "railway=subway",
            "railway=switch",
            "0",
            "439"
          ],
          [
            "-73988583",
            "40755911",
            "-8192",
            "207",
            "2000",
            "0",
            "0",
            "0",
            "0",
            "railway=subway",
            "wheelchair=yes railway=halt",
            "17",
            "9544"
          ],
          [
            "-73998754",
            "40759462",
            "-8192",
            "963",
            "2000",
            "0",
            "0",
            "0",
            "0",
            "railway=subway",
            "",
            "94",
            "51902"
          ],
          [
            "-74000873",
            "40757448",
            "-8192",
            "294",
            "2000",
            "0",
            "0",
            "0",
            "0",
            "railway=subway",
            "railway=switch",
            "23",
            "12931"
          ],
          [
            "-74001038",
            "40757096",
            "-8192",
            "41",
            "2000",
            "0",
            "0",
            "0",
            "0",
            "reversedirection=yes railway=subway",
            "railway=unknown",
            "26",
            "14735"
          ],
          [
            "-74001202",
            "40756743",
            "-8192",
            "42",
            "2000",
            "0",
            "0",
            "0",
            "0",
            "reversedirection=yes railway=subway",
            "railway=switch",
            "30",
            "16582"
          ],
          [
            "-74001829",
            "40755884",
            "-8192",
            "109",
            "2000",
            "0",
            "0",
            "0",
            "0",
            "reversedirection=yes railway=subway",
            "wheelchair=yes railway=halt",
            "38",
            "21376"
          ],
          [
            "-74002299",
            "40755240",
            "-8192",
            "82",
            "2000",
            "0",
            "0",
            "0",
            "0",
            "reversedirection=yes railway=subway",
            "",
            "45",
            "24983"
          ]
        ],
        "times": [
          0,
          6.56,
          15.28,
          21.84,
          32.72,
          35.2,
          36.96,
          39.12,
          41.12,
          43.04,
          45.12,
          46.8,
          48.4,
          50.08,
          51.84,
          53.68,
          55.6,
          57.44,
          59.04,
          96.24,
          98.16,
          104.96,
          108.88,
          117.04,
          118.32,
          121.92,
          124.8,
          132.72,
          134.32,
          135.36,
          136.56,
          137.84,
          139.04,
          151.04,
          151.84,
          152.64,
          153.44,
          154.24,
          155.04,
          155.84,
          158.56,
          159.36,
          160.16,
          161.84,
          163.52,
          165.2,
          166.88,
          168.56,
          174.4,
          175.84,
          177.44,
          179.28,
          180.32,
          203.68,
          204.88,
          210,
          212.16,
          221.68,
          276.8,
          343.44,
          362.16,
          364.08,
          365.68,
          367.12,
          381.28,
          394.64,
          407.2,
          410.4,
          413.6,
          416.8,
          426.24,
          426.56,
          427.76,
          428.56,
          429.28,
          429.92,
          430.64,
          433.04,
          437.92,
          447.84,
          449.04,
          449.84,
          450.64,
          451.44,
          452.8,
          453.36,
          454,
          454.8,
          455.6,
          456.32,
          468.56,
          469.44,
          470.16,
          470.96,
          472.24,
          473.04,
          488.4,
          488.8,
          492.72,
          494.8,
          495.76,
          498.08,
          500.56,
          517.76,
          522.16,
          523.2,
          523.68,
          524.48,
          525.44,
          526.48,
          527.44,
          528.32,
          529.04,
          545.36,
          545.84,
          547.04,
          548.88,
          551.36,
          553.76,
          555.92,
          558.24,
          560.4,
          564.64,
          570.08,
          572.96,
          576.4,
          579.92,
          587.84,
          588.88,
          591.28,
          592.64,
          595.84,
          604.64,
          607.52,
          608.88,
          610.48,
          611.44,
          613.12,
          615.52,
          622.64,
          718.96,
          720.08,
          721.28,
          722.48,
          723.68,
          725.2,
          726.72,
          763.84,
          768.08,
          770.56,
          774.24,
          788.96,
          790.32,
          792.56,
          794.64,
          799.84,
          802.64,
          807.28,
          811.92,
          825.52,
          834.32,
          878.72,
          884.56,
          903.44,
          911.12,
          916.64,
          921.52,
          952.64,
          1000.88,
          1017.2,
          1044,
          1045.92,
          1047.2,
          1049.52,
          1065.2,
          1070.56,
          1096.48,
          1107.36,
          1110.08,
          1113.84,
          1117.84,
          1148.64,
          1163.52,
          1165.2,
          1166.88,
          1168.64,
          1172.64,
          1173.92,
          1178.08,
          1184.72,
          1186.4,
          1189.12,
          1194.56,
          1198.8,
          1206.08,
          1207.52,
          1209.28,
          1211.68,
          1214.72,
          1216.64,
          1217.68,
          1219.76,
          1230.4,
          1233.36,
          1235.12,
          1236.88,
          1237.92,
          1239.12,
          1244.72,
          1253.2,
          1255.12,
          1259.04,
          1284.64,
          1288.72,
          1290.4,
          1292.16,
          1294.08,
          1295.76,
          1306.56,
          1309.52,
          1312.4,
          1315.36,
          1324.8,
          1328.32,
          1331.28,
          1334,
          1338.48,
          1340.24,
          1347.68,
          1348.16,
          1348.64,
          1356.08,
          1357.84,
          1362.32,
          1364.24,
          1366.24,
          1368.08,
          1369.6,
          1380.96,
          1383.84,
          1386.72,
          1389.68,
          1400.48,
          1402.24,
          1404.24,
          1406.08,
          1437.52,
          1441.36,
          1444.32,
          1454,
          1462,
          1475.68,
          1476.64,
          1479.76,
          1481.52,
          1483.2,
          1487.04,
          1488.88,
          1490.24,
          1497.52,
          1568.16,
          1577.84,
          1581.92,
          1584.64,
          1586.64,
          1588.8,
          1612.72,
          1626.8,
          1633.28,
          1646.88,
          1668.88,
          1770,
          1775.52,
          1789.6,
          1802.16,
          1808,
          1852.4,
          1861.2,
          1874.8,
          1879.44,
          1884.08,
          1886.88,
          1892.08,
          1894.16,
          1896.4,
          1897.76,
          1912.48,
          1916.16,
          1918.64,
          1922.88,
          1960,
          1961.52,
          1963.04,
          1964.24,
          1965.44,
          1966.64,
          1967.76,
          2064.08,
          2071.2,
          2073.6,
          2075.28,
          2076.24,
          2077.84,
          2079.2,
          2082.08,
          2090.88,
          2095.2,
          2097.84,
          2103.52,
          2106.72,
          2110.48,
          2113.6,
          2116.24,
          2123.44,
          2127.12,
          2128.4,
          2131.2,
          2132.8,
          2136.08,
          2140.4,
          2153.28,
          2157.52,
          2158.16,
          2159.12,
          2160.08,
          2161.12,
          2162.08,
          2162.88,
          2163.92,
          2165.84,
          2179.28,
          2190.8,
          2192.96,
          2194,
          2195.2,
          2210.56,
          2211.12,
          2214.56,
          2215.28,
          2216.08,
          2216.8,
          2217.6,
          2218.48,
          2229.68,
          2230.64,
          2231.28,
          2232.8,
          2234.08,
          2235.36,
          2236.08,
          2236.72,
          2237.52,
          2238.56,
          2248.4,
          2253.28,
          2255.6,
          2257.04,
          2258.48,
          2259.68,
          2269.44,
          2272.64,
          2274.08,
          2275.76,
          2278.88,
          2304.64,
          2318.88,
          2320.24,
          2321.52,
          2327.76,
          2350,
          2409.04,
          2416.16,
          2461.12,
          2477.84,
          2481.84,
          2484,
          2488.16,
          2490.16,
          2501.76,
          2503.12,
          2508.16,
          2517.12,
          2518.8,
          2520.56,
          2522.32,
          2523.36,
          2524.4,
          2525.2,
          2526,
          2526.8,
          2530.96,
          2531.76,
          2532.56,
          2533.36,
          2534.16,
          2534.96,
          2546.96,
          2548.16,
          2548.96,
          2551.76,
          2562.8,
          2565.52,
          2577.04,
          2591.92,
          2627.92,
          2630.32,
          2632.64,
          2634.64,
          2636.48,
          2638.32,
          2640.08,
          2642.08,
          2642.56,
          2644.08,
          2646.16,
          2648.32,
          2650.56,
          2652.24,
          2654,
          2666.08,
          2667.68,
          2669.36,
          2671.04,
          2672.72,
          2681.44,
          2688
        ]
      },
      "geometry": {
        "type": "LineString",
        "coordinates": [
          [
            -74.002299,
            40.75524
          ],
          [
            -74.001829,
            40.755884
          ],
          [
            -74.001202,
            40.756743
          ],
          [
            -74.000731,
            40.757391
          ],
          [
            -73.999949,
            40.758463
          ],
          [
            -73.99975,
            40.758696
          ],
          [
            -73.999585,
            40.75885
          ],
          [
            -73.999354,
            40.759018
          ],
          [
            -73.999115,
            40.75915
          ],
          [
            -73.99887,
            40.759254
          ],
          [
            -73.998585,
            40.759342
          ],
          [
            -73.998343,
            40.759392
          ],
          [
            -73.998105,
            40.759422
          ],
          [
            -73.997857,
            40.759433
          ],
          [
            -73.997602,
            40.759424
          ],
          [
            -73.997336,
            40.759392
          ],
          [
            -73.997066,
            40.759334
          ],
          [
            -73.996812,
            40.759254
          ],
          [
            -73.996605,
            40.759175
          ],
          [
            -73.99178,
            40.757149
          ],
          [
            -73.991525,
            40.757049
          ],
          [
            -73.990618,
            40.756716
          ],
          [
            -73.990102,
            40.756507
          ],
          [
            -73.989049,
            40.756063
          ],
          [
            -73.988892,
            40.755987
          ],
          [
            -73.98846,
            40.755756
          ],
          [
            -73.988093,
            40.755591
          ],
          [
            -73.987055,
            40.75517
          ],
          [
            -73.986847,
            40.755092
          ],
          [
            -73.986704,
            40.755044
          ],
          [
            -73.98654,
            40.754998
          ],
          [
            -73.986372,
            40.754927
          ],
          [
            -73.986213,
            40.754861
          ],
          [
            -73.984668,
            40.754194
          ],
          [
            -73.984561,
            40.754154
          ],
          [
            -73.98445,
            40.754123
          ],
          [
            -73.984334,
            40.754101
          ],
          [
            -73.984216,
            40.754088
          ],
          [
            -73.984097,
            40.754084
          ],
          [
            -73.983978,
            40.75409
          ],
          [
            -73.983573,
            40.754128
          ],
          [
            -73.983455,
            40.754131
          ],
          [
            -73.983338,
            40.754125
          ],
          [
            -73.983096,
            40.754086
          ],
          [
            -73.982853,
            40.75403
          ],
          [
            -73.982615,
            40.753962
          ],
          [
            -73.982382,
            40.753886
          ],
          [
            -73.982162,
            40.753804
          ],
          [
            -73.981407,
            40.753493
          ],
          [
            -73.981216,
            40.753421
          ],
          [
            -73.981002,
            40.753354
          ],
          [
            -73.980753,
            40.753278
          ],
          [
            -73.980617,
            40.75323
          ],
          [
            -73.97758,
            40.751974
          ],
          [
            -73.977424,
            40.751915
          ],
          [
            -73.976731,
            40.751682
          ],
          [
            -73.97645,
            40.751571
          ],
          [
            -73.975219,
            40.751052
          ],
          [
            -73.968071,
            40.748055
          ],
          [
            -73.959462,
            40.744403,
            4.25
          ],
          [
            -73.957041,
            40.743377,
            4.25
          ],
          [
            -73.956786,
            40.743281,
            4.25
          ],
          [
            -73.956572,
            40.743215,
            4.25
          ],
          [
            -73.956367,
            40.743168,
            4.25
          ],
          [
            -73.954342,
            40.742762,
            4.25
          ],
          [
            -73.952426,
            40.7424,
            4.25
          ],
          [
            -73.950625,
            40.742062,
            4.25
          ],
          [
            -73.950157,
            40.742015,
            4.25
          ],
          [
            -73.949688,
            40.742045,
            4.25
          ],
          [
            -73.949222,
            40.742131,
            4.25
          ],
          [
            -73.947883,
            40.742447,
            4.25
          ],
          [
            -73.947843,
            40.742456,
            4.25
          ],
          [
            -73.94768,
            40.742504,
            3.75
          ],
          [
            -73.947576,
            40.742539,
            3.75
          ],
          [
            -73.947483,
            40.742582,
            3.75
          ],
          [
            -73.947386,
            40.742599,
            3.5
          ],
          [
            -73.947282,
            40.742625,
            3.25
          ],
          [
            -73.946959,
            40.74273,
            2.75
          ],
          [
            -73.946313,
            40.742982,
            2.75
          ],
          [
            -73.945028,
            40.743517
          ],
          [
            -73.94489,
            40.743598
          ],
          [
            -73.944811,
            40.743669
          ],
          [
            -73.94475,
            40.743741
          ],
          [
            -73.944703,
            40.74382
          ],
          [
            -73.944638,
            40.743961
          ],
          [
            -73.944626,
            40.744027
          ],
          [
            -73.944623,
            40.744098
          ],
          [
            -73.944631,
            40.744185
          ],
          [
            -73.944654,
            40.744274
          ],
          [
            -73.944688,
            40.744349
          ],
          [
            -73.945523,
            40.745573
          ],
          [
            -73.945567,
            40.745663
          ],
          [
            -73.945592,
            40.745738
          ],
          [
            -73.945603,
            40.74583
          ],
          [
            -73.945589,
            40.745976
          ],
          [
            -73.945561,
            40.746067
          ],
          [
            -73.944996,
            40.747743
          ],
          [
            -73.944981,
            40.747788
          ],
          [
            -73.944829,
            40.748217
          ],
          [
            -73.944721,
            40.748435
          ],
          [
            -73.944658,
            40.748532
          ],
          [
            -73.944484,
            40.748754
          ],
          [
            -73.944281,
            40.74899
          ],
          [
            -73.942884,
            40.750609
          ],
          [
            -73.94252,
            40.751021
          ],
          [
            -73.942406,
            40.751104
          ],
          [
            -73.942346,
            40.751137
          ],
          [
            -73.94224,
            40.751177
          ],
          [
            -73.942106,
            40.751209
          ],
          [
            -73.941958,
            40.751218
          ],
          [
            -73.941817,
            40.751205
          ],
          [
            -73.941689,
            40.751177
          ],
          [
            -73.941592,
            40.751146
          ],
          [
            -73.939499,
            40.750235
          ],
          [
            -73.939439,
            40.750209
          ],
          [
            -73.93928,
            40.750143
          ],
          [
            -73.939032,
            40.750055
          ],
          [
            -73.938765,
            40.749858
          ],
          [
            -73.938475,
            40.749705
          ],
          [
            -73.938226,
            40.749559
          ],
          [
            -73.937975,
            40.749387
          ],
          [
            -73.937762,
            40.74921
          ],
          [
            -73.937377,
            40.748837
          ],
          [
            -73.936879,
            40.748355
          ],
          [
            -73.93662,
            40.748095
          ],
          [
            -73.936309,
            40.747794
          ],
          [
            -73.935985,
            40.747482
          ],
          [
            -73.935263,
            40.74678
          ],
          [
            -73.935169,
            40.746688
          ],
          [
            -73.934932,
            40.746485
          ],
          [
            -73.934791,
            40.746379
          ],
          [
            -73.934479,
            40.746114
          ],
          [
            -73.933675,
            40.745331
          ],
          [
            -73.933382,
            40.745093
          ],
          [
            -73.93322,
            40.744998
          ],
          [
            -73.933019,
            40.744902
          ],
          [
            -73.93289,
            40.744859
          ],
          [
            -73.932652,
            40.744792
          ],
          [
            -73.932298,
            40.744743
          ],
          [
            -73.931261,
            40.744621
          ],
          [
            -73.917168,
            40.742992
          ],
          [
            -73.916999,
            40.742979
          ],
          [
            -73.916823,
            40.742973
          ],
          [
            -73.916648,
            40.742978
          ],
          [
            -73.916473,
            40.742995
          ],
          [
            -73.916254,
            40.743036
          ],
          [
            -73.916041,
            40.743091
          ],
          [
            -73.910941,
            40.744647
          ],
          [
            -73.910351,
            40.744801
          ],
          [
            -73.909997,
            40.744873
          ],
          [
            -73.909465,
            40.744969
          ],
          [
            -73.90734,
            40.745328
          ],
          [
            -73.907145,
            40.745353
          ],
          [
            -73.906816,
            40.745378
          ],
          [
            -73.906511,
            40.745388
          ],
          [
            -73.905745,
            40.745393
          ],
          [
            -73.905331,
            40.745404
          ],
          [
            -73.90465,
            40.745457
          ],
          [
            -73.903973,
            40.745532
          ],
          [
            -73.901977,
            40.745741
          ],
          [
            -73.900687,
            40.74588
          ],
          [
            -73.894179,
            40.746563
          ],
          [
            -73.89332,
            40.746653
          ],
          [
            -73.890549,
            40.746945
          ],
          [
            -73.889419,
            40.747064
          ],
          [
            -73.888613,
            40.747148
          ],
          [
            -73.889331,
            40.747108
          ],
          [
            -73.884764,
            40.74759
          ],
          [
            -73.877696,
            40.748331
          ],
          [
            -73.875305,
            40.748583
          ],
          [
            -73.871379,
            40.748997
          ],
          [
            -73.871103,
            40.749033
          ],
          [
            -73.870914,
            40.749066
          ],
          [
            -73.870578,
            40.749109
          ],
          [
            -73.868283,
            40.749352
          ],
          [
            -73.867493,
            40.749405
          ],
          [
            -73.86369,
            40.749803
          ],
          [
            -73.862089,
            40.74997
          ],
          [
            -73.861685,
            40.750015
          ],
          [
            -73.861137,
            40.750105
          ],
          [
            -73.860574,
            40.750239
          ],
          [
            -73.856325,
            40.7515
          ],
          [
            -73.854276,
            40.752112
          ],
          [
            -73.854032,
            40.752164
          ],
          [
            -73.853791,
            40.752215
          ],
          [
            -73.853554,
            40.75229
          ],
          [
            -73.852998,
            40.752455
          ],
          [
            -73.85282,
            40.752509
          ],
          [
            -73.85225,
            40.752679
          ],
          [
            -73.851337,
            40.752948
          ],
          [
            -73.851106,
            40.753011
          ],
          [
            -73.850723,
            40.753093
          ],
          [
            -73.849976,
            40.753316
          ],
          [
            -73.849389,
            40.753493
          ],
          [
            -73.848379,
            40.753786
          ],
          [
            -73.848184,
            40.753843
          ],
          [
            -73.847938,
            40.753915
          ],
          [
            -73.847598,
            40.753978
          ],
          [
            -73.847183,
            40.754109
          ],
          [
            -73.846905,
            40.75416
          ],
          [
            -73.846758,
            40.754195
          ],
          [
            -73.846471,
            40.754276
          ],
          [
            -73.845006,
            40.754713,
            4.25
          ],
          [
            -73.844596,
            40.754836,
            4.25
          ],
          [
            -73.84436,
            40.754914,
            4.25
          ],
          [
            -73.844126,
            40.755008,
            4.25
          ],
          [
            -73.843994,
            40.755069,
            4.25
          ],
          [
            -73.843831,
            40.755123,
            4.25
          ],
          [
            -73.843064,
            40.755353,
            4.25
          ],
          [
            -73.841895,
            40.755702,
            4.25
          ],
          [
            -73.841635,
            40.755787,
            4.25
          ],
          [
            -73.841119,
            40.755985,
            4.25
          ],
          [
            -73.837774,
            40.757338,
            4.25
          ],
          [
            -73.837243,
            40.757548,
            4.25
          ],
          [
            -73.837014,
            40.75763,
            4.25
          ],
          [
            -73.836767,
            40.757705,
            4.25
          ],
          [
            -73.836502,
            40.757775,
            4.25
          ],
          [
            -73.836256,
            40.757822,
            4.25
          ],
          [
            -73.834699,
            40.758087,
            9.25
          ],
          [
            -73.834275,
            40.758165
          ],
          [
            -73.833868,
            40.758263
          ],
          [
            -73.833461,
            40.758378
          ],
          [
            -73.832191,
            40.758816
          ],
          [
            -73.831722,
            40.758992
          ],
          [
            -73.831319,
            40.759128
          ],
          [
            -73.830956,
            40.75925
          ],
          [
            -73.830345,
            40.759448
          ],
          [
            -73.830104,
            40.75952
          ],
          [
            -73.829063,
            40.759782
          ],
          [
            -73.828996,
            40.759797,
            9.25
          ],
          [
            -73.829063,
            40.759782,
            9.25
          ],
          [
            -73.830104,
            40.75952,
            9.25
          ],
          [
            -73.830345,
            40.759448,
            9.25
          ],
          [
            -73.830956,
            40.75925,
            9.25
          ],
          [
            -73.831231,
            40.759195,
            9.25
          ],
          [
            -73.831505,
            40.759101,
            9.25
          ],
          [
            -73.831753,
            40.759015,
            9.25
          ],
          [
            -73.83197,
            40.758969,
            9.25
          ],
          [
            -73.83349,
            40.758432,
            9.25
          ],
          [
            -73.833893,
            40.758318,
            9.25
          ],
          [
            -73.834298,
            40.758227,
            9.25
          ],
          [
            -73.83472,
            40.758156,
            9.25
          ],
          [
            -73.836278,
            40.757892,
            4
          ],
          [
            -73.836529,
            40.757849
          ],
          [
            -73.836808,
            40.757783
          ],
          [
            -73.837056,
            40.757703
          ],
          [
            -73.841164,
            40.756047
          ],
          [
            -73.841672,
            40.755852
          ],
          [
            -73.842076,
            40.755724
          ],
          [
            -73.843413,
            40.755326
          ],
          [
            -73.844513,
            40.754998
          ],
          [
            -73.846401,
            40.754434
          ],
          [
            -73.846534,
            40.754394
          ],
          [
            -73.846963,
            40.754269
          ],
          [
            -73.847195,
            40.754182
          ],
          [
            -73.847417,
            40.754091
          ],
          [
            -73.84796,
            40.753954
          ],
          [
            -73.848213,
            40.753878
          ],
          [
            -73.848401,
            40.753822
          ],
          [
            -73.849405,
            40.753527
          ],
          [
            -73.859144,
            40.750623
          ],
          [
            -73.860477,
            40.750225
          ],
          [
            -73.861056,
            40.750086
          ],
          [
            -73.861449,
            40.750012
          ],
          [
            -73.861739,
            40.749972
          ],
          [
            -73.86206,
            40.749936
          ],
          [
            -73.865567,
            40.749572
          ],
          [
            -73.867629,
            40.74935
          ],
          [
            -73.868577,
            40.749255
          ],
          [
            -73.870568,
            40.749045
          ],
          [
            -73.873792,
            40.748707
          ],
          [
            -73.888613,
            40.747148
          ],
          [
            -73.889419,
            40.747064
          ],
          [
            -73.891482,
            40.746846
          ],
          [
            -73.89332,
            40.746653
          ],
          [
            -73.894179,
            40.746563
          ],
          [
            -73.900687,
            40.74588
          ],
          [
            -73.901977,
            40.745741
          ],
          [
            -73.903973,
            40.745532
          ],
          [
            -73.90465,
            40.745457
          ],
          [
            -73.905331,
            40.745404
          ],
          [
            -73.905745,
            40.745393
          ],
          [
            -73.906511,
            40.745388
          ],
          [
            -73.906816,
            40.745378
          ],
          [
            -73.907145,
            40.745353
          ],
          [
            -73.90734,
            40.745328
          ],
          [
            -73.909465,
            40.744969
          ],
          [
            -73.909997,
            40.744873
          ],
          [
            -73.910351,
            40.744801
          ],
          [
            -73.910941,
            40.744647
          ],
          [
            -73.916041,
            40.743091
          ],
          [
            -73.916254,
            40.743036
          ],
          [
            -73.916473,
            40.742995
          ],
          [
            -73.916648,
            40.742978
          ],
          [
            -73.916823,
            40.742973
          ],
          [
            -73.916999,
            40.742979
          ],
          [
            -73.917168,
            40.742992
          ],
          [
            -73.931261,
            40.744621
          ],
          [
            -73.932298,
            40.744743
          ],
          [
            -73.932652,
            40.744792
          ],
          [
            -73.93289,
            40.744859
          ],
          [
            -73.933019,
            40.744902
          ],
          [
            -73.93322,
            40.744998
          ],
          [
            -73.933382,
            40.745093
          ],
          [
            -73.933675,
            40.745331
          ],
          [
            -73.934479,
            40.746114
          ],
          [
            -73.934871,
            40.746494
          ],
          [
            -73.935098,
            40.746735
          ],
          [
            -73.935614,
            40.747243
          ],
          [
            -73.935906,
            40.74753
          ],
          [
            -73.936251,
            40.747863
          ],
          [
            -73.93654,
            40.748142
          ],
          [
            -73.936776,
            40.74838
          ],
          [
            -73.937431,
            40.749014
          ],
          [
            -73.937799,
            40.749321
          ],
          [
            -73.937932,
            40.749423
          ],
          [
            -73.938248,
            40.749633
          ],
          [
            -73.938438,
            40.749747
          ],
          [
            -73.938844,
            40.749947
          ],
          [
            -73.939402,
            40.75018
          ],
          [
            -73.94105,
            40.750914
          ],
          [
            -73.941593,
            40.75115
          ],
          [
            -73.941682,
            40.751182
          ],
          [
            -73.941819,
            40.75121
          ],
          [
            -73.941958,
            40.751221
          ],
          [
            -73.942106,
            40.751212
          ],
          [
            -73.942241,
            40.75118
          ],
          [
            -73.942348,
            40.75114
          ],
          [
            -73.942469,
            40.751071
          ],
          [
            -73.942665,
            40.750911
          ],
          [
            -73.943765,
            40.749653
          ],
          [
            -73.944695,
            40.748565
          ],
          [
            -73.944827,
            40.748346
          ],
          [
            -73.944877,
            40.748238
          ],
          [
            -73.944925,
            40.748105
          ],
          [
            -73.945484,
            40.746428,
            2.75
          ],
          [
            -73.945505,
            40.746366,
            2.75
          ],
          [
            -73.945632,
            40.745987,
            2.75
          ],
          [
            -73.945651,
            40.745906,
            2.75
          ],
          [
            -73.945659,
            40.74582,
            2.75
          ],
          [
            -73.945648,
            40.745738,
            2.75
          ],
          [
            -73.945614,
            40.745649,
            2.75
          ],
          [
            -73.945565,
            40.745554,
            2.75
          ],
          [
            -73.944789,
            40.744438,
            2.75
          ],
          [
            -73.94473,
            40.744336,
            2.75
          ],
          [
            -73.944701,
            40.744265,
            2.75
          ],
          [
            -73.94467,
            40.7441,
            2.75
          ],
          [
            -73.94469,
            40.743958,
            2.75
          ],
          [
            -73.94475,
            40.743825,
            2.75
          ],
          [
            -73.944797,
            40.743755,
            2.75
          ],
          [
            -73.944852,
            40.743693,
            2.75
          ],
          [
            -73.944932,
            40.743622,
            2.75
          ],
          [
            -73.945054,
            40.743546,
            2.75
          ],
          [
            -73.946338,
            40.743015,
            2.75
          ],
          [
            -73.946978,
            40.742761,
            2.75
          ],
          [
            -73.947298,
            40.742656,
            3.25
          ],
          [
            -73.947483,
            40.742582,
            3.75
          ],
          [
            -73.94769,
            40.742539,
            3.75
          ],
          [
            -73.947859,
            40.742493,
            4
          ],
          [
            -73.949243,
            40.742169
          ],
          [
            -73.949705,
            40.742084
          ],
          [
            -73.949919,
            40.742071
          ],
          [
            -73.950163,
            40.742056
          ],
          [
            -73.950617,
            40.742103
          ],
          [
            -73.954318,
            40.742797
          ],
          [
            -73.95635,
            40.743207
          ],
          [
            -73.956537,
            40.743256
          ],
          [
            -73.956715,
            40.743315
          ],
          [
            -73.957514,
            40.743659
          ],
          [
            -73.960392,
            40.744878
          ],
          [
            -73.968029,
            40.748117
          ],
          [
            -73.968955,
            40.748507
          ],
          [
            -73.974779,
            40.750959
          ],
          [
            -73.976943,
            40.751873
          ],
          [
            -73.977459,
            40.752091
          ],
          [
            -73.977751,
            40.752196
          ],
          [
            -73.978319,
            40.752381
          ],
          [
            -73.978582,
            40.752476
          ],
          [
            -73.980088,
            40.753099
          ],
          [
            -73.980268,
            40.753167
          ],
          [
            -73.980951,
            40.753392
          ],
          [
            -73.982119,
            40.753878
          ],
          [
            -73.982337,
            40.753963
          ],
          [
            -73.982577,
            40.75404
          ],
          [
            -73.982819,
            40.754105
          ],
          [
            -73.982966,
            40.754139
          ],
          [
            -73.983112,
            40.754165
          ],
          [
            -73.983228,
            40.75418
          ],
          [
            -73.983345,
            40.754185
          ],
          [
            -73.983462,
            40.754182
          ],
          [
            -73.984078,
            40.754126
          ],
          [
            -73.984196,
            40.754128
          ],
          [
            -73.984312,
            40.75414
          ],
          [
            -73.984426,
            40.75416
          ],
          [
            -73.984537,
            40.754191
          ],
          [
            -73.984642,
            40.754229
          ],
          [
            -73.986186,
            40.754897
          ],
          [
            -73.98634,
            40.754963
          ],
          [
            -73.98644,
            40.755007
          ],
          [
            -73.986797,
            40.755164
          ],
          [
            -73.988226,
            40.755771
          ],
          [
            -73.988583,
            40.755911
          ],
          [
            -73.990078,
            40.75654
          ],
          [
            -73.992004,
            40.757357
          ],
          [
            -73.996662,
            40.759317
          ],
          [
            -73.996977,
            40.759436
          ],
          [
            -73.997302,
            40.759521
          ],
          [
            -73.997594,
            40.759565
          ],
          [
            -73.997868,
            40.759582
          ],
          [
            -73.998141,
            40.759574
          ],
          [
            -73.998402,
            40.759544
          ],
          [
            -73.998684,
            40.759485
          ],
          [
            -73.998754,
            40.759462
          ],
          [
            -73.998963,
            40.759397
          ],
          [
            -73.999227,
            40.759283
          ],
          [
            -73.999478,
            40.759138
          ],
          [
            -73.999715,
            40.758957
          ],
          [
            -73.999871,
            40.758805
          ],
          [
            -74.000006,
            40.758638
          ],
          [
            -74.000873,
            40.757448
          ],
          [
            -74.000964,
            40.757277
          ],
          [
            -74.001038,
            40.757096
          ],
          [
            -74.001111,
            40.756916
          ],
          [
            -74.001202,
            40.756743
          ],
          [
            -74.001829,
            40.755884
          ],
          [
            -74.002299,
            40.75524
          ]
        ]
      }
    }
  ]
}