{
  "type": "FeatureCollection",
  "features": [
    {
      "type": "Feature",
      "properties": {
        "creator": "BRouter-1.7.9",
        "name": "[MTA] E Train",
        "track-length": "50208",
        "filtered ascend": "0",
        "plain-ascend": "0",
        "total-time": "4017",
        "total-energy": "2208405",
        "cost": "100416",
        "messages": [
          [
            "Longitude",
            "Latitude",
            "Elevation",
            "Distance",
            "CostPerKm",
            "ElevCost",
            "TurnCost",
            "NodeCost",
            "InitialCost",
            "WayTags",
            "NodeTags",
            "Time",
            "Energy"
          ],
          [
            "-74007969",
            "40714941",
            "-8192",
            "358",
            "2000",
            "0",
            "0",
            "0",
            "0",
            "railway=subway",
            "wheelchair=no railway=halt",
            "28",
            "15746"
          ],
          [
            "-74007768",
            "40715198",
            "-8192",
            "33",
            "2000",
            "0",
            "0",
            "0",
            "0",
            "railway=subway",
            "railway=switch",
            "31",
            "17198"
          ],
          [
            "-74007669",
            "40715395",
            "-8192",
            "23",
            "2000",
            "0",
            "0",
            "0",
            "0",
            "railway=subway",
            "railway=switch",
            "33",
            "18209"
          ],
          [
            "-74006213",
            "40717235",
            "-8192",
            "238",
            "2000",
            "0",
            "0",
            "0",
            "0",
            "railway=subway",
            "railway=switch",
            "52",
            "28678"
          ],
          [
            "-74005998",
            "40717438",
            "-8192",
            "29",
            "2000",
            "0",
            "0",
            "0",
            "0",
            "railway=subway",
            "railway=switch",
            "54",
            "29953"
          ],
          [
            "-74005254",
            "40721447",
            "-8192",
            "462",
            "2000",
            "0",
            "0",
            "0",
            "0",
            "railway=subway",
            "wheelchair=no railway=halt",
            "91",
            "50275"
          ],
          [
            "-74005262",
            "40721587",
            "-8192",
            "16",
            "2000",
            "0",
            "0",
            "0",
            "0",
            "railway=subway",
            "railway=switch",
            "92",
            "50978"
          ],
          [
            "-74005274",
            "40721810",
            "-8192",
            "25",
            "2000",
            "0",
            "0",
            "0",
            "0",
            "railway=subway",
            "railway=switch",
            "94",
            "52078"
          ],
          [
            "-74003974",
            "40725576",
            "-8192",
            "435",
            "2000",
            "0",
            "0",
            "0",
            "0",
            "railway=subway",
            "",
            "129",
            "71212"
          ],
          [
            "-73999965",
            "40732973",
            "-8192",
            "892",
            "2000",
            "0",
            "0",
            "0",
            "0",
            "railway=subway",
            "wheelchair=yes railway=halt",
            "71",
            "39234"
          ],
          [
            "-74001275",
            "40741419",
            "-8192",
            "1025",
            "2000",
            "0",
            "0",
            "0",
            "0",
            "railway=subway",
            "wheelchair=yes railway=halt",
            "153",
            "84319"
          ],
          [
            "-73997437",
            "40746693",
            "-8192",
            "670",
            "2000",
            "0",
            "0",
            "0",
            "0",
            "railway=subway",
            "railway=switch",
            "206",
            "113789"
          ],
          [
            "-73992798",
            "40752999",
            "-8192",
            "803",
            "2000",
            "0",
            "0",
            "0",
            "0",
            "railway=subway",
            "wheelchair=yes railway=halt",
            "271",
            "149110"
          ],
          [
            "-73988679",
            "40758705",
            "-8192",
            "724",
            "2000",
            "0",
            "0",
            "0",
            "0",
            "railway=subway",
            "wheelchair=yes railway=halt",
            "329",
            "180955"
          ],
          [
            "-73987822",
            "40759902",
            "-8192",
            "151",
            "2000",
            "0",
            "0",
            "0",
            "0",
            "railway=subway",
            "railway=switch",
            "341",
            "187597"
          ],
          [
            "-73987468",
            "40760312",
            "-8192",
            "55",
            "2000",
            "0",
            "0",
            "0",
            "0",
            "railway=subway",
            "railway=switch",
            "345",
            "190016"
          ],
          [
            "-73985841",
            "40762684",
            "-8192",
            "297",
            "2000",
            "0",
            "0",
            "0",
            "0",
            "railway=subway",
            "wheelchair=no railway=halt",
            "369",
            "203079"
          ],
          [
            "-73984390",
            "40763785",
            "-8192",
            "182",
            "2000",
            "0",
            "0",
            "0",
            "0",
            "railway=subway",
            "",
            "383",
            "211085"
          ],
          [
            "-73980699",
            "40762512",
            "-8192",
            "347",
            "2000",
            "0",
            "0",
            "0",
            "0",
            "railway=subway",
            "wheelchair=limited railway=halt",
            "27",
            "15262"
          ],
          [
            "-73976614",
            "40760789",
            "-8192",
            "395",
            "2000",
            "0",
            "0",
            "0",
            "0",
            "railway=subway",
            "railway=switch",
            "59",
            "32637"
          ],
          [
            "-73974051",
            "40759709",
            "-8192",
            "247",
            "2000",
            "0",
            "0",
            "0",
            "0",
            "railway=subway",
            "wheelchair=no railway=halt",
            "79",
            "43501"
          ],
          [
            "-73968530",
            "40757296",
            "-8192",
            "537",
            "2000",
            "0",
            "0",
            "0",
            "0",
            "railway=subway",
            "wheelchair=yes railway=halt",
            "122",
            "67121"
          ],
          [
            "-73957709",
            "40751411",
            "-8192",
            "1132",
            "2000",
            "0",
            "0",
            "0",
            "0",
            "railway=subway",
            "",
            "212",
            "116912"
          ],
          [
            "-73944637",
            "40747566",
            "-8192",
            "1208",
            "2000",
            "0",
            "0",
            "0",
            "0",
            "railway=subway",
            "wheelchair=no railway=halt",
            "96",
            "53134"
          ],
          [
            "-73936114",
            "40749719",
            "-8192",
            "800",
            "2000",
            "0",
            "0",
            "0",
            "0",
            "railway=subway",
            "wheelchair=yes railway=halt",
            "160",
            "88322"
          ],
          [
            "-73936072",
            "40749754",
            "-8192",
            "5",
            "2000",
            "0",
            "0",
            "0",
            "0",
            "railway=subway",
            "railway=switch",
            "161",
            "88542"
          ],
          [
            "-73935442",
            "40750342",
            "-8192",
            "84",
            "2000",
            "0",
            "0",
            "0",
            "0",
            "railway=subway",
            "railway=switch",
            "167",
            "92237"
          ],
          [
            "-73935233",
            "40750533",
            "-8192",
            "28",
            "2000",
            "0",
            "0",
            "0",
            "0",
            "railway=subway",
            "railway=switch",
            "169",
            "93468"
          ],
          [
            "-73934929",
            "40750813",
            "-8192",
            "40",
            "2000",
            "0",
            "0",
            "0",
            "0",
            "railway=subway",
            "railway=switch",
            "173",
            "95228"
          ],
          [
            "-73931641",
            "40751978",
            "-8192",
            "313",
            "2000",
            "0",
            "0",
            "0",
            "0",
            "railway=subway",
            "railway=switch",
            "198",
            "108995"
          ],
          [
            "-73931452",
            "40751981",
            "-8192",
            "16",
            "2000",
            "0",
            "0",
            "0",
            "0",
            "railway=subway",
            "railway=switch",
            "199",
            "109699"
          ],
          [
            "-73930693",
            "40751994",
            "-8192",
            "64",
            "2000",
            "0",
            "0",
            "0",
            "0",
            "railway=subway",
            "railway=switch",
            "204",
            "112514"
          ],
          [
            "-73890364",
            "40746218",
            "-8192",
            "3651",
            "2000",
            "0",
            "0",
            "0",
            "0",
            "railway=subway",
            "wheelchair=yes railway=halt",
            "496",
            "273104"
          ],
          [
            "-73889800",
            "40745978",
            "-8192",
            "55",
            "2000",
            "0",
            "0",
            "0",
            "0",
            "railway=subway",
            "railway=switch",
            "501",
            "275523"
          ],
          [
            "-73889572",
            "40745861",
            "-8192",
            "23",
            "2000",
            "0",
            "0",
            "0",
            "0",
            "railway=subway",
            "railway=unknown",
            "502",
            "276535"
          ],
          [
            "-73889345",
            "40745745",
            "-8192",
            "23",
            "2000",
            "0",
            "0",
            "0",
            "0",
            "railway=subway",
            "railway=switch",
            "504",
            "277546"
          ],
          [
            "-73881201",
            "40741927",
            "-8192",
            "810",
            "2000",
            "0",
            "0",
            "0",
            "0",
            "railway=subway",
            "wheelchair=no railway=halt",
            "569",
            "313174"
          ],
          [
            "-73876954",
            "40736535",
            "-8192",
            "708",
            "2000",
            "0",
            "0",
            "0",
            "0",
            "railway=subway",
            "wheelchair=no railway=halt",
            "626",
            "344316"
          ],
          [
            "-73868850",
            "40732903",
            "-8192",
            "813",
            "2000",
            "0",
            "0",
            "0",
            "0",
            "railway=subway",
            "wheelchair=no railway=halt",
            "691",
            "380076"
          ],
          [
            "-73864504",
            "40730837",
            "11",
            "434",
            "2000",
            "0",
            "0",
            "0",
            "0",
            "railway=subway",
            "highway=crossing estimated_crossing_class=0 crossing=traffic_signals",
            "726",
            "399166"
          ],
          [
            "-73860591",
            "40729426",
            "-8192",
            "366",
            "2000",
            "0",
            "0",
            "0",
            "0",
            "railway=subway",
            "wheelchair=no railway=halt",
            "755",
            "415264"
          ],
          [
            "-73857973",
            "40728469",
            "-8192",
            "245",
            "2000",
            "0",
            "0",
            "0",
            "0",
            "railway=subway",
            "",
            "774",
            "426041"
          ],
          [
            "-73851782",
            "40726080",
            "-8192",
            "587",
            "2000",
            "0",
            "0",
            "0",
            "0",
            "railway=subway",
            "wheelchair=no railway=halt",
            "46",
            "25819"
          ],
          [
            "-73845723",
            "40722129",
            "-8192",
            "684",
            "2000",
            "0",
            "0",
            "0",
            "0",
            "railway=subway",
            "railway=switch",
            "101",
            "55905"
          ],
          [
            "-73845578",
            "40722065",
            "-8192",
            "14",
            "2000",
            "0",
            "0",
            "0",
            "0",
            "railway=subway",
            "railway=switch",
            "102",
            "56521"
          ],
          [
            "-73843528",
            "40721153",
            "-8192",
            "201",
            "2000",
            "0",
            "0",
            "0",
            "0",
            "railway=subway",
            "wheelchair=yes railway=halt",
            "118",
            "65362"
          ],
          [
            "-73841974",
            "40720463",
            "-8192",
            "152",
            "2000",
            "0",
            "0",
            "0",
            "0",
            "railway=subway",
            "railway=switch",
            "131",
            "72047"
          ],
          [
            "-73839129",
            "40719240",
            "-8192",
            "276",
            "2000",
            "0",
            "0",
            "0",
            "0",
            "railway=subway",
            "railway=switch",
            "153",
            "84187"
          ],
          [
            "-73838874",
            "40719146",
            "-8192",
            "24",
            "2000",
            "0",
            "0",
            "0",
            "0",
            "railway=subway",
            "railway=unknown",
            "155",
            "85243"
          ],
          [
            "-73838619",
            "40719053",
            "-8192",
            "24",
            "2000",
            "0",
            "0",
            "0",
            "0",
            "railway=subway",
            "railway=switch",
            "156",
            "86299"
          ],
          [
            "-73829910",
            "40713832",
            "-8192",
            "940",
            "2000",
            "0",
            "0",
            "0",
            "0",
            "railway=subway",
            "wheelchair=yes railway=halt",
            "232",
            "127645"
          ],
          [
            "-73827231",
            "40712721",
            "-8192",
            "258",
            "2000",
            "0",
            "0",
            "0",
            "0",
            "railway=subway",
            "railway=switch",
            "252",
            "138993"
          ],
          [
            "-73819127",
            "40706691",
            "-8192",
            "1004",
            "2000",
            "0",
            "0",
            "0",
            "0",
            "railway=subway",
            "railway=switch",
            "333",
            "183154"
          ],
          [
            "-73818769",
            "40706077",
            "-8192",
            "75",
            "2000",
            "0",
            "0",
            "0",
            "0",
            "railway=subway",
            "railway=switch",
            "339",
            "186453"
          ],
          [
            "-73816668",
            "40701938",
            "-8192",
            "493",
            "2000",
            "0",
            "0",
            "0",
            "0",
            "railway=subway",
            "wheelchair=yes railway=halt",
            "378",
            "208138"
          ],
          [
            "-73814320",
            "40699977",
            "-8192",
            "305",
            "2000",
            "0",
            "0",
            "0",
            "0",
            "railway=subway",
            "",
            "402",
            "221553"
          ],
          [
            "-73806799",
            "40700759",
            "-8192",
            "681",
            "2000",
            "0",
            "0",
            "0",
            "0",
            "railway=subway",
            "wheelchair=yes railway=halt",
            "54",
            "29953"
          ],
          [
            "-73805297",
            "40701134",
            "-8192",
            "134",
            "2000",
            "0",
            "0",
            "0",
            "0",
            "railway=subway",
            "railway=switch",
            "65",
            "35847"
          ],
          [
            "-73805150",
            "40701176",
            "-8192",
            "13",
            "2000",
            "0",
            "0",
            "0",
            "0",
            "railway=subway",
            "railway=switch",
            "66",
            "36419"
          ],
          [
            "-73800247",
            "40702336",
            "-8192",
            "434",
            "2000",
            "0",
            "0",
            "0",
            "0",
            "railway=subway",
            "wheelchair=yes railway=halt",
            "100",
            "55509"
          ],
          [
            "-73800054",
            "40702380",
            "-8192",
            "17",
            "2000",
            "0",
            "0",
            "0",
            "0",
            "railway=subway",
            "",
            "102",
            "56257"
          ],
          [
            "-73800247",
            "40702336",
            "-8192",
            "17",
            "2000",
            "0",
            "0",
            "0",
            "0",
            "reversedirection=yes railway=subway",
            "wheelchair=yes railway=halt",
            "1",
            "747"
          ],
          [
            "-73805150",
            "40701176",
            "-8192",
            "434",
            "2000",
            "0",
            "0",
            "0",
            "0",
            "reversedirection=yes railway=subway",
            "railway=switch",
            "36",
            "19837"
          ],
          [
            "-73805228",
            "40701172",
            "-8192",
            "7",
            "2000",
            "0",
            "0",
            "0",
            "0",
            "railway=subway",
            "railway=unknown",
            "36",
            "20145"
          ],
          [
            "-73805312",
            "40701171",
            "-8192",
            "7",
            "2000",
            "0",
            "0",
            "0",
            "0",
            "railway=subway",
            "railway=switch",
            "37",
            "20453"
          ],
          [
            "-73808860",
            "40700199",
            "-8192",
            "320",
            "2000",
            "0",
            "0",
            "0",
            "0",
            "railway=subway",
            "wheelchair=yes railway=halt",
            "62",
            "34528"
          ],
          [
            "-73814788",
            "40700262",
            "-8192",
            "541",
            "2000",
            "0",
            "0",
            "0",
            "0",
            "railway=subway",
            "",
            "106",
            "58324"
          ],
          [
            "-73817283",
            "40703543",
            "-8192",
            "432",
            "2000",
            "0",
            "0",
            "0",
            "0",
            "railway=subway",
            "wheelchair=yes railway=halt",
            "34",
            "19001"
          ],
          [
            "-73818647",
            "40706122",
            "-8192",
            "308",
            "2000",
            "0",
            "0",
            "0",
            "0",
            "railway=subway",
            "railway=switch",
            "59",
            "32549"
          ],
          [
            "-73819081",
            "40706709",
            "-8192",
            "75",
            "2000",
            "0",
            "0",
            "0",
            "0",
            "railway=subway",
            "railway=switch",
            "65",
            "35847"
          ],
          [
            "-73827210",
            "40712752",
            "-8192",
            "1007",
            "2000",
            "0",
            "0",
            "0",
            "0",
            "railway=subway",
            "railway=switch",
            "145",
            "80141"
          ],
          [
            "-73831736",
            "40714778",
            "-8192",
            "445",
            "2000",
            "0",
            "0",
            "0",
            "0",
            "railway=subway",
            "wheelchair=yes railway=halt",
            "181",
            "99714"
          ],
          [
            "-73838596",
            "40719083",
            "-8192",
            "756",
            "2000",
            "0",
            "0",
            "0",
            "0",
            "railway=subway",
            "railway=switch",
            "241",
            "132967"
          ],
          [
            "-73838828",
            "40719205",
            "-8192",
            "24",
            "2000",
            "0",
            "0",
            "0",
            "0",
            "railway=subway",
            "railway=unknown",
            "243",
            "134023"
          ],
          [
            "-73839060",
            "40719328",
            "-8192",
            "24",
            "2000",
            "0",
            "0",
            "0",
            "0",
            "railway=subway",
            "railway=switch",
            "245",
            "135078"
          ],
          [
            "-73841864",
            "40720612",
            "-8192",
            "276",
            "2000",
            "0",
            "0",
            "0",
            "0",
            "railway=subway",
            "railway=switch",
            "267",
            "147218"
          ],
          [
            "-73845325",
            "40722151",
            "-8192",
            "339",
            "2000",
            "0",
            "0",
            "0",
            "0",
            "railway=subway",
            "wheelchair=yes railway=halt",
            "294",
            "162129"
          ],
          [
            "-73845458",
            "40722210",
            "-8192",
            "13",
            "2000",
            "0",
            "0",
            "0",
            "0",
            "railway=subway",
            "railway=switch",
            "295",
            "162701"
          ],
          [
            "-73845582",
            "40722265",
            "-8192",
            "12",
            "2000",
            "0",
            "0",
            "0",
            "0",
            "railway=subway",
            "railway=switch",
            "296",
            "163229"
          ],
          [
            "-73853598",
            "40726985",
            "-8192",
            "869",
            "2000",
            "0",
            "0",
            "0",
            "0",
            "railway=subway",
            "wheelchair=no railway=halt",
            "366",
            "201452"
          ],
          [
            "-73858909",
            "40728922",
            "-8192",
            "497",
            "2000",
            "0",
            "0",
            "0",
            "0",
            "railway=subway",
            "",
            "406",
            "223313"
          ],
          [
            "-73862504",
            "40730234",
            "-8192",
            "337",
            "2000",
            "0",
            "0",
            "0",
            "0",
            "railway=subway",
            "wheelchair=no railway=halt",
            "26",
            "14823"
          ],
          [
            "-73870796",
            "40733671",
            "-8192",
            "801",
            "2000",
            "0",
            "0",
            "0",
            "0",
            "railway=subway",
            "wheelchair=no railway=halt",
            "91",
            "50055"
          ],
          [
            "-73877687",
            "40738118",
            "-8192",
            "806",
            "2000",
            "0",
            "0",
            "0",
            "0",
            "railway=subway",
            "wheelchair=no railway=halt",
            "155",
            "85507"
          ],
          [
            "-73882903",
            "40742990",
            "-8192",
            "714",
            "2000",
            "0",
            "0",
            "0",
            "0",
            "railway=subway",
            "wheelchair=no railway=halt",
            "212",
            "116912"
          ],
          [
            "-73892288",
            "40747146",
            "-8192",
            "917",
            "2000",
            "0",
            "0",
            "0",
            "0",
            "railway=subway",
            "wheelchair=yes railway=halt",
            "286",
            "157247"
          ],
          [
            "-73892874",
            "40747364",
            "-8192",
            "55",
            "2000",
            "0",
            "0",
            "0",
            "0",
            "railway=subway",
            "railway=switch",
            "290",
            "159666"
          ],
          [
            "-73893124",
            "40747450",
            "-8192",
            "23",
            "2000",
            "0",
            "0",
            "0",
            "0",
            "railway=subway",
            "railway=unknown",
            "292",
            "160678"
          ],
          [
            "-73893373",
            "40747537",
            "-8192",
            "23",
            "2000",
            "0",
            "0",
            "0",
            "0",
            "railway=subway",
            "railway=switch",
            "294",
            "161689"
          ],
          [
            "-73930694",
            "40752028",
            "-8192",
            "3358",
            "2000",
            "0",
            "0",
            "0",
            "0",
            "railway=subway",
            "railway=switch",
            "562",
            "309392"
          ],
          [
            "-73930874",
            "40752025",
            "-8192",
            "15",
            "2000",
            "0",
            "0",
            "0",
            "0",
            "railway=subway",
            "railway=switch",
            "563",
            "310052"
          ],
          [
            "-73931452",
            "40751981",
            "-8192",
            "49",
            "2000",
            "0",
            "0",
            "0",
            "0",
            "reversedirection=yes railway=subway",
            "railway=switch",
            "567",
            "312207"
          ],
          [
            "-73931641",
            "40751978",
            "-8192",
            "16",
            "2000",
            "0",
            "0",
            "0",
            "0",
            "reversedirection=yes railway=subway",
            "railway=switch",
            "569",
            "312911"
          ],
          [
            "-73934929",
            "40750813",
            "-8192",
            "313",
            "2000",
            "0",
            "0",
            "0",
            "0",
            "reversedirection=yes railway=subway",
            "railway=switch",
            "594",
            "326678"
          ],
          [
            "-73935267",
            "40750555",
            "-8192",
            "40",
            "2000",
            "0",
            "0",
            "0",
            "0",
            "railway=subway",
            "railway=switch",
            "597",
            "328437"
          ],
          [
            "-73937988",
            "40748784",
            "-8192",
            "307",
            "2000",
            "0",
            "0",
            "0",
            "0",
            "railway=subway",
            "wheelchair=yes railway=halt",
            "621",
            "341941"
          ],
          [
            "-73939114",
            "40748331",
            "-8192",
            "108",
            "2000",
            "0",
            "0",
            "0",
            "0",
            "railway=subway",
            "railway=switch",
            "630",
            "346691"
          ],
          [
            "-73939416",
            "40748242",
            "-8192",
            "27",
            "2000",
            "0",
            "0",
            "0",
            "0",
            "railway=subway",
            "railway=unknown",
            "632",
            "347879"
          ],
          [
            "-73939687",
            "40748127",
            "-8192",
            "26",
            "2000",
            "0",
            "0",
            "0",
            "0",
            "railway=subway",
            "railway=switch",
            "634",
            "349022"
          ],
          [
            "-73946864",
            "40748033",
            "-8192",
            "641",
            "2000",
            "0",
            "0",
            "0",
            "0",
            "railway=subway",
            "wheelchair=no railway=halt",
            "686",
            "377217"
          ],
          [
            "-73959999",
            "40753102",
            "-8192",
            "1283",
            "2000",
            "0",
            "0",
            "0",
            "0",
            "railway=subway",
            "",
            "788",
            "433650"
          ],
          [
            "-73970400",
            "40758170",
            "-8192",
            "1049",
            "2000",
            "0",
            "0",
            "0",
            "0",
            "railway=subway",
            "wheelchair=yes railway=halt",
            "83",
            "46140"
          ],
          [
            "-73971507",
            "40758636",
            "-8192",
            "107",
            "2000",
            "0",
            "0",
            "0",
            "0",
            "railway=subway",
            "",
            "92",
            "50846"
          ],
          [
            "-73975982",
            "40760524",
            "-8192",
            "432",
            "2000",
            "0",
            "0",
            "0",
            "0",
            "railway=subway",
            "wheelchair=no railway=halt",
            "34",
            "19001"
          ],
          [
            "-73976618",
            "40760792",
            "-8192",
            "61",
            "2000",
            "0",
            "0",
            "0",
            "0",
            "railway=subway",
            "railway=switch",
            "39",
            "21684"
          ],
          [
            "-73982664",
            "40763342",
            "-8192",
            "584",
            "2000",
            "0",
            "0",
            "0",
            "0",
            "railway=subway",
            "wheelchair=limited railway=halt",
            "86",
            "47372"
          ],
          [
            "-73984609",
            "40763799",
            "-8192",
            "178",
            "2000",
            "0",
            "0",
            "0",
            "0",
            "railway=subway",
            "",
            "100",
            "55201"
          ],
          [
            "-73986980",
            "40761204",
            "-8192",
            "360",
            "2000",
            "0",
            "0",
            "0",
            "0",
            "railway=subway",
            "wheelchair=yes railway=halt",
            "28",
            "15834"
          ],
          [
            "-73987362",
            "40760681",
            "-8192",
            "67",
            "2000",
            "0",
            "0",
            "0",
            "0",
            "railway=subway",
            "railway=switch",
            "34",
            "18781"
          ],
          [
            "-73987603",
            "40760350",
            "-8192",
            "42",
            "2000",
            "0",
            "0",
            "0",
            "0",
            "railway=subway",
            "railway=switch",
            "37",
            "20629"
          ],
          [
            "-73987702",
            "40760140",
            "-8192",
            "25",
            "2000",
            "0",
            "0",
            "0",
            "0",
            "railway=subway",
            "railway=switch",
            "39",
            "21728"
          ],
          [
            "-73990765",
            "40755796",
            "-8192",
            "548",
            "2000",
            "0",
            "0",
            "0",
            "0",
            "railway=subway",
            "wheelchair=yes railway=halt",
            "83",
            "45832"
          ],
          [
            "-73994067",
            "40751466",
            "-8192",
            "556",
            "2000",
            "0",
            "0",
            "0",
            "0",
            "railway=subway",
            "wheelchair=yes railway=halt",
            "127",
            "70288"
          ],
          [
            "-73996324",
            "40748333",
            "-8192",
            "397",
            "2000",
            "0",
            "0",
            "0",
            "0",
            "railway=subway",
            "",
            "159",
            "87750"
          ],
          [
            "-73997437",
            "40746693",
            "-8192",
            "205",
            "2000",
            "0",
            "0",
            "0",
            "0",
            "reversedirection=yes railway=subway",
            "railway=switch",
            "16",
            "9016"
          ],
          [
            "-73997287",
            "40746936",
            "-8192",
            "30",
            "2000",
            "0",
            "0",
            "0",
            "0",
            "railway=subway",
            "railway=switch",
            "18",
            "10336"
          ],
          [
            "-73997479",
            "40746710",
            "-8192",
            "30",
            "2000",
            "0",
            "0",
            "0",
            "0",
            "railway=subway",
            "railway=switch",
            "21",
            "11656"
          ],
          [
            "-74002177",
            "40740248",
            "-8192",
            "820",
            "2000",
            "0",
            "0",
            "0",
            "0",
            "railway=subway",
            "",
            "86",
            "47723"
          ],
          [
            "-74002455",
            "40739863",
            "-8192",
            "49",
            "2000",
            "0",
            "0",
            "0",
            "0",
            "railway=subway",
            "wheelchair=yes railway=halt",
            "3",
            "2155"
          ],
          [
            "-74001093",
            "40731475",
            "-8192",
            "1009",
            "2000",
            "0",
            "0",
            "0",
            "0",
            "railway=subway",
            "wheelchair=yes railway=halt",
            "84",
            "46536"
          ],
          [
            "-74004030",
            "40725562",
            "-8192",
            "703",
            "2000",
            "0",
            "0",
            "0",
            "0",
            "railway=subway",
            "",
            "140",
            "77458"
          ],
          [
            "-74005230",
            "40720146",
            "-8192",
            "619",
            "2000",
            "0",
            "0",
            "0",
            "0",
            "railway=subway",
            "wheelchair=no railway=halt",
            "49",
            "27226"
          ],
          [
            "-74005224",
            "40720048",
            "-8192",
            "11",
            "2000",
            "0",
            "0",
            "0",
            "0",
            "railway=subway",
            "railway=switch",
            "50",
            "27710"
          ],
          [
            "-74005212",
            "40719834",
            "-8192",
            "24",
            "2000",
            "0",
            "0",
            "0",
            "0",
            "railway=subway",
            "railway=switch",
            "52",
            "28766"
          ],
          [
            "-74006080",
            "40717475",
            "-8192",
            "281",
            "2000",
            "0",
            "0",
            "0",
            "0",
            "railway=subway",
            "railway=switch",
            "74",
            "41126"
          ],
          [
            "-74006213",
            "40717235",
            "-8192",
            "29",
            "2000",
            "0",
            "0",
            "0",
            "0",
            "railway=subway",
            "railway=switch",
            "77",
            "42401"
          ],
          [
            "-74007669",
            "40715395",
            "-8192",
            "238",
            "2000",
            "0",
            "0",
            "0",
            "0",
            "reversedirection=yes railway=subway",
            "railway=switch",
            "96",
            "52870"
          ],
          [
            "-74007768",
            "40715198",
            "-8192",
            "23",
            "2000",
            "0",
            "0",
            "0",
            "0",
            "reversedirection=yes railway=subway",
            "railway=switch",
            "97",
            "53881"
          ],
          [
            "-74007969",
            "40714941",
            "-8192",
            "33",
            "2000",
            "0",
            "0",
            "0",
            "0",
            "reversedirection=yes railway=subway",
            "wheelchair=no railway=halt",
            "100",
            "55333"
          ],
          [
            "-74010081",
            "40712153",
            "-8192",
            "358",
            "2000",
            "0",
            "0",
            "0",
            "0",
            "reversedirection=yes railway=subway",
            "",
            "129",
            "71080"
          ]
        ],
        "times": [
          0,
          0.96,
          2.08,
          3.12,
          6.64,
          28.64,
          31.28,
          33.12,
          52.16,
          54.48,
          57.52,
          60.88,
          62.64,
          63.52,
          64.88,
          65.76,
          68.08,
          70.32,
          91.44,
          92.72,
          94.72,
          97.44,
          99.12,
          100.16,
          100.8,
          129.52,
          141.92,
          157.84,
          163.68,
          171.2,
          174.24,
          177.92,
          181.92,
          185.52,
          200.88,
          202.48,
          204.56,
          205.6,
          206.64,
          207.68,
          208.72,
          209.76,
          210.8,
          211.84,
          212.88,
          213.92,
          230.88,
          245.04,
          258,
          259.12,
          260.24,
          261.36,
          262.48,
          263.6,
          264.72,
          265.84,
          266.96,
          282.88,
          285.68,
          301.2,
          336.48,
          338.88,
          380.8,
          381.76,
          384.64,
          400.72,
          404.16,
          406.96,
          411.76,
          424.32,
          426.64,
          429.12,
          438.48,
          440.88,
          444,
          448.88,
          452.56,
          458.64,
          470.72,
          472.16,
          475.12,
          479.44,
          486.96,
          498.88,
          504.32,
          506.16,
          507.52,
          508.4,
          510.56,
          511.28,
          512.32,
          513.44,
          513.76,
          515.2,
          516.16,
          518,
          519.04,
          523.28,
          526,
          541.2,
          572.8,
          592.56,
          594.08,
          601.92,
          607.92,
          635.52,
          680.48,
          683.04,
          685.04,
          716.96,
          726.08,
          746.64,
          748.8,
          750.96,
          753.12,
          822.72,
          827.12,
          834.72,
          835.92,
          837.12,
          838.32,
          839.52,
          840.72,
          841.92,
          849.28,
          862.72,
          876.8,
          880.4,
          882.08,
          883.68,
          886.72,
          887.12,
          893.84,
          896.08,
          899.28,
          901.04,
          902.72,
          904.88,
          907.04,
          909.2,
          911.36,
          913.52,
          915.68,
          917.84,
          920,
          922.16,
          924.32,
          925.6,
          930.72,
          961.92,
          963.44,
          964.96,
          971.76,
          1012.96,
          1016.24,
          1019.52,
          1022.72,
          1026,
          1029.28,
          1032.56,
          1035.84,
          1067.76,
          1069.6,
          1071.44,
          1073.28,
          1075.12,
          1091.52,
          1092.48,
          1093.44,
          1094.4,
          1095.36,
          1096.32,
          1097.28,
          1119.36,
          1127.52,
          1183.12,
          1189.92,
          1222.8,
          1227.2,
          1229.04,
          1230.88,
          1263.04,
          1264.48,
          1282.24,
          1291.04,
          1292.24,
          1295.68,
          1308.08,
          1311.68,
          1315.2,
          1318.72,
          1322.24,
          1348.8,
          1352.32,
          1355.84,
          1359.36,
          1362.88,
          1366.4,
          1369.92,
          1373.44,
          1376.96,
          1380.48,
          1408.32,
          1413.68,
          1417.36,
          1419.12,
          1424.48,
          1429.84,
          1439.04,
          1440.64,
          1442.24,
          1452.08,
          1466.56,
          1481.36,
          1500.96,
          1539.84,
          1543.12,
          1546.4,
          1547.92,
          1549.68,
          1552.96,
          1556.24,
          1559.52,
          1563.04,
          1566.48,
          1569.92,
          1573.36,
          1576.8,
          1580.24,
          1583.68,
          1590.96,
          1594.8,
          1602.64,
          1603.76,
          1619.84,
          1632,
          1643.12,
          1648.4,
          1654.08,
          1656,
          1657.92,
          1667.68,
          1669.84,
          1673.6,
          1677.28,
          1680.96,
          1684.64,
          1688.32,
          1717.12,
          1719.92,
          1722.8,
          1725.6,
          1733.12,
          1753.76,
          1794.72,
          1798.4,
          1800.56,
          1803.44,
          1818.96,
          1827.2,
          1834.08,
          1840.08,
          1842.88,
          1851.28,
          1853.2,
          1858.24,
          1864.72,
          1879.52,
          1886.48,
          1889.68,
          1892.88,
          1896.08,
          1899.2,
          1903.92,
          1912.88,
          1915.12,
          1917.28,
          1919.44,
          1921.6,
          1923.76,
          1925.92,
          1940,
          1940.64,
          1942.4,
          1943.68,
          1948.56,
          1958.4,
          1969.12,
          1970.16,
          1978.32,
          1983.52,
          1988.72,
          2004.88,
          2006.24,
          2007.6,
          2023.76,
          2028.96,
          2034.16,
          2042.32,
          2042.88,
          2043.44,
          2051.36,
          2052.72,
          2054.16,
          2061.12,
          2067.04,
          2069.04,
          2072.72,
          2086.88,
          2089.12,
          2091.92,
          2094.4,
          2096.88,
          2099.36,
          2112.32,
          2113.04,
          2116.08,
          2119.12,
          2122.16,
          2125.2,
          2132.08,
          2146.88,
          2153.36,
          2158.56,
          2162.16,
          2164.64,
          2168.72,
          2171.52,
          2177.52,
          2184.4,
          2192.64,
          2208.08,
          2211.04,
          2213.36,
          2217.12,
          2258.08,
          2286.16,
          2288.96,
          2291.76,
          2293.68,
          2308.56,
          2323.52,
          2327.28,
          2330.96,
          2334.64,
          2338.4,
          2342.16,
          2344.4,
          2354.16,
          2356.08,
          2358,
          2363.68,
          2368.96,
          2380.08,
          2407.2,
          2408.24,
          2409.2,
          2417.2,
          2421.04,
          2428.24,
          2431.6,
          2434.96,
          2438.32,
          2441.68,
          2445.04,
          2448.4,
          2451.92,
          2455.28,
          2458.64,
          2462,
          2465.36,
          2468.72,
          2472.08,
          2478.72,
          2518.48,
          2545.44,
          2569.76,
          2571.28,
          2572.8,
          2582,
          2587.44,
          2592.88,
          2598.32,
          2603.76,
          2609.52,
          2631.68,
          2635.12,
          2638.56,
          2642,
          2645.44,
          2648.88,
          2652.32,
          2655.76,
          2659.2,
          2662.64,
          2674,
          2689.2,
          2692.8,
          2696.4,
          2700,
          2703.6,
          2714.64,
          2718.32,
          2719.6,
          2720.88,
          2731.12,
          2747.44,
          2748.88,
          2784.8,
          2793.36,
          2800.24,
          2804.48,
          2808.88,
          2810.72,
          2812.56,
          2822,
          2884.4,
          2912.72,
          2915.6,
          2916.56,
          2917.52,
          2918.48,
          2919.44,
          2936.8,
          2938.64,
          2940.48,
          2942.32,
          2944.16,
          2976.08,
          2979.36,
          2982.64,
          2985.92,
          2989.2,
          2992.48,
          2995.76,
          2999.04,
          3040.24,
          3046.96,
          3048.48,
          3050,
          3081.2,
          3082.4,
          3086.32,
          3087.6,
          3089.76,
          3091.92,
          3094.08,
          3096.24,
          3098.4,
          3100.56,
          3102.72,
          3104.88,
          3107.04,
          3109.2,
          3110.88,
          3112.64,
          3115.84,
          3125.2,
          3127.44,
          3128.64,
          3129.68,
          3131.36,
          3140.4,
          3149.04,
          3151.2,
          3153.28,
          3162.48,
          3169.84,
          3171.04,
          3172.24,
          3173.44,
          3174.64,
          3175.84,
          3177.04,
          3184.56,
          3204.56,
          3258.56,
          3260.72,
          3262.88,
          3265.04,
          3294.72,
          3307.2,
          3327.28,
          3329.28,
          3331.36,
          3391.12,
          3399.68,
          3410,
          3434.24,
          3439.12,
          3485.84,
          3486.96,
          3493.2,
          3494.4,
          3495.28,
          3496.8,
          3497.68,
          3498.72,
          3499.76,
          3500.08,
          3500.88,
          3502.72,
          3504.16,
          3504.88,
          3506.88,
          3528.88,
          3533.12,
          3534.24,
          3537.6,
          3539.6,
          3555.04,
          3560.08,
          3563.76,
          3571.84,
          3574.24,
          3583.44,
          3586,
          3588.32,
          3600.88,
          3605.68,
          3608.48,
          3610.64,
          3627.92,
          3629.44,
          3630.8,
          3659.68,
          3673.68,
          3676.08,
          3678.48,
          3680.88,
          3716.16,
          3731.68,
          3746.48,
          3750.4,
          3751.52,
          3752.64,
          3753.76,
          3754.88,
          3756,
          3757.12,
          3758.24,
          3759.36,
          3772.32,
          3803.44,
          3804.4,
          3805.36,
          3806.32,
          3807.28,
          3808.24,
          3809.2,
          3810.16,
          3811.12,
          3812.08,
          3814.16,
          3815.76,
          3831.12,
          3834.72,
          3838.72,
          3842.4,
          3845.44,
          3852.96,
          3858.8,
          3874.72,
          3887.36,
          3915.92,
          3917.12,
          3919.36,
          3936.88,
          3937.76,
          3939.68,
          3946.48,
          3947.76,
          3949.6,
          3950.96,
          3953.2,
          3954.08,
          3959.12,
          3962.16,
          3964.48,
          3983.52,
          3985.36,
          3988,
          4010,
          4013.52,
          4014.56,
          4015.68,
          4016.64
        ]
      },
      "geometry": {
        "type": "LineString",
        "coordinates": [
          [
            -74.010081,
            40.712153
          ],
          [
            -74.010039,
            40.712255
          ],
          [
            -74.009976,
            40.712374
          ],
          [
            -74.009908,
            40.712474
          ],
          [
            -74.009632,
            40.712814
          ],
          [
            -74.007969,
            40.714941
          ],
          [
            -74.007768,
            40.715198
          ],
          [
            -74.007669,
            40.715395
          ],
          [
            -74.006213,
            40.717235
          ],
          [
            -74.005998,
            40.717438
          ],
          [
            -74.005768,
            40.717731
          ],
          [
            -74.005509,
            40.718059
          ],
          [
            -74.005382,
            40.718231
          ],
          [
            -74.005329,
            40.718324
          ],
          [
            -74.005256,
            40.718469
          ],
          [
            -74.00522,
            40.718568
          ],
          [
            -74.00515,
            40.718822
          ],
          [
            -74.005123,
            40.719071
          ],
          [
            -74.005254,
            40.721447
          ],
          [
            -74.005262,
            40.721587
          ],
          [
            -74.005274,
            40.72181
          ],
          [
            -74.005288,
            40.722113
          ],
          [
            -74.005287,
            40.722298
          ],
          [
            -74.005271,
            40.722415
          ],
          [
            -74.005245,
            40.722487
          ],
          [
            -74.003974,
            40.725576
          ],
          [
            -74.003426,
            40.726908
          ],
          [
            -74.002732,
            40.728619
          ],
          [
            -74.002422,
            40.729228
          ],
          [
            -74.001983,
            40.730005
          ],
          [
            -74.001804,
            40.73032
          ],
          [
            -74.001564,
            40.730695
          ],
          [
            -74.001298,
            40.7311
          ],
          [
            -74.001051,
            40.731457
          ],
          [
            -73.999965,
            40.732973
          ],
          [
            -73.999864,
            40.733133
          ],
          [
            -73.999761,
            40.733357
          ],
          [
            -73.999714,
            40.733466
          ],
          [
            -73.999679,
            40.733577
          ],
          [
            -73.999655,
            40.73369
          ],
          [
            -73.999643,
            40.733804
          ],
          [
            -73.999642,
            40.733919
          ],
          [
            -73.999653,
            40.734033
          ],
          [
            -73.999676,
            40.734146
          ],
          [
            -73.99971,
            40.734257
          ],
          [
            -73.999756,
            40.734366
          ],
          [
            -74.000798,
            40.736106
          ],
          [
            -74.001667,
            40.737556
          ],
          [
            -74.002441,
            40.738888
          ],
          [
            -74.002503,
            40.739003
          ],
          [
            -74.002547,
            40.739122
          ],
          [
            -74.002572,
            40.739245
          ],
          [
            -74.002579,
            40.739369
          ],
          [
            -74.002566,
            40.739493
          ],
          [
            -74.002534,
            40.739615
          ],
          [
            -74.002484,
            40.739733
          ],
          [
            -74.002416,
            40.739846
          ],
          [
            -74.001275,
            40.741419
          ],
          [
            -74.001077,
            40.741692
          ],
          [
            -73.999964,
            40.743221
          ],
          [
            -73.997437,
            40.746693
          ],
          [
            -73.997246,
            40.746918
          ],
          [
            -73.994241,
            40.751048
          ],
          [
            -73.99417,
            40.751145
          ],
          [
            -73.993949,
            40.751417
          ],
          [
            -73.992798,
            40.752999
          ],
          [
            -73.992566,
            40.75334
          ],
          [
            -73.992373,
            40.753614
          ],
          [
            -73.992029,
            40.754086
          ],
          [
            -73.991125,
            40.755319
          ],
          [
            -73.990923,
            40.755532
          ],
          [
            -73.99073,
            40.755768
          ],
          [
            -73.990073,
            40.756693
          ],
          [
            -73.98991,
            40.756934
          ],
          [
            -73.989718,
            40.757253
          ],
          [
            -73.989397,
            40.757749
          ],
          [
            -73.989136,
            40.758111
          ],
          [
            -73.988679,
            40.758705
          ],
          [
            -73.987822,
            40.759902
          ],
          [
            -73.987683,
            40.760019
          ],
          [
            -73.987468,
            40.760312
          ],
          [
            -73.987159,
            40.760737
          ],
          [
            -73.98662,
            40.761479
          ],
          [
            -73.985841,
            40.762684
          ],
          [
            -73.98545,
            40.763216
          ],
          [
            -73.9853,
            40.763391
          ],
          [
            -73.985165,
            40.763509
          ],
          [
            -73.985065,
            40.763577
          ],
          [
            -73.98479,
            40.763697
          ],
          [
            -73.984695,
            40.763726
          ],
          [
            -73.984549,
            40.763762
          ],
          [
            -73.98439,
            40.763785
          ],
          [
            -73.984349,
            40.763791
          ],
          [
            -73.984138,
            40.7638
          ],
          [
            -73.983995,
            40.76379
          ],
          [
            -73.983733,
            40.763735
          ],
          [
            -73.983591,
            40.763687
          ],
          [
            -73.983035,
            40.763459
          ],
          [
            -73.982663,
            40.763341
          ],
          [
            -73.980699,
            40.762512
          ],
          [
            -73.976614,
            40.760789
          ],
          [
            -73.974051,
            40.759709
          ],
          [
            -73.973857,
            40.759627
          ],
          [
            -73.972866,
            40.759161
          ],
          [
            -73.972106,
            40.758804
          ],
          [
            -73.96853,
            40.757296
          ],
          [
            -73.962716,
            40.75484
          ],
          [
            -73.962394,
            40.754691
          ],
          [
            -73.962167,
            40.75455
          ],
          [
            -73.958696,
            40.75211
          ],
          [
            -73.957709,
            40.751411,
            11.25
          ],
          [
            -73.955479,
            40.749833,
            11.25
          ],
          [
            -73.955214,
            40.74969,
            11.25
          ],
          [
            -73.954924,
            40.749579,
            11.25
          ],
          [
            -73.954615,
            40.749505,
            11.25
          ],
          [
            -73.944637,
            40.747566,
            11.25
          ],
          [
            -73.944007,
            40.747443,
            11.25
          ],
          [
            -73.942921,
            40.747232,
            11.25
          ],
          [
            -73.942749,
            40.747204,
            11.25
          ],
          [
            -73.942571,
            40.747191,
            11.25
          ],
          [
            -73.942393,
            40.747196,
            11.25
          ],
          [
            -73.942217,
            40.747216,
            11.25
          ],
          [
            -73.942046,
            40.747253,
            11.25
          ],
          [
            -73.941883,
            40.747305,
            11.25
          ],
          [
            -73.940899,
            40.747656,
            11.25
          ],
          [
            -73.939095,
            40.7483,
            11.25
          ],
          [
            -73.937255,
            40.74904,
            11.25
          ],
          [
            -73.936789,
            40.749232,
            11.25
          ],
          [
            -73.936583,
            40.749342,
            11.25
          ],
          [
            -73.936411,
            40.749463,
            11.25
          ],
          [
            -73.936114,
            40.749719,
            11.25
          ],
          [
            -73.936072,
            40.749754,
            11.25
          ],
          [
            -73.935442,
            40.750342,
            11.25
          ],
          [
            -73.935233,
            40.750533,
            11.25
          ],
          [
            -73.934929,
            40.750813,
            11.25
          ],
          [
            -73.934753,
            40.750963,
            11.25
          ],
          [
            -73.934572,
            40.751098,
            11.25
          ],
          [
            -73.93433,
            40.75126,
            11.25
          ],
          [
            -73.934072,
            40.751408,
            11.25
          ],
          [
            -73.933801,
            40.75154,
            11.25
          ],
          [
            -73.933516,
            40.751656,
            11.25
          ],
          [
            -73.933221,
            40.751755,
            11.25
          ],
          [
            -73.932916,
            40.751836,
            11.25
          ],
          [
            -73.932604,
            40.7519,
            11.25
          ],
          [
            -73.932286,
            40.751944,
            11.25
          ],
          [
            -73.931965,
            40.75197,
            11.25
          ],
          [
            -73.931641,
            40.751978,
            11.25
          ],
          [
            -73.931452,
            40.751981,
            11.25
          ],
          [
            -73.930693,
            40.751994,
            11.25
          ],
          [
            -73.926073,
            40.752072,
            11.25
          ],
          [
            -73.925845,
            40.752087,
            11.25
          ],
          [
            -73.925622,
            40.752126,
            11.25
          ],
          [
            -73.924663,
            40.752348,
            11.25
          ],
          [
            -73.918816,
            40.75365,
            11.25
          ],
          [
            -73.918351,
            40.753746,
            11.25
          ],
          [
            -73.91788,
            40.753817,
            11.25
          ],
          [
            -73.917404,
            40.753861,
            11.25
          ],
          [
            -73.916924,
            40.75388,
            11.25
          ],
          [
            -73.916444,
            40.753873,
            11.25
          ],
          [
            -73.915966,
            40.75384,
            11.25
          ],
          [
            -73.915492,
            40.753781,
            11.25
          ],
          [
            -73.910876,
            40.753007,
            11.25
          ],
          [
            -73.91061,
            40.752972,
            11.25
          ],
          [
            -73.91034,
            40.752955,
            11.25
          ],
          [
            -73.910069,
            40.752956,
            11.25
          ],
          [
            -73.9098,
            40.752976,
            11.25
          ],
          [
            -73.907394,
            40.753231,
            11.25
          ],
          [
            -73.907252,
            40.753243,
            11.25
          ],
          [
            -73.907112,
            40.753243,
            11.25
          ],
          [
            -73.906972,
            40.753229,
            11.25
          ],
          [
            -73.906835,
            40.753203,
            11.25
          ],
          [
            -73.906704,
            40.753165,
            11.25
          ],
          [
            -73.906577,
            40.753115,
            11.25
          ],
          [
            -73.903726,
            40.751904,
            11.25
          ],
          [
            -73.902674,
            40.751457,
            11.25
          ],
          [
            -73.895491,
            40.748398,
            11.25
          ],
          [
            -73.894612,
            40.748027,
            11.25
          ],
          [
            -73.890364,
            40.746218,
            11.25
          ],
          [
            -73.8898,
            40.745978,
            11.25
          ],
          [
            -73.889572,
            40.745861,
            11.25
          ],
          [
            -73.889345,
            40.745745,
            11.25
          ],
          [
            -73.885193,
            40.743973,
            11.25
          ],
          [
            -73.885012,
            40.743892,
            11.25
          ],
          [
            -73.882796,
            40.742817,
            11.25
          ],
          [
            -73.881716,
            40.74227,
            11.25
          ],
          [
            -73.881571,
            40.742189,
            11.25
          ],
          [
            -73.881201,
            40.741927,
            11.25
          ],
          [
            -73.879883,
            40.74095,
            11.25
          ],
          [
            -73.879521,
            40.740658,
            11.25
          ],
          [
            -73.879201,
            40.740343,
            11.25
          ],
          [
            -73.878924,
            40.740004,
            11.25
          ],
          [
            -73.878693,
            40.739646,
            11.25
          ],
          [
            -73.87715,
            40.736901,
            11.25
          ],
          [
            -73.876954,
            40.736535,
            11.25
          ],
          [
            -73.876691,
            40.736192,
            11.25
          ],
          [
            -73.876389,
            40.735869,
            11.25
          ],
          [
            -73.876049,
            40.735569,
            11.25
          ],
          [
            -73.875675,
            40.735293,
            11.25
          ],
          [
            -73.87527,
            40.735044,
            11.25
          ],
          [
            -73.874836,
            40.734824,
            11.25
          ],
          [
            -73.874378,
            40.734635,
            11.25
          ],
          [
            -73.873901,
            40.734479,
            11.25
          ],
          [
            -73.870055,
            40.733342,
            11.25
          ],
          [
            -73.869328,
            40.733095,
            11.25
          ],
          [
            -73.86885,
            40.732903,
            11.25
          ],
          [
            -73.868623,
            40.732811,
            11.25
          ],
          [
            -73.867945,
            40.732494,
            11.25
          ],
          [
            -73.867296,
            40.732142,
            11.25
          ],
          [
            -73.866221,
            40.731505,
            11.25
          ],
          [
            -73.866025,
            40.731403,
            11.25
          ],
          [
            -73.865817,
            40.731313,
            11.25
          ],
          [
            -73.864504,
            40.730837,
            11.25
          ],
          [
            -73.862567,
            40.730143
          ],
          [
            -73.860591,
            40.729426
          ],
          [
            -73.857973,
            40.728469
          ],
          [
            -73.852782,
            40.726574
          ],
          [
            -73.852361,
            40.726393
          ],
          [
            -73.851961,
            40.726187
          ],
          [
            -73.851782,
            40.72608
          ],
          [
            -73.851581,
            40.725959
          ],
          [
            -73.851228,
            40.725709
          ],
          [
            -73.850901,
            40.725438
          ],
          [
            -73.850603,
            40.725149
          ],
          [
            -73.850306,
            40.724826
          ],
          [
            -73.850004,
            40.724515
          ],
          [
            -73.849673,
            40.72422
          ],
          [
            -73.849316,
            40.723943
          ],
          [
            -73.848936,
            40.723685
          ],
          [
            -73.848533,
            40.723447
          ],
          [
            -73.84811,
            40.72323
          ],
          [
            -73.847183,
            40.722819
          ],
          [
            -73.846719,
            40.722573
          ],
          [
            -73.845723,
            40.722129
          ],
          [
            -73.845578,
            40.722065
          ],
          [
            -73.843528,
            40.721153
          ],
          [
            -73.841974,
            40.720463
          ],
          [
            -73.840551,
            40.719831
          ],
          [
            -73.839854,
            40.719562
          ],
          [
            -73.839129,
            40.71924
          ],
          [
            -73.838874,
            40.719146
          ],
          [
            -73.838619,
            40.719053
          ],
          [
            -73.837367,
            40.718498
          ],
          [
            -73.837091,
            40.718368
          ],
          [
            -73.836626,
            40.718137
          ],
          [
            -73.836177,
            40.717897
          ],
          [
            -73.835738,
            40.717646
          ],
          [
            -73.835309,
            40.717384
          ],
          [
            -73.834893,
            40.717113
          ],
          [
            -73.83187,
            40.714826
          ],
          [
            -73.831563,
            40.714609
          ],
          [
            -73.831232,
            40.714411
          ],
          [
            -73.830882,
            40.714236
          ],
          [
            -73.82991,
            40.713832
          ],
          [
            -73.827231,
            40.712721
          ],
          [
            -73.82191,
            40.710514
          ],
          [
            -73.821462,
            40.710271
          ],
          [
            -73.821228,
            40.7101
          ],
          [
            -73.820991,
            40.709828
          ],
          [
            -73.820046,
            40.708239
          ],
          [
            -73.819567,
            40.707389
          ],
          [
            -73.819127,
            40.706691
          ],
          [
            -73.818769,
            40.706077
          ],
          [
            -73.818592,
            40.705789
          ],
          [
            -73.81802,
            40.704952
          ],
          [
            -73.817908,
            40.704754
          ],
          [
            -73.817677,
            40.704214
          ],
          [
            -73.817393,
            40.703513
          ],
          [
            -73.816668,
            40.701938
          ],
          [
            -73.816241,
            40.701229
          ],
          [
            -73.815997,
            40.700923
          ],
          [
            -73.815694,
            40.700649
          ],
          [
            -73.815339,
            40.700413
          ],
          [
            -73.814944,
            40.700223
          ],
          [
            -73.81432,
            40.699977,
            16.25
          ],
          [
            -73.813139,
            40.699515,
            16.25
          ],
          [
            -73.812842,
            40.699414,
            16.25
          ],
          [
            -73.812536,
            40.69935,
            16.25
          ],
          [
            -73.812222,
            40.699323,
            16.25
          ],
          [
            -73.811905,
            40.699334,
            16.25
          ],
          [
            -73.811592,
            40.699362,
            16.25
          ],
          [
            -73.811281,
            40.699427,
            16.25
          ],
          [
            -73.809319,
            40.699964,
            16.25
          ],
          [
            -73.809233,
            40.699994,
            16.25
          ],
          [
            -73.809009,
            40.700097,
            16.25
          ],
          [
            -73.808841,
            40.700163,
            16.25
          ],
          [
            -73.808163,
            40.700364,
            16.25
          ],
          [
            -73.806799,
            40.700759
          ],
          [
            -73.805297,
            40.701134
          ],
          [
            -73.80515,
            40.701176
          ],
          [
            -73.804015,
            40.701486
          ],
          [
            -73.803266,
            40.701635
          ],
          [
            -73.802523,
            40.701774
          ],
          [
            -73.800247,
            40.702336
          ],
          [
            -73.800054,
            40.70238
          ],
          [
            -73.800247,
            40.702336
          ],
          [
            -73.802523,
            40.701774
          ],
          [
            -73.803266,
            40.701635
          ],
          [
            -73.804015,
            40.701486
          ],
          [
            -73.80515,
            40.701176
          ],
          [
            -73.805228,
            40.701172
          ],
          [
            -73.805312,
            40.701171
          ],
          [
            -73.806423,
            40.700892
          ],
          [
            -73.806613,
            40.700852
          ],
          [
            -73.806824,
            40.700816
          ],
          [
            -73.807806,
            40.700569
          ],
          [
            -73.808603,
            40.700303
          ],
          [
            -73.80886,
            40.700199
          ],
          [
            -73.809334,
            40.699997
          ],
          [
            -73.8113,
            40.699463
          ],
          [
            -73.81162,
            40.699412
          ],
          [
            -73.812031,
            40.6994
          ],
          [
            -73.812395,
            40.69942
          ],
          [
            -73.81275,
            40.699485
          ],
          [
            -73.813085,
            40.699595
          ],
          [
            -73.814788,
            40.700262
          ],
          [
            -73.814886,
            40.700301
          ],
          [
            -73.815269,
            40.700485
          ],
          [
            -73.81561,
            40.700711
          ],
          [
            -73.815901,
            40.700975
          ],
          [
            -73.816136,
            40.701269
          ],
          [
            -73.816558,
            40.701969
          ],
          [
            -73.817283,
            40.703543
          ],
          [
            -73.817599,
            40.704233
          ],
          [
            -73.817839,
            40.704787
          ],
          [
            -73.818028,
            40.705168
          ],
          [
            -73.818188,
            40.705424
          ],
          [
            -73.818471,
            40.705834
          ],
          [
            -73.818647,
            40.706122
          ],
          [
            -73.819081,
            40.706709
          ],
          [
            -73.819526,
            40.707403
          ],
          [
            -73.820005,
            40.708254
          ],
          [
            -73.820949,
            40.70984
          ],
          [
            -73.821191,
            40.710117
          ],
          [
            -73.821438,
            40.7103
          ],
          [
            -73.821888,
            40.710544
          ],
          [
            -73.82721,
            40.712752
          ],
          [
            -73.830856,
            40.714264
          ],
          [
            -73.831205,
            40.714439
          ],
          [
            -73.831532,
            40.714634
          ],
          [
            -73.831736,
            40.714778
          ],
          [
            -73.8333,
            40.715951
          ],
          [
            -73.834863,
            40.717138
          ],
          [
            -73.835281,
            40.717411
          ],
          [
            -73.83571,
            40.717673
          ],
          [
            -73.83615,
            40.717924
          ],
          [
            -73.836601,
            40.718165
          ],
          [
            -73.837066,
            40.718397
          ],
          [
            -73.837344,
            40.718528
          ],
          [
            -73.838596,
            40.719083
          ],
          [
            -73.838828,
            40.719205
          ],
          [
            -73.83906,
            40.719328
          ],
          [
            -73.839789,
            40.719652
          ],
          [
            -73.840439,
            40.71998
          ],
          [
            -73.841864,
            40.720612
          ],
          [
            -73.845325,
            40.722151
          ],
          [
            -73.845458,
            40.72221
          ],
          [
            -73.845582,
            40.722265
          ],
          [
            -73.846604,
            40.72272
          ],
          [
            -73.847114,
            40.722908
          ],
          [
            -73.848037,
            40.723317
          ],
          [
            -73.848453,
            40.72353
          ],
          [
            -73.848849,
            40.723764
          ],
          [
            -73.849222,
            40.724017
          ],
          [
            -73.849573,
            40.724289
          ],
          [
            -73.849897,
            40.724579
          ],
          [
            -73.850196,
            40.724885
          ],
          [
            -73.850494,
            40.72521
          ],
          [
            -73.850798,
            40.725505
          ],
          [
            -73.851131,
            40.725781
          ],
          [
            -73.851493,
            40.726036
          ],
          [
            -73.851879,
            40.72627
          ],
          [
            -73.852289,
            40.72648
          ],
          [
            -73.852717,
            40.726664
          ],
          [
            -73.853598,
            40.726985
          ],
          [
            -73.858909,
            40.728922
          ],
          [
            -73.862504,
            40.730234
          ],
          [
            -73.865755,
            40.731404
          ],
          [
            -73.865953,
            40.73149
          ],
          [
            -73.866141,
            40.731588
          ],
          [
            -73.867215,
            40.732224
          ],
          [
            -73.86787,
            40.732579
          ],
          [
            -73.868556,
            40.7329
          ],
          [
            -73.869267,
            40.733187
          ],
          [
            -73.870001,
            40.733436
          ],
          [
            -73.870796,
            40.733671
          ],
          [
            -73.873849,
            40.734574
          ],
          [
            -73.874318,
            40.734727
          ],
          [
            -73.874766,
            40.734912
          ],
          [
            -73.875189,
            40.735127
          ],
          [
            -73.875585,
            40.73537
          ],
          [
            -73.87595,
            40.735639
          ],
          [
            -73.876282,
            40.735933
          ],
          [
            -73.876577,
            40.736247
          ],
          [
            -73.876832,
            40.736581
          ],
          [
            -73.877024,
            40.73694
          ],
          [
            -73.877687,
            40.738118
          ],
          [
            -73.878569,
            40.739688
          ],
          [
            -73.878806,
            40.740054
          ],
          [
            -73.87909,
            40.740401
          ],
          [
            -73.879418,
            40.740725
          ],
          [
            -73.879786,
            40.741021
          ],
          [
            -73.880953,
            40.741889
          ],
          [
            -73.881344,
            40.742173
          ],
          [
            -73.881485,
            40.742268
          ],
          [
            -73.881636,
            40.742354
          ],
          [
            -73.882903,
            40.74299
          ],
          [
            -73.884941,
            40.743979
          ],
          [
            -73.885125,
            40.744062
          ],
          [
            -73.889757,
            40.746038
          ],
          [
            -73.890833,
            40.746552
          ],
          [
            -73.891722,
            40.74693
          ],
          [
            -73.892288,
            40.747146
          ],
          [
            -73.892874,
            40.747364
          ],
          [
            -73.893124,
            40.74745
          ],
          [
            -73.893373,
            40.747537
          ],
          [
            -73.894589,
            40.748056
          ],
          [
            -73.902652,
            40.751486
          ],
          [
            -73.90631,
            40.753041
          ],
          [
            -73.906685,
            40.753196
          ],
          [
            -73.906822,
            40.753236
          ],
          [
            -73.906964,
            40.753263
          ],
          [
            -73.907109,
            40.753277
          ],
          [
            -73.907255,
            40.753277
          ],
          [
            -73.909805,
            40.75301
          ],
          [
            -73.910071,
            40.752991
          ],
          [
            -73.910338,
            40.752989
          ],
          [
            -73.910604,
            40.753006
          ],
          [
            -73.910867,
            40.75304
          ],
          [
            -73.915483,
            40.753815
          ],
          [
            -73.91596,
            40.753874
          ],
          [
            -73.916442,
            40.753907
          ],
          [
            -73.916925,
            40.753914
          ],
          [
            -73.917408,
            40.753895
          ],
          [
            -73.917887,
            40.75385
          ],
          [
            -73.918361,
            40.75378
          ],
          [
            -73.918828,
            40.753683
          ],
          [
            -73.924677,
            40.752381
          ],
          [
            -73.925633,
            40.752159
          ],
          [
            -73.925852,
            40.752121
          ],
          [
            -73.926075,
            40.752106
          ],
          [
            -73.930694,
            40.752028
          ],
          [
            -73.930874,
            40.752025
          ],
          [
            -73.931452,
            40.751981
          ],
          [
            -73.931641,
            40.751978
          ],
          [
            -73.931965,
            40.75197
          ],
          [
            -73.932286,
            40.751944
          ],
          [
            -73.932604,
            40.7519
          ],
          [
            -73.932916,
            40.751836
          ],
          [
            -73.933221,
            40.751755
          ],
          [
            -73.933516,
            40.751656
          ],
          [
            -73.933801,
            40.75154
          ],
          [
            -73.934072,
            40.751408
          ],
          [
            -73.93433,
            40.75126
          ],
          [
            -73.934572,
            40.751098
          ],
          [
            -73.934753,
            40.750963
          ],
          [
            -73.934929,
            40.750813
          ],
          [
            -73.935267,
            40.750555
          ],
          [
            -73.936147,
            40.749742
          ],
          [
            -73.936368,
            40.749551
          ],
          [
            -73.936494,
            40.749451
          ],
          [
            -73.93661,
            40.74937
          ],
          [
            -73.936812,
            40.749261
          ],
          [
            -73.937988,
            40.748784
          ],
          [
            -73.939114,
            40.748331
          ],
          [
            -73.939416,
            40.748242
          ],
          [
            -73.939687,
            40.748127
          ],
          [
            -73.940918,
            40.747687
          ],
          [
            -73.941902,
            40.747336
          ],
          [
            -73.942061,
            40.747285
          ],
          [
            -73.942227,
            40.74725
          ],
          [
            -73.942397,
            40.74723
          ],
          [
            -73.94257,
            40.747226
          ],
          [
            -73.942742,
            40.747238
          ],
          [
            -73.942911,
            40.747266
          ],
          [
            -73.943995,
            40.747476
          ],
          [
            -73.946864,
            40.748033
          ],
          [
            -73.954604,
            40.749537
          ],
          [
            -73.954901,
            40.749616
          ],
          [
            -73.955179,
            40.749729
          ],
          [
            -73.95543,
            40.749873
          ],
          [
            -73.958647,
            40.75215
          ],
          [
            -73.959999,
            40.753102
          ],
          [
            -73.962176,
            40.754638
          ],
          [
            -73.962408,
            40.754782
          ],
          [
            -73.962668,
            40.754906
          ],
          [
            -73.9704,
            40.75817
          ],
          [
            -73.971507,
            40.758636
          ],
          [
            -73.97284,
            40.759199
          ],
          [
            -73.975982,
            40.760524
          ],
          [
            -73.976618,
            40.760792
          ],
          [
            -73.982664,
            40.763342
          ],
          [
            -73.982805,
            40.763408
          ],
          [
            -73.983612,
            40.763745
          ],
          [
            -73.983779,
            40.7638
          ],
          [
            -73.983906,
            40.763829
          ],
          [
            -73.984125,
            40.763849
          ],
          [
            -73.984251,
            40.763847
          ],
          [
            -73.98441,
            40.763835
          ],
          [
            -73.984566,
            40.76381
          ],
          [
            -73.984609,
            40.763799
          ],
          [
            -73.984718,
            40.763773
          ],
          [
            -73.984962,
            40.763689
          ],
          [
            -73.98514,
            40.7636
          ],
          [
            -73.985223,
            40.763544
          ],
          [
            -73.985395,
            40.763364
          ],
          [
            -73.98698,
            40.761204
          ],
          [
            -73.987284,
            40.760788
          ],
          [
            -73.987362,
            40.760681
          ],
          [
            -73.987603,
            40.76035
          ],
          [
            -73.987702,
            40.76014
          ],
          [
            -73.988811,
            40.758619
          ],
          [
            -73.989192,
            40.758133
          ],
          [
            -73.98945,
            40.757772
          ],
          [
            -73.989952,
            40.756949
          ],
          [
            -73.990115,
            40.75671
          ],
          [
            -73.990765,
            40.755796
          ],
          [
            -73.990964,
            40.755549
          ],
          [
            -73.991172,
            40.755339
          ],
          [
            -73.992071,
            40.754104
          ],
          [
            -73.992414,
            40.753631
          ],
          [
            -73.992654,
            40.753377
          ],
          [
            -73.992827,
            40.75317
          ],
          [
            -73.994067,
            40.751466
          ],
          [
            -73.994174,
            40.751315
          ],
          [
            -73.994253,
            40.751179
          ],
          [
            -73.996324,
            40.748333
          ],
          [
            -73.997246,
            40.746918
          ],
          [
            -73.997437,
            40.746693
          ],
          [
            -73.997287,
            40.746936
          ],
          [
            -73.997479,
            40.74671
          ],
          [
            -74.000006,
            40.743238
          ],
          [
            -74.001118,
            40.741709
          ],
          [
            -74.002177,
            40.740248
          ],
          [
            -74.002455,
            40.739863
          ],
          [
            -74.002526,
            40.739746
          ],
          [
            -74.002578,
            40.739624
          ],
          [
            -74.002611,
            40.739499
          ],
          [
            -74.002624,
            40.739371
          ],
          [
            -74.002618,
            40.739243
          ],
          [
            -74.002592,
            40.739116
          ],
          [
            -74.002547,
            40.738992
          ],
          [
            -74.002483,
            40.738874
          ],
          [
            -74.00171,
            40.737541
          ],
          [
            -73.999799,
            40.734352
          ],
          [
            -73.999755,
            40.734246
          ],
          [
            -73.999722,
            40.734137
          ],
          [
            -73.9997,
            40.734027
          ],
          [
            -73.999689,
            40.733917
          ],
          [
            -73.99969,
            40.733805
          ],
          [
            -73.999702,
            40.733695
          ],
          [
            -73.999725,
            40.733585
          ],
          [
            -73.999759,
            40.733477
          ],
          [
            -73.999805,
            40.733371
          ],
          [
            -73.999906,
            40.733151
          ],
          [
            -74.000006,
            40.732989
          ],
          [
            -74.001093,
            40.731475
          ],
          [
            -74.001341,
            40.731115
          ],
          [
            -74.001607,
            40.73071
          ],
          [
            -74.001848,
            40.730335
          ],
          [
            -74.002026,
            40.730019
          ],
          [
            -74.002466,
            40.729241
          ],
          [
            -74.002776,
            40.728631
          ],
          [
            -74.003471,
            40.726918
          ],
          [
            -74.00403,
            40.725562
          ],
          [
            -74.005291,
            40.722497
          ],
          [
            -74.00533,
            40.722364
          ],
          [
            -74.005335,
            40.722113
          ],
          [
            -74.00523,
            40.720146
          ],
          [
            -74.005224,
            40.720048
          ],
          [
            -74.005212,
            40.719834
          ],
          [
            -74.005173,
            40.719071
          ],
          [
            -74.005183,
            40.718925
          ],
          [
            -74.00523,
            40.718725
          ],
          [
            -74.005284,
            40.718578
          ],
          [
            -74.005404,
            40.718347
          ],
          [
            -74.005462,
            40.718261
          ],
          [
            -74.005847,
            40.71777
          ],
          [
            -74.00608,
            40.717475
          ],
          [
            -74.006213,
            40.717235
          ],
          [
            -74.007669,
            40.715395
          ],
          [
            -74.007768,
            40.715198
          ],
          [
            -74.007969,
            40.714941
          ],
          [
            -74.009632,
            40.712814
          ],
          [
            -74.009908,
            40.712474
          ],
          [
            -74.009976,
            40.712374
          ],
          [
            -74.010039,
            40.712255
          ],
          [
            -74.010081,
            40.712153
          ]
        ]
      }
    }
  ]
}