{
  "type": "FeatureCollection",
  "features": [
    {
      "type": "Feature",
      "properties": {
        "creator": "BRouter-1.7.9",
        "name": "[MTA] Shuttle (Rockaway Park)",
        "track-length": "9530",
        "filtered ascend": "2",
        "plain-ascend": "1",
        "total-time": "763",
        "total-energy": "418908",
        "cost": "19060",
        "messages": [
          [
            "Longitude",
            "Latitude",
            "Elevation",
            "Distance",
            "CostPerKm",
            "ElevCost",
            "TurnCost",
            "NodeCost",
            "InitialCost",
            "WayTags",
            "NodeTags",
            "Time",
            "Energy"
          ],
          [
            "-73815590",
            "40607472",
            "1",
            "208",
            "2000",
            "0",
            "0",
            "0",
            "0",
            "railway=subway",
            "wheelchair=limited railway=halt",
            "16",
            "9458"
          ],
          [
            "-73809515",
            "40593296",
            "2",
            "1655",
            "2000",
            "0",
            "0",
            "0",
            "0",
            "railway=subway",
            "railway=switch",
            "149",
            "81503"
          ],
          [
            "-73811017",
            "40589268",
            "3",
            "492",
            "2000",
            "0",
            "0",
            "0",
            "0",
            "railway=subway",
            "railway=switch",
            "188",
            "105942"
          ],
          [
            "-73814611",
            "40587681",
            "3",
            "353",
            "2000",
            "0",
            "0",
            "0",
            "0",
            "railway=subway",
            "wheelchair=no railway=halt",
            "216",
            "121537"
          ],
          [
            "-73821470",
            "40584991",
            "3",
            "653",
            "2000",
            "0",
            "0",
            "0",
            "0",
            "railway=subway",
            "wheelchair=no railway=halt",
            "268",
            "150262"
          ],
          [
            "-73828573",
            "40582943",
            "3",
            "643",
            "2000",
            "0",
            "0",
            "0",
            "0",
            "railway=subway",
            "wheelchair=no railway=halt",
            "320",
            "178544"
          ],
          [
            "-73832043",
            "40581889",
            "3",
            "316",
            "2000",
            "0",
            "0",
            "0",
            "0",
            "railway=subway",
            "railway=switch",
            "345",
            "192435"
          ],
          [
            "-73832261",
            "40581828",
            "2",
            "20",
            "2000",
            "0",
            "0",
            "0",
            "0",
            "reversedirection=yes railway=subway",
            "railway=switch",
            "347",
            "193196"
          ],
          [
            "-73832933",
            "40581640",
            "1",
            "61",
            "2000",
            "0",
            "0",
            "0",
            "0",
            "reversedirection=yes railway=subway",
            "railway=switch",
            "352",
            "195232"
          ],
          [
            "-73833388",
            "40581475",
            "1",
            "43",
            "2000",
            "0",
            "0",
            "0",
            "0",
            "railway=subway",
            "railway=switch",
            "355",
            "196777"
          ],
          [
            "-73833584",
            "40581420",
            "1",
            "18",
            "2000",
            "0",
            "0",
            "0",
            "0",
            "railway=subway",
            "railway=switch",
            "356",
            "197535"
          ],
          [
            "-73836651",
            "40580559",
            "2",
            "277",
            "2000",
            "0",
            "0",
            "0",
            "0",
            "railway=subway",
            "wheelchair=yes railway=buffer_stop",
            "379",
            "210387"
          ],
          [
            "-73836904",
            "40580487",
            "3",
            "23",
            "2000",
            "0",
            "0",
            "0",
            "0",
            "railway=subway",
            "",
            "380",
            "211499"
          ],
          [
            "-73836651",
            "40580559",
            "2",
            "23",
            "2000",
            "0",
            "0",
            "0",
            "0",
            "reversedirection=yes railway=subway",
            "wheelchair=yes railway=buffer_stop",
            "1",
            "920"
          ],
          [
            "-73833584",
            "40581420",
            "1",
            "277",
            "2000",
            "0",
            "0",
            "0",
            "0",
            "reversedirection=yes railway=subway",
            "railway=switch",
            "24",
            "12344"
          ],
          [
            "-73833388",
            "40581475",
            "1",
            "18",
            "2000",
            "0",
            "0",
            "0",
            "0",
            "reversedirection=yes railway=subway",
            "railway=switch",
            "25",
            "12985"
          ],
          [
            "-73831536",
            "40581992",
            "3",
            "167",
            "2000",
            "0",
            "0",
            "0",
            "0",
            "railway=subway",
            "railway=switch",
            "38",
            "21028"
          ],
          [
            "-73830460",
            "40582295",
            "-8192",
            "97",
            "2000",
            "0",
            "0",
            "0",
            "0",
            "railway=subway",
            "",
            "46",
            "25621"
          ],
          [
            "-73826458",
            "40583499",
            "-8192",
            "365",
            "2000",
            "0",
            "0",
            "0",
            "0",
            "railway=subway",
            "wheelchair=no railway=halt",
            "29",
            "16054"
          ],
          [
            "-73819528",
            "40585703",
            "-8192",
            "637",
            "2000",
            "0",
            "0",
            "0",
            "0",
            "railway=subway",
            "wheelchair=no railway=halt",
            "80",
            "44073"
          ],
          [
            "-73812483",
            "40588481",
            "-8192",
            "672",
            "2000",
            "0",
            "0",
            "0",
            "0",
            "railway=subway",
            "wheelchair=no railway=halt",
            "133",
            "73631"
          ],
          [
            "-73810582",
            "40589559",
            "-8192",
            "200",
            "2000",
            "0",
            "0",
            "0",
            "0",
            "railway=subway",
            "railway=switch",
            "149",
            "82428"
          ],
          [
            "-73810368",
            "40589752",
            "-8192",
            "28",
            "2000",
            "0",
            "0",
            "0",
            "0",
            "railway=subway",
            "railway=switch",
            "152",
            "83659"
          ],
          [
            "-73809462",
            "40593296",
            "2",
            "418",
            "2000",
            "0",
            "0",
            "0",
            "0",
            "railway=subway",
            "railway=switch",
            "185",
            "101272"
          ],
          [
            "-73816182",
            "40609289",
            "0",
            "1865",
            "2000",
            "0",
            "0",
            "0",
            "0",
            "railway=subway",
            "wheelchair=limited railway=halt",
            "334",
            "181747"
          ],
          [
            "-73816185",
            "40609300",
            "0",
            "1",
            "2000",
            "0",
            "0",
            "0",
            "0",
            "railway=subway",
            "",
            "334",
            "181788"
          ]
        ],
        "times": [
          0,
          3.76,
          6.08,
          12.72,
          16.64,
          18.16,
          32.8,
          42.72,
          48.72,
          56.4,
          86.96,
          99.6,
          120.24,
          128,
          147.44,
          149.04,
          152.56,
          154.96,
          156.8,
          159.76,
          162.16,
          163.84,
          166.16,
          168.72,
          171.76,
          173.6,
          177.2,
          179.6,
          182.72,
          184.16,
          185.76,
          188.4,
          190.08,
          191.76,
          194,
          198.56,
          201.44,
          216.64,
          247.36,
          261.92,
          265.76,
          268.88,
          274.96,
          278.88,
          320.32,
          322.48,
          324.88,
          329.04,
          332.48,
          341.2,
          345.6,
          347.2,
          352.08,
          354.16,
          355.52,
          356.96,
          362.32,
          379.12,
          380.96,
          382.8,
          399.6,
          404.96,
          406.4,
          412.64,
          419.76,
          420.56,
          426.24,
          427.52,
          431.2,
          433.12,
          435.2,
          439.36,
          456.72,
          482.8,
          487.04,
          493.04,
          496.8,
          507.68,
          561.44,
          565.2,
          567.36,
          569.04,
          571.04,
          572.96,
          577.44,
          579.68,
          582.56,
          584.56,
          586.16,
          588.56,
          592.24,
          593.36,
          596.4,
          597.6,
          600,
          601.6,
          603.44,
          605.28,
          607.6,
          613.12,
          634.16,
          641.92,
          662.56,
          677.04,
          685.84,
          713.52,
          720.24,
          738.48,
          741.52,
          744.08,
          750,
          753.68,
          757.6,
          762.32,
          762.4
        ]
      },
      "geometry": {
        "type": "LineString",
        "coordinates": [
          [
            -73.816225,
            40.609287,
            0.5
          ],
          [
            -73.816113,
            40.608876,
            1
          ],
          [
            -73.816032,
            40.608618,
            1
          ],
          [
            -73.815768,
            40.607894,
            0.75
          ],
          [
            -73.81559,
            40.607472,
            1
          ],
          [
            -73.815516,
            40.607306,
            0.75
          ],
          [
            -73.814845,
            40.605736,
            0.25
          ],
          [
            -73.814403,
            40.604674,
            0
          ],
          [
            -73.814117,
            40.604031,
            0
          ],
          [
            -73.813769,
            40.603204,
            0
          ],
          [
            -73.812363,
            40.599931,
            0.5
          ],
          [
            -73.811779,
            40.598577,
            0.75
          ],
          [
            -73.810834,
            40.596371,
            1.25
          ],
          [
            -73.810483,
            40.595544,
            1.5
          ],
          [
            -73.809589,
            40.593466,
            2
          ],
          [
            -73.809515,
            40.593296,
            2
          ],
          [
            -73.809402,
            40.592911,
            2
          ],
          [
            -73.809344,
            40.592647,
            2
          ],
          [
            -73.809291,
            40.592446,
            2
          ],
          [
            -73.809271,
            40.592115,
            2.25
          ],
          [
            -73.809286,
            40.591844,
            2.5
          ],
          [
            -73.809316,
            40.591652,
            2.75
          ],
          [
            -73.809385,
            40.591394,
            3
          ],
          [
            -73.80948,
            40.591118,
            3
          ],
          [
            -73.809626,
            40.590799,
            3
          ],
          [
            -73.809732,
            40.590609,
            3
          ],
          [
            -73.80998,
            40.590246,
            3
          ],
          [
            -73.81017,
            40.590017,
            3
          ],
          [
            -73.810447,
            40.589736,
            3
          ],
          [
            -73.810585,
            40.589612,
            3
          ],
          [
            -73.810746,
            40.589477,
            3
          ],
          [
            -73.811017,
            40.589268,
            3
          ],
          [
            -73.811199,
            40.589146,
            3
          ],
          [
            -73.811389,
            40.58903,
            3
          ],
          [
            -73.811659,
            40.588881,
            3
          ],
          [
            -73.812241,
            40.588617,
            3
          ],
          [
            -73.81262,
            40.588463,
            3
          ],
          [
            -73.814611,
            40.587681,
            3
          ],
          [
            -73.818639,
            40.586096,
            3
          ],
          [
            -73.820542,
            40.585338,
            3
          ],
          [
            -73.82105,
            40.585141,
            3
          ],
          [
            -73.82147,
            40.584991,
            3
          ],
          [
            -73.822292,
            40.584717,
            3
          ],
          [
            -73.822833,
            40.584556,
            3
          ],
          [
            -73.828573,
            40.582943,
            3
          ],
          [
            -73.828875,
            40.582863,
            3
          ],
          [
            -73.829205,
            40.582756,
            3
          ],
          [
            -73.82976,
            40.582557,
            3
          ],
          [
            -73.830226,
            40.582405,
            3
          ],
          [
            -73.831432,
            40.58206,
            3
          ],
          [
            -73.832043,
            40.581889,
            3
          ],
          [
            -73.832261,
            40.581828,
            2.5
          ],
          [
            -73.832933,
            40.58164,
            1.5
          ],
          [
            -73.833203,
            40.581537,
            1.25
          ],
          [
            -73.833388,
            40.581475,
            1.25
          ],
          [
            -73.833584,
            40.58142,
            1.75
          ],
          [
            -73.834322,
            40.581211,
            2.75
          ],
          [
            -73.836651,
            40.580559,
            2.75
          ],
          [
            -73.836904,
            40.580487,
            3.25
          ],
          [
            -73.836651,
            40.580559,
            2.75
          ],
          [
            -73.834322,
            40.581211,
            2.75
          ],
          [
            -73.833584,
            40.58142,
            1.75
          ],
          [
            -73.833388,
            40.581475,
            1.25
          ],
          [
            -73.83252,
            40.581713,
            2
          ],
          [
            -73.831536,
            40.581992,
            3.5
          ],
          [
            -73.831427,
            40.582022,
            3.5
          ],
          [
            -73.830637,
            40.582242
          ],
          [
            -73.83046,
            40.582295,
            3.5
          ],
          [
            -73.829951,
            40.582448,
            3.5
          ],
          [
            -73.829692,
            40.582535,
            3.5
          ],
          [
            -73.829418,
            40.582637,
            3.5
          ],
          [
            -73.828858,
            40.582824,
            3.5
          ],
          [
            -73.826458,
            40.583499,
            3.5
          ],
          [
            -73.822845,
            40.584511,
            3.5
          ],
          [
            -73.822259,
            40.584686,
            3.5
          ],
          [
            -73.821452,
            40.584958,
            3.5
          ],
          [
            -73.820952,
            40.585139,
            3.5
          ],
          [
            -73.819528,
            40.585703,
            3.5
          ],
          [
            -73.812483,
            40.588481,
            3.5
          ],
          [
            -73.811991,
            40.588679,
            3.5
          ],
          [
            -73.811716,
            40.588808,
            3.5
          ],
          [
            -73.811507,
            40.588915,
            3.5
          ],
          [
            -73.81127,
            40.589055,
            3.5
          ],
          [
            -73.811048,
            40.589196,
            3.5
          ],
          [
            -73.810582,
            40.589559,
            3.5
          ],
          [
            -73.810368,
            40.589752,
            3.5
          ],
          [
            -73.810122,
            40.590014,
            3.5
          ],
          [
            -73.80996,
            40.590198,
            3.5
          ],
          [
            -73.809846,
            40.590354,
            3.5
          ],
          [
            -73.809685,
            40.590599,
            3.5
          ],
          [
            -73.809487,
            40.590982,
            3.5
          ],
          [
            -73.809435,
            40.591106,
            3.5
          ],
          [
            -73.809327,
            40.591434,
            3.25
          ],
          [
            -73.809292,
            40.591564,
            3
          ],
          [
            -73.809242,
            40.591835,
            2.75
          ],
          [
            -73.809226,
            40.592015,
            2.75
          ],
          [
            -73.809228,
            40.592224,
            2.75
          ],
          [
            -73.809245,
            40.59243,
            2.5
          ],
          [
            -73.809293,
            40.592685,
            2.5
          ],
          [
            -73.809462,
            40.593296,
            2.25
          ],
          [
            -73.81043,
            40.595551,
            1.5
          ],
          [
            -73.81079,
            40.59638,
            1
          ],
          [
            -73.811738,
            40.598588,
            0.25
          ],
          [
            -73.812409,
            40.600134,
            -0.25
          ],
          [
            -73.812808,
            40.601078,
            -0.25
          ],
          [
            -73.814073,
            40.604042,
            0.25
          ],
          [
            -73.814389,
            40.604758,
            0.5
          ],
          [
            -73.815207,
            40.606714,
            0.75
          ],
          [
            -73.815346,
            40.607036,
            1
          ],
          [
            -73.815472,
            40.607306,
            1
          ],
          [
            -73.815738,
            40.607945,
            0.75
          ],
          [
            -73.815884,
            40.60834,
            1
          ],
          [
            -73.81603,
            40.60877,
            1
          ],
          [
            -73.816182,
            40.609289,
            0.75
          ],
          [
            -73.816185,
            40.6093,
            0.5
          ]
        ]
      }
    }
  ]
}