{
  "type": "FeatureCollection",
  "features": [
    {
      "type": "Feature",
      "properties": {
        "creator": "BRouter-1.7.9",
        "name": "[MTA] G Train",
        "track-length": "35856",
        "filtered ascend": "2",
        "plain-ascend": "-3",
        "total-time": "2868",
        "total-energy": "1575589",
        "cost": "71712",
        "messages": [
          [
            "Longitude",
            "Latitude",
            "Elevation",
            "Distance",
            "CostPerKm",
            "ElevCost",
            "TurnCost",
            "NodeCost",
            "InitialCost",
            "WayTags",
            "NodeTags",
            "Time",
            "Energy"
          ],
          [
            "-73979614",
            "40643193",
            "-8192",
            "6",
            "2000",
            "0",
            "0",
            "0",
            "0",
            "reversedirection=yes railway=subway",
            "wheelchair=yes railway=halt",
            "0",
            "263"
          ],
          [
            "-73975802",
            "40650717",
            "-8192",
            "984",
            "2000",
            "0",
            "0",
            "0",
            "0",
            "reversedirection=yes railway=subway",
            "wheelchair=no railway=halt",
            "79",
            "43545"
          ],
          [
            "-73980109",
            "40659488",
            "-8192",
            "1118",
            "2000",
            "0",
            "0",
            "0",
            "0",
            "reversedirection=yes railway=subway",
            "wheelchair=no railway=halt",
            "168",
            "92720"
          ],
          [
            "-73979182",
            "40665627",
            "-8192",
            "877",
            "2000",
            "0",
            "0",
            "0",
            "0",
            "reversedirection=yes railway=subway",
            "wheelchair=no railway=halt",
            "238",
            "131295"
          ],
          [
            "-73989867",
            "40670248",
            "16",
            "1044",
            "2000",
            "0",
            "0",
            "0",
            "0",
            "reversedirection=yes railway=subway",
            "wheelchair=no railway=halt",
            "322",
            "175024"
          ],
          [
            "-73990966",
            "40670775",
            "16",
            "110",
            "2000",
            "0",
            "0",
            "0",
            "0",
            "reversedirection=yes railway=subway",
            "railway=switch",
            "331",
            "179558"
          ],
          [
            "-73991492",
            "40671019",
            "16",
            "52",
            "2000",
            "0",
            "0",
            "0",
            "0",
            "reversedirection=yes railway=subway",
            "railway=switch",
            "335",
            "181783"
          ],
          [
            "-73995088",
            "40672920",
            "16",
            "371",
            "2000",
            "0",
            "0",
            "0",
            "0",
            "reversedirection=yes railway=subway",
            "wheelchair=no railway=halt",
            "364",
            "198014"
          ],
          [
            "-73995683",
            "40679497",
            "-8192",
            "842",
            "2000",
            "0",
            "0",
            "0",
            "0",
            "reversedirection=yes railway=subway",
            "wheelchair=no railway=halt",
            "432",
            "235541"
          ],
          [
            "-73991428",
            "40685349",
            "-8192",
            "745",
            "2000",
            "0",
            "0",
            "0",
            "0",
            "reversedirection=yes railway=subway",
            "wheelchair=no railway=halt",
            "491",
            "268699"
          ],
          [
            "-73990203",
            "40687154",
            "-8192",
            "226",
            "2000",
            "0",
            "0",
            "0",
            "0",
            "reversedirection=yes railway=subway",
            "railway=switch",
            "509",
            "278640"
          ],
          [
            "-73986103",
            "40688906",
            "-8192",
            "502",
            "2000",
            "0",
            "0",
            "0",
            "0",
            "reversedirection=yes railway=subway",
            "wheelchair=limited railway=halt",
            "550",
            "300720"
          ],
          [
            "-73976323",
            "40687063",
            "-8192",
            "874",
            "2000",
            "0",
            "0",
            "0",
            "0",
            "reversedirection=yes railway=subway",
            "wheelchair=no railway=halt",
            "620",
            "339163"
          ],
          [
            "-73967902",
            "40687993",
            "-8192",
            "718",
            "2000",
            "0",
            "0",
            "0",
            "0",
            "reversedirection=yes railway=subway",
            "wheelchair=no railway=halt",
            "677",
            "370745"
          ],
          [
            "-73961121",
            "40688790",
            "-8192",
            "580",
            "2000",
            "0",
            "0",
            "0",
            "0",
            "reversedirection=yes railway=subway",
            "wheelchair=no railway=halt",
            "723",
            "396256"
          ],
          [
            "-73956709",
            "40689301",
            "-8192",
            "377",
            "2000",
            "0",
            "0",
            "0",
            "0",
            "reversedirection=yes railway=subway",
            "railway=switch",
            "754",
            "412839"
          ],
          [
            "-73954397",
            "40689585",
            "-8192",
            "198",
            "2000",
            "0",
            "0",
            "0",
            "0",
            "reversedirection=yes railway=subway",
            "wheelchair=no railway=halt",
            "769",
            "421548"
          ],
          [
            "-73948894",
            "40693701",
            "-8192",
            "861",
            "2000",
            "0",
            "0",
            "0",
            "0",
            "reversedirection=yes railway=subway",
            "wheelchair=no railway=halt",
            "838",
            "459419"
          ],
          [
            "-73950037",
            "40699352",
            "-8192",
            "635",
            "2000",
            "0",
            "0",
            "0",
            "0",
            "reversedirection=yes railway=subway",
            "wheelchair=no railway=halt",
            "889",
            "487350"
          ],
          [
            "-73950271",
            "40705671",
            "-8192",
            "704",
            "2000",
            "0",
            "0",
            "0",
            "0",
            "reversedirection=yes railway=subway",
            "wheelchair=no railway=halt",
            "945",
            "518315"
          ],
          [
            "-73951468",
            "40712930",
            "-8192",
            "812",
            "2000",
            "0",
            "0",
            "0",
            "0",
            "reversedirection=yes railway=subway",
            "wheelchair=no railway=halt",
            "1010",
            "554031"
          ],
          [
            "-73950853",
            "40723851",
            "-8192",
            "1293",
            "2000",
            "0",
            "0",
            "0",
            "0",
            "reversedirection=yes railway=subway",
            "wheelchair=no railway=halt",
            "1114",
            "610904"
          ],
          [
            "-73954327",
            "40730419",
            "-8192",
            "787",
            "2000",
            "0",
            "0",
            "0",
            "0",
            "reversedirection=yes railway=subway",
            "wheelchair=no railway=halt",
            "1177",
            "645520"
          ],
          [
            "-73950707",
            "40743605",
            "-8192",
            "1645",
            "2000",
            "0",
            "0",
            "0",
            "0",
            "reversedirection=yes railway=subway",
            "wheelchair=no railway=halt",
            "1308",
            "717876"
          ],
          [
            "-73943928",
            "40746560",
            "-8192",
            "660",
            "2000",
            "0",
            "0",
            "0",
            "0",
            "reversedirection=yes railway=subway",
            "wheelchair=no railway=halt",
            "1361",
            "746906"
          ],
          [
            "-73943525",
            "40746719",
            "-8192",
            "38",
            "2000",
            "0",
            "0",
            "0",
            "0",
            "reversedirection=yes railway=subway",
            "",
            "1364",
            "748578"
          ],
          [
            "-73939786",
            "40748128",
            "-8192",
            "352",
            "2000",
            "0",
            "0",
            "0",
            "0",
            "reversedirection=yes railway=subway",
            "railway=switch",
            "28",
            "15482"
          ],
          [
            "-73939706",
            "40748157",
            "-8192",
            "7",
            "2000",
            "0",
            "0",
            "0",
            "0",
            "reversedirection=yes railway=subway",
            "railway=switch",
            "28",
            "15790"
          ],
          [
            "-73939416",
            "40748242",
            "-8192",
            "26",
            "2000",
            "0",
            "0",
            "0",
            "0",
            "reversedirection=yes railway=subway",
            "railway=unknown",
            "30",
            "16934"
          ],
          [
            "-73939114",
            "40748331",
            "-8192",
            "27",
            "2000",
            "0",
            "0",
            "0",
            "0",
            "reversedirection=yes railway=subway",
            "railway=switch",
            "32",
            "18121"
          ],
          [
            "-73937988",
            "40748784",
            "-8192",
            "108",
            "2000",
            "0",
            "0",
            "0",
            "0",
            "reversedirection=yes railway=subway",
            "wheelchair=yes railway=halt",
            "41",
            "22872"
          ],
          [
            "-73935267",
            "40750555",
            "-8192",
            "307",
            "2000",
            "0",
            "0",
            "0",
            "0",
            "reversedirection=yes railway=subway",
            "railway=switch",
            "66",
            "36375"
          ],
          [
            "-73934929",
            "40750813",
            "-8192",
            "40",
            "2000",
            "0",
            "0",
            "0",
            "0",
            "reversedirection=yes railway=subway",
            "railway=switch",
            "69",
            "38135"
          ],
          [
            "-73935233",
            "40750533",
            "-8192",
            "40",
            "2000",
            "0",
            "0",
            "0",
            "0",
            "reversedirection=yes railway=subway",
            "railway=switch",
            "72",
            "39894"
          ],
          [
            "-73935442",
            "40750342",
            "-8192",
            "28",
            "2000",
            "0",
            "0",
            "0",
            "0",
            "reversedirection=yes railway=subway",
            "railway=switch",
            "74",
            "41126"
          ],
          [
            "-73935744",
            "40750008",
            "-8192",
            "45",
            "2000",
            "0",
            "0",
            "0",
            "0",
            "reversedirection=yes railway=subway",
            "railway=unknown",
            "78",
            "43105"
          ],
          [
            "-73936004",
            "40749712",
            "-8192",
            "40",
            "2000",
            "0",
            "0",
            "0",
            "0",
            "reversedirection=yes railway=subway",
            "railway=switch",
            "81",
            "44864"
          ],
          [
            "-73936046",
            "40749673",
            "-8192",
            "6",
            "2000",
            "0",
            "0",
            "0",
            "0",
            "reversedirection=yes railway=subway",
            "wheelchair=yes railway=halt",
            "82",
            "45128"
          ],
          [
            "-73938023",
            "40748646",
            "-8192",
            "205",
            "2000",
            "0",
            "0",
            "0",
            "0",
            "reversedirection=yes railway=subway",
            "railway=switch",
            "98",
            "54145"
          ],
          [
            "-73940584",
            "40747731",
            "6",
            "239",
            "2000",
            "0",
            "0",
            "0",
            "0",
            "reversedirection=yes railway=subway",
            "estimated_crossing_class=6",
            "117",
            "64658"
          ],
          [
            "-73943875",
            "40746482",
            "-8192",
            "310",
            "2000",
            "0",
            "0",
            "0",
            "0",
            "reversedirection=yes railway=subway",
            "wheelchair=no railway=halt",
            "142",
            "78293"
          ],
          [
            "-73948874",
            "40744455",
            "-8192",
            "479",
            "2000",
            "0",
            "0",
            "0",
            "0",
            "reversedirection=yes railway=subway",
            "wheelchair=no railway=halt",
            "180",
            "99362"
          ],
          [
            "-73954569",
            "40732185",
            "-8192",
            "1628",
            "2000",
            "0",
            "0",
            "0",
            "0",
            "reversedirection=yes railway=subway",
            "wheelchair=no railway=halt",
            "310",
            "170970"
          ],
          [
            "-73951685",
            "40725393",
            "-8192",
            "798",
            "2000",
            "0",
            "0",
            "0",
            "0",
            "reversedirection=yes railway=subway",
            "wheelchair=no railway=halt",
            "374",
            "206070"
          ],
          [
            "-73951423",
            "40712934",
            "-8192",
            "1479",
            "2000",
            "0",
            "0",
            "0",
            "0",
            "reversedirection=yes railway=subway",
            "wheelchair=no railway=halt",
            "493",
            "271125"
          ],
          [
            "-73950499",
            "40707331",
            "-8192",
            "627",
            "2000",
            "0",
            "0",
            "0",
            "0",
            "reversedirection=yes railway=subway",
            "wheelchair=no railway=halt",
            "543",
            "298703"
          ],
          [
            "-73950265",
            "40701099",
            "-8192",
            "694",
            "2000",
            "0",
            "0",
            "0",
            "0",
            "reversedirection=yes railway=subway",
            "wheelchair=no railway=halt",
            "598",
            "329229"
          ],
          [
            "-73949201",
            "40695437",
            "-8192",
            "635",
            "2000",
            "0",
            "0",
            "0",
            "0",
            "reversedirection=yes railway=subway",
            "wheelchair=no railway=halt",
            "649",
            "357160"
          ],
          [
            "-73948428",
            "40691556",
            "-8192",
            "436",
            "2000",
            "0",
            "0",
            "0",
            "0",
            "reversedirection=yes railway=subway",
            "",
            "684",
            "376337"
          ],
          [
            "-73952213",
            "40689730",
            "-8192",
            "443",
            "2000",
            "0",
            "0",
            "0",
            "0",
            "reversedirection=yes railway=subway",
            "wheelchair=no railway=halt",
            "35",
            "19485"
          ],
          [
            "-73956695",
            "40689233",
            "-8192",
            "383",
            "2000",
            "0",
            "0",
            "0",
            "0",
            "reversedirection=yes railway=subway",
            "railway=switch",
            "66",
            "36331"
          ],
          [
            "-73958985",
            "40688969",
            "-8192",
            "196",
            "2000",
            "0",
            "0",
            "0",
            "0",
            "reversedirection=yes railway=subway",
            "wheelchair=no railway=halt",
            "81",
            "44952"
          ],
          [
            "-73965718",
            "40688212",
            "-8192",
            "576",
            "2000",
            "0",
            "0",
            "0",
            "0",
            "reversedirection=yes railway=subway",
            "wheelchair=no railway=halt",
            "127",
            "70288"
          ],
          [
            "-73974131",
            "40687250",
            "-8192",
            "720",
            "2000",
            "0",
            "0",
            "0",
            "0",
            "reversedirection=yes railway=subway",
            "wheelchair=no railway=halt",
            "185",
            "101957"
          ],
          [
            "-73984163",
            "40688109",
            "-8192",
            "877",
            "2000",
            "0",
            "0",
            "0",
            "0",
            "reversedirection=yes railway=subway",
            "wheelchair=limited railway=halt",
            "255",
            "140532"
          ],
          [
            "-73990162",
            "40687139",
            "-8192",
            "685",
            "2000",
            "0",
            "0",
            "0",
            "0",
            "reversedirection=yes railway=subway",
            "railway=switch",
            "310",
            "170662"
          ],
          [
            "-73990363",
            "40686841",
            "-8192",
            "37",
            "2000",
            "0",
            "0",
            "0",
            "0",
            "reversedirection=yes railway=subway",
            "wheelchair=no railway=halt",
            "313",
            "172290"
          ],
          [
            "-73994400",
            "40680850",
            "-8192",
            "747",
            "2000",
            "0",
            "0",
            "0",
            "0",
            "reversedirection=yes railway=subway",
            "wheelchair=no railway=halt",
            "373",
            "205147"
          ],
          [
            "-73996758",
            "40674324",
            "-8192",
            "791",
            "2000",
            "0",
            "0",
            "0",
            "0",
            "reversedirection=yes railway=subway",
            "wheelchair=no railway=halt",
            "436",
            "237745"
          ],
          [
            "-73995192",
            "40673196",
            "-8192",
            "183",
            "2000",
            "0",
            "0",
            "0",
            "0",
            "reversedirection=yes railway=subway",
            "",
            "451",
            "245783"
          ],
          [
            "-73991347",
            "40671119",
            "-8192",
            "399",
            "2000",
            "0",
            "0",
            "0",
            "0",
            "reversedirection=yes railway=subway",
            "railway=switch",
            "31",
            "17550"
          ],
          [
            "-73991091",
            "40670967",
            "-8192",
            "27",
            "2000",
            "0",
            "0",
            "0",
            "0",
            "reversedirection=yes railway=subway",
            "railway=unknown",
            "34",
            "18737"
          ],
          [
            "-73990826",
            "40670857",
            "-8192",
            "26",
            "2000",
            "0",
            "0",
            "0",
            "0",
            "reversedirection=yes railway=subway",
            "railway=switch",
            "36",
            "19881"
          ],
          [
            "-73990702",
            "40670794",
            "-8192",
            "13",
            "2000",
            "0",
            "0",
            "0",
            "0",
            "reversedirection=yes railway=subway",
            "wheelchair=no railway=halt",
            "37",
            "20453"
          ],
          [
            "-73980880",
            "40666665",
            "-8192",
            "952",
            "2000",
            "0",
            "0",
            "0",
            "0",
            "reversedirection=yes railway=subway",
            "wheelchair=no railway=halt",
            "113",
            "64752"
          ],
          [
            "-73978942",
            "40660936",
            "-8192",
            "884",
            "2000",
            "0",
            "0",
            "0",
            "0",
            "reversedirection=yes railway=subway",
            "wheelchair=no railway=halt",
            "184",
            "103638"
          ],
          [
            "-73975998",
            "40652398",
            "-8192",
            "1122",
            "2000",
            "0",
            "0",
            "0",
            "0",
            "reversedirection=yes railway=subway",
            "wheelchair=no railway=halt",
            "273",
            "152989"
          ],
          [
            "-73979740",
            "40644842",
            "-8192",
            "991",
            "2000",
            "0",
            "0",
            "0",
            "0",
            "reversedirection=yes railway=subway",
            "wheelchair=yes railway=halt",
            "353",
            "196578"
          ],
          [
            "-73979421",
            "40643163",
            "-8192",
            "189",
            "2000",
            "0",
            "0",
            "0",
            "0",
            "reversedirection=yes railway=subway",
            "",
            "368",
            "204891"
          ]
        ],
        "times": [
          0,
          0.48,
          15.12,
          21.12,
          23.2,
          25.2,
          27.36,
          29.36,
          31.36,
          33.28,
          35.28,
          37.52,
          39.36,
          41.44,
          43.44,
          45.44,
          56.48,
          59.44,
          62.4,
          65.36,
          71.04,
          73.76,
          76.48,
          79.2,
          81.92,
          84.64,
          120.64,
          122.08,
          123.52,
          124.96,
          126.4,
          151.52,
          153.12,
          154.64,
          156.16,
          157.68,
          159.2,
          160.72,
          162.24,
          166.48,
          168.64,
          170.8,
          177.28,
          183.68,
          212.4,
          213.6,
          214.8,
          215.92,
          217.04,
          218.16,
          219.28,
          220.48,
          221.68,
          238.8,
          248.48,
          290.32,
          291.6,
          292.56,
          294,
          295.52,
          305.12,
          307.28,
          308.64,
          310,
          311.36,
          312.72,
          313.2,
          322.32,
          331.12,
          335.28,
          340.4,
          345.52,
          347.92,
          350.72,
          364.96,
          367.92,
          372.72,
          375.28,
          377.92,
          380.16,
          383.6,
          384.88,
          386.32,
          387.6,
          388.64,
          389.76,
          391.2,
          393.36,
          394.48,
          395.6,
          397.76,
          400.32,
          401.68,
          414.48,
          423.76,
          425.28,
          426,
          426.24,
          428.24,
          430.24,
          432.32,
          446.48,
          449.2,
          452.8,
          456.48,
          460.48,
          491.92,
          510,
          513.2,
          526.88,
          529.2,
          530.24,
          531.28,
          532.32,
          533.36,
          534.4,
          535.44,
          536.48,
          537.52,
          538.56,
          539.6,
          540.64,
          550.16,
          565.04,
          566.64,
          582,
          583.76,
          585.52,
          598.48,
          600.4,
          602.4,
          604.48,
          613.52,
          615.84,
          620.08,
          621.68,
          623.44,
          634.96,
          650.88,
          677.52,
          712.4,
          721.28,
          723.92,
          754.08,
          765.92,
          769.92,
          802.4,
          804.24,
          806.08,
          807.92,
          809.76,
          811.6,
          813.44,
          815.28,
          817.12,
          838.8,
          877.44,
          889.6,
          900.24,
          901.76,
          903.2,
          928.16,
          942.8,
          945.92,
          967.76,
          1010.88,
          1050.16,
          1060.96,
          1062.24,
          1063.52,
          1064.8,
          1066.08,
          1094.48,
          1095.36,
          1096.24,
          1097.12,
          1098,
          1098.88,
          1114.32,
          1140.08,
          1149.28,
          1161.76,
          1163.36,
          1174.72,
          1176.32,
          1177.28,
          1242.08,
          1244.72,
          1254.4,
          1258.64,
          1261.6,
          1265.2,
          1268.8,
          1272.4,
          1276,
          1279.6,
          1283.2,
          1286.8,
          1296.08,
          1308.88,
          1323.28,
          1326.72,
          1353.12,
          1361.68,
          1364.72,
          1370.24,
          1376.96,
          1392.88,
          1393.44,
          1395.52,
          1397.68,
          1406.32,
          1415.36,
          1417.04,
          1418.08,
          1419.28,
          1421.52,
          1430.88,
          1434.08,
          1437.28,
          1439.52,
          1443.12,
          1446.32,
          1446.8,
          1450.88,
          1452.4,
          1454.24,
          1457.04,
          1463.2,
          1482.32,
          1491.84,
          1507.12,
          1539.12,
          1542.08,
          1545.44,
          1572.72,
          1582,
          1585.6,
          1589.2,
          1592.8,
          1596.4,
          1600,
          1603.6,
          1607.2,
          1610.08,
          1614.32,
          1624,
          1626.64,
          1675.68,
          1692.4,
          1693.92,
          1705.28,
          1706.88,
          1719.36,
          1728.56,
          1739.52,
          1769.76,
          1770.72,
          1771.68,
          1772.64,
          1773.6,
          1774.56,
          1802.96,
          1804.16,
          1805.36,
          1806.56,
          1807.76,
          1818.56,
          1857.84,
          1900.96,
          1908,
          1923.52,
          1926,
          1940.64,
          1963.52,
          1965.6,
          1966.96,
          1968.48,
          1991.28,
          2007.84,
          2014.32,
          2049.2,
          2051.6,
          2053.52,
          2055.44,
          2057.36,
          2059.28,
          2061.2,
          2063.12,
          2065.04,
          2066.96,
          2084.64,
          2103.44,
          2115.28,
          2130.96,
          2148.16,
          2157.04,
          2177.04,
          2191.92,
          2218.64,
          2234.64,
          2246.16,
          2248.16,
          2253.84,
          2256.16,
          2265.28,
          2267.36,
          2269.44,
          2271.36,
          2284.32,
          2286.08,
          2287.84,
          2303.2,
          2304.8,
          2329.28,
          2330.24,
          2331.28,
          2332.32,
          2333.36,
          2334.4,
          2335.44,
          2336.4,
          2337.44,
          2338.4,
          2339.44,
          2340.48,
          2342.72,
          2359.6,
          2362.56,
          2409.04,
          2412.96,
          2416.64,
          2420.24,
          2422.32,
          2439.12,
          2441.04,
          2442.88,
          2443.12,
          2443.76,
          2445.2,
          2454.48,
          2467.68,
          2469.36,
          2470.64,
          2472.64,
          2474.08,
          2475.92,
          2477.76,
          2479.44,
          2480.4,
          2482.48,
          2483.28,
          2485.6,
          2489.44,
          2495.04,
          2497.12,
          2500.08,
          2500.24,
          2515.28,
          2517.76,
          2521.52,
          2526.72,
          2532.16,
          2534.32,
          2536.4,
          2537.44,
          2553.92,
          2554.4,
          2555.68,
          2556.96,
          2558.24,
          2559.52,
          2561.52,
          2571.2,
          2572.8,
          2574.32,
          2575.36,
          2613.6,
          2618.64,
          2645.36,
          2646.56,
          2647.76,
          2648.96,
          2650.16,
          2651.36,
          2652.56,
          2653.76,
          2654.96,
          2684.32,
          2690.72,
          2697.2,
          2699.36,
          2701.44,
          2705.68,
          2707.2,
          2708.72,
          2710.24,
          2711.76,
          2713.28,
          2714.8,
          2716.32,
          2741.44,
          2742.96,
          2744.48,
          2746,
          2747.52,
          2774.08,
          2783.6,
          2786.32,
          2789.12,
          2791.84,
          2794.64,
          2797.44,
          2803.2,
          2806.24,
          2809.28,
          2812.32,
          2823.36,
          2825.36,
          2827.36,
          2829.36,
          2831.36,
          2833.36,
          2835.36,
          2837.36,
          2839.36,
          2841.36,
          2843.36,
          2845.36,
          2847.36,
          2853.36,
          2868,
          2868.48
        ]
      },
      "geometry": {
        "type": "LineString",
        "coordinates": [
          [
            -73.979604,
            40.643142,
            19.25
          ],
          [
            -73.979614,
            40.643193,
            19.25
          ],
          [
            -73.979919,
            40.644823,
            19.25
          ],
          [
            -73.980028,
            40.645495,
            19.25
          ],
          [
            -73.980051,
            40.645727,
            19.25
          ],
          [
            -73.980046,
            40.645951,
            19.25
          ],
          [
            -73.979995,
            40.646193,
            19.25
          ],
          [
            -73.979933,
            40.646412,
            19.25
          ],
          [
            -73.979843,
            40.646626,
            19.25
          ],
          [
            -73.979717,
            40.646824,
            19.25
          ],
          [
            -73.979561,
            40.647015,
            19.25
          ],
          [
            -73.979358,
            40.647216,
            19.25
          ],
          [
            -73.979172,
            40.647373,
            19.25
          ],
          [
            -73.97895,
            40.647531,
            19.25
          ],
          [
            -73.97871,
            40.647668,
            19.25
          ],
          [
            -73.978462,
            40.64779,
            19.25
          ],
          [
            -73.977061,
            40.648428,
            19.25
          ],
          [
            -73.976725,
            40.648644,
            19.25
          ],
          [
            -73.976444,
            40.6489,
            19.25
          ],
          [
            -73.976229,
            40.649191,
            19.25
          ],
          [
            -73.975969,
            40.649801,
            19.25
          ],
          [
            -73.975882,
            40.650103,
            19.25
          ],
          [
            -73.975826,
            40.650408,
            19.25
          ],
          [
            -73.975802,
            40.650717,
            19.25
          ],
          [
            -73.975806,
            40.651024,
            19.25
          ],
          [
            -73.975843,
            40.651333,
            19.25
          ],
          [
            -73.9766,
            40.655348,
            19.25
          ],
          [
            -73.976639,
            40.65551,
            19.25
          ],
          [
            -73.976716,
            40.655664,
            19.25
          ],
          [
            -73.976829,
            40.655805,
            19.25
          ],
          [
            -73.976974,
            40.655927,
            19.25
          ],
          [
            -73.979876,
            40.657687,
            19.25
          ],
          [
            -73.980038,
            40.657812,
            19.25
          ],
          [
            -73.980174,
            40.657953,
            19.25
          ],
          [
            -73.980281,
            40.658107,
            19.25
          ],
          [
            -73.980356,
            40.658272,
            19.25
          ],
          [
            -73.980397,
            40.658444,
            19.25
          ],
          [
            -73.980405,
            40.658619,
            19.25
          ],
          [
            -73.980378,
            40.658792,
            19.25
          ],
          [
            -73.980219,
            40.659255,
            19.25
          ],
          [
            -73.980109,
            40.659488,
            19.25
          ],
          [
            -73.979971,
            40.659707,
            19.25
          ],
          [
            -73.979495,
            40.660345,
            19.25
          ],
          [
            -73.979,
            40.660961,
            19.25
          ],
          [
            -73.976744,
            40.663699,
            19.25
          ],
          [
            -73.976667,
            40.663817,
            19.25
          ],
          [
            -73.976622,
            40.663943,
            19.25
          ],
          [
            -73.976611,
            40.664073,
            19.25
          ],
          [
            -73.976633,
            40.664202,
            19.25
          ],
          [
            -73.976688,
            40.664325,
            19.25
          ],
          [
            -73.976773,
            40.664438,
            19.25
          ],
          [
            -73.976886,
            40.664537,
            19.25
          ],
          [
            -73.977022,
            40.664617,
            19.25
          ],
          [
            -73.979182,
            40.665627,
            19.25
          ],
          [
            -73.980402,
            40.666198,
            19.25
          ],
          [
            -73.985586,
            40.668765,
            19.25
          ],
          [
            -73.985751,
            40.66884,
            19.25
          ],
          [
            -73.985877,
            40.668889,
            19.25
          ],
          [
            -73.986077,
            40.668956,
            19.25
          ],
          [
            -73.986287,
            40.669013,
            19.25
          ],
          [
            -73.987655,
            40.669316,
            19.25
          ],
          [
            -73.987961,
            40.669388,
            18.25
          ],
          [
            -73.988146,
            40.669446,
            17.75
          ],
          [
            -73.988326,
            40.669512,
            17.25
          ],
          [
            -73.988501,
            40.669586,
            16.75
          ],
          [
            -73.988669,
            40.669669,
            16.25
          ],
          [
            -73.988727,
            40.669698,
            16.25
          ],
          [
            -73.989867,
            40.670248,
            16.25
          ],
          [
            -73.990966,
            40.670775,
            16.25
          ],
          [
            -73.991492,
            40.671019,
            16.25
          ],
          [
            -73.992135,
            40.671315,
            16.25
          ],
          [
            -73.992777,
            40.671623,
            16.25
          ],
          [
            -73.993075,
            40.671771,
            16.25
          ],
          [
            -73.993409,
            40.67195,
            16.25
          ],
          [
            -73.995088,
            40.67292,
            16.25
          ],
          [
            -73.99543,
            40.673128,
            16.25
          ],
          [
            -73.995966,
            40.673488,
            16.25
          ],
          [
            -73.996239,
            40.67369,
            16.25
          ],
          [
            -73.996505,
            40.673903,
            16.25
          ],
          [
            -73.996723,
            40.674088,
            16.25
          ],
          [
            -73.997039,
            40.674386,
            16.25
          ],
          [
            -73.997146,
            40.674506,
            16.25
          ],
          [
            -73.997256,
            40.674646,
            16.25
          ],
          [
            -73.997338,
            40.674773,
            16.25
          ],
          [
            -73.997397,
            40.674885,
            16.25
          ],
          [
            -73.997447,
            40.675008,
            16.25
          ],
          [
            -73.997499,
            40.675161,
            16.25
          ],
          [
            -73.997544,
            40.675402,
            16.25
          ],
          [
            -73.997553,
            40.675527,
            16.25
          ],
          [
            -73.997552,
            40.675654,
            16.25
          ],
          [
            -73.997519,
            40.675892,
            16.25
          ],
          [
            -73.99743,
            40.676172,
            16.25
          ],
          [
            -73.997371,
            40.676317,
            16.25
          ],
          [
            -73.996722,
            40.677668,
            16.25
          ],
          [
            -73.996248,
            40.678649,
            16.5
          ],
          [
            -73.996159,
            40.678809,
            17
          ],
          [
            -73.99612,
            40.678881,
            17
          ],
          [
            -73.996107,
            40.678904,
            17.25
          ],
          [
            -73.995982,
            40.679104
          ],
          [
            -73.995843,
            40.679298
          ],
          [
            -73.995683,
            40.679497
          ],
          [
            -73.994562,
            40.680844
          ],
          [
            -73.994358,
            40.681105
          ],
          [
            -73.994116,
            40.681462
          ],
          [
            -73.993868,
            40.681828
          ],
          [
            -73.99356,
            40.682208
          ],
          [
            -73.991428,
            40.685349
          ],
          [
            -73.990203,
            40.687154
          ],
          [
            -73.989984,
            40.687477
          ],
          [
            -73.989057,
            40.688841
          ],
          [
            -73.988873,
            40.689062
          ],
          [
            -73.988774,
            40.689151
          ],
          [
            -73.988661,
            40.689231
          ],
          [
            -73.988537,
            40.6893
          ],
          [
            -73.988404,
            40.689358
          ],
          [
            -73.988262,
            40.689404
          ],
          [
            -73.988114,
            40.689437
          ],
          [
            -73.987962,
            40.689456
          ],
          [
            -73.987808,
            40.689462
          ],
          [
            -73.987655,
            40.689455
          ],
          [
            -73.987503,
            40.689434
          ],
          [
            -73.987355,
            40.689399
          ],
          [
            -73.986103,
            40.688906
          ],
          [
            -73.984147,
            40.68814
          ],
          [
            -73.983931,
            40.688064
          ],
          [
            -73.981848,
            40.687379
          ],
          [
            -73.981604,
            40.687306
          ],
          [
            -73.981358,
            40.687246
          ],
          [
            -73.979499,
            40.686903
          ],
          [
            -73.97922,
            40.686863
          ],
          [
            -73.978919,
            40.686854
          ],
          [
            -73.978616,
            40.686862
          ],
          [
            -73.977291,
            40.687013
          ],
          [
            -73.976947,
            40.687036
          ],
          [
            -73.976323,
            40.687063
          ],
          [
            -73.976085,
            40.687075
          ],
          [
            -73.975822,
            40.687098
          ],
          [
            -73.974134,
            40.687285
          ],
          [
            -73.971801,
            40.687546
          ],
          [
            -73.967902,
            40.687993
          ],
          [
            -73.9628,
            40.688582
          ],
          [
            -73.961511,
            40.688747
          ],
          [
            -73.961121,
            40.68879
          ],
          [
            -73.956709,
            40.689301
          ],
          [
            -73.954985,
            40.689517
          ],
          [
            -73.954397,
            40.689585
          ],
          [
            -73.94965,
            40.690131
          ],
          [
            -73.949382,
            40.690177
          ],
          [
            -73.949136,
            40.690259
          ],
          [
            -73.948915,
            40.690375
          ],
          [
            -73.948727,
            40.69052
          ],
          [
            -73.948579,
            40.69069
          ],
          [
            -73.948476,
            40.690879
          ],
          [
            -73.948423,
            40.691078
          ],
          [
            -73.948419,
            40.691284
          ],
          [
            -73.948894,
            40.693701
          ],
          [
            -73.949754,
            40.697999
          ],
          [
            -73.950037,
            40.699352
          ],
          [
            -73.950285,
            40.700539
          ],
          [
            -73.950308,
            40.700707
          ],
          [
            -73.950316,
            40.700865
          ],
          [
            -73.950246,
            40.703673
          ],
          [
            -73.950236,
            40.705319
          ],
          [
            -73.950271,
            40.705671
          ],
          [
            -73.950672,
            40.708111
          ],
          [
            -73.951468,
            40.71293
          ],
          [
            -73.952192,
            40.717313
          ],
          [
            -73.952382,
            40.718519
          ],
          [
            -73.952381,
            40.718663
          ],
          [
            -73.952352,
            40.718804
          ],
          [
            -73.952296,
            40.71894
          ],
          [
            -73.952213,
            40.719067
          ],
          [
            -73.949984,
            40.721779
          ],
          [
            -73.949936,
            40.721868
          ],
          [
            -73.949907,
            40.721965
          ],
          [
            -73.949899,
            40.722063
          ],
          [
            -73.949913,
            40.722162
          ],
          [
            -73.949947,
            40.722256
          ],
          [
            -73.950853,
            40.723851
          ],
          [
            -73.952371,
            40.726513
          ],
          [
            -73.952926,
            40.727461
          ],
          [
            -73.953659,
            40.72875
          ],
          [
            -73.953742,
            40.728917
          ],
          [
            -73.954267,
            40.730134
          ],
          [
            -73.95431,
            40.730309
          ],
          [
            -73.954327,
            40.730419
          ],
          [
            -73.955508,
            40.737656
          ],
          [
            -73.955509,
            40.737954
          ],
          [
            -73.955441,
            40.739042
          ],
          [
            -73.955411,
            40.739518
          ],
          [
            -73.955366,
            40.739846
          ],
          [
            -73.955243,
            40.740243
          ],
          [
            -73.955069,
            40.740628
          ],
          [
            -73.954835,
            40.740994
          ],
          [
            -73.954545,
            40.741337
          ],
          [
            -73.954204,
            40.741652
          ],
          [
            -73.953815,
            40.741933
          ],
          [
            -73.953388,
            40.742176
          ],
          [
            -73.952271,
            40.74279
          ],
          [
            -73.950707,
            40.743605
          ],
          [
            -73.948948,
            40.744524
          ],
          [
            -73.948515,
            40.744734
          ],
          [
            -73.945057,
            40.746115
          ],
          [
            -73.943928,
            40.74656
          ],
          [
            -73.943525,
            40.746719,
            6.25
          ],
          [
            -73.9428,
            40.747006,
            6.25
          ],
          [
            -73.94192,
            40.747368,
            6.25
          ],
          [
            -73.939786,
            40.748128,
            6.25
          ],
          [
            -73.939706,
            40.748157,
            6.25
          ],
          [
            -73.939416,
            40.748242,
            6.25
          ],
          [
            -73.939114,
            40.748331,
            6.25
          ],
          [
            -73.937988,
            40.748784,
            6.25
          ],
          [
            -73.936812,
            40.749261,
            6.25
          ],
          [
            -73.93661,
            40.74937,
            6.25
          ],
          [
            -73.936494,
            40.749451,
            6.25
          ],
          [
            -73.936368,
            40.749551,
            6.25
          ],
          [
            -73.936147,
            40.749742,
            6.25
          ],
          [
            -73.935267,
            40.750555,
            6.25
          ],
          [
            -73.934929,
            40.750813,
            6.25
          ],
          [
            -73.935233,
            40.750533,
            6.25
          ],
          [
            -73.935442,
            40.750342,
            6.25
          ],
          [
            -73.935744,
            40.750008,
            6.25
          ],
          [
            -73.936004,
            40.749712,
            6.25
          ],
          [
            -73.936046,
            40.749673,
            6.25
          ],
          [
            -73.936433,
            40.749317,
            6.25
          ],
          [
            -73.93661,
            40.749206,
            6.25
          ],
          [
            -73.936838,
            40.749093,
            6.25
          ],
          [
            -73.937203,
            40.74895,
            6.25
          ],
          [
            -73.938023,
            40.748646,
            6.25
          ],
          [
            -73.940584,
            40.747731,
            6.25
          ],
          [
            -73.941865,
            40.747274
          ],
          [
            -73.943875,
            40.746482
          ],
          [
            -73.948069,
            40.744814
          ],
          [
            -73.948456,
            40.744657
          ],
          [
            -73.948874,
            40.744455
          ],
          [
            -73.952204,
            40.742717
          ],
          [
            -73.95336,
            40.742149
          ],
          [
            -73.953786,
            40.741907
          ],
          [
            -73.954171,
            40.741628
          ],
          [
            -73.954509,
            40.741317
          ],
          [
            -73.954795,
            40.740978
          ],
          [
            -73.955027,
            40.740614
          ],
          [
            -73.9552,
            40.740233
          ],
          [
            -73.955322,
            40.73984
          ],
          [
            -73.955366,
            40.739516
          ],
          [
            -73.955395,
            40.73904
          ],
          [
            -73.955464,
            40.737954
          ],
          [
            -73.955463,
            40.73766
          ],
          [
            -73.954569,
            40.732185
          ],
          [
            -73.954265,
            40.730314
          ],
          [
            -73.954223,
            40.730142
          ],
          [
            -73.953699,
            40.728929
          ],
          [
            -73.953617,
            40.728763
          ],
          [
            -73.952885,
            40.727475
          ],
          [
            -73.95233,
            40.726527
          ],
          [
            -73.951685,
            40.725393
          ],
          [
            -73.949906,
            40.722269
          ],
          [
            -73.949869,
            40.722168
          ],
          [
            -73.949854,
            40.722064
          ],
          [
            -73.949862,
            40.72196
          ],
          [
            -73.949893,
            40.721858
          ],
          [
            -73.949946,
            40.721761
          ],
          [
            -73.952174,
            40.719051
          ],
          [
            -73.952253,
            40.718927
          ],
          [
            -73.952308,
            40.718796
          ],
          [
            -73.952336,
            40.71866
          ],
          [
            -73.952337,
            40.718523
          ],
          [
            -73.952147,
            40.717317
          ],
          [
            -73.951423,
            40.712934
          ],
          [
            -73.950627,
            40.708115
          ],
          [
            -73.950499,
            40.707331
          ],
          [
            -73.950214,
            40.705598
          ],
          [
            -73.95019,
            40.70532
          ],
          [
            -73.950201,
            40.703673
          ],
          [
            -73.950265,
            40.701099
          ],
          [
            -73.950271,
            40.700866
          ],
          [
            -73.950263,
            40.70071
          ],
          [
            -73.95024,
            40.700543
          ],
          [
            -73.949709,
            40.698004
          ],
          [
            -73.949339,
            40.696159
          ],
          [
            -73.949201,
            40.695437
          ],
          [
            -73.948428,
            40.691556,
            16.75
          ],
          [
            -73.948374,
            40.691289,
            16.75
          ],
          [
            -73.948362,
            40.69107,
            16.75
          ],
          [
            -73.948407,
            40.690853,
            16.75
          ],
          [
            -73.948506,
            40.690648,
            16.75
          ],
          [
            -73.948656,
            40.690461,
            16.75
          ],
          [
            -73.948852,
            40.690299,
            16.75
          ],
          [
            -73.949085,
            40.69017,
            16.75
          ],
          [
            -73.949347,
            40.690077,
            16.75
          ],
          [
            -73.94963,
            40.69003,
            16.75
          ],
          [
            -73.952213,
            40.68973,
            16.75
          ],
          [
            -73.954965,
            40.689415,
            16.75
          ],
          [
            -73.956695,
            40.689233,
            16.75
          ],
          [
            -73.958985,
            40.688969,
            16.75
          ],
          [
            -73.961498,
            40.68868,
            16.75
          ],
          [
            -73.962794,
            40.688548,
            16.75
          ],
          [
            -73.965718,
            40.688212,
            16.75
          ],
          [
            -73.967895,
            40.68796,
            16.75
          ],
          [
            -73.971794,
            40.687512,
            16.75
          ],
          [
            -73.974131,
            40.68725,
            16.75
          ],
          [
            -73.975811,
            40.687063,
            16.75
          ],
          [
            -73.976108,
            40.687036,
            16.75
          ],
          [
            -73.976943,
            40.687002,
            16.75
          ],
          [
            -73.977284,
            40.686979,
            16.75
          ],
          [
            -73.978612,
            40.686828,
            16.75
          ],
          [
            -73.978919,
            40.68682,
            16.75
          ],
          [
            -73.979225,
            40.686829,
            16.75
          ],
          [
            -73.979509,
            40.686869,
            16.75
          ],
          [
            -73.981371,
            40.687213,
            16.75
          ],
          [
            -73.98162,
            40.687274,
            16.75
          ],
          [
            -73.981866,
            40.687347,
            16.75
          ],
          [
            -73.983948,
            40.688032,
            16.75
          ],
          [
            -73.984163,
            40.688109,
            16.75
          ],
          [
            -73.987375,
            40.689369,
            16.75
          ],
          [
            -73.987514,
            40.6894,
            16.75
          ],
          [
            -73.98766,
            40.689421,
            16.75
          ],
          [
            -73.987809,
            40.689428,
            16.75
          ],
          [
            -73.987957,
            40.689422,
            16.75
          ],
          [
            -73.988104,
            40.689403,
            16.75
          ],
          [
            -73.988247,
            40.689371,
            16.75
          ],
          [
            -73.988383,
            40.689327,
            16.75
          ],
          [
            -73.988513,
            40.689271,
            16.75
          ],
          [
            -73.988632,
            40.689205,
            16.75
          ],
          [
            -73.988741,
            40.689127,
            16.75
          ],
          [
            -73.988837,
            40.689041,
            16.75
          ],
          [
            -73.989017,
            40.688825,
            16.75
          ],
          [
            -73.990162,
            40.687139,
            16.75
          ],
          [
            -73.990363,
            40.686841,
            16.75
          ],
          [
            -73.99352,
            40.682192,
            16.75
          ],
          [
            -73.993747,
            40.681782,
            16.75
          ],
          [
            -73.993995,
            40.681415,
            16.75
          ],
          [
            -73.99424,
            40.681055,
            16.75
          ],
          [
            -73.9944,
            40.68085,
            16.75
          ],
          [
            -73.995725,
            40.679247,
            16.75
          ],
          [
            -73.995852,
            40.679054,
            16.75
          ],
          [
            -73.995963,
            40.67886,
            16.75
          ],
          [
            -73.995978,
            40.678832,
            16.75
          ],
          [
            -73.996016,
            40.678762,
            16.5
          ],
          [
            -73.996099,
            40.67861,
            16.25
          ],
          [
            -73.996577,
            40.677627,
            11.25
          ],
          [
            -73.997245,
            40.676229
          ],
          [
            -73.997306,
            40.67605
          ],
          [
            -73.997345,
            40.675906
          ],
          [
            -73.997379,
            40.675682
          ],
          [
            -73.997382,
            40.675516
          ],
          [
            -73.997358,
            40.675312
          ],
          [
            -73.997297,
            40.675108
          ],
          [
            -73.997225,
            40.674927
          ],
          [
            -73.997173,
            40.674827
          ],
          [
            -73.997031,
            40.674616
          ],
          [
            -73.996968,
            40.674536
          ],
          [
            -73.996758,
            40.674324
          ],
          [
            -73.996384,
            40.673997
          ],
          [
            -73.995781,
            40.673564
          ],
          [
            -73.995547,
            40.673411
          ],
          [
            -73.995206,
            40.673205
          ],
          [
            -73.995192,
            40.673196,
            15.75
          ],
          [
            -73.993423,
            40.672172,
            15.75
          ],
          [
            -73.993123,
            40.672006,
            15.75
          ],
          [
            -73.99266,
            40.67177,
            15.75
          ],
          [
            -73.992013,
            40.671457,
            15.75
          ],
          [
            -73.991347,
            40.671119,
            15.75
          ],
          [
            -73.991091,
            40.670967,
            15.75
          ],
          [
            -73.990826,
            40.670857,
            15.75
          ],
          [
            -73.990702,
            40.670794,
            15.75
          ],
          [
            -73.988641,
            40.669798,
            15.75
          ],
          [
            -73.988585,
            40.669771,
            16
          ],
          [
            -73.988423,
            40.66969,
            16.25
          ],
          [
            -73.988255,
            40.669616,
            16.75
          ],
          [
            -73.988081,
            40.66955,
            17.25
          ],
          [
            -73.987902,
            40.669492,
            17.75
          ],
          [
            -73.987623,
            40.669421,
            18.5
          ],
          [
            -73.986244,
            40.669115
          ],
          [
            -73.986025,
            40.669056
          ],
          [
            -73.985816,
            40.668986
          ],
          [
            -73.985683,
            40.668933
          ],
          [
            -73.98088,
            40.666665
          ],
          [
            -73.980246,
            40.66636
          ],
          [
            -73.976947,
            40.664706
          ],
          [
            -73.976804,
            40.664622
          ],
          [
            -73.976685,
            40.664519
          ],
          [
            -73.976595,
            40.6644
          ],
          [
            -73.976538,
            40.66427
          ],
          [
            -73.976514,
            40.664133
          ],
          [
            -73.976526,
            40.663997
          ],
          [
            -73.976573,
            40.663864
          ],
          [
            -73.976653,
            40.663741
          ],
          [
            -73.978942,
            40.660936
          ],
          [
            -73.979436,
            40.660319
          ],
          [
            -73.97991,
            40.659683
          ],
          [
            -73.980051,
            40.65946
          ],
          [
            -73.980158,
            40.659243
          ],
          [
            -73.980332,
            40.658785
          ],
          [
            -73.980358,
            40.658617
          ],
          [
            -73.980351,
            40.658448
          ],
          [
            -73.98031,
            40.658281
          ],
          [
            -73.980237,
            40.658121
          ],
          [
            -73.980134,
            40.657971
          ],
          [
            -73.980002,
            40.657834
          ],
          [
            -73.979845,
            40.657714
          ],
          [
            -73.976942,
            40.655953
          ],
          [
            -73.976791,
            40.655826
          ],
          [
            -73.976674,
            40.655681
          ],
          [
            -73.976594,
            40.655522
          ],
          [
            -73.976554,
            40.655354
          ],
          [
            -73.975998,
            40.652398
          ],
          [
            -73.975798,
            40.651335
          ],
          [
            -73.97576,
            40.651026
          ],
          [
            -73.975754,
            40.650715
          ],
          [
            -73.97578,
            40.650405
          ],
          [
            -73.975836,
            40.650097
          ],
          [
            -73.975923,
            40.649793
          ],
          [
            -73.976187,
            40.649175
          ],
          [
            -73.976406,
            40.648879
          ],
          [
            -73.976692,
            40.648618
          ],
          [
            -73.977034,
            40.6484
          ],
          [
            -73.978438,
            40.647761
          ],
          [
            -73.978681,
            40.64764
          ],
          [
            -73.978908,
            40.647501
          ],
          [
            -73.979116,
            40.647347
          ],
          [
            -73.979303,
            40.647177
          ],
          [
            -73.979468,
            40.646995
          ],
          [
            -73.979608,
            40.646801
          ],
          [
            -73.979723,
            40.646598
          ],
          [
            -73.979812,
            40.646388
          ],
          [
            -73.979873,
            40.646172
          ],
          [
            -73.979906,
            40.645952
          ],
          [
            -73.979911,
            40.645731
          ],
          [
            -73.979887,
            40.645511
          ],
          [
            -73.97974,
            40.644842
          ],
          [
            -73.97943,
            40.643214
          ],
          [
            -73.979421,
            40.643163
          ]
        ]
      }
    }
  ]
}