{
  "type": "FeatureCollection",
  "features": [
    {
      "type": "Feature",
      "properties": {
        "creator": "BRouter-1.7.0",
        "name": "[MTS] Gold Line",
        "track-length": "4903",
        "filtered ascend": "43",
        "plain-ascend": "0",
        "total-time": "392",
        "total-energy": "218722",
        "cost": "4903",
        "messages": [
          [
            "Longitude",
            "Latitude",
            "Elevation",
            "Distance",
            "CostPerKm",
            "ElevCost",
            "TurnCost",
            "NodeCost",
            "InitialCost",
            "WayTags",
            "NodeTags",
            "Time",
            "Energy"
          ],
          [
            "-117168751",
            "32716562",
            "16",
            "25",
            "1000",
            "0",
            "0",
            "0",
            "0",
            "railway=light_rail",
            "railway=unknown",
            "2",
            "709"
          ],
          [
            "-117168412",
            "32716748",
            "18",
            "40",
            "1000",
            "0",
            "0",
            "0",
            "0",
            "railway=light_rail",
            "crossing=traffic_signals railway=crossing",
            "5",
            "2150"
          ],
          [
            "-117168301",
            "32716745",
            "20",
            "10",
            "1000",
            "0",
            "0",
            "0",
            "0",
            "railway=light_rail",
            "railway=level_crossing",
            "6",
            "2804"
          ],
          [
            "-117168192",
            "32716739",
            "22",
            "10",
            "1000",
            "0",
            "0",
            "0",
            "0",
            "railway=light_rail",
            "crossing=traffic_signals railway=crossing",
            "6",
            "3333"
          ],
          [
            "-117167629",
            "32716715",
            "31",
            "53",
            "1000",
            "0",
            "0",
            "0",
            "0",
            "railway=light_rail",
            "railway=switch",
            "11",
            "9282"
          ],
          [
            "-117167509",
            "32716713",
            "33",
            "11",
            "1000",
            "0",
            "0",
            "0",
            "0",
            "railway=light_rail",
            "crossing=traffic_signals railway=crossing",
            "11",
            "10466"
          ],
          [
            "-117167383",
            "32716710",
            "32",
            "12",
            "1000",
            "0",
            "0",
            "0",
            "0",
            "railway=light_rail",
            "railway=level_crossing",
            "12",
            "11649"
          ],
          [
            "-117167310",
            "32716709",
            "32",
            "7",
            "1000",
            "0",
            "0",
            "0",
            "0",
            "railway=light_rail",
            "crossing=traffic_signals railway=crossing",
            "13",
            "12290"
          ],
          [
            "-117166949",
            "32716718",
            "31",
            "34",
            "1000",
            "0",
            "0",
            "0",
            "0",
            "railway=light_rail",
            "railway=switch",
            "16",
            "14790"
          ],
          [
            "-117166620",
            "32716720",
            "30",
            "31",
            "1000",
            "0",
            "0",
            "0",
            "0",
            "railway=light_rail",
            "crossing=traffic_signals railway=crossing",
            "18",
            "16521"
          ],
          [
            "-117166534",
            "32716721",
            "29",
            "8",
            "1000",
            "0",
            "0",
            "0",
            "0",
            "railway=light_rail",
            "railway=level_crossing",
            "19",
            "16883"
          ],
          [
            "-117166459",
            "32716720",
            "28",
            "7",
            "1000",
            "0",
            "0",
            "0",
            "0",
            "railway=light_rail",
            "crossing=traffic_signals railway=crossing",
            "19",
            "17348"
          ],
          [
            "-117165635",
            "32716715",
            "23",
            "77",
            "1000",
            "0",
            "0",
            "0",
            "0",
            "railway=light_rail",
            "railway=crossing",
            "25",
            "19647"
          ],
          [
            "-117165564",
            "32716714",
            "24",
            "7",
            "1000",
            "0",
            "0",
            "0",
            "0",
            "railway=light_rail",
            "railway=level_crossing",
            "26",
            "19921"
          ],
          [
            "-117165526",
            "32716715",
            "24",
            "4",
            "1000",
            "0",
            "0",
            "0",
            "0",
            "railway=light_rail",
            "railway=crossing",
            "26",
            "20079"
          ],
          [
            "-117165446",
            "32716715",
            "24",
            "7",
            "1000",
            "0",
            "0",
            "0",
            "0",
            "railway=light_rail",
            "railway=switch",
            "27",
            "20387"
          ],
          [
            "-117165211",
            "32716714",
            "26",
            "22",
            "1000",
            "0",
            "0",
            "0",
            "0",
            "railway=light_rail",
            "railway=switch",
            "29",
            "21572"
          ],
          [
            "-117164827",
            "32716715",
            "27",
            "36",
            "1000",
            "0",
            "0",
            "0",
            "0",
            "railway=light_rail",
            "railway=crossing",
            "32",
            "23756"
          ],
          [
            "-117164727",
            "32716716",
            "27",
            "9",
            "1000",
            "0",
            "0",
            "0",
            "0",
            "railway=light_rail",
            "railway=level_crossing",
            "32",
            "24290"
          ],
          [
            "-117164628",
            "32716715",
            "27",
            "9",
            "1000",
            "0",
            "0",
            "0",
            "0",
            "railway=light_rail",
            "railway=crossing",
            "33",
            "24832"
          ],
          [
            "-117163931",
            "32716712",
            "28",
            "65",
            "1000",
            "0",
            "0",
            "0",
            "0",
            "railway=light_rail",
            "railway=crossing",
            "38",
            "28745"
          ],
          [
            "-117163806",
            "32716712",
            "28",
            "12",
            "1000",
            "0",
            "0",
            "0",
            "0",
            "railway=light_rail",
            "railway=level_crossing",
            "39",
            "29403"
          ],
          [
            "-117163718",
            "32716714",
            "28",
            "8",
            "1000",
            "0",
            "0",
            "0",
            "0",
            "railway=light_rail",
            "railway=crossing",
            "40",
            "29816"
          ],
          [
            "-117163012",
            "32716718",
            "27",
            "66",
            "1000",
            "0",
            "0",
            "0",
            "0",
            "railway=light_rail",
            "railway=crossing",
            "45",
            "32757"
          ],
          [
            "-117162942",
            "32716719",
            "27",
            "7",
            "1000",
            "0",
            "0",
            "0",
            "0",
            "railway=light_rail",
            "railway=level_crossing",
            "46",
            "33052"
          ],
          [
            "-117162883",
            "32716719",
            "27",
            "6",
            "1000",
            "0",
            "0",
            "0",
            "0",
            "railway=light_rail",
            "railway=crossing",
            "46",
            "33306"
          ],
          [
            "-117162137",
            "32716723",
            "25",
            "70",
            "1000",
            "0",
            "0",
            "0",
            "0",
            "railway=light_rail",
            "railway=unknown",
            "52",
            "35528"
          ],
          [
            "-117162053",
            "32716723",
            "25",
            "8",
            "1000",
            "0",
            "0",
            "0",
            "0",
            "railway=light_rail",
            "railway=crossing",
            "52",
            "35797"
          ],
          [
            "-117161981",
            "32716722",
            "25",
            "7",
            "1000",
            "0",
            "0",
            "0",
            "0",
            "railway=light_rail",
            "railway=level_crossing",
            "53",
            "36024"
          ],
          [
            "-117161902",
            "32716722",
            "24",
            "7",
            "1000",
            "0",
            "0",
            "0",
            "0",
            "railway=light_rail",
            "railway=crossing",
            "54",
            "36241"
          ],
          [
            "-117161211",
            "32716725",
            "28",
            "65",
            "1000",
            "0",
            "0",
            "0",
            "0",
            "railway=light_rail",
            "railway=crossing",
            "59",
            "40189"
          ],
          [
            "-117161095",
            "32716726",
            "30",
            "11",
            "1000",
            "0",
            "0",
            "0",
            "0",
            "railway=light_rail",
            "railway=level_crossing",
            "60",
            "40911"
          ],
          [
            "-117160993",
            "32716726",
            "31",
            "10",
            "1000",
            "0",
            "0",
            "0",
            "0",
            "railway=light_rail",
            "railway=crossing",
            "60",
            "41378"
          ],
          [
            "-117160304",
            "32716735",
            "33",
            "65",
            "1000",
            "0",
            "0",
            "0",
            "0",
            "railway=light_rail",
            "railway=crossing",
            "66",
            "45206"
          ],
          [
            "-117160199",
            "32716736",
            "33",
            "10",
            "1000",
            "0",
            "0",
            "0",
            "0",
            "railway=light_rail",
            "railway=level_crossing",
            "66",
            "45768"
          ],
          [
            "-117160129",
            "32716736",
            "33",
            "7",
            "1000",
            "0",
            "0",
            "0",
            "0",
            "railway=light_rail",
            "railway=crossing",
            "67",
            "46154"
          ],
          [
            "-117159350",
            "32716738",
            "31",
            "73",
            "1000",
            "0",
            "0",
            "0",
            "0",
            "railway=light_rail",
            "railway=unknown",
            "73",
            "50495"
          ],
          [
            "-117159326",
            "32716738",
            "31",
            "2",
            "1000",
            "0",
            "0",
            "0",
            "0",
            "railway=light_rail",
            "railway=crossing",
            "73",
            "50604"
          ],
          [
            "-117159263",
            "32716737",
            "31",
            "6",
            "1000",
            "0",
            "0",
            "0",
            "0",
            "railway=light_rail",
            "railway=level_crossing",
            "73",
            "50928"
          ],
          [
            "-117159174",
            "32716737",
            "31",
            "8",
            "1000",
            "0",
            "0",
            "0",
            "0",
            "railway=light_rail",
            "railway=crossing",
            "74",
            "51338"
          ],
          [
            "-117158477",
            "32716739",
            "37",
            "65",
            "1000",
            "0",
            "0",
            "0",
            "0",
            "railway=light_rail",
            "railway=crossing",
            "79",
            "55794"
          ],
          [
            "-117158341",
            "32716739",
            "38",
            "13",
            "1000",
            "0",
            "0",
            "0",
            "0",
            "railway=light_rail",
            "railway=level_crossing",
            "80",
            "56712"
          ],
          [
            "-117158259",
            "32716741",
            "39",
            "8",
            "1000",
            "0",
            "0",
            "0",
            "0",
            "railway=light_rail",
            "railway=crossing",
            "81",
            "57291"
          ],
          [
            "-117157432",
            "32716757",
            "41",
            "78",
            "1000",
            "0",
            "0",
            "0",
            "0",
            "railway=light_rail",
            "railway=level_crossing",
            "87",
            "63388"
          ],
          [
            "-117156541",
            "32716731",
            "31",
            "84",
            "1000",
            "0",
            "0",
            "0",
            "0",
            "railway=light_rail",
            "railway=level_crossing",
            "94",
            "66541"
          ],
          [
            "-117156441",
            "32716728",
            "30",
            "9",
            "1000",
            "0",
            "0",
            "0",
            "0",
            "railway=light_rail",
            "railway=crossing",
            "95",
            "66816"
          ],
          [
            "-117156232",
            "32716726",
            "30",
            "20",
            "1000",
            "0",
            "0",
            "0",
            "0",
            "railway=light_rail",
            "railway=switch",
            "96",
            "67385"
          ],
          [
            "-117155620",
            "32716732",
            "28",
            "57",
            "1000",
            "0",
            "0",
            "0",
            "0",
            "railway=light_rail",
            "railway=level_crossing",
            "101",
            "68706"
          ],
          [
            "-117154823",
            "32716736",
            "27",
            "75",
            "1000",
            "0",
            "0",
            "0",
            "0",
            "railway=light_rail",
            "railway=crossing",
            "107",
            "70375"
          ],
          [
            "-117154707",
            "32716728",
            "27",
            "11",
            "1000",
            "0",
            "0",
            "0",
            "0",
            "railway=light_rail",
            "railway=level_crossing",
            "108",
            "70707"
          ],
          [
            "-117154676",
            "32716721",
            "27",
            "3",
            "1000",
            "0",
            "0",
            "0",
            "0",
            "railway=light_rail",
            "railway=level_crossing",
            "108",
            "70801"
          ],
          [
            "-117154546",
            "32716672",
            "27",
            "13",
            "1000",
            "0",
            "0",
            "0",
            "0",
            "railway=light_rail",
            "railway=crossing",
            "109",
            "71218"
          ],
          [
            "-117154021",
            "32715973",
            "25",
            "92",
            "1000",
            "0",
            "0",
            "0",
            "0",
            "railway=light_rail",
            "railway=unknown",
            "116",
            "73912"
          ],
          [
            "-117153979",
            "32715913",
            "25",
            "8",
            "1000",
            "0",
            "0",
            "0",
            "0",
            "railway=light_rail",
            "railway=crossing",
            "117",
            "74163"
          ],
          [
            "-117153926",
            "32715835",
            "24",
            "10",
            "1000",
            "0",
            "0",
            "0",
            "0",
            "railway=light_rail",
            "railway=crossing",
            "118",
            "74446"
          ],
          [
            "-117153857",
            "32715734",
            "24",
            "13",
            "1000",
            "0",
            "0",
            "0",
            "0",
            "railway=light_rail",
            "railway=level_crossing",
            "119",
            "74783"
          ],
          [
            "-117153847",
            "32715720",
            "24",
            "2",
            "1000",
            "0",
            "0",
            "0",
            "0",
            "railway=light_rail",
            "railway=level_crossing",
            "119",
            "74837"
          ],
          [
            "-117153826",
            "32715662",
            "24",
            "7",
            "1000",
            "0",
            "0",
            "0",
            "0",
            "railway=light_rail",
            "railway=crossing",
            "119",
            "75017"
          ],
          [
            "-117153810",
            "32714809",
            "23",
            "95",
            "1000",
            "0",
            "0",
            "0",
            "0",
            "railway=light_rail",
            "railway=crossing",
            "127",
            "77767"
          ],
          [
            "-117153811",
            "32714698",
            "23",
            "12",
            "1000",
            "0",
            "0",
            "0",
            "0",
            "railway=light_rail",
            "railway=level_crossing",
            "128",
            "78183"
          ],
          [
            "-117153810",
            "32714616",
            "23",
            "9",
            "1000",
            "0",
            "0",
            "0",
            "0",
            "railway=light_rail",
            "railway=crossing",
            "129",
            "78484"
          ],
          [
            "-117153807",
            "32714308",
            "22",
            "34",
            "1000",
            "0",
            "0",
            "0",
            "0",
            "railway=light_rail",
            "railway=switch",
            "132",
            "79627"
          ],
          [
            "-117153804",
            "32713753",
            "22",
            "62",
            "1000",
            "0",
            "0",
            "0",
            "0",
            "railway=light_rail",
            "railway=crossing",
            "136",
            "81849"
          ],
          [
            "-117153803",
            "32713654",
            "22",
            "10",
            "1000",
            "0",
            "0",
            "0",
            "0",
            "railway=light_rail",
            "",
            "137",
            "82212"
          ],
          [
            "-117153803",
            "32713654",
            "22",
            "1",
            "1000",
            "0",
            "0",
            "0",
            "0",
            "railway=light_rail",
            "railway=level_crossing",
            "0",
            "43"
          ],
          [
            "-117153802",
            "32713568",
            "22",
            "10",
            "1000",
            "0",
            "0",
            "0",
            "0",
            "railway=light_rail",
            "railway=crossing",
            "0",
            "483"
          ],
          [
            "-117153799",
            "32713049",
            "21",
            "58",
            "1000",
            "0",
            "0",
            "0",
            "0",
            "railway=light_rail",
            "railway=switch",
            "5",
            "2840"
          ],
          [
            "-117153796",
            "32712712",
            "20",
            "37",
            "1000",
            "0",
            "0",
            "0",
            "0",
            "railway=light_rail",
            "railway=crossing",
            "8",
            "4118"
          ],
          [
            "-117153796",
            "32712607",
            "20",
            "12",
            "1000",
            "0",
            "0",
            "0",
            "0",
            "railway=light_rail",
            "railway=level_crossing",
            "9",
            "4533"
          ],
          [
            "-117153794",
            "32712518",
            "20",
            "10",
            "1000",
            "0",
            "0",
            "0",
            "0",
            "railway=light_rail",
            "railway=crossing",
            "10",
            "4867"
          ],
          [
            "-117153786",
            "32711664",
            "17",
            "95",
            "1000",
            "0",
            "0",
            "0",
            "0",
            "railway=light_rail",
            "railway=crossing",
            "17",
            "8701"
          ],
          [
            "-117153785",
            "32711547",
            "17",
            "13",
            "1000",
            "0",
            "0",
            "0",
            "0",
            "railway=light_rail",
            "railway=level_crossing",
            "18",
            "9246"
          ],
          [
            "-117153783",
            "32711421",
            "17",
            "14",
            "1000",
            "0",
            "0",
            "0",
            "0",
            "railway=light_rail",
            "railway=crossing",
            "20",
            "9808"
          ],
          [
            "-117153773",
            "32710533",
            "16",
            "98",
            "1000",
            "0",
            "0",
            "0",
            "0",
            "railway=light_rail",
            "railway=unknown",
            "27",
            "13482"
          ],
          [
            "-117153773",
            "32710516",
            "16",
            "2",
            "1000",
            "0",
            "0",
            "0",
            "0",
            "railway=light_rail",
            "railway=crossing",
            "28",
            "13562"
          ],
          [
            "-117153772",
            "32710452",
            "16",
            "7",
            "1000",
            "0",
            "0",
            "0",
            "0",
            "railway=light_rail",
            "railway=level_crossing",
            "28",
            "13845"
          ],
          [
            "-117153772",
            "32710398",
            "16",
            "6",
            "1000",
            "0",
            "0",
            "0",
            "0",
            "railway=light_rail",
            "railway=crossing",
            "29",
            "14076"
          ],
          [
            "-117153768",
            "32709510",
            "13",
            "98",
            "1000",
            "0",
            "0",
            "0",
            "0",
            "railway=light_rail",
            "railway=crossing",
            "36",
            "16120"
          ],
          [
            "-117153767",
            "32709431",
            "12",
            "9",
            "1000",
            "0",
            "0",
            "0",
            "0",
            "railway=light_rail",
            "railway=level_crossing",
            "37",
            "16361"
          ],
          [
            "-117153766",
            "32709361",
            "12",
            "8",
            "1000",
            "0",
            "0",
            "0",
            "0",
            "railway=light_rail",
            "railway=crossing",
            "38",
            "16569"
          ],
          [
            "-117153766",
            "32709325",
            "12",
            "4",
            "1000",
            "0",
            "0",
            "0",
            "0",
            "railway=light_rail",
            "railway=crossing",
            "38",
            "16669"
          ],
          [
            "-117153757",
            "32708112",
            "8",
            "135",
            "1000",
            "0",
            "0",
            "0",
            "0",
            "railway=light_rail",
            "railway=level_crossing",
            "49",
            "18769"
          ],
          [
            "-117153757",
            "32708050",
            "8",
            "7",
            "1000",
            "0",
            "0",
            "0",
            "0",
            "railway=light_rail",
            "railway=crossing",
            "49",
            "18972"
          ],
          [
            "-117153757",
            "32707865",
            "7",
            "21",
            "1000",
            "0",
            "0",
            "0",
            "0",
            "railway=light_rail",
            "railway=switch",
            "51",
            "19535"
          ],
          [
            "-117153749",
            "32706955",
            "5",
            "50",
            "1000",
            "0",
            "0",
            "0",
            "0",
            "railway=light_rail",
            "",
            "55",
            "20782"
          ],
          [
            "-117153749",
            "32706955",
            "5",
            "51",
            "1000",
            "0",
            "0",
            "0",
            "0",
            "railway=light_rail",
            "railway=switch",
            "4",
            "1890"
          ],
          [
            "-117153749",
            "32706887",
            "5",
            "8",
            "1000",
            "0",
            "0",
            "0",
            "0",
            "railway=light_rail",
            "railway=switch",
            "4",
            "2184"
          ],
          [
            "-117153740",
            "32706424",
            "6",
            "52",
            "1000",
            "0",
            "0",
            "0",
            "0",
            "railway=light_rail",
            "railway=crossing",
            "8",
            "4316"
          ],
          [
            "-117153668",
            "32706299",
            "6",
            "15",
            "1000",
            "0",
            "0",
            "0",
            "0",
            "railway=light_rail",
            "railway=level_crossing",
            "10",
            "5085"
          ],
          [
            "-117153611",
            "32706198",
            "7",
            "12",
            "1000",
            "0",
            "0",
            "0",
            "0",
            "railway=light_rail",
            "railway=crossing",
            "11",
            "5715"
          ],
          [
            "-117153426",
            "32705871",
            "7",
            "40",
            "1000",
            "0",
            "0",
            "0",
            "0",
            "railway=light_rail",
            "railway=crossing",
            "14",
            "7809"
          ],
          [
            "-117153331",
            "32705693",
            "6",
            "22",
            "1000",
            "0",
            "0",
            "0",
            "0",
            "railway=light_rail",
            "railway=unknown",
            "16",
            "8832"
          ],
          [
            "-117153257",
            "32705554",
            "6",
            "17",
            "1000",
            "0",
            "0",
            "0",
            "0",
            "railway=light_rail",
            "railway=crossing",
            "17",
            "9565"
          ],
          [
            "-117153316",
            "32705296",
            "6",
            "31",
            "1000",
            "0",
            "0",
            "0",
            "0",
            "railway=light_rail",
            "railway=crossing",
            "19",
            "10864"
          ],
          [
            "-117153525",
            "32705224",
            "6",
            "21",
            "1000",
            "0",
            "0",
            "0",
            "0",
            "railway=light_rail",
            "railway=unknown",
            "21",
            "11731"
          ],
          [
            "-117153690",
            "32705218",
            "6",
            "15",
            "1000",
            "0",
            "0",
            "0",
            "0",
            "railway=light_rail",
            "railway=switch",
            "22",
            "12344"
          ],
          [
            "-117153736",
            "32705218",
            "6",
            "4",
            "1000",
            "0",
            "0",
            "0",
            "0",
            "railway=light_rail",
            "railway=switch",
            "23",
            "12508"
          ],
          [
            "-117154881",
            "32705208",
            "4",
            "107",
            "1000",
            "0",
            "0",
            "0",
            "0",
            "railway=light_rail",
            "railway=switch",
            "31",
            "16159"
          ],
          [
            "-117158797",
            "32706392",
            "3",
            "311",
            "1000",
            "0",
            "0",
            "0",
            "0",
            "railway=light_rail",
            "",
            "56",
            "27332"
          ],
          [
            "-117158797",
            "32706392",
            "3",
            "90",
            "1000",
            "0",
            "0",
            "0",
            "0",
            "railway=light_rail",
            "railway=switch",
            "7",
            "4351"
          ],
          [
            "-117160146",
            "32707130",
            "7",
            "151",
            "1000",
            "0",
            "0",
            "0",
            "0",
            "railway=light_rail",
            "railway=unknown",
            "19",
            "11719"
          ],
          [
            "-117160215",
            "32707171",
            "7",
            "8",
            "1000",
            "0",
            "0",
            "0",
            "0",
            "railway=light_rail",
            "railway=crossing",
            "19",
            "12137"
          ],
          [
            "-117160265",
            "32707198",
            "8",
            "6",
            "1000",
            "0",
            "0",
            "0",
            "0",
            "railway=light_rail",
            "railway=level_crossing",
            "20",
            "12473"
          ],
          [
            "-117160365",
            "32707249",
            "9",
            "11",
            "1000",
            "0",
            "0",
            "0",
            "0",
            "railway=light_rail",
            "railway=level_crossing",
            "21",
            "13171"
          ],
          [
            "-117160406",
            "32707272",
            "9",
            "5",
            "1000",
            "0",
            "0",
            "0",
            "0",
            "railway=light_rail",
            "railway=crossing",
            "21",
            "13502"
          ],
          [
            "-117162857",
            "32708629",
            "12",
            "275",
            "1000",
            "0",
            "0",
            "0",
            "0",
            "railway=light_rail",
            "railway=switch",
            "43",
            "29508"
          ],
          [
            "-117163856",
            "32709159",
            "4",
            "111",
            "1000",
            "0",
            "0",
            "0",
            "0",
            "railway=light_rail",
            "railway=unknown",
            "52",
            "34009"
          ],
          [
            "-117163900",
            "32709190",
            "3",
            "5",
            "1000",
            "0",
            "0",
            "0",
            "0",
            "railway=light_rail",
            "railway=crossing",
            "52",
            "34152"
          ],
          [
            "-117163995",
            "32709237",
            "2",
            "10",
            "1000",
            "0",
            "0",
            "0",
            "0",
            "railway=light_rail",
            "railway=level_crossing",
            "53",
            "34365"
          ],
          [
            "-117164071",
            "32709276",
            "2",
            "8",
            "1000",
            "0",
            "0",
            "0",
            "0",
            "railway=light_rail",
            "railway=crossing",
            "54",
            "34517"
          ],
          [
            "-117164804",
            "32709654",
            "1",
            "80",
            "1000",
            "0",
            "0",
            "0",
            "0",
            "railway=light_rail",
            "railway=crossing",
            "60",
            "36349"
          ],
          [
            "-117164880",
            "32709692",
            "1",
            "8",
            "1000",
            "0",
            "0",
            "0",
            "0",
            "railway=light_rail",
            "railway=level_crossing",
            "61",
            "36595"
          ],
          [
            "-117164971",
            "32709741",
            "0",
            "10",
            "1000",
            "0",
            "0",
            "0",
            "0",
            "railway=light_rail",
            "railway=crossing",
            "62",
            "36872"
          ],
          [
            "-117166370",
            "32710476",
            "8",
            "154",
            "1000",
            "0",
            "0",
            "0",
            "0",
            "railway=light_rail",
            "railway=switch",
            "74",
            "43817"
          ],
          [
            "-117167214",
            "32710942",
            "11",
            "94",
            "1000",
            "0",
            "0",
            "0",
            "0",
            "railway=light_rail",
            "railway=switch",
            "82",
            "49459"
          ],
          [
            "-117167777",
            "32711271",
            "8",
            "64",
            "1000",
            "0",
            "0",
            "0",
            "0",
            "railway=light_rail",
            "railway=crossing",
            "87",
            "52917"
          ],
          [
            "-117167832",
            "32711310",
            "8",
            "7",
            "1000",
            "0",
            "0",
            "0",
            "0",
            "railway=light_rail",
            "railway=level_crossing",
            "87",
            "53247"
          ],
          [
            "-117167955",
            "32711397",
            "8",
            "15",
            "1000",
            "0",
            "0",
            "0",
            "0",
            "railway=light_rail",
            "railway=level_crossing",
            "88",
            "53887"
          ],
          [
            "-117168032",
            "32711459",
            "7",
            "10",
            "1000",
            "0",
            "0",
            "0",
            "0",
            "railway=light_rail",
            "railway=crossing",
            "89",
            "54294"
          ],
          [
            "-117168975",
            "32712376",
            "6",
            "136",
            "1000",
            "0",
            "0",
            "0",
            "0",
            "railway=light_rail",
            "railway=unknown",
            "100",
            "59113"
          ],
          [
            "-117169037",
            "32712461",
            "6",
            "11",
            "1000",
            "0",
            "0",
            "0",
            "0",
            "railway=light_rail",
            "railway=crossing",
            "101",
            "59525"
          ],
          [
            "-117169076",
            "32712514",
            "6",
            "7",
            "1000",
            "0",
            "0",
            "0",
            "0",
            "railway=light_rail",
            "railway=level_crossing",
            "102",
            "59806"
          ],
          [
            "-117169133",
            "32712599",
            "6",
            "11",
            "1000",
            "0",
            "0",
            "0",
            "0",
            "railway=light_rail",
            "railway=crossing",
            "102",
            "60251"
          ],
          [
            "-117169155",
            "32712630",
            "6",
            "4",
            "1000",
            "0",
            "0",
            "0",
            "0",
            "railway=light_rail",
            "railway=level_crossing",
            "103",
            "60414"
          ],
          [
            "-117169248",
            "32712775",
            "6",
            "18",
            "1000",
            "0",
            "0",
            "0",
            "0",
            "railway=light_rail",
            "railway=level_crossing",
            "104",
            "61226"
          ],
          [
            "-117169916",
            "32715475",
            "9",
            "309",
            "1000",
            "0",
            "0",
            "0",
            "0",
            "railway=light_rail",
            "railway=switch",
            "129",
            "75816"
          ],
          [
            "-117169904",
            "32715566",
            "9",
            "10",
            "1000",
            "0",
            "0",
            "0",
            "0",
            "railway=light_rail",
            "railway=crossing",
            "130",
            "76423"
          ],
          [
            "-117169895",
            "32715637",
            "10",
            "8",
            "1000",
            "0",
            "0",
            "0",
            "0",
            "railway=light_rail",
            "railway=level_crossing",
            "130",
            "76913"
          ],
          [
            "-117169857",
            "32715773",
            "11",
            "15",
            "1000",
            "0",
            "0",
            "0",
            "0",
            "railway=light_rail",
            "railway=level_crossing",
            "132",
            "77928"
          ],
          [
            "-117169792",
            "32715852",
            "12",
            "11",
            "1000",
            "0",
            "0",
            "0",
            "0",
            "railway=light_rail",
            "railway=crossing",
            "132",
            "78464"
          ],
          [
            "-117169374",
            "32715915",
            "18",
            "41",
            "1000",
            "0",
            "0",
            "0",
            "0",
            "railway=light_rail",
            "railway=switch",
            "136",
            "81635"
          ],
          [
            "-117169301",
            "32715914",
            "19",
            "7",
            "1000",
            "0",
            "0",
            "0",
            "0",
            "railway=light_rail",
            "railway=crossing",
            "136",
            "82323"
          ],
          [
            "-117169230",
            "32715916",
            "20",
            "7",
            "1000",
            "0",
            "0",
            "0",
            "0",
            "railway=light_rail",
            "railway=level_crossing",
            "137",
            "83046"
          ],
          [
            "-117169150",
            "32715937",
            "21",
            "8",
            "1000",
            "0",
            "0",
            "0",
            "0",
            "railway=light_rail",
            "railway=level_crossing",
            "137",
            "83893"
          ],
          [
            "-117169111",
            "32715953",
            "21",
            "4",
            "1000",
            "0",
            "0",
            "0",
            "0",
            "railway=light_rail",
            "railway=crossing",
            "138",
            "84317"
          ],
          [
            "-117168751",
            "32716562",
            "16",
            "51",
            "1000",
            "0",
            "0",
            "0",
            "0",
            "railway=light_rail",
            "",
            "142",
            "88396"
          ]
        ],
        "times": [
          0,
          2,
          2.8,
          3.44,
          4.16,
          5.04,
          5.2,
          6,
          6.8,
          11.04,
          11.92,
          12.88,
          13.44,
          16.16,
          18.64,
          19.28,
          19.84,
          26,
          26.56,
          26.88,
          27.44,
          29.2,
          32.08,
          32.8,
          33.52,
          38.72,
          39.68,
          40.32,
          45.6,
          46.16,
          46.64,
          52.24,
          52.88,
          53.44,
          54,
          59.2,
          60.08,
          60.88,
          66.08,
          66.88,
          67.44,
          73.28,
          73.44,
          73.92,
          74.56,
          79.76,
          80.8,
          81.44,
          87.68,
          91.04,
          93.2,
          94.4,
          95.12,
          96.72,
          101.28,
          107.04,
          107.28,
          108.16,
          108.4,
          109.04,
          109.44,
          110,
          110.56,
          111.28,
          116.8,
          117.44,
          118.24,
          119.28,
          119.44,
          120,
          120.56,
          121.52,
          127.6,
          128.56,
          129.28,
          132,
          136.96,
          137.76,
          137.84,
          138.64,
          143.28,
          146.24,
          147.2,
          148,
          155.6,
          156.64,
          157.76,
          165.6,
          165.76,
          166.32,
          166.8,
          174.64,
          175.36,
          176,
          176.32,
          187.12,
          187.68,
          189.36,
          193.36,
          197.44,
          198.08,
          200.56,
          201.44,
          202.24,
          203.44,
          204.4,
          207.6,
          207.76,
          209.36,
          210.4,
          210.72,
          211.36,
          212,
          212.48,
          213.2,
          213.36,
          214,
          214.88,
          216.08,
          216.4,
          224.96,
          229.04,
          234,
          235.28,
          237.36,
          239.12,
          240.24,
          241.92,
          243.92,
          249.84,
          257.04,
          269.12,
          269.76,
          270.24,
          271.12,
          271.52,
          278.4,
          293.52,
          297.2,
          302.4,
          302.8,
          303.6,
          304.24,
          310.64,
          311.28,
          312.08,
          324.4,
          331.92,
          336.16,
          337.04,
          337.6,
          338.8,
          339.6,
          340.08,
          342.08,
          344.4,
          346.4,
          347.84,
          350.48,
          351.36,
          351.92,
          352.8,
          353.12,
          354.56,
          356.8,
          358.16,
          360.64,
          363.36,
          368.8,
          371.44,
          372.72,
          374.32,
          374.96,
          379.28,
          380.08,
          380.72,
          381.92,
          382.56,
          382.8,
          383.28,
          384.08,
          384.56,
          386.08,
          386.64,
          387.2,
          387.44,
          387.84,
          388.16,
          388.72,
          389.36,
          390.32,
          392.24
        ]
      },
      "geometry": {
        "type": "LineString",
        "coordinates": [
          [
            -117.168858,
            32.716351,
            18.75
          ],
          [
            -117.168751,
            32.716562,
            16.75
          ],
          [
            -117.168696,
            32.716644,
            16
          ],
          [
            -117.168636,
            32.716693,
            16.25
          ],
          [
            -117.168553,
            32.716733,
            17
          ],
          [
            -117.168435,
            32.716749,
            18.5
          ],
          [
            -117.168412,
            32.716748,
            18.75
          ],
          [
            -117.168301,
            32.716745,
            20.5
          ],
          [
            -117.168192,
            32.716739,
            22.25
          ],
          [
            -117.167629,
            32.716715,
            31.25
          ],
          [
            -117.167509,
            32.716713,
            33
          ],
          [
            -117.167383,
            32.71671,
            32.75
          ],
          [
            -117.16731,
            32.716709,
            32.5
          ],
          [
            -117.166949,
            32.716718,
            31.25
          ],
          [
            -117.16662,
            32.71672,
            30
          ],
          [
            -117.166534,
            32.716721,
            29
          ],
          [
            -117.166459,
            32.71672,
            28.5
          ],
          [
            -117.165635,
            32.716715,
            23.75
          ],
          [
            -117.165564,
            32.716714,
            24.25
          ],
          [
            -117.165526,
            32.716715,
            24.25
          ],
          [
            -117.165446,
            32.716715,
            24.75
          ],
          [
            -117.165211,
            32.716714,
            26
          ],
          [
            -117.164827,
            32.716715,
            27.25
          ],
          [
            -117.164727,
            32.716716,
            27.5
          ],
          [
            -117.164628,
            32.716715,
            27.75
          ],
          [
            -117.163931,
            32.716712,
            28.5
          ],
          [
            -117.163806,
            32.716712,
            28.5
          ],
          [
            -117.163718,
            32.716714,
            28.25
          ],
          [
            -117.163012,
            32.716718,
            27.5
          ],
          [
            -117.162942,
            32.716719,
            27.25
          ],
          [
            -117.162883,
            32.716719,
            27.25
          ],
          [
            -117.162137,
            32.716723,
            25.5
          ],
          [
            -117.162053,
            32.716723,
            25.25
          ],
          [
            -117.161981,
            32.716722,
            25
          ],
          [
            -117.161902,
            32.716722,
            24.75
          ],
          [
            -117.161211,
            32.716725,
            28.75
          ],
          [
            -117.161095,
            32.716726,
            30
          ],
          [
            -117.160993,
            32.716726,
            31
          ],
          [
            -117.160304,
            32.716735,
            33
          ],
          [
            -117.160199,
            32.716736,
            33.25
          ],
          [
            -117.160129,
            32.716736,
            33.25
          ],
          [
            -117.15935,
            32.716738,
            31.5
          ],
          [
            -117.159326,
            32.716738,
            31.5
          ],
          [
            -117.159263,
            32.716737,
            31.5
          ],
          [
            -117.159174,
            32.716737,
            31.25
          ],
          [
            -117.158477,
            32.716739,
            37.25
          ],
          [
            -117.158341,
            32.716739,
            38.5
          ],
          [
            -117.158259,
            32.716741,
            39
          ],
          [
            -117.157432,
            32.716757,
            41.5
          ],
          [
            -117.156981,
            32.716756,
            35.5
          ],
          [
            -117.156696,
            32.716739,
            31.75
          ],
          [
            -117.156541,
            32.716731,
            31
          ],
          [
            -117.156441,
            32.716728,
            30.75
          ],
          [
            -117.156232,
            32.716726,
            30.25
          ],
          [
            -117.15562,
            32.716732,
            28.75
          ],
          [
            -117.154857,
            32.716736,
            27
          ],
          [
            -117.154823,
            32.716736,
            27
          ],
          [
            -117.154707,
            32.716728,
            27
          ],
          [
            -117.154676,
            32.716721,
            27
          ],
          [
            -117.154594,
            32.716696,
            27
          ],
          [
            -117.154546,
            32.716672,
            27
          ],
          [
            -117.154487,
            32.716628,
            26.75
          ],
          [
            -117.154438,
            32.716581,
            26.75
          ],
          [
            -117.154394,
            32.716509,
            26.75
          ],
          [
            -117.154021,
            32.715973,
            25.5
          ],
          [
            -117.153979,
            32.715913,
            25.25
          ],
          [
            -117.153926,
            32.715835,
            24.75
          ],
          [
            -117.153857,
            32.715734,
            24.25
          ],
          [
            -117.153847,
            32.71572,
            24.25
          ],
          [
            -117.153826,
            32.715662,
            24
          ],
          [
            -117.153816,
            32.715599,
            24
          ],
          [
            -117.153817,
            32.71549,
            24
          ],
          [
            -117.15381,
            32.714809,
            23.25
          ],
          [
            -117.153811,
            32.714698,
            23.25
          ],
          [
            -117.15381,
            32.714616,
            23
          ],
          [
            -117.153807,
            32.714308,
            22.75
          ],
          [
            -117.153804,
            32.713753,
            22.5
          ],
          [
            -117.153804,
            32.713664,
            22.25
          ],
          [
            -117.153803,
            32.713654,
            22.25
          ],
          [
            -117.153802,
            32.713568,
            22.25
          ],
          [
            -117.153799,
            32.713049,
            21.75
          ],
          [
            -117.153796,
            32.712712,
            20.75
          ],
          [
            -117.153796,
            32.712607,
            20.5
          ],
          [
            -117.153794,
            32.712518,
            20.25
          ],
          [
            -117.153786,
            32.711664,
            17.75
          ],
          [
            -117.153785,
            32.711547,
            17.75
          ],
          [
            -117.153783,
            32.711421,
            17.5
          ],
          [
            -117.153773,
            32.710533,
            16.75
          ],
          [
            -117.153773,
            32.710516,
            16.75
          ],
          [
            -117.153772,
            32.710452,
            16.75
          ],
          [
            -117.153772,
            32.710398,
            16.5
          ],
          [
            -117.153768,
            32.70951,
            13
          ],
          [
            -117.153767,
            32.709431,
            12.5
          ],
          [
            -117.153766,
            32.709361,
            12.25
          ],
          [
            -117.153766,
            32.709325,
            12
          ],
          [
            -117.153757,
            32.708112,
            8.25
          ],
          [
            -117.153757,
            32.70805,
            8
          ],
          [
            -117.153757,
            32.707865,
            7.5
          ],
          [
            -117.153754,
            32.707411,
            5.5
          ],
          [
            -117.153749,
            32.706955,
            5.5
          ],
          [
            -117.153749,
            32.706887,
            5.25
          ],
          [
            -117.153788,
            32.70661,
            5.25
          ],
          [
            -117.153769,
            32.70651,
            5.75
          ],
          [
            -117.15374,
            32.706424,
            6.25
          ],
          [
            -117.153668,
            32.706299,
            6.75
          ],
          [
            -117.153611,
            32.706198,
            7
          ],
          [
            -117.153426,
            32.705871,
            7.25
          ],
          [
            -117.153416,
            32.705855,
            7.25
          ],
          [
            -117.153331,
            32.705693,
            6.75
          ],
          [
            -117.153275,
            32.705587,
            6.5
          ],
          [
            -117.153257,
            32.705554,
            6.25
          ],
          [
            -117.153233,
            32.705484,
            6.25
          ],
          [
            -117.153237,
            32.705412,
            6.25
          ],
          [
            -117.153258,
            32.705363,
            6.25
          ],
          [
            -117.153316,
            32.705296,
            6.25
          ],
          [
            -117.153335,
            32.705282,
            6.25
          ],
          [
            -117.153412,
            32.705248,
            6.25
          ],
          [
            -117.153525,
            32.705224,
            6
          ],
          [
            -117.15369,
            32.705218,
            6
          ],
          [
            -117.153736,
            32.705218,
            6
          ],
          [
            -117.154881,
            32.705208,
            4.5
          ],
          [
            -117.155427,
            32.70524,
            3.25
          ],
          [
            -117.156084,
            32.705239,
            1.75
          ],
          [
            -117.156257,
            32.705249,
            1.5
          ],
          [
            -117.156535,
            32.705288,
            1
          ],
          [
            -117.15676,
            32.705341,
            1.25
          ],
          [
            -117.156899,
            32.705385,
            1.5
          ],
          [
            -117.157103,
            32.705463,
            1.75
          ],
          [
            -117.157335,
            32.705577,
            2
          ],
          [
            -117.157998,
            32.705946,
            3.25
          ],
          [
            -117.158797,
            32.706392,
            3.25
          ],
          [
            -117.160146,
            32.70713,
            7
          ],
          [
            -117.160215,
            32.707171,
            7.75
          ],
          [
            -117.160265,
            32.707198,
            8.25
          ],
          [
            -117.160365,
            32.707249,
            9.25
          ],
          [
            -117.160406,
            32.707272,
            9.75
          ],
          [
            -117.161171,
            32.707701,
            12.25
          ],
          [
            -117.162857,
            32.708629,
            12
          ],
          [
            -117.163265,
            32.708854,
            10.75
          ],
          [
            -117.163856,
            32.709159,
            4
          ],
          [
            -117.1639,
            32.70919,
            3.5
          ],
          [
            -117.163995,
            32.709237,
            2.5
          ],
          [
            -117.164071,
            32.709276,
            2
          ],
          [
            -117.164804,
            32.709654,
            1.25
          ],
          [
            -117.16488,
            32.709692,
            1.25
          ],
          [
            -117.164971,
            32.709741,
            0.75
          ],
          [
            -117.16637,
            32.710476,
            8.75
          ],
          [
            -117.167214,
            32.710942,
            11.5
          ],
          [
            -117.167683,
            32.711208,
            9
          ],
          [
            -117.167777,
            32.711271,
            8.75
          ],
          [
            -117.167832,
            32.71131,
            8.5
          ],
          [
            -117.167955,
            32.711397,
            8
          ],
          [
            -117.168032,
            32.711459,
            7.75
          ],
          [
            -117.168078,
            32.71149,
            7.5
          ],
          [
            -117.168267,
            32.711646,
            7.25
          ],
          [
            -117.168481,
            32.711835,
            6.5
          ],
          [
            -117.168658,
            32.712008,
            6.25
          ],
          [
            -117.168777,
            32.712134,
            6.25
          ],
          [
            -117.168975,
            32.712376,
            6
          ],
          [
            -117.169037,
            32.712461,
            6
          ],
          [
            -117.169076,
            32.712514,
            6.25
          ],
          [
            -117.169133,
            32.712599,
            6.25
          ],
          [
            -117.169155,
            32.71263,
            6.25
          ],
          [
            -117.169248,
            32.712775,
            6.75
          ],
          [
            -117.169388,
            32.712993,
            7.5
          ],
          [
            -117.169456,
            32.713139,
            7.75
          ],
          [
            -117.169573,
            32.713405,
            7.5
          ],
          [
            -117.169672,
            32.713701,
            6.25
          ],
          [
            -117.169834,
            32.7143,
            4.75
          ],
          [
            -117.16989,
            32.714598,
            6.25
          ],
          [
            -117.169909,
            32.714739,
            7
          ],
          [
            -117.16992,
            32.714916,
            7.75
          ],
          [
            -117.169924,
            32.71499,
            8
          ],
          [
            -117.169916,
            32.715475,
            9.5
          ],
          [
            -117.169904,
            32.715566,
            9.75
          ],
          [
            -117.169895,
            32.715637,
            10
          ],
          [
            -117.169857,
            32.715773,
            11
          ],
          [
            -117.169813,
            32.715837,
            12
          ],
          [
            -117.169792,
            32.715852,
            12.25
          ],
          [
            -117.169743,
            32.715886,
            12.75
          ],
          [
            -117.169639,
            32.715914,
            14
          ],
          [
            -117.169577,
            32.715918,
            15
          ],
          [
            -117.169374,
            32.715915,
            18.25
          ],
          [
            -117.169301,
            32.715914,
            19.5
          ],
          [
            -117.16923,
            32.715916,
            20.5
          ],
          [
            -117.169194,
            32.71592,
            21
          ],
          [
            -117.16915,
            32.715937,
            21.5
          ],
          [
            -117.169111,
            32.715953,
            21.75
          ],
          [
            -117.169053,
            32.715994,
            22.25
          ],
          [
            -117.169006,
            32.716054,
            22
          ],
          [
            -117.168956,
            32.716157,
            21
          ],
          [
            -117.168857,
            32.716352,
            16.75
          ]
        ]
      }
    }
  ]
}