{
  "type": "FeatureCollection",
  "features": [
    {
      "type": "Feature",
      "properties": {
        "creator": "BRouter-1.7.0",
        "name": "[MTS] Copper Line",
        "track-length": "12263",
        "filtered ascend": "43",
        "plain-ascend": "4",
        "total-time": "982",
        "total-energy": "535026",
        "cost": "12263",
        "messages": [
          [
            "Longitude",
            "Latitude",
            "Elevation",
            "Distance",
            "CostPerKm",
            "ElevCost",
            "TurnCost",
            "NodeCost",
            "InitialCost",
            "WayTags",
            "NodeTags",
            "Time",
            "Energy"
          ],
          [
            "-116976188",
            "32791538",
            "146",
            "5",
            "1000",
            "0",
            "0",
            "0",
            "0",
            "reversedirection=yes railway=light_rail",
            "railway=unknown",
            "0",
            "219"
          ],
          [
            "-116975703",
            "32800995",
            "134",
            "1064",
            "1000",
            "0",
            "0",
            "0",
            "0",
            "reversedirection=yes railway=light_rail",
            "railway=switch",
            "85",
            "40398"
          ],
          [
            "-116975735",
            "32802328",
            "133",
            "148",
            "1000",
            "0",
            "0",
            "0",
            "0",
            "reversedirection=yes railway=light_rail",
            "railway=level_crossing",
            "97",
            "45203"
          ],
          [
            "-116975742",
            "32803057",
            "131",
            "81",
            "1000",
            "0",
            "0",
            "0",
            "0",
            "reversedirection=yes railway=light_rail",
            "railway=switch",
            "103",
            "47874"
          ],
          [
            "-116975695",
            "32803605",
            "131",
            "61",
            "1000",
            "0",
            "0",
            "0",
            "0",
            "reversedirection=yes railway=light_rail",
            "railway=switch",
            "108",
            "50059"
          ],
          [
            "-116975696",
            "32804007",
            "131",
            "45",
            "1000",
            "0",
            "0",
            "0",
            "0",
            "railway=rail",
            "railway=level_crossing",
            "112",
            "51720"
          ],
          [
            "-116975699",
            "32804956",
            "128",
            "106",
            "1000",
            "0",
            "0",
            "0",
            "0",
            "railway=rail",
            "railway=unknown",
            "120",
            "54838"
          ],
          [
            "-116975698",
            "32805151",
            "128",
            "22",
            "1000",
            "0",
            "0",
            "0",
            "0",
            "railway=rail",
            "railway=switch",
            "122",
            "55607"
          ],
          [
            "-116975698",
            "32805843",
            "129",
            "77",
            "1000",
            "0",
            "0",
            "0",
            "0",
            "railway=light_rail",
            "railway=level_crossing",
            "128",
            "58918"
          ],
          [
            "-116976775",
            "32811605",
            "122",
            "663",
            "1000",
            "0",
            "0",
            "0",
            "0",
            "railway=light_rail",
            "railway=switch",
            "181",
            "82348"
          ],
          [
            "-116976797",
            "32812014",
            "121",
            "45",
            "1000",
            "0",
            "0",
            "0",
            "0",
            "railway=rail",
            "railway=level_crossing",
            "185",
            "83901"
          ],
          [
            "-116976810",
            "32812730",
            "121",
            "80",
            "1000",
            "0",
            "0",
            "0",
            "0",
            "railway=rail",
            "railway=switch",
            "191",
            "86717"
          ],
          [
            "-116976828",
            "32814455",
            "121",
            "192",
            "1000",
            "0",
            "0",
            "0",
            "0",
            "railway=rail",
            "railway=switch",
            "207",
            "94735"
          ],
          [
            "-116976799",
            "32816843",
            "117",
            "266",
            "1000",
            "0",
            "0",
            "0",
            "0",
            "railway=rail",
            "railway=level_crossing",
            "228",
            "103635"
          ],
          [
            "-116976040",
            "32821238",
            "114",
            "509",
            "1000",
            "0",
            "0",
            "0",
            "0",
            "railway=rail",
            "railway=level_crossing",
            "269",
            "121595"
          ],
          [
            "-116977610",
            "32825197",
            "110",
            "476",
            "1000",
            "0",
            "0",
            "0",
            "0",
            "railway=rail",
            "",
            "307",
            "138922"
          ],
          [
            "-116980000",
            "32825881",
            "109",
            "239",
            "1000",
            "0",
            "0",
            "0",
            "0",
            "railway=rail",
            "railway=switch",
            "19",
            "10069"
          ],
          [
            "-116982272",
            "32827292",
            "107",
            "282",
            "1000",
            "0",
            "0",
            "0",
            "0",
            "railway=rail",
            "railway=unknown",
            "41",
            "20844"
          ],
          [
            "-116982504",
            "32827671",
            "107",
            "47",
            "1000",
            "0",
            "0",
            "0",
            "0",
            "railway=rail",
            "railway=level_crossing",
            "45",
            "22641"
          ],
          [
            "-116982987",
            "32828363",
            "105",
            "89",
            "1000",
            "0",
            "0",
            "0",
            "0",
            "railway=rail",
            "railway=switch",
            "52",
            "25481"
          ],
          [
            "-116983874",
            "32829890",
            "104",
            "189",
            "1000",
            "0",
            "0",
            "0",
            "0",
            "reversedirection=yes railway=rail",
            "railway=level_crossing",
            "67",
            "33258"
          ],
          [
            "-116983785",
            "32831305",
            "104",
            "157",
            "1000",
            "0",
            "0",
            "0",
            "0",
            "reversedirection=yes railway=rail",
            "railway=crossing",
            "80",
            "39698"
          ],
          [
            "-116983784",
            "32831407",
            "104",
            "11",
            "1000",
            "0",
            "0",
            "0",
            "0",
            "reversedirection=yes railway=rail",
            "railway=level_crossing",
            "81",
            "40044"
          ],
          [
            "-116983784",
            "32831556",
            "103",
            "17",
            "1000",
            "0",
            "0",
            "0",
            "0",
            "reversedirection=yes railway=rail",
            "railway=crossing",
            "82",
            "40503"
          ],
          [
            "-116983793",
            "32832646",
            "106",
            "121",
            "1000",
            "0",
            "0",
            "0",
            "0",
            "reversedirection=yes railway=rail",
            "railway=level_crossing",
            "92",
            "46437"
          ],
          [
            "-116983791",
            "32835046",
            "106",
            "266",
            "1000",
            "0",
            "0",
            "0",
            "0",
            "reversedirection=yes railway=rail",
            "railway=level_crossing",
            "113",
            "58995"
          ],
          [
            "-116983792",
            "32835115",
            "106",
            "8",
            "1000",
            "0",
            "0",
            "0",
            "0",
            "reversedirection=yes railway=rail",
            "railway=crossing",
            "114",
            "59352"
          ],
          [
            "-116983797",
            "32838533",
            "104",
            "379",
            "1000",
            "0",
            "0",
            "0",
            "0",
            "reversedirection=yes railway=rail",
            "railway=crossing",
            "144",
            "74290"
          ],
          [
            "-116983790",
            "32838610",
            "104",
            "9",
            "1000",
            "0",
            "0",
            "0",
            "0",
            "reversedirection=yes railway=rail",
            "railway=level_crossing",
            "145",
            "74669"
          ],
          [
            "-116983767",
            "32838754",
            "104",
            "16",
            "1000",
            "0",
            "0",
            "0",
            "0",
            "reversedirection=yes railway=rail",
            "railway=level_crossing",
            "146",
            "75314"
          ],
          [
            "-116983726",
            "32838885",
            "104",
            "15",
            "1000",
            "0",
            "0",
            "0",
            "0",
            "reversedirection=yes railway=rail",
            "railway=crossing",
            "147",
            "75926"
          ],
          [
            "-116983699",
            "32838945",
            "104",
            "7",
            "1000",
            "0",
            "0",
            "0",
            "0",
            "reversedirection=yes railway=rail",
            "railway=level_crossing",
            "148",
            "76214"
          ],
          [
            "-116983610",
            "32839101",
            "104",
            "19",
            "1000",
            "0",
            "0",
            "0",
            "0",
            "reversedirection=yes railway=rail",
            "railway=crossing",
            "149",
            "77003"
          ],
          [
            "-116982663",
            "32840071",
            "105",
            "139",
            "1000",
            "0",
            "0",
            "0",
            "0",
            "reversedirection=yes railway=rail",
            "railway=crossing",
            "160",
            "83706"
          ],
          [
            "-116982649",
            "32840085",
            "105",
            "2",
            "1000",
            "0",
            "0",
            "0",
            "0",
            "reversedirection=yes railway=rail",
            "railway=level_crossing",
            "160",
            "83800"
          ],
          [
            "-116982600",
            "32840133",
            "105",
            "7",
            "1000",
            "0",
            "0",
            "0",
            "0",
            "reversedirection=yes railway=rail",
            "railway=level_crossing",
            "161",
            "84142"
          ],
          [
            "-116982577",
            "32840155",
            "105",
            "3",
            "1000",
            "0",
            "0",
            "0",
            "0",
            "reversedirection=yes railway=rail",
            "railway=crossing",
            "161",
            "84287"
          ],
          [
            "-116981922",
            "32840800",
            "103",
            "94",
            "1000",
            "0",
            "0",
            "0",
            "0",
            "reversedirection=yes railway=rail",
            "railway=crossing",
            "169",
            "87355"
          ],
          [
            "-116981906",
            "32840816",
            "103",
            "2",
            "1000",
            "0",
            "0",
            "0",
            "0",
            "reversedirection=yes railway=rail",
            "railway=level_crossing",
            "169",
            "87425"
          ],
          [
            "-116981863",
            "32840858",
            "102",
            "6",
            "1000",
            "0",
            "0",
            "0",
            "0",
            "reversedirection=yes railway=rail",
            "railway=level_crossing",
            "169",
            "87625"
          ],
          [
            "-116981810",
            "32840912",
            "102",
            "8",
            "1000",
            "0",
            "0",
            "0",
            "0",
            "reversedirection=yes railway=rail",
            "railway=switch",
            "170",
            "87862"
          ],
          [
            "-116980768",
            "32841940",
            "103",
            "150",
            "1000",
            "0",
            "0",
            "0",
            "0",
            "reversedirection=yes railway=light_rail",
            "railway=unknown",
            "182",
            "94082"
          ],
          [
            "-116980687",
            "32842021",
            "103",
            "12",
            "1000",
            "0",
            "0",
            "0",
            "0",
            "reversedirection=yes railway=light_rail",
            "",
            "183",
            "94622"
          ],
          [
            "-116980768",
            "32841940",
            "103",
            "12",
            "1000",
            "0",
            "0",
            "0",
            "0",
            "railway=light_rail",
            "railway=unknown",
            "0",
            "502"
          ],
          [
            "-116981810",
            "32840912",
            "102",
            "150",
            "1000",
            "0",
            "0",
            "0",
            "0",
            "railway=light_rail",
            "railway=switch",
            "12",
            "6262"
          ],
          [
            "-116981863",
            "32840858",
            "102",
            "8",
            "1000",
            "0",
            "0",
            "0",
            "0",
            "railway=rail",
            "railway=level_crossing",
            "13",
            "6629"
          ],
          [
            "-116981906",
            "32840816",
            "103",
            "6",
            "1000",
            "0",
            "0",
            "0",
            "0",
            "railway=rail",
            "railway=level_crossing",
            "14",
            "6917"
          ],
          [
            "-116981922",
            "32840800",
            "103",
            "2",
            "1000",
            "0",
            "0",
            "0",
            "0",
            "railway=rail",
            "railway=crossing",
            "14",
            "7017"
          ],
          [
            "-116982577",
            "32840155",
            "105",
            "94",
            "1000",
            "0",
            "0",
            "0",
            "0",
            "railway=rail",
            "railway=crossing",
            "21",
            "11252"
          ],
          [
            "-116982600",
            "32840133",
            "105",
            "3",
            "1000",
            "0",
            "0",
            "0",
            "0",
            "railway=rail",
            "railway=level_crossing",
            "21",
            "11385"
          ],
          [
            "-116982649",
            "32840085",
            "105",
            "7",
            "1000",
            "0",
            "0",
            "0",
            "0",
            "railway=rail",
            "railway=level_crossing",
            "22",
            "11860"
          ],
          [
            "-116982663",
            "32840071",
            "105",
            "2",
            "1000",
            "0",
            "0",
            "0",
            "0",
            "railway=rail",
            "railway=crossing",
            "22",
            "11994"
          ],
          [
            "-116983610",
            "32839101",
            "104",
            "139",
            "1000",
            "0",
            "0",
            "0",
            "0",
            "railway=rail",
            "railway=crossing",
            "33",
            "19096"
          ],
          [
            "-116983699",
            "32838945",
            "104",
            "19",
            "1000",
            "0",
            "0",
            "0",
            "0",
            "railway=rail",
            "railway=level_crossing",
            "35",
            "19961"
          ],
          [
            "-116983726",
            "32838885",
            "104",
            "7",
            "1000",
            "0",
            "0",
            "0",
            "0",
            "railway=rail",
            "railway=crossing",
            "35",
            "20279"
          ],
          [
            "-116983767",
            "32838754",
            "104",
            "15",
            "1000",
            "0",
            "0",
            "0",
            "0",
            "railway=rail",
            "railway=level_crossing",
            "37",
            "20957"
          ],
          [
            "-116983790",
            "32838610",
            "104",
            "16",
            "1000",
            "0",
            "0",
            "0",
            "0",
            "railway=rail",
            "railway=level_crossing",
            "38",
            "21710"
          ],
          [
            "-116983797",
            "32838533",
            "104",
            "9",
            "1000",
            "0",
            "0",
            "0",
            "0",
            "railway=rail",
            "railway=crossing",
            "39",
            "22130"
          ],
          [
            "-116983792",
            "32835115",
            "106",
            "379",
            "1000",
            "0",
            "0",
            "0",
            "0",
            "railway=rail",
            "railway=crossing",
            "69",
            "40981"
          ],
          [
            "-116983791",
            "32835046",
            "106",
            "8",
            "1000",
            "0",
            "0",
            "0",
            "0",
            "railway=rail",
            "railway=level_crossing",
            "70",
            "41338"
          ],
          [
            "-116983793",
            "32832646",
            "106",
            "266",
            "1000",
            "0",
            "0",
            "0",
            "0",
            "railway=rail",
            "railway=level_crossing",
            "91",
            "52939"
          ],
          [
            "-116983784",
            "32831556",
            "103",
            "121",
            "1000",
            "0",
            "0",
            "0",
            "0",
            "railway=rail",
            "railway=crossing",
            "101",
            "58064"
          ],
          [
            "-116983784",
            "32831407",
            "104",
            "17",
            "1000",
            "0",
            "0",
            "0",
            "0",
            "railway=rail",
            "railway=level_crossing",
            "102",
            "58489"
          ],
          [
            "-116983785",
            "32831305",
            "104",
            "11",
            "1000",
            "0",
            "0",
            "0",
            "0",
            "railway=rail",
            "railway=crossing",
            "103",
            "58836"
          ],
          [
            "-116983874",
            "32829890",
            "104",
            "157",
            "1000",
            "0",
            "0",
            "0",
            "0",
            "railway=rail",
            "railway=level_crossing",
            "115",
            "65135"
          ],
          [
            "-116982987",
            "32828363",
            "105",
            "189",
            "1000",
            "0",
            "0",
            "0",
            "0",
            "railway=rail",
            "railway=switch",
            "130",
            "73770"
          ],
          [
            "-116982569",
            "32827682",
            "107",
            "85",
            "1000",
            "0",
            "0",
            "0",
            "0",
            "railway=light_rail",
            "railway=level_crossing",
            "137",
            "78519"
          ],
          [
            "-116981848",
            "32826532",
            "108",
            "139",
            "1000",
            "0",
            "0",
            "0",
            "0",
            "railway=light_rail",
            "",
            "148",
            "85081"
          ],
          [
            "-116981798",
            "32826475",
            "108",
            "14",
            "1000",
            "0",
            "0",
            "0",
            "0",
            "railway=light_rail",
            "railway=unknown",
            "1",
            "690"
          ],
          [
            "-116979345",
            "32825718",
            "110",
            "250",
            "1000",
            "0",
            "0",
            "0",
            "0",
            "railway=light_rail",
            "railway=switch",
            "21",
            "13745"
          ],
          [
            "-116976088",
            "32821240",
            "114",
            "643",
            "1000",
            "0",
            "0",
            "0",
            "0",
            "railway=light_rail",
            "railway=level_crossing",
            "72",
            "44083"
          ],
          [
            "-116976850",
            "32816843",
            "117",
            "511",
            "1000",
            "0",
            "0",
            "0",
            "0",
            "railway=light_rail",
            "railway=level_crossing",
            "113",
            "69891"
          ],
          [
            "-116976886",
            "32814750",
            "120",
            "233",
            "1000",
            "0",
            "0",
            "0",
            "0",
            "railway=light_rail",
            "railway=switch",
            "132",
            "83085"
          ],
          [
            "-116976860",
            "32813281",
            "120",
            "163",
            "1000",
            "0",
            "0",
            "0",
            "0",
            "railway=light_rail",
            "railway=switch",
            "145",
            "91379"
          ],
          [
            "-116976855",
            "32812730",
            "121",
            "61",
            "1000",
            "0",
            "0",
            "0",
            "0",
            "railway=light_rail",
            "railway=switch",
            "150",
            "94313"
          ],
          [
            "-116976842",
            "32812014",
            "122",
            "80",
            "1000",
            "0",
            "0",
            "0",
            "0",
            "railway=light_rail",
            "railway=level_crossing",
            "156",
            "98291"
          ],
          [
            "-116975746",
            "32806770",
            "130",
            "595",
            "1000",
            "0",
            "0",
            "0",
            "0",
            "railway=light_rail",
            "",
            "203",
            "127898"
          ],
          [
            "-116975750",
            "32805843",
            "129",
            "112",
            "1000",
            "0",
            "0",
            "0",
            "0",
            "railway=light_rail",
            "railway=level_crossing",
            "8",
            "4938"
          ],
          [
            "-116975744",
            "32804117",
            "131",
            "191",
            "1000",
            "0",
            "0",
            "0",
            "0",
            "railway=light_rail",
            "railway=unknown",
            "24",
            "14269"
          ],
          [
            "-116975744",
            "32804007",
            "131",
            "12",
            "1000",
            "0",
            "0",
            "0",
            "0",
            "railway=light_rail",
            "railway=level_crossing",
            "25",
            "14815"
          ],
          [
            "-116975742",
            "32803057",
            "131",
            "55",
            "1000",
            "0",
            "0",
            "0",
            "0",
            "railway=light_rail",
            "",
            "29",
            "17388"
          ],
          [
            "-116975742",
            "32803057",
            "131",
            "50",
            "1000",
            "0",
            "0",
            "0",
            "0",
            "railway=light_rail",
            "railway=switch",
            "4",
            "2372"
          ],
          [
            "-116975735",
            "32802328",
            "133",
            "81",
            "1000",
            "0",
            "0",
            "0",
            "0",
            "railway=light_rail",
            "railway=level_crossing",
            "10",
            "6697"
          ],
          [
            "-116975703",
            "32800995",
            "134",
            "148",
            "1000",
            "0",
            "0",
            "0",
            "0",
            "railway=light_rail",
            "railway=switch",
            "22",
            "14871"
          ],
          [
            "-116976188",
            "32791538",
            "146",
            "1064",
            "1000",
            "0",
            "0",
            "0",
            "0",
            "railway=light_rail",
            "railway=unknown",
            "107",
            "70833"
          ],
          [
            "-116976183",
            "32791340",
            "146",
            "5",
            "1000",
            "0",
            "0",
            "0",
            "0",
            "railway=light_rail",
            "",
            "107",
            "71115"
          ]
        ],
        "times": [
          0,
          0.4,
          4.32,
          8.72,
          9.68,
          13.2,
          14.88,
          16.32,
          17.36,
          23.36,
          24.96,
          26.32,
          27.68,
          34.56,
          37.36,
          38.16,
          44.4,
          47.6,
          49.6,
          51.6,
          53.76,
          61.76,
          63.04,
          64.8,
          66.96,
          68.8,
          70.48,
          80.48,
          82.08,
          85.52,
          97.36,
          103.84,
          105.6,
          107.2,
          108.72,
          112.32,
          113.6,
          120.8,
          122.56,
          128.72,
          130.56,
          135.92,
          137.04,
          141.84,
          142.8,
          144.56,
          146.24,
          147.2,
          148.48,
          153.12,
          154.48,
          156.16,
          157.6,
          158.24,
          159.04,
          161.04,
          161.52,
          170.72,
          172.64,
          181.76,
          185.36,
          187.92,
          191.76,
          202.32,
          207.12,
          217.12,
          220.48,
          225.2,
          226.24,
          227.36,
          228.4,
          229.52,
          234.64,
          235.28,
          236.4,
          237.52,
          238.8,
          240.72,
          267.6,
          269.12,
          269.92,
          272.08,
          275.2,
          292.08,
          294.16,
          296.64,
          299.44,
          300.8,
          302.08,
          303.6,
          305.12,
          306.08,
          307.2,
          307.28,
          308.96,
          310.96,
          311.92,
          313.6,
          315.68,
          318.24,
          326.32,
          331.12,
          333.52,
          334.56,
          335.52,
          336.56,
          337.28,
          338.96,
          340.48,
          341.92,
          343.04,
          348.88,
          349.68,
          352.64,
          354.88,
          359.76,
          370.96,
          373.28,
          374.24,
          374.88,
          375.92,
          376.88,
          381.44,
          383.2,
          384.64,
          387.44,
          388.32,
          389.68,
          399.36,
          401.52,
          420.64,
          421.28,
          448.8,
          451.6,
          452.32,
          453.6,
          454.8,
          455.36,
          455.84,
          456.88,
          458,
          458.88,
          468,
          468.16,
          468.72,
          468.96,
          476.08,
          476.48,
          476.64,
          477.12,
          477.76,
          489.76,
          490.72,
          491.68,
          503.68,
          504.32,
          504.8,
          504.96,
          505.36,
          512.48,
          512.72,
          513.28,
          513.44,
          522.56,
          523.44,
          524.56,
          525.6,
          526.08,
          526.64,
          527.84,
          529.12,
          529.84,
          532.64,
          560.16,
          560.8,
          579.92,
          582.08,
          591.76,
          593.12,
          594,
          596.8,
          598.24,
          600,
          604.56,
          605.52,
          606.56,
          607.2,
          608.16,
          610.48,
          621.68,
          628.48,
          631.76,
          638.88,
          639.6,
          640.08,
          640.72,
          642.56,
          644,
          645.36,
          646.48,
          648.16,
          649.12,
          650.8,
          660.72,
          664.72,
          666.64,
          668.48,
          670.88,
          673.2,
          675.36,
          677.44,
          679.6,
          681.68,
          684.16,
          686.48,
          688.56,
          691.28,
          707.6,
          710.08,
          712.16,
          713.2,
          716.88,
          740.64,
          742.08,
          743.12,
          744.32,
          745.36,
          746.96,
          751.28,
          752.16,
          753.04,
          754.16,
          755.12,
          759.76,
          763.68,
          771.68,
          776.24,
          784.72,
          789.6,
          792,
          796,
          810.64,
          819.84,
          820.24,
          821.2,
          823.04,
          824.72,
          825.68,
          826.8,
          827.68,
          833.44,
          834.72,
          836.72,
          837.84,
          839.68,
          843.6,
          844.24,
          845.36,
          850.72,
          852.56,
          867.6,
          867.84,
          868.8,
          873.2,
          877.2,
          883.68,
          895.52,
          898.96,
          900.56,
          910.56,
          912.24,
          914.08,
          916.24,
          918,
          919.28,
          927.28,
          929.44,
          931.44,
          933.44,
          936.64,
          942.88,
          943.68,
          946.48,
          953.36,
          954.72,
          956.08,
          957.68,
          963.68,
          964.72,
          966.16,
          967.84,
          971.36,
          972.32,
          976.72,
          980.64,
          981.04
        ]
      },
      "geometry": {
        "type": "LineString",
        "coordinates": [
          [
            -116.976187,
            32.791496,
            146
          ],
          [
            -116.976188,
            32.791538,
            146
          ],
          [
            -116.97619,
            32.79198,
            145
          ],
          [
            -116.976214,
            32.79248,
            143.25
          ],
          [
            -116.976219,
            32.79259,
            143
          ],
          [
            -116.976239,
            32.792984,
            142.5
          ],
          [
            -116.976261,
            32.793173,
            142.25
          ],
          [
            -116.976295,
            32.793336,
            142
          ],
          [
            -116.976328,
            32.793451,
            142
          ],
          [
            -116.976553,
            32.794103,
            143.25
          ],
          [
            -116.976596,
            32.794283,
            143.5
          ],
          [
            -116.976618,
            32.794431,
            143.25
          ],
          [
            -116.976626,
            32.794581,
            143.25
          ],
          [
            -116.976608,
            32.795358,
            142.5
          ],
          [
            -116.976594,
            32.795675,
            142.25
          ],
          [
            -116.976591,
            32.795761,
            142
          ],
          [
            -116.976561,
            32.796464,
            145.25
          ],
          [
            -116.976517,
            32.796821,
            146.25
          ],
          [
            -116.976471,
            32.797045,
            146.25
          ],
          [
            -116.976403,
            32.797267,
            145.75
          ],
          [
            -116.976316,
            32.7975,
            145.25
          ],
          [
            -116.97591,
            32.798337,
            140.25
          ],
          [
            -116.975849,
            32.798473,
            139.25
          ],
          [
            -116.97578,
            32.798662,
            138
          ],
          [
            -116.975725,
            32.798898,
            136.75
          ],
          [
            -116.975697,
            32.799106,
            135.75
          ],
          [
            -116.975685,
            32.799298,
            135.5
          ],
          [
            -116.975684,
            32.800426,
            135.25
          ],
          [
            -116.975692,
            32.800606,
            135.25
          ],
          [
            -116.975703,
            32.800995,
            134.75
          ],
          [
            -116.975735,
            32.802328,
            133
          ],
          [
            -116.975742,
            32.803057,
            131.75
          ],
          [
            -116.975731,
            32.803256,
            131.5
          ],
          [
            -116.975708,
            32.803434,
            131.25
          ],
          [
            -116.975695,
            32.803605,
            131.25
          ],
          [
            -116.975696,
            32.804007,
            131
          ],
          [
            -116.975696,
            32.804147,
            131
          ],
          [
            -116.975699,
            32.804956,
            128.75
          ],
          [
            -116.975698,
            32.805151,
            128.75
          ],
          [
            -116.975698,
            32.805843,
            129.5
          ],
          [
            -116.975697,
            32.806048,
            129.75
          ],
          [
            -116.975693,
            32.806648,
            129.75
          ],
          [
            -116.975692,
            32.80677,
            129.5
          ],
          [
            -116.975711,
            32.807307,
            129
          ],
          [
            -116.975723,
            32.807417,
            129
          ],
          [
            -116.97577,
            32.807607,
            128.75
          ],
          [
            -116.975849,
            32.807785,
            128.75
          ],
          [
            -116.975904,
            32.807881,
            128.5
          ],
          [
            -116.975992,
            32.808006,
            128.5
          ],
          [
            -116.976336,
            32.808438,
            128
          ],
          [
            -116.976432,
            32.808567,
            128
          ],
          [
            -116.976528,
            32.808734,
            127.75
          ],
          [
            -116.976592,
            32.808891,
            127.75
          ],
          [
            -116.976611,
            32.808961,
            127.75
          ],
          [
            -116.976629,
            32.809052,
            127.5
          ],
          [
            -116.976651,
            32.809275,
            127.25
          ],
          [
            -116.976653,
            32.809328,
            127.5
          ],
          [
            -116.97669,
            32.810363,
            124.5
          ],
          [
            -116.976698,
            32.810582,
            123.75
          ],
          [
            -116.976775,
            32.811605,
            122.25
          ],
          [
            -116.976797,
            32.812014,
            121.75
          ],
          [
            -116.976807,
            32.812298,
            121.5
          ],
          [
            -116.97681,
            32.81273,
            121
          ],
          [
            -116.976813,
            32.813916,
            121.5
          ],
          [
            -116.976828,
            32.814455,
            121
          ],
          [
            -116.976875,
            32.815578,
            118.75
          ],
          [
            -116.976885,
            32.815955,
            118.25
          ],
          [
            -116.976881,
            32.81649,
            117.75
          ],
          [
            -116.976874,
            32.816603,
            117.75
          ],
          [
            -116.976847,
            32.816731,
            117.5
          ],
          [
            -116.976799,
            32.816843,
            117.25
          ],
          [
            -116.976723,
            32.816954,
            116.75
          ],
          [
            -116.976275,
            32.817388,
            115.5
          ],
          [
            -116.97622,
            32.817448,
            115.5
          ],
          [
            -116.976142,
            32.817557,
            115.25
          ],
          [
            -116.976086,
            32.817672,
            115
          ],
          [
            -116.976044,
            32.817812,
            114.75
          ],
          [
            -116.976029,
            32.81803,
            114.5
          ],
          [
            -116.976032,
            32.821064,
            113.5
          ],
          [
            -116.97604,
            32.821238,
            114
          ],
          [
            -116.976045,
            32.821325,
            114.25
          ],
          [
            -116.976078,
            32.82157,
            115
          ],
          [
            -116.976146,
            32.821913,
            114
          ],
          [
            -116.976566,
            32.82378,
            111.75
          ],
          [
            -116.976639,
            32.824009,
            111.75
          ],
          [
            -116.976755,
            32.824274,
            112
          ],
          [
            -116.976927,
            32.824552,
            112.25
          ],
          [
            -116.977027,
            32.824679,
            112
          ],
          [
            -116.977126,
            32.824792,
            112
          ],
          [
            -116.977256,
            32.82492,
            111.5
          ],
          [
            -116.977395,
            32.825041,
            111
          ],
          [
            -116.977492,
            32.825113,
            110.5
          ],
          [
            -116.977608,
            32.825194,
            110.5
          ],
          [
            -116.97761,
            32.825197,
            110.5
          ],
          [
            -116.977792,
            32.825308,
            110.5
          ],
          [
            -116.978018,
            32.825425,
            110.5
          ],
          [
            -116.978133,
            32.825472,
            110.5
          ],
          [
            -116.978341,
            32.825549,
            110.5
          ],
          [
            -116.978609,
            32.825622,
            110.5
          ],
          [
            -116.978945,
            32.825691,
            110.25
          ],
          [
            -116.98,
            32.825881,
            109.75
          ],
          [
            -116.980631,
            32.825993,
            109.75
          ],
          [
            -116.980946,
            32.826053,
            109.75
          ],
          [
            -116.981073,
            32.826088,
            109.5
          ],
          [
            -116.981194,
            32.82613,
            109.5
          ],
          [
            -116.981316,
            32.826181,
            109.25
          ],
          [
            -116.981398,
            32.826223,
            109.25
          ],
          [
            -116.98158,
            32.82634,
            109
          ],
          [
            -116.981725,
            32.826466,
            108.5
          ],
          [
            -116.981841,
            32.8266,
            107.75
          ],
          [
            -116.981914,
            32.826707,
            107.25
          ],
          [
            -116.982272,
            32.827292,
            107.5
          ],
          [
            -116.982323,
            32.827375,
            107.75
          ],
          [
            -116.982504,
            32.827671,
            107.25
          ],
          [
            -116.982653,
            32.827895,
            106.75
          ],
          [
            -116.982987,
            32.828363,
            105.5
          ],
          [
            -116.983677,
            32.829487,
            106.5
          ],
          [
            -116.983812,
            32.829722,
            105.5
          ],
          [
            -116.983856,
            32.829824,
            105
          ],
          [
            -116.983874,
            32.82989,
            104.75
          ],
          [
            -116.983893,
            32.830009,
            104.25
          ],
          [
            -116.983894,
            32.830113,
            104.5
          ],
          [
            -116.983829,
            32.830628,
            106
          ],
          [
            -116.983803,
            32.830828,
            106.5
          ],
          [
            -116.98379,
            32.83099,
            105.75
          ],
          [
            -116.983785,
            32.831305,
            104.5
          ],
          [
            -116.983784,
            32.831407,
            104
          ],
          [
            -116.983784,
            32.831556,
            103.25
          ],
          [
            -116.983793,
            32.832646,
            106
          ],
          [
            -116.983786,
            32.83289,
            106.75
          ],
          [
            -116.983791,
            32.835046,
            106.75
          ],
          [
            -116.983792,
            32.835115,
            106.75
          ],
          [
            -116.983797,
            32.838219,
            104.75
          ],
          [
            -116.983797,
            32.838533,
            104.5
          ],
          [
            -116.98379,
            32.83861,
            104.5
          ],
          [
            -116.983767,
            32.838754,
            104.25
          ],
          [
            -116.983726,
            32.838885,
            104.25
          ],
          [
            -116.983699,
            32.838945,
            104.25
          ],
          [
            -116.983674,
            32.838998,
            104.25
          ],
          [
            -116.98361,
            32.839101,
            104.25
          ],
          [
            -116.983526,
            32.839207,
            104.25
          ],
          [
            -116.983454,
            32.839286,
            104.5
          ],
          [
            -116.982663,
            32.840071,
            105.5
          ],
          [
            -116.982649,
            32.840085,
            105.5
          ],
          [
            -116.9826,
            32.840133,
            105.75
          ],
          [
            -116.982577,
            32.840155,
            105.75
          ],
          [
            -116.981958,
            32.840765,
            103.25
          ],
          [
            -116.981922,
            32.8408,
            103.25
          ],
          [
            -116.981906,
            32.840816,
            103
          ],
          [
            -116.981863,
            32.840858,
            102.75
          ],
          [
            -116.98181,
            32.840912,
            102.25
          ],
          [
            -116.980768,
            32.84194,
            103.25
          ],
          [
            -116.980687,
            32.842021,
            103.5
          ],
          [
            -116.980768,
            32.84194,
            103.25
          ],
          [
            -116.98181,
            32.840912,
            102.25
          ],
          [
            -116.981863,
            32.840858,
            102.75
          ],
          [
            -116.981906,
            32.840816,
            103
          ],
          [
            -116.981922,
            32.8408,
            103.25
          ],
          [
            -116.981958,
            32.840765,
            103.25
          ],
          [
            -116.982577,
            32.840155,
            105.75
          ],
          [
            -116.9826,
            32.840133,
            105.75
          ],
          [
            -116.982649,
            32.840085,
            105.5
          ],
          [
            -116.982663,
            32.840071,
            105.5
          ],
          [
            -116.983454,
            32.839286,
            104.5
          ],
          [
            -116.983526,
            32.839207,
            104.25
          ],
          [
            -116.98361,
            32.839101,
            104.25
          ],
          [
            -116.983674,
            32.838998,
            104.25
          ],
          [
            -116.983699,
            32.838945,
            104.25
          ],
          [
            -116.983726,
            32.838885,
            104.25
          ],
          [
            -116.983767,
            32.838754,
            104.25
          ],
          [
            -116.98379,
            32.83861,
            104.5
          ],
          [
            -116.983797,
            32.838533,
            104.5
          ],
          [
            -116.983797,
            32.838219,
            104.75
          ],
          [
            -116.983792,
            32.835115,
            106.75
          ],
          [
            -116.983791,
            32.835046,
            106.75
          ],
          [
            -116.983786,
            32.83289,
            106.75
          ],
          [
            -116.983793,
            32.832646,
            106
          ],
          [
            -116.983784,
            32.831556,
            103.25
          ],
          [
            -116.983784,
            32.831407,
            104
          ],
          [
            -116.983785,
            32.831305,
            104.5
          ],
          [
            -116.98379,
            32.83099,
            105.75
          ],
          [
            -116.983803,
            32.830828,
            106.5
          ],
          [
            -116.983829,
            32.830628,
            106
          ],
          [
            -116.983894,
            32.830113,
            104.5
          ],
          [
            -116.983893,
            32.830009,
            104.25
          ],
          [
            -116.983874,
            32.82989,
            104.75
          ],
          [
            -116.983856,
            32.829824,
            105
          ],
          [
            -116.983812,
            32.829722,
            105.5
          ],
          [
            -116.983677,
            32.829487,
            106.5
          ],
          [
            -116.982987,
            32.828363,
            105.5
          ],
          [
            -116.982569,
            32.827682,
            107.5
          ],
          [
            -116.982368,
            32.827353,
            107.5
          ],
          [
            -116.98193,
            32.826643,
            107.25
          ],
          [
            -116.981881,
            32.826575,
            108
          ],
          [
            -116.981848,
            32.826532,
            108
          ],
          [
            -116.981798,
            32.826475,
            108.25
          ],
          [
            -116.981635,
            32.826324,
            109
          ],
          [
            -116.981482,
            32.826221,
            109.25
          ],
          [
            -116.981327,
            32.826138,
            109.5
          ],
          [
            -116.981192,
            32.826083,
            109.75
          ],
          [
            -116.980978,
            32.826017,
            109.75
          ],
          [
            -116.980858,
            32.825989,
            110
          ],
          [
            -116.980639,
            32.825951,
            110
          ],
          [
            -116.979345,
            32.825718,
            110.25
          ],
          [
            -116.978821,
            32.825623,
            110.5
          ],
          [
            -116.978573,
            32.825568,
            110.5
          ],
          [
            -116.978342,
            32.825501,
            110.75
          ],
          [
            -116.978051,
            32.82539,
            110.5
          ],
          [
            -116.977785,
            32.825252,
            110.5
          ],
          [
            -116.977551,
            32.825103,
            110.75
          ],
          [
            -116.977345,
            32.824941,
            111.25
          ],
          [
            -116.977157,
            32.824755,
            112
          ],
          [
            -116.976994,
            32.824562,
            112.25
          ],
          [
            -116.976834,
            32.824318,
            112.25
          ],
          [
            -116.976716,
            32.824074,
            111.75
          ],
          [
            -116.976638,
            32.823851,
            111.5
          ],
          [
            -116.976563,
            32.823554,
            111.25
          ],
          [
            -116.976162,
            32.82175,
            114.75
          ],
          [
            -116.976112,
            32.821474,
            114.75
          ],
          [
            -116.976088,
            32.82124,
            114
          ],
          [
            -116.976081,
            32.821123,
            113.75
          ],
          [
            -116.976076,
            32.82071,
            113
          ],
          [
            -116.976077,
            32.818031,
            114.75
          ],
          [
            -116.976088,
            32.817865,
            115
          ],
          [
            -116.97611,
            32.817746,
            115
          ],
          [
            -116.976159,
            32.81762,
            115.25
          ],
          [
            -116.976224,
            32.817512,
            115.25
          ],
          [
            -116.976352,
            32.817372,
            115.75
          ],
          [
            -116.976732,
            32.81701,
            116.75
          ],
          [
            -116.976796,
            32.816932,
            117
          ],
          [
            -116.97685,
            32.816843,
            117.25
          ],
          [
            -116.9769,
            32.816721,
            117.75
          ],
          [
            -116.976921,
            32.816612,
            117.75
          ],
          [
            -116.976933,
            32.81609,
            118.25
          ],
          [
            -116.976924,
            32.815649,
            118.75
          ],
          [
            -116.976886,
            32.81475,
            120.25
          ],
          [
            -116.976869,
            32.814233,
            121.75
          ],
          [
            -116.97686,
            32.813281,
            120.75
          ],
          [
            -116.976855,
            32.81273,
            121.25
          ],
          [
            -116.976856,
            32.812461,
            121.5
          ],
          [
            -116.976842,
            32.812014,
            122
          ],
          [
            -116.976739,
            32.810362,
            124.5
          ],
          [
            -116.976704,
            32.809326,
            127.5
          ],
          [
            -116.976703,
            32.809281,
            127.5
          ],
          [
            -116.976697,
            32.809173,
            127.5
          ],
          [
            -116.976666,
            32.808967,
            127.75
          ],
          [
            -116.976608,
            32.808786,
            128
          ],
          [
            -116.976561,
            32.808685,
            128
          ],
          [
            -116.976497,
            32.808574,
            128.25
          ],
          [
            -116.976436,
            32.808486,
            128.25
          ],
          [
            -116.976008,
            32.807946,
            129
          ],
          [
            -116.975924,
            32.807825,
            129
          ],
          [
            -116.975828,
            32.807619,
            129.25
          ],
          [
            -116.975792,
            32.807495,
            129.5
          ],
          [
            -116.975762,
            32.807288,
            129.75
          ],
          [
            -116.975749,
            32.806845,
            130
          ],
          [
            -116.975746,
            32.80677,
            130.25
          ],
          [
            -116.975746,
            32.806648,
            129.75
          ],
          [
            -116.975749,
            32.806048,
            129.75
          ],
          [
            -116.97575,
            32.805843,
            129.75
          ],
          [
            -116.975744,
            32.804146,
            131
          ],
          [
            -116.975744,
            32.804117,
            131
          ],
          [
            -116.975744,
            32.804007,
            131
          ],
          [
            -116.975743,
            32.803509,
            131.75
          ],
          [
            -116.975742,
            32.803057,
            131.75
          ],
          [
            -116.975735,
            32.802328,
            133
          ],
          [
            -116.975703,
            32.800995,
            134.75
          ],
          [
            -116.975692,
            32.800606,
            135.25
          ],
          [
            -116.975684,
            32.800426,
            135.25
          ],
          [
            -116.975685,
            32.799298,
            135.5
          ],
          [
            -116.975697,
            32.799106,
            135.75
          ],
          [
            -116.975725,
            32.798898,
            136.75
          ],
          [
            -116.97578,
            32.798662,
            138
          ],
          [
            -116.975849,
            32.798473,
            139.25
          ],
          [
            -116.97591,
            32.798337,
            140.25
          ],
          [
            -116.976316,
            32.7975,
            145.25
          ],
          [
            -116.976403,
            32.797267,
            145.75
          ],
          [
            -116.976471,
            32.797045,
            146.25
          ],
          [
            -116.976517,
            32.796821,
            146.25
          ],
          [
            -116.976561,
            32.796464,
            145.25
          ],
          [
            -116.976591,
            32.795761,
            142
          ],
          [
            -116.976594,
            32.795675,
            142.25
          ],
          [
            -116.976608,
            32.795358,
            142.5
          ],
          [
            -116.976626,
            32.794581,
            143.25
          ],
          [
            -116.976618,
            32.794431,
            143.25
          ],
          [
            -116.976596,
            32.794283,
            143.5
          ],
          [
            -116.976553,
            32.794103,
            143.25
          ],
          [
            -116.976328,
            32.793451,
            142
          ],
          [
            -116.976295,
            32.793336,
            142
          ],
          [
            -116.976261,
            32.793173,
            142.25
          ],
          [
            -116.976239,
            32.792984,
            142.5
          ],
          [
            -116.976219,
            32.79259,
            143
          ],
          [
            -116.976214,
            32.79248,
            143.25
          ],
          [
            -116.97619,
            32.79198,
            145
          ],
          [
            -116.976188,
            32.791538,
            146
          ],
          [
            -116.976187,
            32.791494,
            146.25
          ]
        ]
      }
    }
  ]
}