{
  "type": "FeatureCollection",
  "features": [
    {
      "type": "Feature",
      "properties": {
        "creator": "BRouter-1.7.9",
        "name": "[NFTA] Metro Rail",
        "track-length": "21233",
        "filtered ascend": "40",
        "plain-ascend": "10",
        "total-time": "1699",
        "total-energy": "943298",
        "cost": "21233",
        "messages": [
          [
            "Longitude",
            "Latitude",
            "Elevation",
            "Distance",
            "CostPerKm",
            "ElevCost",
            "TurnCost",
            "NodeCost",
            "InitialCost",
            "WayTags",
            "NodeTags",
            "Time",
            "Energy"
          ],
          [
            "-78829765",
            "42947752",
            "-8192",
            "1116",
            "1000",
            "0",
            "0",
            "0",
            "0",
            "railway=light_rail",
            "railway=halt",
            "89",
            "49087"
          ],
          [
            "-78838386",
            "42939936",
            "-8192",
            "1118",
            "1000",
            "0",
            "0",
            "0",
            "0",
            "railway=light_rail",
            "railway=halt",
            "178",
            "98263"
          ],
          [
            "-78851654",
            "42927575",
            "-8192",
            "1748",
            "1000",
            "0",
            "0",
            "0",
            "0",
            "railway=light_rail",
            "railway=halt",
            "318",
            "175149"
          ],
          [
            "-78856944",
            "42922565",
            "-8192",
            "704",
            "1000",
            "0",
            "0",
            "0",
            "0",
            "railway=light_rail",
            "railway=halt",
            "374",
            "206114"
          ],
          [
            "-78865861",
            "42911538",
            "-8192",
            "1449",
            "1000",
            "0",
            "0",
            "0",
            "0",
            "railway=light_rail",
            "railway=halt",
            "490",
            "269849"
          ],
          [
            "-78868161",
            "42904737",
            "-8192",
            "778",
            "1000",
            "0",
            "0",
            "0",
            "0",
            "railway=light_rail",
            "railway=halt",
            "553",
            "304070"
          ],
          [
            "-78869918",
            "42899418",
            "-8192",
            "608",
            "1000",
            "0",
            "0",
            "0",
            "0",
            "railway=light_rail",
            "railway=halt",
            "601",
            "330813"
          ],
          [
            "-78870262",
            "42898374",
            "-8192",
            "119",
            "1000",
            "0",
            "0",
            "0",
            "0",
            "railway=light_rail",
            "railway=switch",
            "611",
            "336047"
          ],
          [
            "-78870298",
            "42898180",
            "-8192",
            "22",
            "1000",
            "0",
            "0",
            "0",
            "0",
            "railway=light_rail",
            "railway=unknown",
            "612",
            "337014"
          ],
          [
            "-78870385",
            "42898001",
            "-8192",
            "21",
            "1000",
            "0",
            "0",
            "0",
            "0",
            "railway=light_rail",
            "railway=switch",
            "614",
            "337938"
          ],
          [
            "-78872567",
            "42891359",
            "193",
            "760",
            "1000",
            "0",
            "0",
            "0",
            "0",
            "railway=light_rail",
            "highway=crossing",
            "675",
            "372900"
          ],
          [
            "-78872957",
            "42890177",
            "197",
            "135",
            "1000",
            "0",
            "0",
            "0",
            "0",
            "railway=light_rail",
            "highway=crossing",
            "686",
            "379991"
          ],
          [
            "-78872983",
            "42890093",
            "198",
            "10",
            "1000",
            "0",
            "0",
            "0",
            "0",
            "railway=light_rail",
            "railway=level_crossing",
            "687",
            "380533"
          ],
          [
            "-78873009",
            "42890013",
            "199",
            "9",
            "1000",
            "0",
            "0",
            "0",
            "0",
            "railway=light_rail",
            "highway=crossing",
            "687",
            "381088"
          ],
          [
            "-78873335",
            "42889024",
            "207",
            "113",
            "1000",
            "0",
            "0",
            "0",
            "0",
            "railway=light_rail",
            "railway=halt",
            "696",
            "391982"
          ],
          [
            "-78873432",
            "42888727",
            "201",
            "34",
            "1000",
            "0",
            "0",
            "0",
            "0",
            "railway=light_rail",
            "highway=crossing",
            "699",
            "393593"
          ],
          [
            "-78873463",
            "42888633",
            "200",
            "11",
            "1000",
            "0",
            "0",
            "0",
            "0",
            "railway=light_rail",
            "railway=level_crossing",
            "700",
            "393968"
          ],
          [
            "-78873482",
            "42888572",
            "199",
            "7",
            "1000",
            "0",
            "0",
            "0",
            "0",
            "railway=light_rail",
            "highway=crossing",
            "700",
            "394154"
          ],
          [
            "-78873897",
            "42887279",
            "197",
            "148",
            "1000",
            "0",
            "0",
            "0",
            "0",
            "railway=light_rail",
            "crossing=traffic_signals railway=crossing",
            "712",
            "400038"
          ],
          [
            "-78873924",
            "42887197",
            "197",
            "9",
            "1000",
            "0",
            "0",
            "0",
            "0",
            "railway=light_rail",
            "railway=level_crossing",
            "713",
            "400209"
          ],
          [
            "-78873956",
            "42887099",
            "198",
            "11",
            "1000",
            "0",
            "0",
            "0",
            "0",
            "railway=light_rail",
            "crossing=traffic_signals railway=crossing",
            "714",
            "400491"
          ],
          [
            "-78874230",
            "42886258",
            "199",
            "96",
            "1000",
            "0",
            "0",
            "0",
            "0",
            "railway=light_rail",
            "railway=halt",
            "722",
            "404182"
          ],
          [
            "-78874271",
            "42886134",
            "198",
            "14",
            "1000",
            "0",
            "0",
            "0",
            "0",
            "railway=light_rail",
            "railway=crossing",
            "723",
            "404726"
          ],
          [
            "-78874343",
            "42885911",
            "198",
            "25",
            "1000",
            "0",
            "0",
            "0",
            "0",
            "railway=light_rail",
            "railway=crossing",
            "725",
            "405671"
          ],
          [
            "-78874364",
            "42885846",
            "198",
            "7",
            "1000",
            "0",
            "0",
            "0",
            "0",
            "railway=light_rail",
            "highway=traffic_signals railway=level_crossing",
            "725",
            "405942"
          ],
          [
            "-78874412",
            "42885695",
            "198",
            "17",
            "1000",
            "0",
            "0",
            "0",
            "0",
            "railway=light_rail",
            "railway=level_crossing",
            "727",
            "406611"
          ],
          [
            "-78874434",
            "42885627",
            "198",
            "8",
            "1000",
            "0",
            "0",
            "0",
            "0",
            "railway=light_rail",
            "railway=crossing",
            "727",
            "406930"
          ],
          [
            "-78874508",
            "42885400",
            "198",
            "26",
            "1000",
            "0",
            "0",
            "0",
            "0",
            "railway=light_rail",
            "railway=crossing",
            "729",
            "408033"
          ],
          [
            "-78875151",
            "42883423",
            "195",
            "226",
            "1000",
            "0",
            "0",
            "0",
            "0",
            "railway=light_rail",
            "railway=halt",
            "747",
            "417853"
          ],
          [
            "-78875210",
            "42883242",
            "195",
            "21",
            "1000",
            "0",
            "0",
            "0",
            "0",
            "railway=light_rail",
            "railway=crossing",
            "749",
            "418774"
          ],
          [
            "-78875234",
            "42883167",
            "195",
            "9",
            "1000",
            "0",
            "0",
            "0",
            "0",
            "railway=light_rail",
            "railway=level_crossing",
            "750",
            "419169"
          ],
          [
            "-78875285",
            "42883015",
            "195",
            "17",
            "1000",
            "0",
            "0",
            "0",
            "0",
            "railway=light_rail",
            "railway=level_crossing",
            "751",
            "419881"
          ],
          [
            "-78875335",
            "42882857",
            "195",
            "18",
            "1000",
            "0",
            "0",
            "0",
            "0",
            "railway=light_rail",
            "railway=crossing",
            "753",
            "420604"
          ],
          [
            "-78875651",
            "42881866",
            "193",
            "113",
            "1000",
            "0",
            "0",
            "0",
            "0",
            "railway=light_rail",
            "railway=level_crossing",
            "762",
            "424443"
          ],
          [
            "-78875983",
            "42880826",
            "189",
            "119",
            "1000",
            "0",
            "0",
            "0",
            "0",
            "railway=light_rail",
            "railway=halt",
            "771",
            "426383"
          ],
          [
            "-78876023",
            "42880708",
            "187",
            "14",
            "1000",
            "0",
            "0",
            "0",
            "0",
            "railway=light_rail",
            "railway=crossing",
            "772",
            "426667"
          ],
          [
            "-78876053",
            "42880622",
            "187",
            "10",
            "1000",
            "0",
            "0",
            "0",
            "0",
            "railway=light_rail",
            "railway=level_crossing",
            "773",
            "426854"
          ],
          [
            "-78876071",
            "42880566",
            "186",
            "6",
            "1000",
            "0",
            "0",
            "0",
            "0",
            "railway=light_rail",
            "railway=crossing",
            "774",
            "426953"
          ],
          [
            "-78876194",
            "42880196",
            "185",
            "42",
            "1000",
            "0",
            "0",
            "0",
            "0",
            "railway=light_rail",
            "highway=crossing",
            "777",
            "427352"
          ],
          [
            "-78876477",
            "42879307",
            "185",
            "102",
            "1000",
            "0",
            "0",
            "0",
            "0",
            "railway=light_rail",
            "crossing=traffic_signals railway=crossing",
            "785",
            "430202"
          ],
          [
            "-78876501",
            "42879236",
            "185",
            "8",
            "1000",
            "0",
            "0",
            "0",
            "0",
            "railway=light_rail",
            "railway=level_crossing",
            "786",
            "430483"
          ],
          [
            "-78876722",
            "42878581",
            "182",
            "75",
            "1000",
            "0",
            "0",
            "0",
            "0",
            "railway=light_rail",
            "railway=switch",
            "792",
            "431822"
          ],
          [
            "-78876764",
            "42878455",
            "181",
            "14",
            "1000",
            "0",
            "0",
            "0",
            "0",
            "railway=light_rail",
            "",
            "793",
            "432151"
          ],
          [
            "-78876823",
            "42878278",
            "181",
            "20",
            "1000",
            "0",
            "0",
            "0",
            "0",
            "railway=light_rail",
            "railway=switch",
            "1",
            "799"
          ],
          [
            "-78876870",
            "42878133",
            "181",
            "17",
            "1000",
            "0",
            "0",
            "0",
            "0",
            "railway=light_rail",
            "railway=halt",
            "2",
            "1490"
          ],
          [
            "-78877137",
            "42877319",
            "181",
            "93",
            "1000",
            "0",
            "0",
            "0",
            "0",
            "railway=light_rail",
            "crossing=uncontrolled railway=crossing",
            "10",
            "5396"
          ],
          [
            "-78877176",
            "42877198",
            "180",
            "14",
            "1000",
            "0",
            "0",
            "0",
            "0",
            "railway=light_rail",
            "railway=level_crossing",
            "11",
            "5934"
          ],
          [
            "-78877196",
            "42877139",
            "180",
            "7",
            "1000",
            "0",
            "0",
            "0",
            "0",
            "railway=light_rail",
            "crossing=unmarked railway=crossing",
            "12",
            "6179"
          ],
          [
            "-78877226",
            "42877049",
            "179",
            "10",
            "1000",
            "0",
            "0",
            "0",
            "0",
            "railway=light_rail",
            "railway=switch",
            "12",
            "6474"
          ],
          [
            "-78877547",
            "42876079",
            "177",
            "111",
            "1000",
            "0",
            "0",
            "0",
            "0",
            "railway=light_rail",
            "railway=crossing",
            "21",
            "11171"
          ],
          [
            "-78877585",
            "42875983",
            "177",
            "11",
            "1000",
            "0",
            "0",
            "0",
            "0",
            "railway=light_rail",
            "railway=level_crossing",
            "22",
            "11646"
          ],
          [
            "-78877860",
            "42875106",
            "179",
            "100",
            "1000",
            "0",
            "0",
            "0",
            "0",
            "railway=light_rail",
            "railway=switch",
            "30",
            "15156"
          ],
          [
            "-78877946",
            "42874772",
            "178",
            "38",
            "1000",
            "0",
            "0",
            "0",
            "0",
            "railway=light_rail",
            "railway=crossing",
            "33",
            "16459"
          ],
          [
            "-78877748",
            "42874481",
            "178",
            "37",
            "1000",
            "0",
            "0",
            "0",
            "0",
            "railway=light_rail",
            "railway=switch",
            "36",
            "17859"
          ],
          [
            "-78877659",
            "42874400",
            "180",
            "12",
            "1000",
            "0",
            "0",
            "0",
            "0",
            "railway=light_rail",
            "",
            "37",
            "18396"
          ],
          [
            "-78877519",
            "42874275",
            "180",
            "18",
            "1000",
            "0",
            "0",
            "0",
            "0",
            "railway=light_rail",
            "railway=switch",
            "1",
            "937"
          ],
          [
            "-78875649",
            "42873292",
            "178",
            "189",
            "1000",
            "0",
            "0",
            "0",
            "0",
            "railway=light_rail",
            "railway=halt",
            "16",
            "8562"
          ],
          [
            "-78875401",
            "42873178",
            "178",
            "24",
            "1000",
            "0",
            "0",
            "0",
            "0",
            "railway=light_rail",
            "",
            "18",
            "9545"
          ],
          [
            "-78875649",
            "42873292",
            "178",
            "24",
            "1000",
            "0",
            "0",
            "0",
            "0",
            "reversedirection=yes railway=light_rail",
            "railway=halt",
            "1",
            "1055"
          ],
          [
            "-78877519",
            "42874275",
            "180",
            "189",
            "1000",
            "0",
            "0",
            "0",
            "0",
            "reversedirection=yes railway=light_rail",
            "railway=switch",
            "17",
            "10990"
          ],
          [
            "-78877608",
            "42874389",
            "179",
            "15",
            "1000",
            "0",
            "0",
            "0",
            "0",
            "reversedirection=yes railway=light_rail",
            "railway=unknown",
            "18",
            "11639"
          ],
          [
            "-78877687",
            "42874488",
            "179",
            "13",
            "1000",
            "0",
            "0",
            "0",
            "0",
            "reversedirection=yes railway=light_rail",
            "railway=switch",
            "19",
            "12149"
          ],
          [
            "-78877888",
            "42874799",
            "178",
            "39",
            "1000",
            "0",
            "0",
            "0",
            "0",
            "railway=light_rail",
            "railway=crossing",
            "22",
            "13507"
          ],
          [
            "-78877859",
            "42874947",
            "179",
            "18",
            "1000",
            "0",
            "0",
            "0",
            "0",
            "railway=light_rail",
            "railway=unknown",
            "23",
            "14245"
          ],
          [
            "-78877796",
            "42875122",
            "179",
            "20",
            "1000",
            "0",
            "0",
            "0",
            "0",
            "railway=light_rail",
            "railway=switch",
            "25",
            "15158"
          ],
          [
            "-78877526",
            "42875984",
            "178",
            "98",
            "1000",
            "0",
            "0",
            "0",
            "0",
            "railway=light_rail",
            "railway=level_crossing",
            "33",
            "18737"
          ],
          [
            "-78877489",
            "42876076",
            "177",
            "11",
            "1000",
            "0",
            "0",
            "0",
            "0",
            "railway=light_rail",
            "railway=crossing",
            "34",
            "19152"
          ],
          [
            "-78877278",
            "42876726",
            "177",
            "74",
            "1000",
            "0",
            "0",
            "0",
            "0",
            "railway=light_rail",
            "railway=switch",
            "40",
            "21751"
          ],
          [
            "-78877149",
            "42877130",
            "180",
            "46",
            "1000",
            "0",
            "0",
            "0",
            "0",
            "railway=light_rail",
            "crossing=unmarked railway=crossing",
            "43",
            "24531"
          ],
          [
            "-78877128",
            "42877195",
            "180",
            "7",
            "1000",
            "0",
            "0",
            "0",
            "0",
            "railway=light_rail",
            "railway=level_crossing",
            "44",
            "24941"
          ],
          [
            "-78877113",
            "42877239",
            "180",
            "5",
            "1000",
            "0",
            "0",
            "0",
            "0",
            "railway=light_rail",
            "railway=level_crossing",
            "44",
            "25241"
          ],
          [
            "-78877091",
            "42877313",
            "181",
            "9",
            "1000",
            "0",
            "0",
            "0",
            "0",
            "railway=light_rail",
            "crossing=uncontrolled railway=crossing",
            "45",
            "25802"
          ],
          [
            "-78876819",
            "42878124",
            "181",
            "93",
            "1000",
            "0",
            "0",
            "0",
            "0",
            "railway=light_rail",
            "railway=halt",
            "52",
            "31001"
          ],
          [
            "-78876771",
            "42878269",
            "181",
            "17",
            "1000",
            "0",
            "0",
            "0",
            "0",
            "railway=light_rail",
            "railway=switch",
            "54",
            "31861"
          ],
          [
            "-78876720",
            "42878427",
            "181",
            "18",
            "1000",
            "0",
            "0",
            "0",
            "0",
            "railway=light_rail",
            "",
            "55",
            "32790"
          ],
          [
            "-78876704",
            "42878476",
            "181",
            "6",
            "1000",
            "0",
            "0",
            "0",
            "0",
            "railway=light_rail",
            "railway=level_crossing",
            "0",
            "276"
          ],
          [
            "-78876674",
            "42878571",
            "182",
            "11",
            "1000",
            "0",
            "0",
            "0",
            "0",
            "railway=light_rail",
            "railway=switch",
            "1",
            "828"
          ],
          [
            "-78876461",
            "42879227",
            "185",
            "75",
            "1000",
            "0",
            "0",
            "0",
            "0",
            "railway=light_rail",
            "railway=level_crossing",
            "7",
            "4550"
          ],
          [
            "-78876436",
            "42879299",
            "185",
            "8",
            "1000",
            "0",
            "0",
            "0",
            "0",
            "railway=light_rail",
            "crossing=traffic_signals railway=crossing",
            "8",
            "4931"
          ],
          [
            "-78876148",
            "42880188",
            "184",
            "101",
            "1000",
            "0",
            "0",
            "0",
            "0",
            "railway=light_rail",
            "highway=crossing",
            "16",
            "10687"
          ],
          [
            "-78876025",
            "42880558",
            "186",
            "42",
            "1000",
            "0",
            "0",
            "0",
            "0",
            "railway=light_rail",
            "railway=crossing",
            "19",
            "12658"
          ],
          [
            "-78876006",
            "42880614",
            "187",
            "6",
            "1000",
            "0",
            "0",
            "0",
            "0",
            "railway=light_rail",
            "railway=level_crossing",
            "19",
            "12962"
          ],
          [
            "-78875978",
            "42880700",
            "188",
            "10",
            "1000",
            "0",
            "0",
            "0",
            "0",
            "railway=light_rail",
            "railway=crossing",
            "20",
            "13525"
          ],
          [
            "-78875658",
            "42881666",
            "193",
            "110",
            "1000",
            "0",
            "0",
            "0",
            "0",
            "railway=light_rail",
            "railway=halt",
            "29",
            "22389"
          ],
          [
            "-78875603",
            "42881856",
            "193",
            "22",
            "1000",
            "0",
            "0",
            "0",
            "0",
            "railway=light_rail",
            "railway=level_crossing",
            "31",
            "23797"
          ],
          [
            "-78875286",
            "42882834",
            "194",
            "112",
            "1000",
            "0",
            "0",
            "0",
            "0",
            "railway=light_rail",
            "railway=crossing",
            "40",
            "30523"
          ],
          [
            "-78875232",
            "42883000",
            "195",
            "19",
            "1000",
            "0",
            "0",
            "0",
            "0",
            "railway=light_rail",
            "railway=level_crossing",
            "41",
            "31548"
          ],
          [
            "-78875180",
            "42883162",
            "195",
            "18",
            "1000",
            "0",
            "0",
            "0",
            "0",
            "railway=light_rail",
            "railway=level_crossing",
            "43",
            "32524"
          ],
          [
            "-78875156",
            "42883235",
            "195",
            "8",
            "1000",
            "0",
            "0",
            "0",
            "0",
            "railway=light_rail",
            "railway=crossing",
            "43",
            "32949"
          ],
          [
            "-78874851",
            "42884175",
            "198",
            "107",
            "1000",
            "0",
            "0",
            "0",
            "0",
            "railway=light_rail",
            "railway=halt",
            "52",
            "40110"
          ],
          [
            "-78874457",
            "42885391",
            "199",
            "139",
            "1000",
            "0",
            "0",
            "0",
            "0",
            "railway=light_rail",
            "railway=crossing",
            "63",
            "47517"
          ],
          [
            "-78874392",
            "42885593",
            "198",
            "23",
            "1000",
            "0",
            "0",
            "0",
            "0",
            "railway=light_rail",
            "railway=crossing",
            "65",
            "48572"
          ],
          [
            "-78874367",
            "42885669",
            "198",
            "9",
            "1000",
            "0",
            "0",
            "0",
            "0",
            "railway=light_rail",
            "railway=level_crossing",
            "66",
            "48982"
          ],
          [
            "-78874305",
            "42885858",
            "198",
            "22",
            "1000",
            "0",
            "0",
            "0",
            "0",
            "railway=light_rail",
            "railway=level_crossing",
            "67",
            "50459"
          ],
          [
            "-78874282",
            "42885931",
            "198",
            "8",
            "1000",
            "0",
            "0",
            "0",
            "0",
            "railway=light_rail",
            "railway=crossing",
            "68",
            "50987"
          ],
          [
            "-78874219",
            "42886125",
            "199",
            "22",
            "1000",
            "0",
            "0",
            "0",
            "0",
            "railway=light_rail",
            "railway=crossing",
            "70",
            "52416"
          ],
          [
            "-78873941",
            "42886978",
            "198",
            "97",
            "1000",
            "0",
            "0",
            "0",
            "0",
            "railway=light_rail",
            "railway=halt",
            "78",
            "57435"
          ],
          [
            "-78873904",
            "42887090",
            "197",
            "13",
            "1000",
            "0",
            "0",
            "0",
            "0",
            "railway=light_rail",
            "crossing=traffic_signals railway=crossing",
            "79",
            "58009"
          ],
          [
            "-78873870",
            "42887195",
            "197",
            "12",
            "1000",
            "0",
            "0",
            "0",
            "0",
            "railway=light_rail",
            "railway=level_crossing",
            "80",
            "58514"
          ],
          [
            "-78873847",
            "42887268",
            "197",
            "8",
            "1000",
            "0",
            "0",
            "0",
            "0",
            "railway=light_rail",
            "crossing=traffic_signals railway=crossing",
            "80",
            "58835"
          ],
          [
            "-78873428",
            "42888562",
            "199",
            "148",
            "1000",
            "0",
            "0",
            "0",
            "0",
            "railway=light_rail",
            "highway=crossing",
            "92",
            "66421"
          ],
          [
            "-78873408",
            "42888624",
            "200",
            "7",
            "1000",
            "0",
            "0",
            "0",
            "0",
            "railway=light_rail",
            "railway=level_crossing",
            "93",
            "66825"
          ],
          [
            "-78873380",
            "42888714",
            "202",
            "10",
            "1000",
            "0",
            "0",
            "0",
            "0",
            "railway=light_rail",
            "highway=crossing",
            "93",
            "67265"
          ],
          [
            "-78872988",
            "42889913",
            "200",
            "137",
            "1000",
            "0",
            "0",
            "0",
            "0",
            "railway=light_rail",
            "railway=halt",
            "104",
            "73950"
          ],
          [
            "-78872956",
            "42890009",
            "199",
            "11",
            "1000",
            "0",
            "0",
            "0",
            "0",
            "railway=light_rail",
            "highway=crossing",
            "105",
            "74365"
          ],
          [
            "-78872932",
            "42890084",
            "198",
            "9",
            "1000",
            "0",
            "0",
            "0",
            "0",
            "railway=light_rail",
            "railway=level_crossing",
            "106",
            "74653"
          ],
          [
            "-78872904",
            "42890170",
            "197",
            "10",
            "1000",
            "0",
            "0",
            "0",
            "0",
            "railway=light_rail",
            "highway=crossing",
            "107",
            "74921"
          ],
          [
            "-78872515",
            "42891349",
            "193",
            "135",
            "1000",
            "0",
            "0",
            "0",
            "0",
            "railway=light_rail",
            "highway=crossing",
            "118",
            "79158"
          ],
          [
            "-78870331",
            "42897990",
            "192",
            "760",
            "1000",
            "0",
            "0",
            "0",
            "0",
            "railway=light_rail",
            "railway=switch",
            "178",
            "109786"
          ],
          [
            "-78870298",
            "42898180",
            "192",
            "21",
            "1000",
            "0",
            "0",
            "0",
            "0",
            "reversedirection=yes railway=light_rail",
            "railway=unknown",
            "180",
            "110710"
          ],
          [
            "-78870208",
            "42898363",
            "192",
            "22",
            "1000",
            "0",
            "0",
            "0",
            "0",
            "reversedirection=yes railway=light_rail",
            "railway=switch",
            "182",
            "111677"
          ],
          [
            "-78869864",
            "42899409",
            "192",
            "120",
            "1000",
            "0",
            "0",
            "0",
            "0",
            "railway=light_rail",
            "railway=halt",
            "191",
            "116954"
          ],
          [
            "-78868106",
            "42904728",
            "193",
            "608",
            "1000",
            "0",
            "0",
            "0",
            "0",
            "railway=light_rail",
            "railway=halt",
            "240",
            "143697"
          ],
          [
            "-78865807",
            "42911529",
            "193",
            "778",
            "1000",
            "0",
            "0",
            "0",
            "0",
            "railway=light_rail",
            "railway=halt",
            "302",
            "175343"
          ],
          [
            "-78856899",
            "42922539",
            "195",
            "1448",
            "1000",
            "0",
            "0",
            "0",
            "0",
            "railway=light_rail",
            "railway=halt",
            "418",
            "238959"
          ],
          [
            "-78851610",
            "42927550",
            "195",
            "704",
            "1000",
            "0",
            "0",
            "0",
            "0",
            "railway=light_rail",
            "railway=halt",
            "474",
            "269925"
          ],
          [
            "-78838341",
            "42939911",
            "-8192",
            "1749",
            "1000",
            "0",
            "0",
            "0",
            "0",
            "railway=light_rail",
            "railway=halt",
            "614",
            "349504"
          ],
          [
            "-78829723",
            "42947725",
            "-8192",
            "1118",
            "1000",
            "0",
            "0",
            "0",
            "0",
            "railway=light_rail",
            "railway=halt",
            "704",
            "401111"
          ],
          [
            "-78819997",
            "42954654",
            "-8192",
            "1116",
            "1000",
            "0",
            "0",
            "0",
            "0",
            "railway=light_rail",
            "",
            "793",
            "450416"
          ]
        ],
        "times": [
          0,
          30.4,
          34.16,
          38.32,
          42.08,
          89.28,
          109.28,
          150.56,
          178.72,
          256.48,
          318.56,
          374.88,
          429.36,
          453.2,
          454.96,
          456.88,
          458.56,
          460.24,
          490.8,
          519.44,
          553.04,
          569.2,
          601.68,
          611.2,
          612.96,
          614.64,
          660.32,
          667.52,
          675.44,
          686.24,
          687.04,
          687.76,
          696.8,
          699.52,
          700.4,
          700.96,
          712.8,
          713.52,
          714.4,
          722.08,
          723.2,
          725.2,
          725.76,
          727.12,
          727.76,
          729.84,
          747.92,
          749.6,
          750.32,
          751.68,
          753.12,
          762.16,
          771.68,
          772.8,
          773.6,
          774.08,
          777.44,
          777.68,
          783.84,
          785.6,
          786.24,
          792.24,
          793.36,
          794.96,
          796.32,
          803.76,
          804.24,
          804.88,
          805.44,
          806.24,
          815.12,
          816,
          824,
          825.76,
          826.88,
          827.04,
          827.36,
          828.08,
          828.72,
          830,
          830.96,
          832.4,
          835.2,
          835.76,
          836.24,
          847.52,
          849.44,
          851.36,
          862.64,
          863.12,
          863.68,
          866.48,
          867.68,
          868.72,
          870.88,
          871.28,
          871.84,
          872.4,
          872.88,
          873.28,
          874.88,
          882.72,
          883.6,
          889.52,
          893.2,
          893.76,
          894.16,
          894.4,
          894.88,
          902.32,
          903.68,
          905.12,
          905.6,
          906.48,
          912.48,
          913.12,
          914.88,
          920.96,
          921.2,
          924.56,
          925.04,
          925.84,
          934.64,
          936.4,
          945.36,
          946.88,
          948.32,
          948.96,
          957.52,
          968.64,
          970.48,
          971.2,
          972.96,
          973.6,
          975.36,
          983.12,
          984.16,
          985.12,
          985.76,
          997.6,
          998.16,
          998.96,
          1009.92,
          1010.8,
          1011.52,
          1012.32,
          1023.12,
          1031.04,
          1038.24,
          1083.92,
          1085.6,
          1087.36,
          1096.96,
          1129.44,
          1145.6,
          1179.2,
          1207.84,
          1238.4,
          1240.08,
          1241.76,
          1243.6,
          1245.36,
          1269.2,
          1323.68,
          1380,
          1423.2,
          1442.08,
          1505.36,
          1519.92,
          1548.08,
          1589.36,
          1609.36,
          1656.56,
          1660.32,
          1664.48,
          1668.24,
          1684.72,
          1698.64
        ]
      },
      "geometry": {
        "type": "LineString",
        "coordinates": [
          [
            -78.820024,
            42.954675,
            191.25
          ],
          [
            -78.823875,
            42.952752,
            191.25
          ],
          [
            -78.824325,
            42.952487,
            191.25
          ],
          [
            -78.824794,
            42.952171,
            191.25
          ],
          [
            -78.825181,
            42.951856,
            191.25
          ],
          [
            -78.829765,
            42.947752,
            191.25
          ],
          [
            -78.831699,
            42.946009,
            191.25
          ],
          [
            -78.835666,
            42.942392,
            191.25
          ],
          [
            -78.838386,
            42.939936,
            191.25
          ],
          [
            -78.845816,
            42.933094,
            191.25
          ],
          [
            -78.851654,
            42.927575,
            191.25
          ],
          [
            -78.856944,
            42.922565,
            191.25
          ],
          [
            -78.862049,
            42.917715,
            191.25
          ],
          [
            -78.864244,
            42.915575,
            191.25
          ],
          [
            -78.864398,
            42.915414,
            191.25
          ],
          [
            -78.864541,
            42.915228,
            191.25
          ],
          [
            -78.864639,
            42.915051,
            191.25
          ],
          [
            -78.864713,
            42.914869,
            191.25
          ],
          [
            -78.865861,
            42.911538,
            191.25
          ],
          [
            -78.866942,
            42.908412,
            191.25
          ],
          [
            -78.868161,
            42.904737,
            191.25
          ],
          [
            -78.868753,
            42.902969,
            191.25
          ],
          [
            -78.869918,
            42.899418,
            191.25
          ],
          [
            -78.870262,
            42.898374,
            191.25
          ],
          [
            -78.870298,
            42.89818,
            191.25
          ],
          [
            -78.870385,
            42.898001,
            191.25
          ],
          [
            -78.872025,
            42.893008,
            191.25
          ],
          [
            -78.872281,
            42.892224,
            192
          ],
          [
            -78.872567,
            42.891359,
            193.75
          ],
          [
            -78.872957,
            42.890177,
            197.75
          ],
          [
            -78.872983,
            42.890093,
            198.5
          ],
          [
            -78.873009,
            42.890013,
            199.5
          ],
          [
            -78.873335,
            42.889024,
            207.5
          ],
          [
            -78.873432,
            42.888727,
            201.75
          ],
          [
            -78.873463,
            42.888633,
            200.25
          ],
          [
            -78.873482,
            42.888572,
            199.25
          ],
          [
            -78.873897,
            42.887279,
            197.25
          ],
          [
            -78.873924,
            42.887197,
            197.5
          ],
          [
            -78.873956,
            42.887099,
            198
          ],
          [
            -78.87423,
            42.886258,
            199
          ],
          [
            -78.874271,
            42.886134,
            198.75
          ],
          [
            -78.874343,
            42.885911,
            198.5
          ],
          [
            -78.874364,
            42.885846,
            198.5
          ],
          [
            -78.874412,
            42.885695,
            198.5
          ],
          [
            -78.874434,
            42.885627,
            198.5
          ],
          [
            -78.874508,
            42.8854,
            198.75
          ],
          [
            -78.875151,
            42.883423,
            195.75
          ],
          [
            -78.87521,
            42.883242,
            195.75
          ],
          [
            -78.875234,
            42.883167,
            195.75
          ],
          [
            -78.875285,
            42.883015,
            195.5
          ],
          [
            -78.875335,
            42.882857,
            195.25
          ],
          [
            -78.875651,
            42.881866,
            193.75
          ],
          [
            -78.875983,
            42.880826,
            189
          ],
          [
            -78.876023,
            42.880708,
            187.75
          ],
          [
            -78.876053,
            42.880622,
            187.25
          ],
          [
            -78.876071,
            42.880566,
            186.75
          ],
          [
            -78.876194,
            42.880196,
            185
          ],
          [
            -78.876203,
            42.88017,
            184.75
          ],
          [
            -78.876415,
            42.879499,
            185.25
          ],
          [
            -78.876477,
            42.879307,
            185.25
          ],
          [
            -78.876501,
            42.879236,
            185.25
          ],
          [
            -78.876722,
            42.878581,
            182
          ],
          [
            -78.876764,
            42.878455,
            181
          ],
          [
            -78.876823,
            42.878278,
            181
          ],
          [
            -78.87687,
            42.878133,
            181
          ],
          [
            -78.877137,
            42.877319,
            181
          ],
          [
            -78.877154,
            42.877268,
            180.75
          ],
          [
            -78.877176,
            42.877198,
            180.25
          ],
          [
            -78.877196,
            42.877139,
            180
          ],
          [
            -78.877226,
            42.877049,
            179.25
          ],
          [
            -78.877547,
            42.876079,
            177.5
          ],
          [
            -78.877585,
            42.875983,
            177.5
          ],
          [
            -78.87786,
            42.875106,
            179
          ],
          [
            -78.877921,
            42.874916,
            178.5
          ],
          [
            -78.877948,
            42.874793,
            178
          ],
          [
            -78.877946,
            42.874772,
            178
          ],
          [
            -78.877942,
            42.874736,
            177.75
          ],
          [
            -78.87791,
            42.874656,
            178
          ],
          [
            -78.877866,
            42.874596,
            178
          ],
          [
            -78.877748,
            42.874481,
            178.75
          ],
          [
            -78.877659,
            42.8744,
            180
          ],
          [
            -78.877519,
            42.874275,
            180
          ],
          [
            -78.877239,
            42.874034,
            180.25
          ],
          [
            -78.877174,
            42.873993,
            180.25
          ],
          [
            -78.877117,
            42.873966,
            180.25
          ],
          [
            -78.875649,
            42.873292,
            178
          ],
          [
            -78.875401,
            42.873178,
            178.25
          ],
          [
            -78.875649,
            42.873292,
            178
          ],
          [
            -78.877117,
            42.873966,
            180.25
          ],
          [
            -78.877174,
            42.873993,
            180.25
          ],
          [
            -78.877239,
            42.874034,
            180.25
          ],
          [
            -78.877519,
            42.874275,
            180
          ],
          [
            -78.877608,
            42.874389,
            179.75
          ],
          [
            -78.877687,
            42.874488,
            179.25
          ],
          [
            -78.877849,
            42.874695,
            178.5
          ],
          [
            -78.877872,
            42.874739,
            178.5
          ],
          [
            -78.877888,
            42.874799,
            178.5
          ],
          [
            -78.877886,
            42.874859,
            178.75
          ],
          [
            -78.877876,
            42.874908,
            179
          ],
          [
            -78.877859,
            42.874947,
            179.25
          ],
          [
            -78.877796,
            42.875122,
            179.5
          ],
          [
            -78.877526,
            42.875984,
            178
          ],
          [
            -78.877489,
            42.876076,
            177.75
          ],
          [
            -78.877278,
            42.876726,
            177
          ],
          [
            -78.877149,
            42.87713,
            180
          ],
          [
            -78.877128,
            42.877195,
            180.25
          ],
          [
            -78.877113,
            42.877239,
            180.5
          ],
          [
            -78.877106,
            42.877261,
            180.75
          ],
          [
            -78.877091,
            42.877313,
            181
          ],
          [
            -78.876819,
            42.878124,
            181
          ],
          [
            -78.876771,
            42.878269,
            181
          ],
          [
            -78.87672,
            42.878427,
            181.5
          ],
          [
            -78.876704,
            42.878476,
            181.5
          ],
          [
            -78.876674,
            42.878571,
            182
          ],
          [
            -78.876461,
            42.879227,
            185.25
          ],
          [
            -78.876436,
            42.879299,
            185.25
          ],
          [
            -78.876371,
            42.879492,
            185.25
          ],
          [
            -78.876157,
            42.880162,
            184.5
          ],
          [
            -78.876148,
            42.880188,
            184.75
          ],
          [
            -78.876025,
            42.880558,
            186.75
          ],
          [
            -78.876006,
            42.880614,
            187.25
          ],
          [
            -78.875978,
            42.8807,
            188
          ],
          [
            -78.875658,
            42.881666,
            193.5
          ],
          [
            -78.875603,
            42.881856,
            193.75
          ],
          [
            -78.875286,
            42.882834,
            194.75
          ],
          [
            -78.875232,
            42.883,
            195
          ],
          [
            -78.87518,
            42.883162,
            195.25
          ],
          [
            -78.875156,
            42.883235,
            195.25
          ],
          [
            -78.874851,
            42.884175,
            198.5
          ],
          [
            -78.874457,
            42.885391,
            199
          ],
          [
            -78.874392,
            42.885593,
            198.75
          ],
          [
            -78.874367,
            42.885669,
            198.75
          ],
          [
            -78.874305,
            42.885858,
            198.5
          ],
          [
            -78.874282,
            42.885931,
            198.75
          ],
          [
            -78.874219,
            42.886125,
            199
          ],
          [
            -78.873941,
            42.886978,
            198.25
          ],
          [
            -78.873904,
            42.88709,
            197.75
          ],
          [
            -78.87387,
            42.887195,
            197.5
          ],
          [
            -78.873847,
            42.887268,
            197.25
          ],
          [
            -78.873428,
            42.888562,
            199.25
          ],
          [
            -78.873408,
            42.888624,
            200.5
          ],
          [
            -78.87338,
            42.888714,
            202
          ],
          [
            -78.872988,
            42.889913,
            200
          ],
          [
            -78.872956,
            42.890009,
            199
          ],
          [
            -78.872932,
            42.890084,
            198.25
          ],
          [
            -78.872904,
            42.89017,
            197.5
          ],
          [
            -78.872515,
            42.891349,
            193.75
          ],
          [
            -78.872234,
            42.892213,
            192
          ],
          [
            -78.871971,
            42.892998,
            192
          ],
          [
            -78.870331,
            42.89799,
            192.5
          ],
          [
            -78.870298,
            42.89818,
            192.5
          ],
          [
            -78.870208,
            42.898363,
            192.5
          ],
          [
            -78.869864,
            42.899409,
            192.5
          ],
          [
            -78.868698,
            42.90296,
            193
          ],
          [
            -78.868106,
            42.904728,
            193.25
          ],
          [
            -78.866888,
            42.908402,
            193.5
          ],
          [
            -78.865807,
            42.911529,
            193.75
          ],
          [
            -78.864659,
            42.914858,
            194.25
          ],
          [
            -78.864585,
            42.915038,
            194.25
          ],
          [
            -78.86449,
            42.91521,
            194.25
          ],
          [
            -78.864351,
            42.915392,
            194.25
          ],
          [
            -78.864199,
            42.915551,
            194.25
          ],
          [
            -78.862004,
            42.91769,
            194.5
          ],
          [
            -78.856899,
            42.922539,
            195
          ],
          [
            -78.85161,
            42.92755,
            195.75
          ],
          [
            -78.847551,
            42.931393,
            196.25
          ],
          [
            -78.845772,
            42.933068,
            196.5
          ],
          [
            -78.839737,
            42.938634,
            197
          ],
          [
            -78.838341,
            42.939911
          ],
          [
            -78.835622,
            42.942366
          ],
          [
            -78.831655,
            42.945984
          ],
          [
            -78.829723,
            42.947725
          ],
          [
            -78.825138,
            42.951829
          ],
          [
            -78.824754,
            42.952142
          ],
          [
            -78.824288,
            42.952456
          ],
          [
            -78.823842,
            42.952719
          ],
          [
            -78.821754,
            42.95376
          ],
          [
            -78.819997,
            42.954654
          ]
        ]
      }
    }
  ]
}