{
  "type": "FeatureCollection",
  "features": [
    {
      "type": "Feature",
      "properties": {
        "creator": "BRouter-1.7.9",
        "name": "[OAK Airport] Airport Monorail",
        "track-length": "10025",
        "filtered ascend": "2",
        "plain-ascend": "1",
        "total-time": "802",
        "total-energy": "440729",
        "cost": "10025",
        "messages": [
          [
            "Longitude",
            "Latitude",
            "Elevation",
            "Distance",
            "CostPerKm",
            "ElevCost",
            "TurnCost",
            "NodeCost",
            "InitialCost",
            "WayTags",
            "NodeTags",
            "Time",
            "Energy"
          ],
          [
            "-122196165",
            "37752401",
            "2",
            "8",
            "1000",
            "0",
            "0",
            "0",
            "0",
            "railway=funicular",
            "railway=halt",
            "0",
            "351"
          ],
          [
            "-122200153",
            "37728887",
            "2",
            "2711",
            "1000",
            "0",
            "0",
            "0",
            "0",
            "railway=funicular",
            "railway=switch",
            "217",
            "119595"
          ],
          [
            "-122200533",
            "37721668",
            "0",
            "827",
            "1000",
            "0",
            "0",
            "0",
            "0",
            "railway=funicular",
            "",
            "283",
            "153977"
          ],
          [
            "-122202392",
            "37718940",
            "-8192",
            "347",
            "1000",
            "0",
            "0",
            "0",
            "0",
            "railway=monorail",
            "",
            "311",
            "168820"
          ],
          [
            "-122211013",
            "37714604",
            "-8192",
            "915",
            "1000",
            "0",
            "0",
            "0",
            "0",
            "railway=funicular",
            "",
            "384",
            "209053"
          ],
          [
            "-122212303",
            "37713158",
            "-8192",
            "196",
            "1000",
            "0",
            "0",
            "0",
            "0",
            "railway=funicular",
            "railway=halt",
            "15",
            "8621"
          ],
          [
            "-122212367",
            "37713089",
            "-8192",
            "10",
            "1000",
            "0",
            "0",
            "0",
            "0",
            "railway=monorail",
            "",
            "16",
            "9060"
          ],
          [
            "-122212303",
            "37713158",
            "-8192",
            "10",
            "1000",
            "0",
            "0",
            "0",
            "0",
            "reversedirection=yes railway=monorail",
            "railway=halt",
            "0",
            "439"
          ],
          [
            "-122212028",
            "37713445",
            "-8192",
            "40",
            "1000",
            "0",
            "0",
            "0",
            "0",
            "reversedirection=yes railway=funicular",
            "",
            "4",
            "2199"
          ],
          [
            "-122210844",
            "37714717",
            "-8192",
            "176",
            "1000",
            "0",
            "0",
            "0",
            "0",
            "railway=funicular",
            "",
            "18",
            "9940"
          ],
          [
            "-122199544",
            "37725259",
            "2",
            "1662",
            "1000",
            "0",
            "0",
            "0",
            "0",
            "railway=funicular",
            "",
            "132",
            "74134"
          ],
          [
            "-122199983",
            "37728890",
            "2",
            "407",
            "1000",
            "0",
            "0",
            "0",
            "0",
            "reversedirection=yes railway=funicular",
            "railway=switch",
            "165",
            "93187"
          ],
          [
            "-122196165",
            "37752401",
            "2",
            "2708",
            "1000",
            "0",
            "0",
            "0",
            "0",
            "reversedirection=yes railway=funicular",
            "railway=halt",
            "382",
            "212324"
          ],
          [
            "-122196110",
            "37752458",
            "-8192",
            "8",
            "1000",
            "0",
            "0",
            "0",
            "0",
            "reversedirection=yes railway=funicular",
            "",
            "382",
            "212676"
          ]
        ],
        "times": [
          0,
          0.64,
          3.52,
          4,
          5.92,
          7.52,
          8.24,
          9.04,
          10,
          11.6,
          12.4,
          13.68,
          15.04,
          24.8,
          27.44,
          28.72,
          30.08,
          34,
          35.6,
          36.48,
          46.16,
          49.6,
          53.6,
          58.8,
          70.24,
          73.2,
          75.92,
          79.44,
          81.76,
          91.12,
          92.8,
          94.88,
          96.56,
          117.04,
          120.08,
          121.6,
          123.2,
          124.56,
          127.36,
          128.48,
          130.08,
          131.52,
          133.04,
          140.24,
          147.12,
          148.72,
          151.6,
          189.52,
          192.4,
          204.8,
          206.08,
          207.52,
          208.32,
          214.4,
          216,
          217.52,
          225.36,
          226.56,
          227.28,
          236,
          244.24,
          245.92,
          247.28,
          248.32,
          249.44,
          250.16,
          253.6,
          258.16,
          259.44,
          260.4,
          262.4,
          263.92,
          265.2,
          272.96,
          275.2,
          276.96,
          279.84,
          281.52,
          283.68,
          287.36,
          291.04,
          293.44,
          297.04,
          300.8,
          303.84,
          305.28,
          308.4,
          311.44,
          314.24,
          316.64,
          318.88,
          320.08,
          322.32,
          323.44,
          325.6,
          327.76,
          329.92,
          332.56,
          335.28,
          358.48,
          364,
          366.72,
          368.08,
          370.4,
          372.96,
          375.44,
          378.24,
          379.44,
          380.72,
          384.64,
          394.32,
          397.12,
          400.32,
          401.12,
          401.92,
          405.12,
          410.8,
          419.2,
          421.6,
          424,
          426.8,
          428.08,
          430.56,
          432.96,
          434.16,
          436.88,
          438.24,
          446.56,
          456.4,
          464.8,
          470.4,
          473.2,
          475.76,
          477.52,
          479.44,
          481.44,
          483.28,
          485.12,
          489.76,
          493.28,
          496.48,
          499.28,
          504,
          506.4,
          510.08,
          513.76,
          516.24,
          518.72,
          519.84,
          522.56,
          525.44,
          529.44,
          534.56,
          537.2,
          538.48,
          540,
          540.96,
          542,
          544.24,
          548.72,
          552.16,
          552.56,
          553.28,
          555.68,
          557.04,
          558.24,
          566.48,
          571.04,
          572.24,
          584.72,
          589.92,
          591.92,
          593.68,
          594.48,
          596,
          598.4,
          609.52,
          613.12,
          651.92,
          653.92,
          655.12,
          662.4,
          669.36,
          670,
          671.2,
          672.48,
          673.6,
          675.2,
          677.44,
          678.64,
          680.48,
          681.6,
          683.04,
          704,
          706.8,
          709.04,
          710.24,
          715.52,
          721.12,
          724.16,
          726.72,
          730,
          732,
          746.24,
          749.84,
          753.6,
          766,
          767.28,
          768.4,
          772.56,
          773.6,
          774.48,
          778.08,
          787.12,
          788.4,
          789.52,
          790.56,
          791.52,
          792.88,
          794.24,
          797.04,
          798,
          798.48,
          801.36,
          802
        ]
      },
      "geometry": {
        "type": "LineString",
        "coordinates": [
          [
            -122.19611,
            37.752458,
            2.75
          ],
          [
            -122.196165,
            37.752401,
            2.75
          ],
          [
            -122.196414,
            37.752147,
            2.75
          ],
          [
            -122.196465,
            37.752106,
            2.75
          ],
          [
            -122.196656,
            37.751953,
            2.75
          ],
          [
            -122.196798,
            37.751814,
            2.75
          ],
          [
            -122.196857,
            37.751746,
            2.75
          ],
          [
            -122.196913,
            37.751666,
            2.75
          ],
          [
            -122.196968,
            37.751568,
            2.75
          ],
          [
            -122.197027,
            37.751398,
            2.75
          ],
          [
            -122.197045,
            37.75131,
            2.75
          ],
          [
            -122.19705,
            37.751165,
            2.75
          ],
          [
            -122.197031,
            37.751012,
            2.75
          ],
          [
            -122.196807,
            37.749931,
            2.75
          ],
          [
            -122.196743,
            37.749635,
            2.75
          ],
          [
            -122.196698,
            37.749495,
            2.75
          ],
          [
            -122.196632,
            37.74935,
            2.75
          ],
          [
            -122.196412,
            37.748942,
            2.75
          ],
          [
            -122.196347,
            37.748766,
            2.75
          ],
          [
            -122.196324,
            37.748665,
            2.75
          ],
          [
            -122.196162,
            37.747583,
            2.75
          ],
          [
            -122.196113,
            37.747198,
            2.75
          ],
          [
            -122.196085,
            37.746749,
            2.75
          ],
          [
            -122.196085,
            37.746167,
            2.75
          ],
          [
            -122.196099,
            37.744875,
            2.75
          ],
          [
            -122.196131,
            37.744542,
            2.75
          ],
          [
            -122.196181,
            37.744242,
            2.75
          ],
          [
            -122.196278,
            37.743856,
            2.75
          ],
          [
            -122.196365,
            37.7436,
            2.75
          ],
          [
            -122.196761,
            37.742592,
            2.75
          ],
          [
            -122.196824,
            37.742414,
            2.75
          ],
          [
            -122.196884,
            37.742183,
            2.75
          ],
          [
            -122.19691,
            37.741994,
            2.75
          ],
          [
            -122.197082,
            37.739692,
            2.75
          ],
          [
            -122.1971,
            37.739352,
            2.75
          ],
          [
            -122.197083,
            37.739181,
            2.75
          ],
          [
            -122.197035,
            37.739002,
            2.75
          ],
          [
            -122.196971,
            37.738856,
            2.75
          ],
          [
            -122.196826,
            37.738567,
            2.75
          ],
          [
            -122.19678,
            37.738444,
            2.75
          ],
          [
            -122.19674,
            37.738269,
            2.75
          ],
          [
            -122.196731,
            37.738108,
            2.75
          ],
          [
            -122.196741,
            37.737941,
            2.75
          ],
          [
            -122.196853,
            37.737139,
            2.75
          ],
          [
            -122.197,
            37.736372,
            2.75
          ],
          [
            -122.197051,
            37.736194,
            2.75
          ],
          [
            -122.197179,
            37.735882,
            2.75
          ],
          [
            -122.199012,
            37.731867,
            2.75
          ],
          [
            -122.199169,
            37.731566,
            2.75
          ],
          [
            -122.199877,
            37.73029,
            2.75
          ],
          [
            -122.199941,
            37.730153,
            2.75
          ],
          [
            -122.199994,
            37.730001,
            2.75
          ],
          [
            -122.200016,
            37.729912,
            2.75
          ],
          [
            -122.200138,
            37.729233,
            2.75
          ],
          [
            -122.200157,
            37.729054,
            2.75
          ],
          [
            -122.200153,
            37.728887,
            2.75
          ],
          [
            -122.200125,
            37.728005,
            2.75
          ],
          [
            -122.200117,
            37.727869,
            2.75
          ],
          [
            -122.200105,
            37.727793,
            2.75
          ],
          [
            -122.199826,
            37.726835,
            3
          ],
          [
            -122.199564,
            37.725927,
            2.25
          ],
          [
            -122.199523,
            37.725741,
            2
          ],
          [
            -122.199518,
            37.72559,
            2
          ],
          [
            -122.199529,
            37.725473,
            1.75
          ],
          [
            -122.199552,
            37.725345,
            1.75
          ],
          [
            -122.199582,
            37.725272,
            1.5
          ],
          [
            -122.199841,
            37.724948,
            1.75
          ],
          [
            -122.200168,
            37.72451,
            1
          ],
          [
            -122.200242,
            37.724377,
            0.75
          ],
          [
            -122.200289,
            37.724273,
            0.75
          ],
          [
            -122.200357,
            37.724056,
            0.25
          ],
          [
            -122.200386,
            37.723882,
            0
          ],
          [
            -122.200394,
            37.723737,
            0
          ],
          [
            -122.200362,
            37.72286,
            0.25
          ],
          [
            -122.200364,
            37.722611,
            0.75
          ],
          [
            -122.200378,
            37.722412,
            1
          ],
          [
            -122.200425,
            37.722092,
            0.75
          ],
          [
            -122.200467,
            37.721908,
            0.5
          ],
          [
            -122.200533,
            37.721668,
            0
          ],
          [
            -122.200675,
            37.721273
          ],
          [
            -122.200851,
            37.720882
          ],
          [
            -122.200984,
            37.720629
          ],
          [
            -122.201214,
            37.720265
          ],
          [
            -122.201485,
            37.719905
          ],
          [
            -122.201723,
            37.719616
          ],
          [
            -122.201842,
            37.719482
          ],
          [
            -122.202111,
            37.719203
          ],
          [
            -122.202392,
            37.71894
          ],
          [
            -122.202661,
            37.718713
          ],
          [
            -122.202897,
            37.718515
          ],
          [
            -122.203121,
            37.718341
          ],
          [
            -122.203247,
            37.718252
          ],
          [
            -122.203491,
            37.718096
          ],
          [
            -122.203617,
            37.718019
          ],
          [
            -122.203873,
            37.717878
          ],
          [
            -122.204133,
            37.717749
          ],
          [
            -122.204396,
            37.717633
          ],
          [
            -122.204737,
            37.717504
          ],
          [
            -122.205086,
            37.717384
          ],
          [
            -122.208131,
            37.716382
          ],
          [
            -122.208848,
            37.716136
          ],
          [
            -122.20919,
            37.715991
          ],
          [
            -122.209358,
            37.71591
          ],
          [
            -122.209631,
            37.715762
          ],
          [
            -122.209919,
            37.715585
          ],
          [
            -122.210177,
            37.715399
          ],
          [
            -122.210457,
            37.71517
          ],
          [
            -122.210566,
            37.715068
          ],
          [
            -122.210678,
            37.714959
          ],
          [
            -122.211013,
            37.714604
          ],
          [
            -122.211838,
            37.713727
          ],
          [
            -122.212028,
            37.713445
          ],
          [
            -122.212303,
            37.713158
          ],
          [
            -122.212367,
            37.713089
          ],
          [
            -122.212303,
            37.713158
          ],
          [
            -122.212028,
            37.713445
          ],
          [
            -122.211557,
            37.71396
          ],
          [
            -122.210844,
            37.714717,
            0.25
          ],
          [
            -122.210638,
            37.714935,
            0.25
          ],
          [
            -122.210415,
            37.715145,
            0.25
          ],
          [
            -122.21014,
            37.715373,
            0.25
          ],
          [
            -122.210008,
            37.715468,
            0.25
          ],
          [
            -122.209743,
            37.715648,
            0.25
          ],
          [
            -122.209473,
            37.715808,
            0.25
          ],
          [
            -122.209332,
            37.71588,
            0.25
          ],
          [
            -122.208999,
            37.716035,
            0.25
          ],
          [
            -122.208827,
            37.716101,
            0.25
          ],
          [
            -122.207741,
            37.716468,
            0.25
          ],
          [
            -122.206449,
            37.716885,
            0.25
          ],
          [
            -122.205346,
            37.717252,
            0.25
          ],
          [
            -122.204616,
            37.717503,
            0.25
          ],
          [
            -122.204264,
            37.717644,
            0.25
          ],
          [
            -122.203947,
            37.717792,
            0.25
          ],
          [
            -122.203738,
            37.717902,
            0.25
          ],
          [
            -122.203515,
            37.71803,
            0.25
          ],
          [
            -122.203288,
            37.718172,
            0.25
          ],
          [
            -122.20309,
            37.718309,
            0.25
          ],
          [
            -122.202904,
            37.718451,
            0.25
          ],
          [
            -122.202448,
            37.718834,
            0.25
          ],
          [
            -122.202121,
            37.719129,
            0.25
          ],
          [
            -122.201841,
            37.719416,
            0.25
          ],
          [
            -122.201611,
            37.719676,
            0.25
          ],
          [
            -122.201257,
            37.720126,
            0.25
          ],
          [
            -122.201092,
            37.720367,
            0.25
          ],
          [
            -122.200869,
            37.720741,
            0.25
          ],
          [
            -122.200686,
            37.721128,
            0.25
          ],
          [
            -122.200576,
            37.72139,
            0.25
          ],
          [
            -122.200488,
            37.721657,
            0.25
          ],
          [
            -122.200449,
            37.721781,
            0.75
          ],
          [
            -122.200377,
            37.722085,
            1
          ],
          [
            -122.200334,
            37.722411,
            1
          ],
          [
            -122.200322,
            37.722861,
            0.25
          ],
          [
            -122.200351,
            37.723441,
            -0.5
          ],
          [
            -122.200358,
            37.723738,
            0
          ],
          [
            -122.200349,
            37.72388,
            0
          ],
          [
            -122.20032,
            37.724051,
            0.25
          ],
          [
            -122.200293,
            37.724153,
            0.5
          ],
          [
            -122.200253,
            37.724264,
            0.75
          ],
          [
            -122.200136,
            37.724499,
            1
          ],
          [
            -122.199808,
            37.724935,
            1.75
          ],
          [
            -122.199544,
            37.725259,
            2
          ],
          [
            -122.199522,
            37.7253,
            2
          ],
          [
            -122.199495,
            37.725381,
            2
          ],
          [
            -122.199469,
            37.725649,
            2.25
          ],
          [
            -122.199478,
            37.725802,
            2.5
          ],
          [
            -122.199511,
            37.725936,
            2.75
          ],
          [
            -122.199776,
            37.726844,
            2.75
          ],
          [
            -122.19992,
            37.727349,
            2.75
          ],
          [
            -122.199937,
            37.727484,
            2.75
          ],
          [
            -122.199983,
            37.72889,
            2.75
          ],
          [
            -122.200002,
            37.729478,
            2.75
          ],
          [
            -122.199996,
            37.729701,
            2.75
          ],
          [
            -122.199967,
            37.729902,
            2.75
          ],
          [
            -122.199945,
            37.729992,
            2.75
          ],
          [
            -122.199887,
            37.730158,
            2.75
          ],
          [
            -122.19976,
            37.730405,
            2.75
          ],
          [
            -122.199123,
            37.731553,
            2.75
          ],
          [
            -122.198931,
            37.731927,
            2.75
          ],
          [
            -122.197056,
            37.736038,
            2.75
          ],
          [
            -122.196979,
            37.736253,
            2.75
          ],
          [
            -122.196944,
            37.736389,
            2.75
          ],
          [
            -122.196789,
            37.737202,
            2.75
          ],
          [
            -122.196686,
            37.73798,
            2.75
          ],
          [
            -122.196679,
            37.738048,
            2.75
          ],
          [
            -122.196679,
            37.738185,
            2.75
          ],
          [
            -122.1967,
            37.738329,
            2.75
          ],
          [
            -122.196732,
            37.738456,
            2.75
          ],
          [
            -122.196802,
            37.738626,
            2.75
          ],
          [
            -122.196925,
            37.738861,
            2.75
          ],
          [
            -122.19698,
            37.73899,
            2.75
          ],
          [
            -122.197035,
            37.739188,
            2.75
          ],
          [
            -122.19705,
            37.73931,
            2.75
          ],
          [
            -122.197049,
            37.739476,
            2.75
          ],
          [
            -122.196874,
            37.741833,
            2.75
          ],
          [
            -122.19684,
            37.74215,
            2.75
          ],
          [
            -122.196779,
            37.742395,
            2.75
          ],
          [
            -122.196735,
            37.742526,
            2.75
          ],
          [
            -122.196509,
            37.743093,
            2.75
          ],
          [
            -122.196279,
            37.743695,
            2.75
          ],
          [
            -122.196181,
            37.744026,
            2.75
          ],
          [
            -122.196117,
            37.744307,
            2.75
          ],
          [
            -122.196064,
            37.74467,
            2.75
          ],
          [
            -122.196046,
            37.744893,
            2.75
          ],
          [
            -122.196032,
            37.746495,
            2.75
          ],
          [
            -122.196041,
            37.746902,
            2.75
          ],
          [
            -122.196075,
            37.747322,
            2.75
          ],
          [
            -122.196281,
            37.748705,
            2.75
          ],
          [
            -122.196321,
            37.748842,
            2.75
          ],
          [
            -122.196369,
            37.748964,
            2.75
          ],
          [
            -122.1966,
            37.749395,
            2.75
          ],
          [
            -122.196651,
            37.749507,
            2.75
          ],
          [
            -122.196684,
            37.749602,
            2.75
          ],
          [
            -122.19677,
            37.749999,
            2.75
          ],
          [
            -122.196978,
            37.751002,
            2.75
          ],
          [
            -122.196997,
            37.751144,
            2.75
          ],
          [
            -122.196994,
            37.751272,
            2.75
          ],
          [
            -122.196975,
            37.751389,
            2.75
          ],
          [
            -122.196943,
            37.751496,
            2.75
          ],
          [
            -122.196875,
            37.751635,
            2.75
          ],
          [
            -122.196781,
            37.751764,
            2.75
          ],
          [
            -122.196534,
            37.752014,
            2.75
          ],
          [
            -122.196465,
            37.752106,
            2.75
          ],
          [
            -122.196414,
            37.752147,
            2.75
          ],
          [
            -122.196165,
            37.752401,
            2.75
          ],
          [
            -122.19611,
            37.752458,
            2.75
          ]
        ]
      }
    }
  ]
}