{
  "type": "FeatureCollection",
  "features": [
    {
      "type": "Feature",
      "properties": {
        "creator": "BRouter-1.7.0",
        "name": "[OC Transpo] O-Train Line 4",
        "track-length": "8254",
        "filtered ascend": "32",
        "plain-ascend": "1",
        "total-time": "660",
        "total-energy": "363984",
        "cost": "8254",
        "messages": [
          [
            "Longitude",
            "Latitude",
            "Elevation",
            "Distance",
            "CostPerKm",
            "ElevCost",
            "TurnCost",
            "NodeCost",
            "InitialCost",
            "WayTags",
            "NodeTags",
            "Time",
            "Energy"
          ],
          [
            "-75655482",
            "45353292",
            "84",
            "46",
            "1000",
            "0",
            "0",
            "0",
            "0",
            "railway=light_rail",
            "railway=unknown",
            "3",
            "2267"
          ],
          [
            "-75652574",
            "45348428",
            "95",
            "587",
            "1000",
            "0",
            "0",
            "0",
            "0",
            "railway=light_rail",
            "railway=switch",
            "50",
            "35314"
          ],
          [
            "-75650485",
            "45344926",
            "97",
            "422",
            "1000",
            "0",
            "0",
            "0",
            "0",
            "railway=light_rail",
            "railway=switch",
            "84",
            "58409"
          ],
          [
            "-75649968",
            "45340359",
            "101",
            "531",
            "1000",
            "0",
            "0",
            "0",
            "0",
            "railway=light_rail",
            "railway=switch",
            "126",
            "84455"
          ],
          [
            "-75655918",
            "45332990",
            "100",
            "967",
            "1000",
            "0",
            "0",
            "0",
            "0",
            "railway=light_rail",
            "railway=unknown",
            "204",
            "128308"
          ],
          [
            "-75657867",
            "45332151",
            "101",
            "179",
            "1000",
            "0",
            "0",
            "0",
            "0",
            "railway=light_rail",
            "railway=switch",
            "218",
            "135644"
          ],
          [
            "-75668762",
            "45323633",
            "-8192",
            "1373",
            "1000",
            "0",
            "0",
            "0",
            "0",
            "railway=light_rail",
            "railway=unknown",
            "328",
            "206131"
          ],
          [
            "-75668772",
            "45323514",
            "-8192",
            "13",
            "1000",
            "0",
            "0",
            "0",
            "0",
            "railway=light_rail",
            "railway=buffer_stop",
            "329",
            "206707"
          ],
          [
            "-75668779",
            "45323435",
            "-8192",
            "9",
            "1000",
            "0",
            "0",
            "0",
            "0",
            "railway=light_rail",
            "",
            "330",
            "207105"
          ],
          [
            "-75668772",
            "45323514",
            "-8192",
            "9",
            "1000",
            "0",
            "0",
            "0",
            "0",
            "reversedirection=yes railway=light_rail",
            "railway=buffer_stop",
            "0",
            "395"
          ],
          [
            "-75668762",
            "45323633",
            "-8192",
            "13",
            "1000",
            "0",
            "0",
            "0",
            "0",
            "reversedirection=yes railway=light_rail",
            "railway=unknown",
            "1",
            "967"
          ],
          [
            "-75657867",
            "45332151",
            "101",
            "1373",
            "1000",
            "0",
            "0",
            "0",
            "0",
            "reversedirection=yes railway=light_rail",
            "railway=switch",
            "111",
            "49571"
          ],
          [
            "-75655918",
            "45332990",
            "100",
            "179",
            "1000",
            "0",
            "0",
            "0",
            "0",
            "reversedirection=yes railway=light_rail",
            "railway=unknown",
            "125",
            "56355"
          ],
          [
            "-75649968",
            "45340359",
            "101",
            "967",
            "1000",
            "0",
            "0",
            "0",
            "0",
            "reversedirection=yes railway=light_rail",
            "railway=switch",
            "203",
            "99255"
          ],
          [
            "-75650485",
            "45344926",
            "97",
            "531",
            "1000",
            "0",
            "0",
            "0",
            "0",
            "reversedirection=yes railway=light_rail",
            "railway=switch",
            "245",
            "119252"
          ],
          [
            "-75652574",
            "45348428",
            "95",
            "422",
            "1000",
            "0",
            "0",
            "0",
            "0",
            "reversedirection=yes railway=light_rail",
            "railway=switch",
            "279",
            "138696"
          ],
          [
            "-75655482",
            "45353292",
            "84",
            "587",
            "1000",
            "0",
            "0",
            "0",
            "0",
            "reversedirection=yes railway=light_rail",
            "railway=unknown",
            "326",
            "155414"
          ],
          [
            "-75655750",
            "45353738",
            "83",
            "46",
            "1000",
            "0",
            "0",
            "0",
            "0",
            "reversedirection=yes railway=light_rail",
            "",
            "330",
            "156879"
          ]
        ],
        "times": [
          0,
          3.68,
          8.16,
          27.2,
          32.4,
          50.64,
          71.04,
          76.32,
          84.4,
          92.64,
          96.4,
          100.08,
          102.88,
          104.4,
          107.12,
          108.16,
          110.48,
          111.92,
          113.04,
          115.76,
          117.28,
          118.88,
          126.88,
          134.32,
          140.48,
          159.68,
          164.96,
          172,
          180.32,
          183.52,
          186.56,
          189.44,
          190.96,
          192.88,
          194.48,
          196.72,
          200.8,
          204.24,
          208,
          208.4,
          210.8,
          218.56,
          219.28,
          222.96,
          232.96,
          234.72,
          236.4,
          245.92,
          249.04,
          252.16,
          254.72,
          257.28,
          275.44,
          283.92,
          286.72,
          289.36,
          292.72,
          294.32,
          295.92,
          298.96,
          302.32,
          303.52,
          304.88,
          307.68,
          310.08,
          313.12,
          323.6,
          328.4,
          329.44,
          330.16,
          330.88,
          331.92,
          336.72,
          347.2,
          350.24,
          352.64,
          355.44,
          356.8,
          358,
          361.36,
          364.4,
          366,
          367.6,
          370.96,
          373.6,
          376.4,
          384.88,
          403.04,
          405.6,
          408.16,
          411.28,
          414.4,
          423.92,
          425.6,
          427.36,
          437.36,
          441.04,
          441.76,
          449.52,
          451.92,
          452.32,
          456.08,
          459.52,
          463.6,
          465.84,
          467.44,
          469.36,
          470.88,
          473.76,
          476.8,
          480,
          488.32,
          495.36,
          500.64,
          519.84,
          526,
          533.44,
          541.44,
          543.04,
          544.56,
          547.28,
          548.4,
          549.84,
          552.16,
          553.2,
          555.92,
          557.44,
          560.24,
          563.92,
          567.68,
          575.92,
          584,
          589.28,
          609.68,
          627.92,
          633.12,
          652.16,
          656.64,
          660.32
        ]
      },
      "geometry": {
        "type": "LineString",
        "coordinates": [
          [
            -75.655709,
            45.353669,
            83.5
          ],
          [
            -75.655482,
            45.353292,
            84.25
          ],
          [
            -75.655201,
            45.352826,
            85.75
          ],
          [
            -75.654024,
            45.350856,
            86.5
          ],
          [
            -75.653704,
            45.350314,
            88.25
          ],
          [
            -75.652574,
            45.348428,
            95.5
          ],
          [
            -75.651305,
            45.346315,
            99
          ],
          [
            -75.650986,
            45.345765,
            99.25
          ],
          [
            -75.650485,
            45.344926,
            97.75
          ],
          [
            -75.649973,
            45.34407,
            96
          ],
          [
            -75.649738,
            45.343678,
            96.25
          ],
          [
            -75.649527,
            45.343289,
            97.25
          ],
          [
            -75.649423,
            45.342987,
            98.5
          ],
          [
            -75.649376,
            45.342816,
            99.25
          ],
          [
            -75.649322,
            45.342512,
            100.5
          ],
          [
            -75.649314,
            45.342395,
            100.25
          ],
          [
            -75.649311,
            45.342137,
            99.5
          ],
          [
            -75.649322,
            45.341978,
            99
          ],
          [
            -75.649336,
            45.34185,
            98.75
          ],
          [
            -75.649404,
            45.341547,
            98.5
          ],
          [
            -75.649455,
            45.341377,
            98.5
          ],
          [
            -75.649521,
            45.3412,
            98.5
          ],
          [
            -75.649968,
            45.340359,
            101
          ],
          [
            -75.650441,
            45.339595,
            101.75
          ],
          [
            -75.650799,
            45.338953,
            101.75
          ],
          [
            -75.651938,
            45.336946,
            103.5
          ],
          [
            -75.652255,
            45.336395,
            104
          ],
          [
            -75.652677,
            45.335661,
            104.25
          ],
          [
            -75.653181,
            45.334793,
            105
          ],
          [
            -75.653413,
            45.33447,
            104
          ],
          [
            -75.653686,
            45.334185,
            103
          ],
          [
            -75.653982,
            45.333934,
            102.5
          ],
          [
            -75.654149,
            45.333813,
            102.5
          ],
          [
            -75.654381,
            45.333667,
            102.25
          ],
          [
            -75.654584,
            45.333552,
            102
          ],
          [
            -75.654877,
            45.333414,
            102
          ],
          [
            -75.655439,
            45.333185,
            101.25
          ],
          [
            -75.655918,
            45.33299,
            100.75
          ],
          [
            -75.656441,
            45.332777,
            100.75
          ],
          [
            -75.656499,
            45.332753,
            100.75
          ],
          [
            -75.656826,
            45.332621,
            100.5
          ],
          [
            -75.657867,
            45.332151,
            101
          ],
          [
            -75.657964,
            45.332112,
            101.25
          ],
          [
            -75.658478,
            45.331903,
            102
          ],
          [
            -75.65986,
            45.331349,
            105.5
          ],
          [
            -75.660109,
            45.331259,
            105.25
          ],
          [
            -75.660358,
            45.331179,
            104.5
          ],
          [
            -75.66175,
            45.330761,
            101.5
          ],
          [
            -75.662189,
            45.330602,
            102
          ],
          [
            -75.662622,
            45.330425,
            102
          ],
          [
            -75.662952,
            45.330263,
            102.25
          ],
          [
            -75.663276,
            45.330089,
            102.75
          ],
          [
            -75.665529,
            45.328801,
            111.25
          ],
          [
            -75.66658,
            45.328196,
            112.25
          ],
          [
            -75.666913,
            45.327986,
            112.75
          ],
          [
            -75.667204,
            45.327769,
            113.25
          ],
          [
            -75.66754,
            45.327469,
            114
          ],
          [
            -75.667681,
            45.32732,
            114.25
          ],
          [
            -75.667818,
            45.327165,
            114.5
          ],
          [
            -75.668053,
            45.326865,
            115.5
          ],
          [
            -75.668259,
            45.326514
          ],
          [
            -75.66832,
            45.32639
          ],
          [
            -75.668389,
            45.326241
          ],
          [
            -75.668498,
            45.32594
          ],
          [
            -75.668559,
            45.325678
          ],
          [
            -75.668614,
            45.325342
          ],
          [
            -75.668716,
            45.324169
          ],
          [
            -75.668762,
            45.323633
          ],
          [
            -75.668772,
            45.323514
          ],
          [
            -75.668779,
            45.323435,
            115.5
          ],
          [
            -75.668772,
            45.323514,
            115.5
          ],
          [
            -75.668762,
            45.323633,
            115.5
          ],
          [
            -75.668716,
            45.324169,
            115.5
          ],
          [
            -75.668614,
            45.325342,
            115.5
          ],
          [
            -75.668559,
            45.325678,
            115.5
          ],
          [
            -75.668498,
            45.32594,
            115.5
          ],
          [
            -75.668389,
            45.326241,
            115.5
          ],
          [
            -75.66832,
            45.32639,
            115.5
          ],
          [
            -75.668259,
            45.326514,
            115.5
          ],
          [
            -75.668053,
            45.326865,
            115.5
          ],
          [
            -75.667818,
            45.327165,
            114.5
          ],
          [
            -75.667681,
            45.32732,
            114.25
          ],
          [
            -75.66754,
            45.327469,
            114
          ],
          [
            -75.667204,
            45.327769,
            113.25
          ],
          [
            -75.666913,
            45.327986,
            112.75
          ],
          [
            -75.66658,
            45.328196,
            112.25
          ],
          [
            -75.665529,
            45.328801,
            111.25
          ],
          [
            -75.663276,
            45.330089,
            102.75
          ],
          [
            -75.662952,
            45.330263,
            102.25
          ],
          [
            -75.662622,
            45.330425,
            102
          ],
          [
            -75.662189,
            45.330602,
            102
          ],
          [
            -75.66175,
            45.330761,
            101.5
          ],
          [
            -75.660358,
            45.331179,
            104.5
          ],
          [
            -75.660109,
            45.331259,
            105.25
          ],
          [
            -75.65986,
            45.331349,
            105.5
          ],
          [
            -75.658478,
            45.331903,
            102
          ],
          [
            -75.657964,
            45.332112,
            101.25
          ],
          [
            -75.657867,
            45.332151,
            101
          ],
          [
            -75.656826,
            45.332621,
            100.5
          ],
          [
            -75.656499,
            45.332753,
            100.75
          ],
          [
            -75.656441,
            45.332777,
            100.75
          ],
          [
            -75.655918,
            45.33299,
            100.75
          ],
          [
            -75.655439,
            45.333185,
            101.25
          ],
          [
            -75.654877,
            45.333414,
            102
          ],
          [
            -75.654584,
            45.333552,
            102
          ],
          [
            -75.654381,
            45.333667,
            102.25
          ],
          [
            -75.654149,
            45.333813,
            102.5
          ],
          [
            -75.653982,
            45.333934,
            102.5
          ],
          [
            -75.653686,
            45.334185,
            103
          ],
          [
            -75.653413,
            45.33447,
            104
          ],
          [
            -75.653181,
            45.334793,
            105
          ],
          [
            -75.652677,
            45.335661,
            104.25
          ],
          [
            -75.652255,
            45.336395,
            104
          ],
          [
            -75.651938,
            45.336946,
            103.5
          ],
          [
            -75.650799,
            45.338953,
            101.75
          ],
          [
            -75.650441,
            45.339595,
            101.75
          ],
          [
            -75.649968,
            45.340359,
            101
          ],
          [
            -75.649521,
            45.3412,
            98.5
          ],
          [
            -75.649455,
            45.341377,
            98.5
          ],
          [
            -75.649404,
            45.341547,
            98.5
          ],
          [
            -75.649336,
            45.34185,
            98.75
          ],
          [
            -75.649322,
            45.341978,
            99
          ],
          [
            -75.649311,
            45.342137,
            99.5
          ],
          [
            -75.649314,
            45.342395,
            100.25
          ],
          [
            -75.649322,
            45.342512,
            100.5
          ],
          [
            -75.649376,
            45.342816,
            99.25
          ],
          [
            -75.649423,
            45.342987,
            98.5
          ],
          [
            -75.649527,
            45.343289,
            97.25
          ],
          [
            -75.649738,
            45.343678,
            96.25
          ],
          [
            -75.649973,
            45.34407,
            96
          ],
          [
            -75.650485,
            45.344926,
            97.75
          ],
          [
            -75.650986,
            45.345765,
            99.25
          ],
          [
            -75.651305,
            45.346315,
            99
          ],
          [
            -75.652574,
            45.348428,
            95.5
          ],
          [
            -75.653704,
            45.350314,
            88.25
          ],
          [
            -75.654024,
            45.350856,
            86.5
          ],
          [
            -75.655201,
            45.352826,
            85.75
          ],
          [
            -75.655482,
            45.353292,
            84.25
          ],
          [
            -75.65571,
            45.35367,
            83.5
          ]
        ]
      }
    }
  ]
}