{
  "type": "FeatureCollection",
  "features": [
    {
      "type": "Feature",
      "properties": {
        "creator": "BRouter-1.7.0",
        "name": "[OC Transpo] O-Train Line 2",
        "track-length": "38226",
        "filtered ascend": "78",
        "plain-ascend": "2",
        "total-time": "3058",
        "total-energy": "1682062",
        "cost": "38226",
        "messages": [
          [
            "Longitude",
            "Latitude",
            "Elevation",
            "Distance",
            "CostPerKm",
            "ElevCost",
            "TurnCost",
            "NodeCost",
            "InitialCost",
            "WayTags",
            "NodeTags",
            "Time",
            "Energy"
          ],
          [
            "-75722014",
            "45409284",
            "56",
            "39",
            "1000",
            "0",
            "0",
            "0",
            "0",
            "railway=light_rail",
            "railway=unknown",
            "3",
            "1715"
          ],
          [
            "-75720917",
            "45408518",
            "57",
            "103",
            "1000",
            "0",
            "0",
            "0",
            "0",
            "railway=light_rail",
            "",
            "11",
            "6884"
          ],
          [
            "-75711294",
            "45400349",
            "61",
            "1209",
            "1000",
            "0",
            "0",
            "0",
            "0",
            "railway=light_rail",
            "",
            "96",
            "56181"
          ],
          [
            "-75709500",
            "45397360",
            "61",
            "361",
            "1000",
            "0",
            "0",
            "0",
            "0",
            "reversedirection=yes railway=light_rail",
            "railway=unknown",
            "125",
            "72102"
          ],
          [
            "-75696286",
            "45388227",
            "60",
            "1502",
            "1000",
            "0",
            "0",
            "0",
            "0",
            "reversedirection=yes railway=light_rail",
            "railway=switch",
            "245",
            "138175"
          ],
          [
            "-75695887",
            "45385597",
            "62",
            "297",
            "1000",
            "0",
            "0",
            "0",
            "0",
            "reversedirection=yes railway=light_rail",
            "railway=unknown",
            "269",
            "152187"
          ],
          [
            "-75695366",
            "45382567",
            "60",
            "343",
            "1000",
            "0",
            "0",
            "0",
            "0",
            "reversedirection=yes railway=light_rail",
            "railway=switch",
            "296",
            "167373"
          ],
          [
            "-75694684",
            "45381549",
            "57",
            "125",
            "1000",
            "0",
            "0",
            "0",
            "0",
            "reversedirection=yes railway=light_rail",
            "",
            "306",
            "171662"
          ],
          [
            "-75684890",
            "45376865",
            "77",
            "941",
            "1000",
            "0",
            "0",
            "0",
            "0",
            "railway=light_rail",
            "railway=unknown",
            "382",
            "226494"
          ],
          [
            "-75677683",
            "45374052",
            "72",
            "646",
            "1000",
            "0",
            "0",
            "0",
            "0",
            "railway=light_rail",
            "railway=switch",
            "433",
            "252217"
          ],
          [
            "-75669035",
            "45370507",
            "77",
            "783",
            "1000",
            "0",
            "0",
            "0",
            "0",
            "reversedirection=yes railway=light_rail",
            "railway=switch",
            "496",
            "290445"
          ],
          [
            "-75665732",
            "45368656",
            "83",
            "332",
            "1000",
            "0",
            "0",
            "0",
            "0",
            "railway=light_rail",
            "railway=station",
            "523",
            "309610"
          ],
          [
            "-75662657",
            "45365729",
            "81",
            "406",
            "1000",
            "0",
            "0",
            "0",
            "0",
            "railway=light_rail",
            "railway=switch",
            "555",
            "327322"
          ],
          [
            "-75660788",
            "45362475",
            "78",
            "390",
            "1000",
            "0",
            "0",
            "0",
            "0",
            "railway=light_rail",
            "railway=unknown",
            "586",
            "344267"
          ],
          [
            "-75659388",
            "45360035",
            "79",
            "293",
            "1000",
            "0",
            "0",
            "0",
            "0",
            "railway=light_rail",
            "railway=switch",
            "610",
            "355161"
          ],
          [
            "-75659110",
            "45359547",
            "80",
            "59",
            "1000",
            "0",
            "0",
            "0",
            "0",
            "railway=light_rail",
            "railway=station",
            "614",
            "358079"
          ],
          [
            "-75655347",
            "45353341",
            "84",
            "736",
            "1000",
            "0",
            "0",
            "0",
            "0",
            "reversedirection=yes railway=light_rail",
            "",
            "673",
            "393728"
          ],
          [
            "-75655347",
            "45353341",
            "84",
            "14",
            "1000",
            "0",
            "0",
            "0",
            "0",
            "reversedirection=yes railway=light_rail",
            "railway=unknown",
            "1",
            "644"
          ],
          [
            "-75653631",
            "45350339",
            "88",
            "360",
            "1000",
            "0",
            "0",
            "0",
            "0",
            "reversedirection=yes railway=light_rail",
            "",
            "29",
            "19474"
          ],
          [
            "-75651890",
            "45347381",
            "93",
            "356",
            "1000",
            "0",
            "0",
            "0",
            "0",
            "railway=light_rail",
            "railway=switch",
            "58",
            "37556"
          ],
          [
            "-75651055",
            "45345988",
            "99",
            "168",
            "1000",
            "0",
            "0",
            "0",
            "0",
            "railway=light_rail",
            "railway=switch",
            "71",
            "49134"
          ],
          [
            "-75641068",
            "45329158",
            "102",
            "2027",
            "1000",
            "0",
            "0",
            "0",
            "0",
            "railway=light_rail",
            "railway=switch",
            "234",
            "141893"
          ],
          [
            "-75640158",
            "45327652",
            "100",
            "182",
            "1000",
            "0",
            "0",
            "0",
            "0",
            "railway=light_rail",
            "railway=level_crossing",
            "248",
            "150459"
          ],
          [
            "-75636042",
            "45320782",
            "106",
            "829",
            "1000",
            "0",
            "0",
            "0",
            "0",
            "railway=light_rail",
            "railway=switch",
            "314",
            "189353"
          ],
          [
            "-75665614",
            "45277922",
            "-8192",
            "6459",
            "1000",
            "0",
            "0",
            "0",
            "0",
            "railway=light_rail",
            "",
            "831",
            "463067"
          ],
          [
            "-75667080",
            "45277316",
            "-8192",
            "148",
            "1000",
            "0",
            "0",
            "0",
            "0",
            "railway=light_rail",
            "",
            "11",
            "6509"
          ],
          [
            "-75665614",
            "45277922",
            "-8192",
            "133",
            "1000",
            "0",
            "0",
            "0",
            "0",
            "reversedirection=yes railway=light_rail",
            "",
            "10",
            "5850"
          ],
          [
            "-75661047",
            "45279768",
            "92",
            "409",
            "1000",
            "0",
            "0",
            "0",
            "0",
            "railway=light_rail",
            "",
            "43",
            "24309"
          ],
          [
            "-75636042",
            "45320782",
            "106",
            "6070",
            "1000",
            "0",
            "0",
            "0",
            "0",
            "railway=light_rail",
            "railway=switch",
            "485",
            "279345"
          ],
          [
            "-75640158",
            "45327652",
            "100",
            "829",
            "1000",
            "0",
            "0",
            "0",
            "0",
            "reversedirection=yes railway=light_rail",
            "railway=level_crossing",
            "551",
            "312947"
          ],
          [
            "-75641068",
            "45329158",
            "102",
            "182",
            "1000",
            "0",
            "0",
            "0",
            "0",
            "reversedirection=yes railway=light_rail",
            "railway=switch",
            "566",
            "320396"
          ],
          [
            "-75651055",
            "45345988",
            "99",
            "2027",
            "1000",
            "0",
            "0",
            "0",
            "0",
            "reversedirection=yes railway=light_rail",
            "railway=switch",
            "728",
            "406801"
          ],
          [
            "-75651890",
            "45347381",
            "93",
            "168",
            "1000",
            "0",
            "0",
            "0",
            "0",
            "reversedirection=yes railway=light_rail",
            "railway=switch",
            "742",
            "412212"
          ],
          [
            "-75653631",
            "45350339",
            "88",
            "356",
            "1000",
            "0",
            "0",
            "0",
            "0",
            "reversedirection=yes railway=light_rail",
            "",
            "770",
            "423142"
          ],
          [
            "-75655347",
            "45353341",
            "84",
            "360",
            "1000",
            "0",
            "0",
            "0",
            "0",
            "railway=light_rail",
            "railway=unknown",
            "799",
            "433948"
          ],
          [
            "-75655875",
            "45354226",
            "82",
            "74",
            "1000",
            "0",
            "0",
            "0",
            "0",
            "railway=light_rail",
            "",
            "805",
            "436099"
          ],
          [
            "-75659110",
            "45359547",
            "80",
            "677",
            "1000",
            "0",
            "0",
            "0",
            "0",
            "railway=light_rail",
            "railway=station",
            "54",
            "28003"
          ],
          [
            "-75659388",
            "45360035",
            "79",
            "59",
            "1000",
            "0",
            "0",
            "0",
            "0",
            "reversedirection=yes railway=light_rail",
            "railway=switch",
            "58",
            "29815"
          ],
          [
            "-75660788",
            "45362475",
            "78",
            "293",
            "1000",
            "0",
            "0",
            "0",
            "0",
            "reversedirection=yes railway=light_rail",
            "railway=unknown",
            "82",
            "41258"
          ],
          [
            "-75662657",
            "45365729",
            "81",
            "390",
            "1000",
            "0",
            "0",
            "0",
            "0",
            "reversedirection=yes railway=light_rail",
            "railway=switch",
            "113",
            "60820"
          ],
          [
            "-75665732",
            "45368656",
            "83",
            "406",
            "1000",
            "0",
            "0",
            "0",
            "0",
            "reversedirection=yes railway=light_rail",
            "railway=station",
            "146",
            "79903"
          ],
          [
            "-75669035",
            "45370507",
            "77",
            "332",
            "1000",
            "0",
            "0",
            "0",
            "0",
            "reversedirection=yes railway=light_rail",
            "railway=switch",
            "172",
            "92053"
          ],
          [
            "-75677683",
            "45374052",
            "72",
            "783",
            "1000",
            "0",
            "0",
            "0",
            "0",
            "railway=light_rail",
            "railway=switch",
            "235",
            "123414"
          ],
          [
            "-75684890",
            "45376865",
            "77",
            "646",
            "1000",
            "0",
            "0",
            "0",
            "0",
            "reversedirection=yes railway=light_rail",
            "railway=unknown",
            "286",
            "152229"
          ],
          [
            "-75694684",
            "45381549",
            "57",
            "941",
            "1000",
            "0",
            "0",
            "0",
            "0",
            "reversedirection=yes railway=light_rail",
            "",
            "362",
            "183156"
          ],
          [
            "-75695366",
            "45382567",
            "60",
            "125",
            "1000",
            "0",
            "0",
            "0",
            "0",
            "railway=light_rail",
            "railway=switch",
            "372",
            "187124"
          ],
          [
            "-75695887",
            "45385597",
            "62",
            "343",
            "1000",
            "0",
            "0",
            "0",
            "0",
            "railway=light_rail",
            "railway=unknown",
            "399",
            "201800"
          ],
          [
            "-75696286",
            "45388227",
            "60",
            "297",
            "1000",
            "0",
            "0",
            "0",
            "0",
            "railway=light_rail",
            "railway=switch",
            "423",
            "212901"
          ],
          [
            "-75709500",
            "45397360",
            "61",
            "1502",
            "1000",
            "0",
            "0",
            "0",
            "0",
            "railway=light_rail",
            "railway=unknown",
            "543",
            "279249"
          ],
          [
            "-75720378",
            "45408193",
            "56",
            "1446",
            "1000",
            "0",
            "0",
            "0",
            "0",
            "railway=light_rail",
            "",
            "659",
            "339650"
          ],
          [
            "-75720872",
            "45408548",
            "57",
            "109",
            "1000",
            "0",
            "0",
            "0",
            "0",
            "railway=light_rail",
            "",
            "8",
            "5127"
          ],
          [
            "-75722014",
            "45409284",
            "56",
            "121",
            "1000",
            "0",
            "0",
            "0",
            "0",
            "reversedirection=yes railway=light_rail",
            "railway=unknown",
            "18",
            "10136"
          ],
          [
            "-75722372",
            "45409535",
            "56",
            "40",
            "1000",
            "0",
            "0",
            "0",
            "0",
            "reversedirection=yes railway=light_rail",
            "",
            "21",
            "11816"
          ]
        ],
        "times": [
          0,
          3.12,
          8.24,
          9.92,
          10.72,
          11.36,
          12.72,
          16.96,
          20.24,
          25.44,
          30.48,
          33.68,
          36.56,
          44.24,
          52.88,
          62.72,
          68.88,
          72.24,
          74.72,
          79.28,
          80.72,
          84.64,
          88.48,
          91.04,
          93.76,
          99.6,
          108.08,
          129.92,
          136.96,
          141.68,
          144.72,
          149.44,
          154,
          156.16,
          158.88,
          165.04,
          168.24,
          172.08,
          173.92,
          178.96,
          179.84,
          181.52,
          185.44,
          189.2,
          190.4,
          200.64,
          216,
          222.16,
          226.24,
          230.16,
          233.04,
          234.4,
          237.28,
          240.16,
          241.6,
          245.6,
          249.52,
          252.24,
          257.12,
          262,
          264.24,
          266.16,
          268.48,
          271.04,
          272.88,
          275.28,
          280.88,
          282.96,
          290.64,
          292.48,
          294.4,
          296.72,
          297.84,
          300.4,
          304.32,
          308.32,
          308.64,
          309.68,
          318.32,
          320.48,
          322.4,
          326.16,
          328.72,
          331.92,
          333.52,
          335.04,
          337.76,
          339.28,
          376.32,
          384.08,
          389.52,
          393.6,
          399.52,
          400.96,
          408.56,
          417.28,
          441.6,
          445.28,
          446.72,
          458.16,
          464.4,
          507.92,
          512.4,
          515.68,
          518.72,
          521.6,
          524.96,
          527.44,
          531.12,
          534.48,
          543.36,
          549.6,
          554.96,
          557.44,
          560.64,
          563.28,
          566.24,
          566.96,
          598.16,
          605.36,
          608.24,
          621.6,
          622.48,
          626.32,
          630.64,
          642.32,
          648.96,
          663.2,
          668.64,
          673.52,
          677.76,
          682.08,
          685.2,
          686.32,
          690.96,
          693.36,
          702.4,
          709.92,
          715.12,
          743.6,
          757.04,
          802.56,
          812.32,
          871.52,
          874.08,
          919.2,
          933.76,
          988.88,
          1000.08,
          1019.84,
          1043.12,
          1045.2,
          1060.08,
          1071.28,
          1081.28,
          1088.72,
          1094.16,
          1101.36,
          1106.48,
          1110.8,
          1118.48,
          1124.16,
          1127.52,
          1146.72,
          1153.12,
          1166.24,
          1167.12,
          1169.28,
          1179.28,
          1184.08,
          1198.48,
          1216.8,
          1219.84,
          1222.64,
          1224.72,
          1226,
          1227.2,
          1228.96,
          1230.64,
          1232.88,
          1235.12,
          1236.24,
          1237.44,
          1239.2,
          1240.56,
          1242.96,
          1244.08,
          1246.64,
          1251.6,
          1262.4,
          1272.48,
          1284.96,
          1287.36,
          1292.08,
          1294.08,
          1296.24,
          1301.52,
          1305.6,
          1307.84,
          1310.64,
          1314.72,
          1320.8,
          1324.8,
          1327.52,
          1330.08,
          1333.04,
          1338.08,
          1373.2,
          1403.2,
          1408,
          1410.88,
          1412.72,
          1414.64,
          1422.16,
          1425.44,
          1426.88,
          1430.48,
          1432.08,
          1433.52,
          1435.28,
          1437.44,
          1439.44,
          1441.52,
          1443.28,
          1445.28,
          1448.96,
          1455.76,
          1458.16,
          1460.16,
          1461.92,
          1464.64,
          1466.96,
          1469.2,
          1473.76,
          1514.8,
          1516.56,
          1516.64,
          1516.8,
          1518,
          1519.2,
          1528.64,
          1538.08,
          1539.28,
          1540.72,
          1542.24,
          1543.12,
          1559.2,
          1572,
          1572.4,
          1585.6,
          1587.52,
          1589.36,
          1591.12,
          1592.72,
          1594.88,
          1597.12,
          1599.2,
          1601.28,
          1602.64,
          1608.32,
          1611.92,
          1613.92,
          1615.52,
          1618,
          1619.76,
          1621.52,
          1623.76,
          1625.12,
          1627.84,
          1629.2,
          1630.96,
          1632.64,
          1635.2,
          1641.84,
          1644.16,
          1646.4,
          1648.4,
          1653.84,
          1665.84,
          1718.64,
          1722.56,
          1725.92,
          1729.12,
          1732.32,
          1737.44,
          1749.04,
          1751.2,
          1755.04,
          1756.8,
          1759.92,
          1763.12,
          1764.96,
          1769.76,
          1772.16,
          1784.72,
          1794.8,
          1804.8,
          1811.6,
          1813.04,
          1814.32,
          1816,
          1817.76,
          1819.6,
          1821.52,
          1823.52,
          1824.8,
          1827.36,
          1829.2,
          1831.12,
          1832.16,
          1833.6,
          1835.52,
          1837.84,
          1840.88,
          1852.16,
          1859.52,
          1871.12,
          1877.52,
          1888.16,
          1890.96,
          1901.2,
          1911.92,
          1922.72,
          1929.44,
          1936.4,
          1939.52,
          1943.52,
          1950.72,
          1956.32,
          1959.12,
          1963.52,
          1968.72,
          1981.68,
          1986.4,
          1997.52,
          2002.24,
          2012.48,
          2014.56,
          2020.88,
          2027.76,
          2033.04,
          2036.48,
          2043.76,
          2048.64,
          2052.4,
          2057.6,
          2068.8,
          2123.92,
          2138.48,
          2183.6,
          2186.16,
          2245.36,
          2255.12,
          2300.64,
          2314.08,
          2342.56,
          2347.76,
          2355.28,
          2364.32,
          2366.72,
          2371.36,
          2375.6,
          2377.28,
          2380,
          2384.24,
          2389.12,
          2394.56,
          2408.8,
          2415.44,
          2427.12,
          2431.44,
          2435.28,
          2436.16,
          2449.52,
          2452.4,
          2459.6,
          2490.8,
          2491.52,
          2494.48,
          2497.12,
          2500.32,
          2502.8,
          2508.16,
          2514.4,
          2523.28,
          2526.64,
          2530.32,
          2532.8,
          2536.16,
          2539.04,
          2542.08,
          2545.36,
          2549.84,
          2593.36,
          2599.6,
          2611.04,
          2612.48,
          2616.16,
          2640.48,
          2649.2,
          2656.8,
          2658.24,
          2664.16,
          2668.24,
          2673.68,
          2681.44,
          2718.48,
          2720,
          2722.72,
          2724.24,
          2725.84,
          2729.04,
          2731.6,
          2735.36,
          2737.28,
          2739.44,
          2748.08,
          2749.12,
          2749.44,
          2753.44,
          2757.36,
          2759.92,
          2761.04,
          2763.36,
          2765.28,
          2767.12,
          2774.8,
          2776.88,
          2782.48,
          2784.88,
          2786.72,
          2789.28,
          2791.6,
          2793.52,
          2795.76,
          2800.64,
          2805.52,
          2808.24,
          2812.16,
          2816.16,
          2817.6,
          2820.48,
          2823.36,
          2824.72,
          2827.6,
          2831.52,
          2835.6,
          2841.76,
          2857.12,
          2867.36,
          2868.56,
          2872.32,
          2876.24,
          2877.92,
          2878.8,
          2883.84,
          2885.68,
          2889.52,
          2892.72,
          2898.88,
          2901.6,
          2903.76,
          2908.32,
          2913.04,
          2916.08,
          2920.8,
          2927.84,
          2949.68,
          2958.08,
          2961.12,
          2964.72,
          2968.88,
          2977.36,
          2979.28,
          2982.08,
          2985.6,
          2989.04,
          2995.6,
          2996.4,
          3000.96,
          3008.24,
          3019.84,
          3021.52,
          3023.84,
          3028.8,
          3032.32,
          3036.48,
          3040.8,
          3045.2,
          3046.32,
          3048.08,
          3049.76,
          3054.88,
          3058.08
        ]
      },
      "geometry": {
        "type": "LineString",
        "coordinates": [
          [
            -75.72237,
            45.409533,
            56
          ],
          [
            -75.722014,
            45.409284,
            56
          ],
          [
            -75.721433,
            45.408878,
            57
          ],
          [
            -75.721245,
            45.408746,
            57.25
          ],
          [
            -75.721154,
            45.408677,
            57.25
          ],
          [
            -75.721077,
            45.408625,
            57.5
          ],
          [
            -75.720917,
            45.408518,
            57.5
          ],
          [
            -75.720435,
            45.408179,
            57
          ],
          [
            -75.720055,
            45.407921,
            56
          ],
          [
            -75.71945,
            45.407526,
            56.5
          ],
          [
            -75.718899,
            45.40711,
            58.5
          ],
          [
            -75.718561,
            45.406835,
            59
          ],
          [
            -75.718234,
            45.406603,
            58.75
          ],
          [
            -75.717322,
            45.406031,
            58.75
          ],
          [
            -75.716308,
            45.405374,
            58.75
          ],
          [
            -75.715185,
            45.404593,
            59.5
          ],
          [
            -75.714504,
            45.404097,
            60.5
          ],
          [
            -75.714131,
            45.403831,
            60.5
          ],
          [
            -75.71386,
            45.403625,
            60.25
          ],
          [
            -75.713409,
            45.403223,
            59.75
          ],
          [
            -75.713271,
            45.40309,
            60
          ],
          [
            -75.712931,
            45.402721,
            60.5
          ],
          [
            -75.712616,
            45.40235,
            59.75
          ],
          [
            -75.71242,
            45.402093,
            59.25
          ],
          [
            -75.712231,
            45.401813,
            59.5
          ],
          [
            -75.711863,
            45.401212,
            60.25
          ],
          [
            -75.711294,
            45.400349,
            61
          ],
          [
            -75.709935,
            45.398087,
            60.25
          ],
          [
            -75.7095,
            45.39736,
            61
          ],
          [
            -75.709202,
            45.396869,
            60.25
          ],
          [
            -75.709013,
            45.396557,
            60
          ],
          [
            -75.708699,
            45.396073,
            60
          ],
          [
            -75.708366,
            45.395621,
            61
          ],
          [
            -75.708194,
            45.395409,
            62.25
          ],
          [
            -75.70796,
            45.395155,
            63.75
          ],
          [
            -75.707379,
            45.394594,
            65.75
          ],
          [
            -75.707048,
            45.394323,
            65.5
          ],
          [
            -75.70663,
            45.394009,
            66.25
          ],
          [
            -75.706421,
            45.393863,
            67
          ],
          [
            -75.705837,
            45.393479,
            68.75
          ],
          [
            -75.705729,
            45.393417,
            68.5
          ],
          [
            -75.705534,
            45.393294,
            68
          ],
          [
            -75.705033,
            45.39303,
            67
          ],
          [
            -75.704533,
            45.3928,
            66.25
          ],
          [
            -75.704367,
            45.392737,
            66
          ],
          [
            -75.702894,
            45.392233,
            63.5
          ],
          [
            -75.700724,
            45.391434,
            61
          ],
          [
            -75.699853,
            45.391113,
            60
          ],
          [
            -75.699282,
            45.390887,
            59.5
          ],
          [
            -75.698763,
            45.390643,
            59.5
          ],
          [
            -75.6984,
            45.390442,
            59.5
          ],
          [
            -75.698239,
            45.390344,
            59.5
          ],
          [
            -75.697907,
            45.390125,
            60
          ],
          [
            -75.697598,
            45.389884,
            60.25
          ],
          [
            -75.697459,
            45.389756,
            60.5
          ],
          [
            -75.697099,
            45.389388,
            60.75
          ],
          [
            -75.696766,
            45.38901,
            60.25
          ],
          [
            -75.696576,
            45.388738,
            60.5
          ],
          [
            -75.696286,
            45.388227,
            60.75
          ],
          [
            -75.696007,
            45.387711,
            59.75
          ],
          [
            -75.695909,
            45.387465,
            59.25
          ],
          [
            -75.695849,
            45.387252,
            59.5
          ],
          [
            -75.695804,
            45.386991,
            60
          ],
          [
            -75.695792,
            45.386704,
            60.75
          ],
          [
            -75.695798,
            45.386497,
            61.25
          ],
          [
            -75.69583,
            45.386226,
            62
          ],
          [
            -75.695887,
            45.385597,
            62.75
          ],
          [
            -75.695907,
            45.385361,
            62.75
          ],
          [
            -75.695982,
            45.384496,
            62.5
          ],
          [
            -75.695985,
            45.384285,
            62.25
          ],
          [
            -75.695966,
            45.384072,
            62.25
          ],
          [
            -75.695917,
            45.38381,
            62.75
          ],
          [
            -75.695886,
            45.383683,
            63
          ],
          [
            -75.695789,
            45.383404,
            63.75
          ],
          [
            -75.695588,
            45.382991,
            62.75
          ],
          [
            -75.695366,
            45.382567,
            60.5
          ],
          [
            -75.695345,
            45.382534,
            60.25
          ],
          [
            -75.695276,
            45.382431,
            59.5
          ],
          [
            -75.694684,
            45.381549,
            57
          ],
          [
            -75.694533,
            45.381334,
            59
          ],
          [
            -75.694386,
            45.381144,
            60.75
          ],
          [
            -75.694052,
            45.380797,
            64.25
          ],
          [
            -75.693783,
            45.380579,
            66
          ],
          [
            -75.69341,
            45.380336,
            66.75
          ],
          [
            -75.693205,
            45.380222,
            67.5
          ],
          [
            -75.693006,
            45.380126,
            68.75
          ],
          [
            -75.69264,
            45.379966,
            70.25
          ],
          [
            -75.69243,
            45.379882,
            70.75
          ],
          [
            -75.687288,
            45.377825,
            75.5
          ],
          [
            -75.686208,
            45.377396,
            78.25
          ],
          [
            -75.68546,
            45.377093,
            78
          ],
          [
            -75.68489,
            45.376865,
            77.5
          ],
          [
            -75.684076,
            45.376536,
            77.5
          ],
          [
            -75.683872,
            45.376453,
            77.25
          ],
          [
            -75.682791,
            45.376068,
            75.5
          ],
          [
            -75.681564,
            45.37561,
            73.25
          ],
          [
            -75.678192,
            45.374261,
            69.75
          ],
          [
            -75.677683,
            45.374052,
            72.5
          ],
          [
            -75.677478,
            45.373974,
            73.5
          ],
          [
            -75.675922,
            45.373298,
            76.5
          ],
          [
            -75.67507,
            45.372928,
            76
          ],
          [
            -75.669035,
            45.370507,
            77
          ],
          [
            -75.668413,
            45.370257,
            78.5
          ],
          [
            -75.667975,
            45.370062,
            79.25
          ],
          [
            -75.667578,
            45.369868,
            80.5
          ],
          [
            -75.667211,
            45.369668,
            81.25
          ],
          [
            -75.666797,
            45.369425,
            82.25
          ],
          [
            -75.666507,
            45.369234,
            82.75
          ],
          [
            -75.666091,
            45.368939,
            82.75
          ],
          [
            -75.665732,
            45.368656,
            83
          ],
          [
            -75.664799,
            45.3679,
            82
          ],
          [
            -75.664141,
            45.367368,
            84.25
          ],
          [
            -75.663615,
            45.366892,
            82.5
          ],
          [
            -75.663387,
            45.366661,
            81.75
          ],
          [
            -75.663107,
            45.36636,
            82
          ],
          [
            -75.662898,
            45.3661,
            82
          ],
          [
            -75.662704,
            45.3658,
            81.5
          ],
          [
            -75.662657,
            45.365729,
            81.5
          ],
          [
            -75.660788,
            45.362475,
            78.75
          ],
          [
            -75.660362,
            45.361723,
            78.25
          ],
          [
            -75.660189,
            45.361423,
            78.5
          ],
          [
            -75.659388,
            45.360035,
            79.25
          ],
          [
            -75.659337,
            45.359945,
            79.25
          ],
          [
            -75.65911,
            45.359547,
            80.5
          ],
          [
            -75.658849,
            45.359098,
            81.5
          ],
          [
            -75.658139,
            45.357879,
            82.25
          ],
          [
            -75.657713,
            45.357194,
            83.25
          ],
          [
            -75.656782,
            45.355733,
            82.75
          ],
          [
            -75.656438,
            45.355168,
            83.25
          ],
          [
            -75.656142,
            45.354662,
            83
          ],
          [
            -75.655875,
            45.354226,
            82.75
          ],
          [
            -75.655607,
            45.353778,
            83.75
          ],
          [
            -75.655414,
            45.353453,
            84.5
          ],
          [
            -75.655347,
            45.353341,
            84.5
          ],
          [
            -75.655055,
            45.352857,
            86
          ],
          [
            -75.654907,
            45.352609,
            86.75
          ],
          [
            -75.65439,
            45.351663,
            88
          ],
          [
            -75.653949,
            45.350881,
            86.75
          ],
          [
            -75.653631,
            45.350339,
            88.5
          ],
          [
            -75.65189,
            45.347381,
            93.5
          ],
          [
            -75.651055,
            45.345988,
            99.25
          ],
          [
            -75.648262,
            45.341258,
            100.25
          ],
          [
            -75.647675,
            45.340238,
            101.5
          ],
          [
            -75.644016,
            45.334096,
            97
          ],
          [
            -75.643853,
            45.333833,
            97.5
          ],
          [
            -75.641068,
            45.329158,
            102.25
          ],
          [
            -75.640158,
            45.327652,
            100
          ],
          [
            -75.63673,
            45.321947,
            104.5
          ],
          [
            -75.636042,
            45.320782,
            106
          ],
          [
            -75.634825,
            45.318733,
            106
          ],
          [
            -75.633381,
            45.316317,
            104
          ],
          [
            -75.633249,
            45.316101,
            103.5
          ],
          [
            -75.632342,
            45.314551,
            104.5
          ],
          [
            -75.631675,
            45.313383,
            103
          ],
          [
            -75.63108,
            45.312336,
            104.5
          ],
          [
            -75.630648,
            45.311554,
            102.75
          ],
          [
            -75.630361,
            45.310975,
            102.25
          ],
          [
            -75.63003,
            45.310201,
            103.25
          ],
          [
            -75.629825,
            45.309646,
            104.75
          ],
          [
            -75.629672,
            45.309173,
            105.75
          ],
          [
            -75.629442,
            45.308326,
            105.5
          ],
          [
            -75.629308,
            45.307696,
            104.25
          ],
          [
            -75.629243,
            45.30732,
            103.75
          ],
          [
            -75.628934,
            45.305171,
            105.5
          ],
          [
            -75.628836,
            45.304453,
            106.75
          ],
          [
            -75.628643,
            45.302982,
            110.75
          ],
          [
            -75.62863,
            45.302885,
            110.75
          ],
          [
            -75.628613,
            45.302646,
            111
          ],
          [
            -75.628509,
            45.301526,
            109.75
          ],
          [
            -75.628444,
            45.30099,
            108.25
          ],
          [
            -75.628199,
            45.299377,
            107.5
          ],
          [
            -75.627901,
            45.29733,
            106.25
          ],
          [
            -75.627854,
            45.29699,
            105.75
          ],
          [
            -75.627854,
            45.296676,
            105.5
          ],
          [
            -75.627891,
            45.296443,
            105
          ],
          [
            -75.627927,
            45.296298,
            104.75
          ],
          [
            -75.627976,
            45.296163,
            104.25
          ],
          [
            -75.628058,
            45.295976,
            103.75
          ],
          [
            -75.628156,
            45.295799,
            103.5
          ],
          [
            -75.628314,
            45.295573,
            104.25
          ],
          [
            -75.628499,
            45.295359,
            104.75
          ],
          [
            -75.628605,
            45.295257,
            105
          ],
          [
            -75.628733,
            45.295151,
            105.25
          ],
          [
            -75.628924,
            45.295004,
            105.5
          ],
          [
            -75.629083,
            45.294903,
            105
          ],
          [
            -75.629385,
            45.294731,
            103.75
          ],
          [
            -75.629533,
            45.294661,
            103.25
          ],
          [
            -75.629881,
            45.294516,
            102.5
          ],
          [
            -75.630569,
            45.294249,
            101.5
          ],
          [
            -75.632062,
            45.293653,
            101.25
          ],
          [
            -75.633466,
            45.293096,
            101.75
          ],
          [
            -75.635204,
            45.292407,
            98
          ],
          [
            -75.635541,
            45.292275,
            98.25
          ],
          [
            -75.636198,
            45.292014,
            97.5
          ],
          [
            -75.636464,
            45.291896,
            97.5
          ],
          [
            -75.636755,
            45.291762,
            97.75
          ],
          [
            -75.637441,
            45.291411,
            97.5
          ],
          [
            -75.637943,
            45.291113,
            97
          ],
          [
            -75.63821,
            45.29094,
            97
          ],
          [
            -75.638528,
            45.29072,
            97.25
          ],
          [
            -75.638981,
            45.290391,
            98.75
          ],
          [
            -75.639663,
            45.289911,
            99.75
          ],
          [
            -75.640126,
            45.289603,
            98.75
          ],
          [
            -75.640463,
            45.289404,
            97.25
          ],
          [
            -75.640785,
            45.289226,
            96
          ],
          [
            -75.641169,
            45.28903,
            94.75
          ],
          [
            -75.641845,
            45.288723,
            94.5
          ],
          [
            -75.646683,
            45.286746,
            95.75
          ],
          [
            -75.65081,
            45.28505,
            93.75
          ],
          [
            -75.651469,
            45.284782,
            94
          ],
          [
            -75.651882,
            45.284635,
            94
          ],
          [
            -75.652146,
            45.284554,
            93.75
          ],
          [
            -75.652429,
            45.284478,
            93.5
          ],
          [
            -75.653571,
            45.284217,
            91
          ],
          [
            -75.65406,
            45.284089,
            91
          ],
          [
            -75.654271,
            45.284025,
            91
          ],
          [
            -75.654779,
            45.283839,
            91.25
          ],
          [
            -75.654995,
            45.283747,
            91.5
          ],
          [
            -75.65518,
            45.283659,
            91.75
          ],
          [
            -75.655404,
            45.283538,
            92.5
          ],
          [
            -75.655673,
            45.283381,
            93.5
          ],
          [
            -75.655899,
            45.283227,
            93.5
          ],
          [
            -75.656124,
            45.28306,
            92.75
          ],
          [
            -75.656304,
            45.282907,
            92
          ],
          [
            -75.656488,
            45.282726,
            91.5
          ],
          [
            -75.656816,
            45.282387,
            90.75
          ],
          [
            -75.657414,
            45.281749,
            94.75
          ],
          [
            -75.657641,
            45.281537,
            95
          ],
          [
            -75.657843,
            45.281367,
            94
          ],
          [
            -75.658041,
            45.281221,
            93.25
          ],
          [
            -75.65836,
            45.28101,
            92.5
          ],
          [
            -75.658651,
            45.280846,
            90.5
          ],
          [
            -75.658941,
            45.280702,
            90.5
          ],
          [
            -75.659557,
            45.280439,
            92
          ],
          [
            -75.665185,
            45.2781,
            90.75
          ],
          [
            -75.665423,
            45.278001,
            91.25
          ],
          [
            -75.665431,
            45.277998
          ],
          [
            -75.665453,
            45.277989
          ],
          [
            -75.665614,
            45.277922
          ],
          [
            -75.665781,
            45.277853
          ],
          [
            -75.66708,
            45.277316,
            91.25
          ],
          [
            -75.665781,
            45.277853,
            91.25
          ],
          [
            -75.665614,
            45.277922,
            91.25
          ],
          [
            -75.665407,
            45.277983,
            91.25
          ],
          [
            -75.665189,
            45.278052,
            90.75
          ],
          [
            -75.665066,
            45.278103,
            90.5
          ],
          [
            -75.662857,
            45.279023,
            89.75
          ],
          [
            -75.661097,
            45.279747,
            92.5
          ],
          [
            -75.661047,
            45.279768,
            92.5
          ],
          [
            -75.659232,
            45.280524,
            90.75
          ],
          [
            -75.658971,
            45.280639,
            90.5
          ],
          [
            -75.658725,
            45.280755,
            90.5
          ],
          [
            -75.658499,
            45.280876,
            91
          ],
          [
            -75.658302,
            45.280993,
            92.25
          ],
          [
            -75.65805,
            45.281154,
            92.75
          ],
          [
            -75.657806,
            45.281336,
            93.5
          ],
          [
            -75.657589,
            45.281518,
            94.5
          ],
          [
            -75.657387,
            45.281706,
            94.5
          ],
          [
            -75.657263,
            45.281831,
            93
          ],
          [
            -75.656771,
            45.282367,
            90.5
          ],
          [
            -75.656445,
            45.282704,
            91.5
          ],
          [
            -75.656252,
            45.282882,
            92
          ],
          [
            -75.65609,
            45.283018,
            92.5
          ],
          [
            -75.655818,
            45.283223,
            93.5
          ],
          [
            -75.655616,
            45.283355,
            93.25
          ],
          [
            -75.655404,
            45.28348,
            92.5
          ],
          [
            -75.655121,
            45.283632,
            91.75
          ],
          [
            -75.654943,
            45.283717,
            91.5
          ],
          [
            -75.654568,
            45.28387,
            91.25
          ],
          [
            -75.654375,
            45.28394,
            91.25
          ],
          [
            -75.654118,
            45.284022,
            91
          ],
          [
            -75.653869,
            45.284092,
            91
          ],
          [
            -75.653485,
            45.284189,
            91
          ],
          [
            -75.652484,
            45.284417,
            93.5
          ],
          [
            -75.652137,
            45.284508,
            93.75
          ],
          [
            -75.651815,
            45.284607,
            94
          ],
          [
            -75.651534,
            45.28471,
            94
          ],
          [
            -75.650785,
            45.28501,
            94
          ],
          [
            -75.649132,
            45.285693,
            94.75
          ],
          [
            -75.641856,
            45.288675,
            94.75
          ],
          [
            -75.64132,
            45.288906,
            94.75
          ],
          [
            -75.640882,
            45.289119,
            95.75
          ],
          [
            -75.640484,
            45.289338,
            97.25
          ],
          [
            -75.640093,
            45.289568,
            99
          ],
          [
            -75.639503,
            45.289964,
            99.75
          ],
          [
            -75.6382,
            45.29089,
            97
          ],
          [
            -75.637944,
            45.291055,
            97
          ],
          [
            -75.637476,
            45.291333,
            97.5
          ],
          [
            -75.637257,
            45.291454,
            97.75
          ],
          [
            -75.636856,
            45.291661,
            97.75
          ],
          [
            -75.636429,
            45.291862,
            97.5
          ],
          [
            -75.636181,
            45.291971,
            97.5
          ],
          [
            -75.635521,
            45.292238,
            98
          ],
          [
            -75.635181,
            45.29237,
            98
          ],
          [
            -75.633434,
            45.293064,
            102
          ],
          [
            -75.632034,
            45.29362,
            101.25
          ],
          [
            -75.630639,
            45.294169,
            101.5
          ],
          [
            -75.629695,
            45.294545,
            103
          ],
          [
            -75.629494,
            45.294631,
            103.25
          ],
          [
            -75.629326,
            45.294711,
            104
          ],
          [
            -75.629109,
            45.294829,
            104.75
          ],
          [
            -75.628904,
            45.294962,
            105.5
          ],
          [
            -75.628705,
            45.295112,
            105.5
          ],
          [
            -75.628511,
            45.295283,
            105.25
          ],
          [
            -75.628335,
            45.295466,
            104.75
          ],
          [
            -75.628234,
            45.295591,
            104.25
          ],
          [
            -75.628056,
            45.295855,
            103.5
          ],
          [
            -75.627962,
            45.296049,
            104.25
          ],
          [
            -75.627881,
            45.29626,
            104.75
          ],
          [
            -75.627847,
            45.296373,
            105
          ],
          [
            -75.627812,
            45.296534,
            105.25
          ],
          [
            -75.62779,
            45.296746,
            105.5
          ],
          [
            -75.627796,
            45.297011,
            106
          ],
          [
            -75.627845,
            45.29735,
            106.25
          ],
          [
            -75.628027,
            45.298614,
            105.75
          ],
          [
            -75.628166,
            45.299434,
            107.25
          ],
          [
            -75.628358,
            45.300733,
            107.75
          ],
          [
            -75.628439,
            45.301447,
            109.75
          ],
          [
            -75.62855,
            45.302644,
            111.25
          ],
          [
            -75.628579,
            45.302957,
            111
          ],
          [
            -75.628728,
            45.3041,
            107.5
          ],
          [
            -75.628904,
            45.305297,
            105
          ],
          [
            -75.629064,
            45.306504,
            102.75
          ],
          [
            -75.629172,
            45.307252,
            103.5
          ],
          [
            -75.629309,
            45.308029,
            105
          ],
          [
            -75.629388,
            45.308376,
            105.5
          ],
          [
            -75.629505,
            45.308818,
            105.75
          ],
          [
            -75.629752,
            45.309607,
            104.75
          ],
          [
            -75.629976,
            45.310219,
            103.25
          ],
          [
            -75.630104,
            45.310524,
            102.75
          ],
          [
            -75.630318,
            45.310996,
            102.25
          ],
          [
            -75.630587,
            45.311553,
            102.5
          ],
          [
            -75.63134,
            45.312911,
            104.25
          ],
          [
            -75.631626,
            45.313402,
            102.75
          ],
          [
            -75.632288,
            45.314559,
            104.25
          ],
          [
            -75.63257,
            45.315052,
            104.5
          ],
          [
            -75.633199,
            45.316119,
            103.5
          ],
          [
            -75.633328,
            45.316336,
            104
          ],
          [
            -75.633723,
            45.316987,
            104.75
          ],
          [
            -75.63414,
            45.3177,
            105.25
          ],
          [
            -75.634485,
            45.318246,
            105.5
          ],
          [
            -75.634684,
            45.318603,
            105.75
          ],
          [
            -75.635126,
            45.31936,
            106.75
          ],
          [
            -75.635434,
            45.319867,
            106.75
          ],
          [
            -75.635683,
            45.320254,
            106.5
          ],
          [
            -75.636042,
            45.320782,
            106
          ],
          [
            -75.63673,
            45.321947,
            104.5
          ],
          [
            -75.640158,
            45.327652,
            100
          ],
          [
            -75.641068,
            45.329158,
            102.25
          ],
          [
            -75.643853,
            45.333833,
            97.5
          ],
          [
            -75.644016,
            45.334096,
            97
          ],
          [
            -75.647675,
            45.340238,
            101.5
          ],
          [
            -75.648262,
            45.341258,
            100.25
          ],
          [
            -75.651055,
            45.345988,
            99.25
          ],
          [
            -75.65189,
            45.347381,
            93.5
          ],
          [
            -75.653631,
            45.350339,
            88.5
          ],
          [
            -75.653949,
            45.350881,
            86.75
          ],
          [
            -75.65439,
            45.351663,
            88
          ],
          [
            -75.654907,
            45.352609,
            86.75
          ],
          [
            -75.655055,
            45.352857,
            86
          ],
          [
            -75.655347,
            45.353341,
            84.5
          ],
          [
            -75.655607,
            45.353778,
            83.75
          ],
          [
            -75.655709,
            45.353948,
            82.75
          ],
          [
            -75.655875,
            45.354226,
            82.75
          ],
          [
            -75.656142,
            45.354662,
            83
          ],
          [
            -75.656438,
            45.355168,
            83.25
          ],
          [
            -75.656782,
            45.355733,
            82.75
          ],
          [
            -75.657713,
            45.357194,
            83.25
          ],
          [
            -75.658139,
            45.357879,
            82.25
          ],
          [
            -75.658849,
            45.359098,
            81.5
          ],
          [
            -75.65911,
            45.359547,
            80.5
          ],
          [
            -75.659337,
            45.359945,
            79.25
          ],
          [
            -75.659388,
            45.360035,
            79.25
          ],
          [
            -75.660189,
            45.361423,
            78.5
          ],
          [
            -75.660362,
            45.361723,
            78.25
          ],
          [
            -75.660788,
            45.362475,
            78.75
          ],
          [
            -75.662657,
            45.365729,
            81.5
          ],
          [
            -75.662704,
            45.3658,
            81.5
          ],
          [
            -75.662898,
            45.3661,
            82
          ],
          [
            -75.663107,
            45.36636,
            82
          ],
          [
            -75.663387,
            45.366661,
            81.75
          ],
          [
            -75.663615,
            45.366892,
            82.5
          ],
          [
            -75.664141,
            45.367368,
            84.25
          ],
          [
            -75.664799,
            45.3679,
            82
          ],
          [
            -75.665732,
            45.368656,
            83
          ],
          [
            -75.666091,
            45.368939,
            82.75
          ],
          [
            -75.666507,
            45.369234,
            82.75
          ],
          [
            -75.666797,
            45.369425,
            82.25
          ],
          [
            -75.667211,
            45.369668,
            81.25
          ],
          [
            -75.667578,
            45.369868,
            80.5
          ],
          [
            -75.667975,
            45.370062,
            79.25
          ],
          [
            -75.668413,
            45.370257,
            78.5
          ],
          [
            -75.669035,
            45.370507,
            77
          ],
          [
            -75.67507,
            45.372928,
            76
          ],
          [
            -75.675922,
            45.373298,
            76.5
          ],
          [
            -75.677478,
            45.373974,
            73.5
          ],
          [
            -75.677683,
            45.374052,
            72.5
          ],
          [
            -75.678192,
            45.374261,
            69.75
          ],
          [
            -75.681564,
            45.37561,
            73.25
          ],
          [
            -75.682791,
            45.376068,
            75.5
          ],
          [
            -75.683872,
            45.376453,
            77.25
          ],
          [
            -75.684076,
            45.376536,
            77.5
          ],
          [
            -75.68489,
            45.376865,
            77.5
          ],
          [
            -75.68546,
            45.377093,
            78
          ],
          [
            -75.686208,
            45.377396,
            78.25
          ],
          [
            -75.687288,
            45.377825,
            75.5
          ],
          [
            -75.69243,
            45.379882,
            70.75
          ],
          [
            -75.69264,
            45.379966,
            70.25
          ],
          [
            -75.693006,
            45.380126,
            68.75
          ],
          [
            -75.693205,
            45.380222,
            67.5
          ],
          [
            -75.69341,
            45.380336,
            66.75
          ],
          [
            -75.693783,
            45.380579,
            66
          ],
          [
            -75.694052,
            45.380797,
            64.25
          ],
          [
            -75.694386,
            45.381144,
            60.75
          ],
          [
            -75.694533,
            45.381334,
            59
          ],
          [
            -75.694684,
            45.381549,
            57
          ],
          [
            -75.695276,
            45.382431,
            59.5
          ],
          [
            -75.695345,
            45.382534,
            60.25
          ],
          [
            -75.695366,
            45.382567,
            60.5
          ],
          [
            -75.695588,
            45.382991,
            62.75
          ],
          [
            -75.695789,
            45.383404,
            63.75
          ],
          [
            -75.695886,
            45.383683,
            63
          ],
          [
            -75.695917,
            45.38381,
            62.75
          ],
          [
            -75.695966,
            45.384072,
            62.25
          ],
          [
            -75.695985,
            45.384285,
            62.25
          ],
          [
            -75.695982,
            45.384496,
            62.5
          ],
          [
            -75.695907,
            45.385361,
            62.75
          ],
          [
            -75.695887,
            45.385597,
            62.75
          ],
          [
            -75.69583,
            45.386226,
            62
          ],
          [
            -75.695798,
            45.386497,
            61.25
          ],
          [
            -75.695792,
            45.386704,
            60.75
          ],
          [
            -75.695804,
            45.386991,
            60
          ],
          [
            -75.695849,
            45.387252,
            59.5
          ],
          [
            -75.695909,
            45.387465,
            59.25
          ],
          [
            -75.696007,
            45.387711,
            59.75
          ],
          [
            -75.696286,
            45.388227,
            60.75
          ],
          [
            -75.696576,
            45.388738,
            60.5
          ],
          [
            -75.696766,
            45.38901,
            60.25
          ],
          [
            -75.697099,
            45.389388,
            60.75
          ],
          [
            -75.697459,
            45.389756,
            60.5
          ],
          [
            -75.697598,
            45.389884,
            60.25
          ],
          [
            -75.697907,
            45.390125,
            60
          ],
          [
            -75.698239,
            45.390344,
            59.5
          ],
          [
            -75.6984,
            45.390442,
            59.5
          ],
          [
            -75.698763,
            45.390643,
            59.5
          ],
          [
            -75.699282,
            45.390887,
            59.5
          ],
          [
            -75.699853,
            45.391113,
            59.75
          ],
          [
            -75.700724,
            45.391434,
            61
          ],
          [
            -75.702894,
            45.392233,
            64.25
          ],
          [
            -75.704367,
            45.392737,
            66.5
          ],
          [
            -75.704533,
            45.3928,
            66.75
          ],
          [
            -75.705033,
            45.39303,
            67.5
          ],
          [
            -75.705534,
            45.393294,
            68.25
          ],
          [
            -75.705729,
            45.393417,
            68.75
          ],
          [
            -75.705837,
            45.393479,
            68.75
          ],
          [
            -75.706421,
            45.393863,
            67
          ],
          [
            -75.70663,
            45.394009,
            66.25
          ],
          [
            -75.707048,
            45.394323,
            65.5
          ],
          [
            -75.707379,
            45.394594,
            65.75
          ],
          [
            -75.70796,
            45.395155,
            63.75
          ],
          [
            -75.708194,
            45.395409,
            62.25
          ],
          [
            -75.708366,
            45.395621,
            61
          ],
          [
            -75.708699,
            45.396073,
            60
          ],
          [
            -75.709013,
            45.396557,
            60
          ],
          [
            -75.709202,
            45.396869,
            60.25
          ],
          [
            -75.7095,
            45.39736,
            61
          ],
          [
            -75.709935,
            45.398087,
            60.25
          ],
          [
            -75.711294,
            45.400349,
            61
          ],
          [
            -75.711803,
            45.401228,
            60.25
          ],
          [
            -75.711986,
            45.401542,
            59.5
          ],
          [
            -75.712217,
            45.401914,
            59.5
          ],
          [
            -75.712528,
            45.402326,
            59.25
          ],
          [
            -75.713245,
            45.40314,
            59.75
          ],
          [
            -75.713425,
            45.403315,
            59.25
          ],
          [
            -75.713711,
            45.403557,
            59.75
          ],
          [
            -75.714083,
            45.403849,
            60.5
          ],
          [
            -75.714465,
            45.404125,
            60.5
          ],
          [
            -75.715186,
            45.404655,
            59.25
          ],
          [
            -75.715286,
            45.404716,
            59.25
          ],
          [
            -75.715793,
            45.405081,
            58
          ],
          [
            -75.716629,
            45.405645,
            57.75
          ],
          [
            -75.718012,
            45.40652,
            58.75
          ],
          [
            -75.718214,
            45.406648,
            58.75
          ],
          [
            -75.718484,
            45.406832,
            58.75
          ],
          [
            -75.719007,
            45.407251,
            58
          ],
          [
            -75.719387,
            45.407543,
            56.5
          ],
          [
            -75.719873,
            45.407861,
            56.75
          ],
          [
            -75.720378,
            45.408193,
            56.75
          ],
          [
            -75.720872,
            45.408548,
            57.25
          ],
          [
            -75.721027,
            45.408619,
            57.25
          ],
          [
            -75.721245,
            45.408746,
            57.25
          ],
          [
            -75.721433,
            45.408878,
            57
          ],
          [
            -75.722014,
            45.409284,
            56
          ],
          [
            -75.722372,
            45.409535,
            56.25
          ]
        ]
      }
    }
  ]
}