{
  "type": "FeatureCollection",
  "features": [
    {
      "type": "Feature",
      "properties": {
        "creator": "BRouter-1.7.0",
        "name": "[OC Transpo] O-Train Line 1",
        "track-length": "24902",
        "filtered ascend": "35",
        "plain-ascend": "-4",
        "total-time": "1992",
        "total-energy": "1088180",
        "cost": "24902",
        "messages": [
          [
            "Longitude",
            "Latitude",
            "Elevation",
            "Distance",
            "CostPerKm",
            "ElevCost",
            "TurnCost",
            "NodeCost",
            "InitialCost",
            "WayTags",
            "NodeTags",
            "Time",
            "Energy"
          ],
          [
            "-75608419",
            "45431128",
            "73",
            "38",
            "1000",
            "0",
            "0",
            "0",
            "0",
            "reversedirection=yes railway=light_rail",
            "railway=unknown",
            "3",
            "1721"
          ],
          [
            "-75609137",
            "45430647",
            "72",
            "78",
            "1000",
            "0",
            "0",
            "0",
            "0",
            "reversedirection=yes railway=light_rail",
            "railway=switch",
            "9",
            "4620"
          ],
          [
            "-75610980",
            "45429572",
            "71",
            "187",
            "1000",
            "0",
            "0",
            "0",
            "0",
            "reversedirection=yes railway=light_rail",
            "railway=switch",
            "24",
            "11681"
          ],
          [
            "-75613033",
            "45428530",
            "70",
            "198",
            "1000",
            "0",
            "0",
            "0",
            "0",
            "reversedirection=yes railway=light_rail",
            "",
            "40",
            "19336"
          ],
          [
            "-75613246",
            "45428421",
            "70",
            "21",
            "1000",
            "0",
            "0",
            "0",
            "0",
            "railway=light_rail",
            "",
            "41",
            "20311"
          ],
          [
            "-75615957",
            "45427009",
            "66",
            "264",
            "1000",
            "0",
            "0",
            "0",
            "0",
            "reversedirection=yes railway=light_rail",
            "",
            "62",
            "31308"
          ],
          [
            "-75616367",
            "45426793",
            "66",
            "40",
            "1000",
            "0",
            "0",
            "0",
            "0",
            "railway=light_rail",
            "",
            "66",
            "33052"
          ],
          [
            "-75623108",
            "45424889",
            "69",
            "583",
            "1000",
            "0",
            "0",
            "0",
            "0",
            "reversedirection=yes railway=light_rail",
            "",
            "112",
            "57819"
          ],
          [
            "-75624188",
            "45424600",
            "68",
            "91",
            "1000",
            "0",
            "0",
            "0",
            "0",
            "railway=light_rail",
            "",
            "120",
            "62072"
          ],
          [
            "-75624403",
            "45424503",
            "68",
            "20",
            "1000",
            "0",
            "0",
            "0",
            "0",
            "reversedirection=yes railway=light_rail",
            "",
            "121",
            "62860"
          ],
          [
            "-75625534",
            "45423712",
            "68",
            "124",
            "1000",
            "0",
            "0",
            "0",
            "0",
            "railway=light_rail",
            "",
            "131",
            "67704"
          ],
          [
            "-75626440",
            "45422702",
            "68",
            "132",
            "1000",
            "0",
            "0",
            "0",
            "0",
            "reversedirection=yes railway=light_rail",
            "railway=unknown",
            "142",
            "73418"
          ],
          [
            "-75634590",
            "45420858",
            "65",
            "704",
            "1000",
            "0",
            "0",
            "0",
            "0",
            "reversedirection=yes railway=light_rail",
            "",
            "198",
            "104990"
          ],
          [
            "-75635776",
            "45420794",
            "65",
            "93",
            "1000",
            "0",
            "0",
            "0",
            "0",
            "railway=light_rail",
            "",
            "205",
            "108619"
          ],
          [
            "-75637388",
            "45420677",
            "65",
            "127",
            "1000",
            "0",
            "0",
            "0",
            "0",
            "reversedirection=yes railway=light_rail",
            "railway=unknown",
            "216",
            "113988"
          ],
          [
            "-75638740",
            "45420562",
            "65",
            "107",
            "1000",
            "0",
            "0",
            "0",
            "0",
            "reversedirection=yes railway=light_rail",
            "",
            "224",
            "118639"
          ],
          [
            "-75639371",
            "45420356",
            "65",
            "54",
            "1000",
            "0",
            "0",
            "0",
            "0",
            "railway=light_rail",
            "",
            "228",
            "121002"
          ],
          [
            "-75642148",
            "45419427",
            "65",
            "251",
            "1000",
            "0",
            "0",
            "0",
            "0",
            "reversedirection=yes railway=light_rail",
            "railway=switch",
            "248",
            "130443"
          ],
          [
            "-75642600",
            "45419395",
            "65",
            "36",
            "1000",
            "0",
            "0",
            "0",
            "0",
            "reversedirection=yes railway=light_rail",
            "railway=switch",
            "251",
            "131704"
          ],
          [
            "-75649090",
            "45418932",
            "61",
            "56",
            "1000",
            "0",
            "0",
            "0",
            "0",
            "reversedirection=yes railway=light_rail",
            "",
            "256",
            "133659"
          ],
          [
            "-75649090",
            "45418932",
            "61",
            "454",
            "1000",
            "0",
            "0",
            "0",
            "0",
            "reversedirection=yes railway=light_rail",
            "railway=switch",
            "36",
            "17348"
          ],
          [
            "-75649815",
            "45418857",
            "59",
            "58",
            "1000",
            "0",
            "0",
            "0",
            "0",
            "reversedirection=yes railway=light_rail",
            "",
            "40",
            "19432"
          ],
          [
            "-75650285",
            "45418691",
            "58",
            "41",
            "1000",
            "0",
            "0",
            "0",
            "0",
            "railway=light_rail",
            "",
            "44",
            "20596"
          ],
          [
            "-75652674",
            "45417287",
            "59",
            "246",
            "1000",
            "0",
            "0",
            "0",
            "0",
            "reversedirection=yes railway=light_rail",
            "",
            "63",
            "30561"
          ],
          [
            "-75652860",
            "45417202",
            "59",
            "17",
            "1000",
            "0",
            "0",
            "0",
            "0",
            "railway=light_rail",
            "",
            "65",
            "31370"
          ],
          [
            "-75653668",
            "45416781",
            "60",
            "79",
            "1000",
            "0",
            "0",
            "0",
            "0",
            "reversedirection=yes railway=light_rail",
            "railway=unknown",
            "71",
            "35452"
          ],
          [
            "-75659343",
            "45415287",
            "59",
            "488",
            "1000",
            "0",
            "0",
            "0",
            "0",
            "reversedirection=yes railway=light_rail",
            "",
            "110",
            "56952"
          ],
          [
            "-75660247",
            "45414742",
            "58",
            "95",
            "1000",
            "0",
            "0",
            "0",
            "0",
            "railway=light_rail",
            "",
            "118",
            "60183"
          ],
          [
            "-75664246",
            "45412378",
            "57",
            "473",
            "1000",
            "0",
            "0",
            "0",
            "0",
            "reversedirection=yes railway=light_rail",
            "railway=unknown",
            "156",
            "77892"
          ],
          [
            "-75669480",
            "45415780",
            "61",
            "661",
            "1000",
            "0",
            "0",
            "0",
            "0",
            "reversedirection=yes railway=light_rail",
            "",
            "208",
            "114010"
          ],
          [
            "-75669901",
            "45416155",
            "57",
            "53",
            "1000",
            "0",
            "0",
            "0",
            "0",
            "railway=light_rail",
            "",
            "213",
            "115657"
          ],
          [
            "-75670899",
            "45416548",
            "57",
            "89",
            "1000",
            "0",
            "0",
            "0",
            "0",
            "reversedirection=yes railway=light_rail",
            "railway=unknown",
            "220",
            "118517"
          ],
          [
            "-75673267",
            "45417469",
            "60",
            "212",
            "1000",
            "0",
            "0",
            "0",
            "0",
            "reversedirection=yes railway=light_rail",
            "",
            "237",
            "127232"
          ],
          [
            "-75673944",
            "45417706",
            "61",
            "59",
            "1000",
            "0",
            "0",
            "0",
            "0",
            "railway=light_rail",
            "",
            "242",
            "129987"
          ],
          [
            "-75676844",
            "45418574",
            "59",
            "247",
            "1000",
            "0",
            "0",
            "0",
            "0",
            "reversedirection=yes railway=light_rail",
            "",
            "261",
            "139417"
          ],
          [
            "-75677400",
            "45418716",
            "59",
            "46",
            "1000",
            "0",
            "0",
            "0",
            "0",
            "railway=light_rail",
            "",
            "265",
            "141472"
          ],
          [
            "-75682349",
            "45420581",
            "68",
            "444",
            "1000",
            "0",
            "0",
            "0",
            "0",
            "reversedirection=yes railway=light_rail",
            "railway=unknown",
            "300",
            "166067"
          ],
          [
            "-75682962",
            "45420910",
            "72",
            "60",
            "1000",
            "0",
            "0",
            "0",
            "0",
            "reversedirection=yes railway=light_rail",
            "",
            "305",
            "170052"
          ],
          [
            "-75683304",
            "45421082",
            "72",
            "33",
            "1000",
            "0",
            "0",
            "0",
            "0",
            "railway=light_rail",
            "",
            "308",
            "172260"
          ],
          [
            "-75684565",
            "45421723",
            "70",
            "108",
            "1000",
            "0",
            "0",
            "0",
            "0",
            "reversedirection=yes railway=light_rail",
            "",
            "317",
            "178270"
          ],
          [
            "-75687958",
            "45426149",
            "-8192",
            "579",
            "1000",
            "0",
            "0",
            "0",
            "0",
            "reversedirection=yes railway=light_rail",
            "",
            "46",
            "24807"
          ],
          [
            "-75690582",
            "45426708",
            "-8192",
            "241",
            "1000",
            "0",
            "0",
            "0",
            "0",
            "railway=light_rail",
            "",
            "65",
            "35405"
          ],
          [
            "-75691504",
            "45426314",
            "-8192",
            "85",
            "1000",
            "0",
            "0",
            "0",
            "0",
            "reversedirection=yes railway=light_rail",
            "railway=unknown",
            "72",
            "39144"
          ],
          [
            "-75693774",
            "45425302",
            "-8192",
            "210",
            "1000",
            "0",
            "0",
            "0",
            "0",
            "reversedirection=yes railway=light_rail",
            "",
            "89",
            "48381"
          ],
          [
            "-75694471",
            "45424666",
            "-8192",
            "90",
            "1000",
            "0",
            "0",
            "0",
            "0",
            "railway=light_rail",
            "",
            "96",
            "52340"
          ],
          [
            "-75699103",
            "45421298",
            "-8192",
            "546",
            "1000",
            "0",
            "0",
            "0",
            "0",
            "reversedirection=yes railway=light_rail",
            "railway=unknown",
            "140",
            "76356"
          ],
          [
            "-75701992",
            "45420054",
            "-8192",
            "246",
            "1000",
            "0",
            "0",
            "0",
            "0",
            "reversedirection=yes railway=light_rail",
            "",
            "159",
            "87176"
          ],
          [
            "-75704764",
            "45418860",
            "-8192",
            "273",
            "1000",
            "0",
            "0",
            "0",
            "0",
            "reversedirection=yes railway=light_rail",
            "railway=unknown",
            "21",
            "12007"
          ],
          [
            "-75709254",
            "45416957",
            "-8192",
            "410",
            "1000",
            "0",
            "0",
            "0",
            "0",
            "reversedirection=yes railway=light_rail",
            "",
            "54",
            "30041"
          ],
          [
            "-75711204",
            "45414606",
            "58",
            "307",
            "1000",
            "0",
            "0",
            "0",
            "0",
            "railway=light_rail",
            "",
            "79",
            "43545"
          ],
          [
            "-75713469",
            "45413726",
            "53",
            "205",
            "1000",
            "0",
            "0",
            "0",
            "0",
            "reversedirection=yes railway=light_rail",
            "railway=unknown",
            "95",
            "51547"
          ],
          [
            "-75718571",
            "45412019",
            "53",
            "443",
            "1000",
            "0",
            "0",
            "0",
            "0",
            "reversedirection=yes railway=light_rail",
            "",
            "131",
            "67262"
          ],
          [
            "-75719046",
            "45411754",
            "55",
            "48",
            "1000",
            "0",
            "0",
            "0",
            "0",
            "railway=light_rail",
            "",
            "134",
            "70248"
          ],
          [
            "-75722150",
            "45409362",
            "56",
            "362",
            "1000",
            "0",
            "0",
            "0",
            "0",
            "reversedirection=yes railway=light_rail",
            "railway=unknown",
            "163",
            "88567"
          ],
          [
            "-75733932",
            "45404297",
            "60",
            "1081",
            "1000",
            "0",
            "0",
            "0",
            "0",
            "reversedirection=yes railway=light_rail",
            "railway=switch",
            "250",
            "139599"
          ],
          [
            "-75734447",
            "45404079",
            "58",
            "23",
            "1000",
            "0",
            "0",
            "0",
            "0",
            "reversedirection=yes railway=light_rail",
            "",
            "252",
            "140478"
          ],
          [
            "-75734447",
            "45404079",
            "58",
            "24",
            "1000",
            "0",
            "0",
            "0",
            "0",
            "reversedirection=yes railway=light_rail",
            "railway=switch",
            "1",
            "867"
          ],
          [
            "-75735237",
            "45403744",
            "57",
            "72",
            "1000",
            "0",
            "0",
            "0",
            "0",
            "reversedirection=yes railway=light_rail",
            "railway=unknown",
            "7",
            "3174"
          ],
          [
            "-75736030",
            "45403407",
            "56",
            "44",
            "1000",
            "0",
            "0",
            "0",
            "0",
            "reversedirection=yes railway=light_rail",
            "",
            "11",
            "4623"
          ],
          [
            "-75735237",
            "45403744",
            "57",
            "44",
            "1000",
            "0",
            "0",
            "0",
            "0",
            "railway=light_rail",
            "railway=unknown",
            "3",
            "2171"
          ],
          [
            "-75734447",
            "45404079",
            "58",
            "72",
            "1000",
            "0",
            "0",
            "0",
            "0",
            "railway=light_rail",
            "railway=switch",
            "9",
            "5995"
          ],
          [
            "-75733904",
            "45404268",
            "60",
            "48",
            "1000",
            "0",
            "0",
            "0",
            "0",
            "railway=light_rail",
            "railway=switch",
            "13",
            "8937"
          ],
          [
            "-75732254",
            "45404948",
            "62",
            "98",
            "1000",
            "0",
            "0",
            "0",
            "0",
            "railway=light_rail",
            "",
            "20",
            "13959"
          ],
          [
            "-75722115",
            "45409337",
            "57",
            "983",
            "1000",
            "0",
            "0",
            "0",
            "0",
            "railway=light_rail",
            "railway=unknown",
            "78",
            "38222"
          ],
          [
            "-75719008",
            "45411730",
            "55",
            "361",
            "1000",
            "0",
            "0",
            "0",
            "0",
            "railway=light_rail",
            "",
            "107",
            "53626"
          ],
          [
            "-75718547",
            "45411987",
            "53",
            "46",
            "1000",
            "0",
            "0",
            "0",
            "0",
            "reversedirection=yes railway=light_rail",
            "",
            "111",
            "55005"
          ],
          [
            "-75713404",
            "45413619",
            "54",
            "440",
            "1000",
            "0",
            "0",
            "0",
            "0",
            "railway=light_rail",
            "railway=unknown",
            "146",
            "72486"
          ],
          [
            "-75704742",
            "45418831",
            "-8192",
            "922",
            "1000",
            "0",
            "0",
            "0",
            "0",
            "railway=light_rail",
            "railway=unknown",
            "220",
            "117073"
          ],
          [
            "-75701502",
            "45420227",
            "-8192",
            "276",
            "1000",
            "0",
            "0",
            "0",
            "0",
            "railway=light_rail",
            "",
            "242",
            "129214"
          ],
          [
            "-75699075",
            "45421272",
            "-8192",
            "244",
            "1000",
            "0",
            "0",
            "0",
            "0",
            "railway=light_rail",
            "railway=unknown",
            "19",
            "10732"
          ],
          [
            "-75694428",
            "45424654",
            "-8192",
            "548",
            "1000",
            "0",
            "0",
            "0",
            "0",
            "railway=light_rail",
            "",
            "63",
            "34836"
          ],
          [
            "-75693747",
            "45425276",
            "75",
            "89",
            "1000",
            "0",
            "0",
            "0",
            "0",
            "reversedirection=yes railway=light_rail",
            "",
            "70",
            "38751"
          ],
          [
            "-75691480",
            "45426287",
            "74",
            "210",
            "1000",
            "0",
            "0",
            "0",
            "0",
            "railway=light_rail",
            "railway=unknown",
            "87",
            "47987"
          ],
          [
            "-75690560",
            "45426680",
            "73",
            "84",
            "1000",
            "0",
            "0",
            "0",
            "0",
            "railway=light_rail",
            "",
            "94",
            "51682"
          ],
          [
            "-75688000",
            "45426134",
            "72",
            "232",
            "1000",
            "0",
            "0",
            "0",
            "0",
            "reversedirection=yes railway=light_rail",
            "",
            "112",
            "61887"
          ],
          [
            "-75684302",
            "45421542",
            "70",
            "582",
            "1000",
            "0",
            "0",
            "0",
            "0",
            "railway=light_rail",
            "",
            "159",
            "85751"
          ],
          [
            "-75683331",
            "45421054",
            "72",
            "110",
            "1000",
            "0",
            "0",
            "0",
            "0",
            "railway=light_rail",
            "",
            "8",
            "5851"
          ],
          [
            "-75682990",
            "45420883",
            "72",
            "33",
            "1000",
            "0",
            "0",
            "0",
            "0",
            "reversedirection=yes railway=light_rail",
            "",
            "11",
            "7452"
          ],
          [
            "-75682371",
            "45420551",
            "68",
            "60",
            "1000",
            "0",
            "0",
            "0",
            "0",
            "railway=light_rail",
            "railway=unknown",
            "16",
            "9138"
          ],
          [
            "-75677416",
            "45418682",
            "59",
            "445",
            "1000",
            "0",
            "0",
            "0",
            "0",
            "railway=light_rail",
            "",
            "51",
            "23247"
          ],
          [
            "-75676864",
            "45418541",
            "59",
            "46",
            "1000",
            "0",
            "0",
            "0",
            "0",
            "reversedirection=yes railway=light_rail",
            "",
            "55",
            "24685"
          ],
          [
            "-75673965",
            "45417673",
            "61",
            "246",
            "1000",
            "0",
            "0",
            "0",
            "0",
            "railway=light_rail",
            "",
            "75",
            "33579"
          ],
          [
            "-75673289",
            "45417442",
            "60",
            "59",
            "1000",
            "0",
            "0",
            "0",
            "0",
            "reversedirection=yes railway=light_rail",
            "",
            "79",
            "35898"
          ],
          [
            "-75670924",
            "45416519",
            "57",
            "212",
            "1000",
            "0",
            "0",
            "0",
            "0",
            "railway=light_rail",
            "railway=unknown",
            "96",
            "44919"
          ],
          [
            "-75669943",
            "45416126",
            "57",
            "88",
            "1000",
            "0",
            "0",
            "0",
            "0",
            "railway=light_rail",
            "",
            "103",
            "47368"
          ],
          [
            "-75669518",
            "45415760",
            "61",
            "52",
            "1000",
            "0",
            "0",
            "0",
            "0",
            "reversedirection=yes railway=light_rail",
            "",
            "108",
            "49929"
          ],
          [
            "-75664241",
            "45412342",
            "57",
            "661",
            "1000",
            "0",
            "0",
            "0",
            "0",
            "railway=light_rail",
            "railway=unknown",
            "160",
            "79441"
          ],
          [
            "-75660199",
            "45414729",
            "58",
            "481",
            "1000",
            "0",
            "0",
            "0",
            "0",
            "railway=light_rail",
            "",
            "199",
            "99240"
          ],
          [
            "-75659333",
            "45415252",
            "59",
            "90",
            "1000",
            "0",
            "0",
            "0",
            "0",
            "reversedirection=yes railway=light_rail",
            "",
            "206",
            "103459"
          ],
          [
            "-75657686",
            "45415400",
            "58",
            "88",
            "1000",
            "0",
            "0",
            "0",
            "0",
            "railway=light_rail",
            "",
            "213",
            "107613"
          ],
          [
            "-75653637",
            "45416752",
            "60",
            "401",
            "1000",
            "0",
            "0",
            "0",
            "0",
            "railway=light_rail",
            "railway=unknown",
            "32",
            "19202"
          ],
          [
            "-75652831",
            "45417173",
            "59",
            "79",
            "1000",
            "0",
            "0",
            "0",
            "0",
            "railway=light_rail",
            "",
            "38",
            "22334"
          ],
          [
            "-75652648",
            "45417256",
            "59",
            "17",
            "1000",
            "0",
            "0",
            "0",
            "0",
            "reversedirection=yes railway=light_rail",
            "",
            "39",
            "22925"
          ],
          [
            "-75650248",
            "45418664",
            "58",
            "245",
            "1000",
            "0",
            "0",
            "0",
            "0",
            "railway=light_rail",
            "",
            "59",
            "32573"
          ],
          [
            "-75649805",
            "45418822",
            "59",
            "39",
            "1000",
            "0",
            "0",
            "0",
            "0",
            "reversedirection=yes railway=light_rail",
            "",
            "62",
            "34457"
          ],
          [
            "-75648704",
            "45418923",
            "61",
            "87",
            "1000",
            "0",
            "0",
            "0",
            "0",
            "railway=light_rail",
            "railway=switch",
            "69",
            "39531"
          ],
          [
            "-75648202",
            "45418958",
            "62",
            "39",
            "1000",
            "0",
            "0",
            "0",
            "0",
            "railway=light_rail",
            "railway=switch",
            "72",
            "41665"
          ],
          [
            "-75644947",
            "45419192",
            "64",
            "256",
            "1000",
            "0",
            "0",
            "0",
            "0",
            "railway=light_rail",
            "railway=switch",
            "93",
            "53532"
          ],
          [
            "-75643183",
            "45419319",
            "65",
            "139",
            "1000",
            "0",
            "0",
            "0",
            "0",
            "railway=light_rail",
            "railway=switch",
            "104",
            "59849"
          ],
          [
            "-75641768",
            "45419422",
            "65",
            "111",
            "1000",
            "0",
            "0",
            "0",
            "0",
            "railway=light_rail",
            "railway=switch",
            "113",
            "65221"
          ],
          [
            "-75639338",
            "45420328",
            "65",
            "224",
            "1000",
            "0",
            "0",
            "0",
            "0",
            "railway=light_rail",
            "",
            "130",
            "75486"
          ],
          [
            "-75638731",
            "45420526",
            "65",
            "53",
            "1000",
            "0",
            "0",
            "0",
            "0",
            "reversedirection=yes railway=light_rail",
            "",
            "135",
            "77837"
          ],
          [
            "-75637382",
            "45420640",
            "65",
            "106",
            "1000",
            "0",
            "0",
            "0",
            "0",
            "railway=light_rail",
            "railway=unknown",
            "143",
            "82519"
          ],
          [
            "-75635789",
            "45420754",
            "65",
            "125",
            "1000",
            "0",
            "0",
            "0",
            "0",
            "railway=light_rail",
            "",
            "153",
            "89441"
          ],
          [
            "-75635095",
            "45420786",
            "65",
            "54",
            "1000",
            "0",
            "0",
            "0",
            "0",
            "reversedirection=yes railway=light_rail",
            "",
            "158",
            "91963"
          ],
          [
            "-75626284",
            "45422659",
            "68",
            "753",
            "1000",
            "0",
            "0",
            "0",
            "0",
            "railway=light_rail",
            "railway=unknown",
            "218",
            "128090"
          ],
          [
            "-75625075",
            "45423996",
            "68",
            "176",
            "1000",
            "0",
            "0",
            "0",
            "0",
            "railway=light_rail",
            "",
            "232",
            "135829"
          ],
          [
            "-75623102",
            "45424853",
            "69",
            "183",
            "1000",
            "0",
            "0",
            "0",
            "0",
            "reversedirection=yes railway=light_rail",
            "",
            "246",
            "144671"
          ],
          [
            "-75616336",
            "45426764",
            "66",
            "583",
            "1000",
            "0",
            "0",
            "0",
            "0",
            "railway=light_rail",
            "",
            "293",
            "168032"
          ],
          [
            "-75615927",
            "45426980",
            "66",
            "40",
            "1000",
            "0",
            "0",
            "0",
            "0",
            "reversedirection=yes railway=light_rail",
            "",
            "296",
            "169869"
          ],
          [
            "-75613216",
            "45428392",
            "70",
            "264",
            "1000",
            "0",
            "0",
            "0",
            "0",
            "railway=light_rail",
            "",
            "317",
            "182243"
          ],
          [
            "-75613003",
            "45428501",
            "70",
            "21",
            "1000",
            "0",
            "0",
            "0",
            "0",
            "reversedirection=yes railway=light_rail",
            "",
            "319",
            "183638"
          ],
          [
            "-75610486",
            "45429789",
            "71",
            "193",
            "1000",
            "0",
            "0",
            "0",
            "0",
            "railway=light_rail",
            "",
            "335",
            "192152"
          ],
          [
            "-75610486",
            "45429789",
            "71",
            "50",
            "1000",
            "0",
            "0",
            "0",
            "0",
            "railway=light_rail",
            "railway=switch",
            "4",
            "2372"
          ],
          [
            "-75610092",
            "45429980",
            "71",
            "37",
            "1000",
            "0",
            "0",
            "0",
            "0",
            "railway=light_rail",
            "railway=switch",
            "6",
            "4151"
          ],
          [
            "-75609137",
            "45430647",
            "72",
            "105",
            "1000",
            "0",
            "0",
            "0",
            "0",
            "railway=light_rail",
            "railway=switch",
            "15",
            "9132"
          ],
          [
            "-75608419",
            "45431128",
            "73",
            "78",
            "1000",
            "0",
            "0",
            "0",
            "0",
            "railway=light_rail",
            "railway=unknown",
            "21",
            "13397"
          ],
          [
            "-75607643",
            "45431657",
            "73",
            "38",
            "1000",
            "0",
            "0",
            "0",
            "0",
            "railway=light_rail",
            "",
            "24",
            "15285"
          ]
        ],
        "times": [
          0,
          0.96,
          3.04,
          5.84,
          9.28,
          15.04,
          17.36,
          20.24,
          24.24,
          40.08,
          41.76,
          62.88,
          66.08,
          72.08,
          80.96,
          84.24,
          85.84,
          89.12,
          92.4,
          95.68,
          97.36,
          100.64,
          102.24,
          110.32,
          112.72,
          114.8,
          116.88,
          117.92,
          118.96,
          120,
          121.6,
          124.08,
          126.56,
          129.04,
          131.52,
          133.6,
          139.84,
          142.08,
          145.52,
          147.6,
          148.64,
          150.48,
          152.16,
          152.96,
          154.64,
          156.56,
          157.92,
          171.36,
          174,
          176.8,
          179.6,
          181.04,
          182.48,
          198.4,
          200.48,
          205.84,
          216,
          221.92,
          223.28,
          224.56,
          225.28,
          226.72,
          228.16,
          228.88,
          229.68,
          230.72,
          236.56,
          238.24,
          238.96,
          239.92,
          240.8,
          242.16,
          243.2,
          244.56,
          248.96,
          251.84,
          256.32,
          292.64,
          294.48,
          296,
          297.28,
          297.92,
          299.2,
          300.56,
          302.56,
          305.28,
          310.08,
          311.92,
          313.52,
          314.56,
          320.24,
          321.6,
          323.52,
          327.92,
          328.88,
          341.92,
          342.96,
          344.64,
          345.52,
          347.36,
          348.56,
          350.96,
          353.2,
          358.96,
          364.56,
          365.84,
          366.96,
          367.68,
          369.04,
          370.4,
          371.76,
          372.48,
          373.2,
          374.56,
          375.6,
          376.88,
          383.04,
          387.04,
          389.12,
          390.56,
          391.28,
          392,
          393.52,
          394.24,
          394.96,
          395.68,
          396.4,
          397.68,
          398.8,
          407.04,
          412.4,
          423.84,
          425.12,
          426.64,
          428.08,
          428.88,
          429.68,
          431.2,
          432,
          433.04,
          434.32,
          435.12,
          436.32,
          437.36,
          438.56,
          443.2,
          456.08,
          463.36,
          464.4,
          465.28,
          466.72,
          467.44,
          468.16,
          469.52,
          473.52,
          476.48,
          476.64,
          493.6,
          498.32,
          518.08,
          521.76,
          526.96,
          532,
          533.68,
          535.04,
          536.4,
          539.2,
          540.56,
          543.2,
          556.4,
          557.28,
          560.48,
          562.08,
          564.72,
          568.64,
          572.16,
          573.36,
          574.4,
          578.56,
          579.92,
          581.12,
          582.4,
          583.36,
          584.64,
          585.76,
          588.08,
          617.44,
          619.68,
          621.44,
          622.32,
          624,
          624.88,
          626.64,
          627.52,
          628.4,
          629.28,
          630.16,
          631.92,
          633.68,
          635.44,
          636.32,
          638.08,
          638.96,
          640.48,
          645.76,
          659.04,
          660.96,
          662.56,
          664.4,
          666.16,
          668,
          669.76,
          670.96,
          672.48,
          678.32,
          679.92,
          681.36,
          682.8,
          683.84,
          685.84,
          686.88,
          687.92,
          688.96,
          691.28,
          713.44,
          731.12,
          733.12,
          734.64,
          754.96,
          767.6,
          785.68,
          787.76,
          789.44,
          790.32,
          791.2,
          792.88,
          793.76,
          796,
          805.6,
          807.28,
          808.32,
          809.36,
          811.44,
          812.32,
          813.52,
          814.56,
          815.6,
          817.68,
          818.8,
          823.92,
          828.72,
          832.8,
          837.6,
          842.56,
          843.92,
          861.12,
          862.72,
          864.16,
          866.08,
          867.04,
          868,
          869.28,
          870.72,
          883.28,
          885.44,
          886.8,
          888.56,
          890.64,
          896.96,
          897.36,
          901.04,
          902.64,
          903.76,
          906.16,
          913.92,
          918,
          931.84,
          941.36,
          959.6,
          962.16,
          971.44,
          975.68,
          983.44,
          985.28,
          987.2,
          990.88,
          992.96,
          994.4,
          996.48,
          998.56,
          1000,
          1002.08,
          1005.76,
          1007.68,
          1009.6,
          1017.28,
          1017.44,
          1021.52,
          1028.8,
          1033.44,
          1051.6,
          1061.12,
          1075.04,
          1079.12,
          1086.96,
          1088.16,
          1090.48,
          1092.08,
          1095.68,
          1096.08,
          1102.32,
          1104.4,
          1106.16,
          1107.52,
          1109.68,
          1122.24,
          1123.68,
          1124.96,
          1125.92,
          1126.8,
          1128.64,
          1130.08,
          1131.6,
          1148.8,
          1151.52,
          1155.52,
          1159.84,
          1163.84,
          1168.64,
          1170.32,
          1171.76,
          1173.2,
          1174.64,
          1177.52,
          1180.4,
          1181.52,
          1183.44,
          1184.4,
          1185.76,
          1188.24,
          1196.72,
          1199.04,
          1199.84,
          1201.52,
          1202.32,
          1204,
          1204.8,
          1206.8,
          1224.96,
          1237.6,
          1258,
          1259.68,
          1261.36,
          1279.2,
          1301.36,
          1303.76,
          1305.6,
          1306.48,
          1308.32,
          1310.16,
          1311.52,
          1312.96,
          1314.56,
          1320.4,
          1321.84,
          1323.04,
          1324.08,
          1326.08,
          1327.12,
          1328.72,
          1330.16,
          1331.76,
          1333.68,
          1346.96,
          1353.68,
          1355.36,
          1356.24,
          1357.12,
          1358.8,
          1360.48,
          1362.16,
          1363.04,
          1363.84,
          1365.52,
          1366.32,
          1368,
          1368.88,
          1370.56,
          1371.36,
          1372.24,
          1373.28,
          1374.48,
          1403.84,
          1406.16,
          1407.12,
          1408.64,
          1410.8,
          1412.16,
          1413.68,
          1417.84,
          1418.8,
          1420.16,
          1423.68,
          1427.6,
          1430.24,
          1431.84,
          1435.04,
          1435.92,
          1448.8,
          1451.04,
          1452.24,
          1454.96,
          1457.52,
          1458.8,
          1460.48,
          1465.44,
          1470.64,
          1474.32,
          1494,
          1498.72,
          1515.68,
          1515.84,
          1518.88,
          1522.72,
          1524.16,
          1524.8,
          1525.44,
          1526.88,
          1528.72,
          1536.08,
          1548.96,
          1553.6,
          1554.8,
          1555.84,
          1556.96,
          1557.68,
          1558.4,
          1559.12,
          1560.56,
          1562,
          1563.44,
          1564.16,
          1565.52,
          1567.12,
          1568.4,
          1579.76,
          1585.12,
          1591.84,
          1593.28,
          1594.4,
          1595.76,
          1596.48,
          1597.2,
          1598.24,
          1599.36,
          1600.56,
          1601.44,
          1602.16,
          1603.6,
          1604.48,
          1607.36,
          1615.92,
          1617.2,
          1618.24,
          1618.96,
          1620.4,
          1621.84,
          1623.28,
          1624.72,
          1625.44,
          1626.56,
          1627.76,
          1632.48,
          1635.84,
          1639.12,
          1643.84,
          1645.04,
          1646.96,
          1647.84,
          1649.6,
          1650.64,
          1663.6,
          1664.56,
          1669.04,
          1670.88,
          1672.24,
          1677.92,
          1678.96,
          1680.56,
          1681.44,
          1684.8,
          1689.92,
          1691.84,
          1692.48,
          1693.76,
          1694.96,
          1696.56,
          1701.92,
          1705.04,
          1725.52,
          1736.64,
          1745.52,
          1747.52,
          1749.92,
          1751.2,
          1753.2,
          1754.16,
          1755.76,
          1761.92,
          1763.44,
          1764.32,
          1766,
          1766.88,
          1767.68,
          1768.8,
          1770.16,
          1776.16,
          1786.16,
          1790.48,
          1804,
          1809.52,
          1811.68,
          1815.28,
          1816.72,
          1818.16,
          1820.88,
          1835.84,
          1837.12,
          1838.24,
          1839.04,
          1840.64,
          1842.24,
          1843.04,
          1844.48,
          1848.08,
          1849.92,
          1850.72,
          1862.32,
          1864.8,
          1866.88,
          1868.96,
          1871.04,
          1873.2,
          1874.24,
          1876.32,
          1877.36,
          1878.4,
          1879.44,
          1881.76,
          1889.84,
          1893.12,
          1894.72,
          1898,
          1901.36,
          1904.64,
          1906.24,
          1909.52,
          1912.8,
          1920.08,
          1926.08,
          1929.28,
          1950.4,
          1952.08,
          1967.52,
          1971.52,
          1974.48,
          1977.68,
          1978.8,
          1982.88,
          1986.32,
          1989.12,
          1991.2,
          1992.16
        ]
      },
      "geometry": {
        "type": "LineString",
        "coordinates": [
          [
            -75.608066,
            45.431367,
            73.5
          ],
          [
            -75.608176,
            45.431291,
            73.5
          ],
          [
            -75.608419,
            45.431128,
            73.75
          ],
          [
            -75.60874,
            45.430914,
            73.25
          ],
          [
            -75.609137,
            45.430647,
            72
          ],
          [
            -75.60981,
            45.430202,
            72
          ],
          [
            -75.61009,
            45.430034,
            71.75
          ],
          [
            -75.61046,
            45.429836,
            71.5
          ],
          [
            -75.61098,
            45.429572,
            71
          ],
          [
            -75.613033,
            45.42853,
            70.25
          ],
          [
            -75.613246,
            45.428421,
            70.75
          ],
          [
            -75.615957,
            45.427009,
            66.75
          ],
          [
            -75.616367,
            45.426793,
            66.75
          ],
          [
            -75.617132,
            45.426387,
            66.5
          ],
          [
            -75.618287,
            45.425804,
            69.5
          ],
          [
            -75.618735,
            45.425611,
            67.75
          ],
          [
            -75.618964,
            45.425525,
            66.75
          ],
          [
            -75.619438,
            45.425369,
            65
          ],
          [
            -75.619929,
            45.425239,
            64
          ],
          [
            -75.620428,
            45.425137,
            64.25
          ],
          [
            -75.620688,
            45.425091,
            64.5
          ],
          [
            -75.621202,
            45.425028,
            66
          ],
          [
            -75.621453,
            45.425005,
            67
          ],
          [
            -75.622734,
            45.424925,
            69.25
          ],
          [
            -75.623108,
            45.424889,
            69.75
          ],
          [
            -75.62343,
            45.424838,
            69.75
          ],
          [
            -75.623742,
            45.42476,
            69.5
          ],
          [
            -75.623896,
            45.424716,
            69.25
          ],
          [
            -75.624044,
            45.424663,
            69
          ],
          [
            -75.624188,
            45.4246,
            68.75
          ],
          [
            -75.624403,
            45.424503,
            68.5
          ],
          [
            -75.624722,
            45.424333,
            68
          ],
          [
            -75.625019,
            45.424143,
            68
          ],
          [
            -75.62529,
            45.423936,
            68
          ],
          [
            -75.625534,
            45.423712,
            68
          ],
          [
            -75.62572,
            45.423513,
            68
          ],
          [
            -75.626249,
            45.422917,
            68.25
          ],
          [
            -75.62644,
            45.422702,
            68
          ],
          [
            -75.626733,
            45.422372,
            67.75
          ],
          [
            -75.626912,
            45.422176,
            67.75
          ],
          [
            -75.627012,
            45.42208,
            67.75
          ],
          [
            -75.627211,
            45.421924,
            67.75
          ],
          [
            -75.627412,
            45.421803,
            68
          ],
          [
            -75.62752,
            45.421749,
            68
          ],
          [
            -75.627748,
            45.421655,
            68.75
          ],
          [
            -75.628026,
            45.421573,
            69.5
          ],
          [
            -75.628235,
            45.421526,
            70
          ],
          [
            -75.630292,
            45.421104,
            70.5
          ],
          [
            -75.630694,
            45.421029,
            71
          ],
          [
            -75.631138,
            45.420966,
            71.25
          ],
          [
            -75.631587,
            45.420922,
            71.75
          ],
          [
            -75.631813,
            45.420908,
            71.75
          ],
          [
            -75.632044,
            45.420899,
            71.5
          ],
          [
            -75.63459,
            45.420858,
            65.5
          ],
          [
            -75.634918,
            45.420847,
            65
          ],
          [
            -75.635776,
            45.420794,
            65
          ],
          [
            -75.637388,
            45.420677,
            65.25
          ],
          [
            -75.638327,
            45.420609,
            65.5
          ],
          [
            -75.638543,
            45.420589,
            65.5
          ],
          [
            -75.63874,
            45.420562,
            65.5
          ],
          [
            -75.638852,
            45.42054,
            65.5
          ],
          [
            -75.639069,
            45.42048,
            65.5
          ],
          [
            -75.639274,
            45.420402,
            65.5
          ],
          [
            -75.639371,
            45.420356,
            65.5
          ],
          [
            -75.639477,
            45.420299,
            65.75
          ],
          [
            -75.639603,
            45.420221,
            65.75
          ],
          [
            -75.640281,
            45.419775,
            65.75
          ],
          [
            -75.640498,
            45.419666,
            65.75
          ],
          [
            -75.640608,
            45.419631,
            65.75
          ],
          [
            -75.640746,
            45.419584,
            66
          ],
          [
            -75.640873,
            45.419552,
            66
          ],
          [
            -75.641081,
            45.419515,
            66
          ],
          [
            -75.641241,
            45.419495,
            66
          ],
          [
            -75.641454,
            45.419477,
            66
          ],
          [
            -75.642148,
            45.419427,
            65.25
          ],
          [
            -75.6426,
            45.419395,
            65
          ],
          [
            -75.643316,
            45.419343,
            61.5
          ],
          [
            -75.64909,
            45.418932,
            61.5
          ],
          [
            -75.649383,
            45.418911,
            61
          ],
          [
            -75.649618,
            45.418887,
            60.25
          ],
          [
            -75.649815,
            45.418857,
            59.75
          ],
          [
            -75.649916,
            45.418834,
            59.5
          ],
          [
            -75.650105,
            45.418772,
            59
          ],
          [
            -75.650285,
            45.418691,
            58.5
          ],
          [
            -75.650516,
            45.418539,
            58.25
          ],
          [
            -75.650813,
            45.418316,
            58
          ],
          [
            -75.651337,
            45.417924,
            59.75
          ],
          [
            -75.651551,
            45.417779,
            59.5
          ],
          [
            -75.651752,
            45.417668,
            59.25
          ],
          [
            -75.651891,
            45.417603,
            58.75
          ],
          [
            -75.652674,
            45.417287,
            59.25
          ],
          [
            -75.65286,
            45.417202,
            59.75
          ],
          [
            -75.653105,
            45.417074,
            60.25
          ],
          [
            -75.653668,
            45.416781,
            60.75
          ],
          [
            -75.653786,
            45.416719,
            60.75
          ],
          [
            -75.655459,
            45.415847,
            62.25
          ],
          [
            -75.655595,
            45.415782,
            62.5
          ],
          [
            -75.655831,
            45.415685,
            62.5
          ],
          [
            -75.655959,
            45.415643,
            61.75
          ],
          [
            -75.656231,
            45.415575,
            60.5
          ],
          [
            -75.656423,
            45.415542,
            60.25
          ],
          [
            -75.656803,
            45.415504,
            60
          ],
          [
            -75.657163,
            45.415479,
            60
          ],
          [
            -75.658075,
            45.415406,
            60
          ],
          [
            -75.658964,
            45.415338,
            60.25
          ],
          [
            -75.659163,
            45.415317,
            60
          ],
          [
            -75.659343,
            45.415287,
            59.75
          ],
          [
            -75.659449,
            45.415262,
            59.5
          ],
          [
            -75.65965,
            45.415195,
            59
          ],
          [
            -75.659835,
            45.415108,
            58.5
          ],
          [
            -75.659998,
            45.415001,
            58
          ],
          [
            -75.660071,
            45.414941,
            58
          ],
          [
            -75.660137,
            45.414878,
            58
          ],
          [
            -75.660247,
            45.414742,
            58.25
          ],
          [
            -75.660311,
            45.414633,
            58.5
          ],
          [
            -75.660372,
            45.414497,
            58.5
          ],
          [
            -75.660627,
            45.413831,
            58.25
          ],
          [
            -75.660795,
            45.413393,
            58
          ],
          [
            -75.660894,
            45.413171,
            58
          ],
          [
            -75.660995,
            45.413023,
            58
          ],
          [
            -75.661059,
            45.412953,
            58
          ],
          [
            -75.661132,
            45.412887,
            58
          ],
          [
            -75.661299,
            45.412768,
            58
          ],
          [
            -75.661392,
            45.412717,
            58
          ],
          [
            -75.661491,
            45.412671,
            58
          ],
          [
            -75.661596,
            45.412632,
            58
          ],
          [
            -75.661705,
            45.412599,
            58
          ],
          [
            -75.661897,
            45.412558,
            57.5
          ],
          [
            -75.662075,
            45.412534,
            57
          ],
          [
            -75.663388,
            45.412439,
            57.5
          ],
          [
            -75.664246,
            45.412378,
            57.75
          ],
          [
            -75.666059,
            45.412249,
            58.5
          ],
          [
            -75.666264,
            45.412237,
            58.5
          ],
          [
            -75.666511,
            45.412235,
            58.75
          ],
          [
            -75.666736,
            45.412254,
            58.75
          ],
          [
            -75.666856,
            45.412273,
            58.75
          ],
          [
            -75.666973,
            45.4123,
            59
          ],
          [
            -75.667197,
            45.412372,
            59
          ],
          [
            -75.667302,
            45.412417,
            59
          ],
          [
            -75.667434,
            45.412488,
            59.25
          ],
          [
            -75.667582,
            45.412587,
            59.25
          ],
          [
            -75.667661,
            45.412653,
            59
          ],
          [
            -75.667765,
            45.412761,
            58.25
          ],
          [
            -75.667844,
            45.412863,
            58
          ],
          [
            -75.66792,
            45.412982,
            57.75
          ],
          [
            -75.668187,
            45.413466,
            57.5
          ],
          [
            -75.668933,
            45.414818,
            67
          ],
          [
            -75.669356,
            45.415584,
            64.75
          ],
          [
            -75.669418,
            45.415691,
            63
          ],
          [
            -75.66948,
            45.41578,
            61.25
          ],
          [
            -75.669593,
            45.415917,
            59.5
          ],
          [
            -75.66966,
            45.415986,
            59
          ],
          [
            -75.669736,
            45.41605,
            58.75
          ],
          [
            -75.669901,
            45.416155,
            57.75
          ],
          [
            -75.670458,
            45.416377,
            58.25
          ],
          [
            -75.670875,
            45.41654,
            57.25
          ],
          [
            -75.670899,
            45.416548,
            57.25
          ],
          [
            -75.673267,
            45.417469,
            60.75
          ],
          [
            -75.673944,
            45.417706,
            61.25
          ],
          [
            -75.676844,
            45.418574,
            59.25
          ],
          [
            -75.6774,
            45.418716,
            59.5
          ],
          [
            -75.678188,
            45.418889,
            60.5
          ],
          [
            -75.678952,
            45.419054,
            62.5
          ],
          [
            -75.679208,
            45.419118,
            63.25
          ],
          [
            -75.679415,
            45.419175,
            63.25
          ],
          [
            -75.679618,
            45.419239,
            63.5
          ],
          [
            -75.680014,
            45.419381,
            65
          ],
          [
            -75.680206,
            45.41946,
            65.5
          ],
          [
            -75.680556,
            45.419623,
            66.75
          ],
          [
            -75.682237,
            45.420521,
            68.5
          ],
          [
            -75.682349,
            45.420581,
            68.75
          ],
          [
            -75.682757,
            45.4208,
            71.25
          ],
          [
            -75.682962,
            45.42091,
            72
          ],
          [
            -75.683304,
            45.421082,
            72.75
          ],
          [
            -75.683824,
            45.421328,
            71.25
          ],
          [
            -75.684273,
            45.421568,
            70.5
          ],
          [
            -75.684432,
            45.421651,
            70.25
          ],
          [
            -75.684565,
            45.421723,
            70.25
          ],
          [
            -75.685096,
            45.422011,
            69.5
          ],
          [
            -75.685266,
            45.422113,
            69.25
          ],
          [
            -75.685408,
            45.42221,
            69.25
          ],
          [
            -75.685545,
            45.422319,
            69.5
          ],
          [
            -75.685642,
            45.422408,
            69.5
          ],
          [
            -75.685757,
            45.422529
          ],
          [
            -75.685842,
            45.422635
          ],
          [
            -75.686001,
            45.422871
          ],
          [
            -75.687807,
            45.42592
          ],
          [
            -75.687958,
            45.426149
          ],
          [
            -75.688108,
            45.426312
          ],
          [
            -75.688195,
            45.426387
          ],
          [
            -75.688389,
            45.426524
          ],
          [
            -75.688497,
            45.426586
          ],
          [
            -75.688728,
            45.426691
          ],
          [
            -75.688851,
            45.426735
          ],
          [
            -75.688978,
            45.426773
          ],
          [
            -75.689109,
            45.426804
          ],
          [
            -75.689242,
            45.426829
          ],
          [
            -75.689514,
            45.426859
          ],
          [
            -75.68979,
            45.426861
          ],
          [
            -75.690063,
            45.426837
          ],
          [
            -75.690198,
            45.426814
          ],
          [
            -75.690458,
            45.42675
          ],
          [
            -75.690582,
            45.426708
          ],
          [
            -75.690789,
            45.426624
          ],
          [
            -75.691504,
            45.426314
          ],
          [
            -75.693309,
            45.425532
          ],
          [
            -75.693567,
            45.425413
          ],
          [
            -75.693774,
            45.425302
          ],
          [
            -75.693985,
            45.425164
          ],
          [
            -75.694173,
            45.425011
          ],
          [
            -75.694336,
            45.424844
          ],
          [
            -75.694471,
            45.424666
          ],
          [
            -75.694545,
            45.424543
          ],
          [
            -75.694625,
            45.424385
          ],
          [
            -75.6949,
            45.423754
          ],
          [
            -75.694981,
            45.423581
          ],
          [
            -75.695067,
            45.423427
          ],
          [
            -75.695169,
            45.42328
          ],
          [
            -75.695251,
            45.423182
          ],
          [
            -75.69544,
            45.422998
          ],
          [
            -75.695547,
            45.422913
          ],
          [
            -75.695661,
            45.422832
          ],
          [
            -75.695782,
            45.422757
          ],
          [
            -75.696086,
            45.422601
          ],
          [
            -75.699103,
            45.421298
          ],
          [
            -75.701515,
            45.420259
          ],
          [
            -75.701785,
            45.420142,
            58
          ],
          [
            -75.701992,
            45.420054,
            58
          ],
          [
            -75.704764,
            45.41886,
            58
          ],
          [
            -75.706487,
            45.418118,
            58
          ],
          [
            -75.708981,
            45.417083,
            58
          ],
          [
            -75.709254,
            45.416957,
            58
          ],
          [
            -75.709459,
            45.416833,
            58
          ],
          [
            -75.709552,
            45.416763,
            58
          ],
          [
            -75.709638,
            45.41669,
            58
          ],
          [
            -75.709787,
            45.416531,
            58
          ],
          [
            -75.709853,
            45.416442,
            58
          ],
          [
            -75.710002,
            45.416213,
            58
          ],
          [
            -75.710605,
            45.415217,
            58
          ],
          [
            -75.710727,
            45.415049,
            58
          ],
          [
            -75.710811,
            45.414949,
            58
          ],
          [
            -75.710903,
            45.414854,
            58
          ],
          [
            -75.711109,
            45.414674,
            58
          ],
          [
            -75.711204,
            45.414606,
            58
          ],
          [
            -75.711342,
            45.414512,
            58
          ],
          [
            -75.711468,
            45.414437,
            58
          ],
          [
            -75.7116,
            45.414368,
            58
          ],
          [
            -75.711878,
            45.414246,
            57.25
          ],
          [
            -75.712036,
            45.414189,
            56.5
          ],
          [
            -75.712774,
            45.41395,
            54
          ],
          [
            -75.713469,
            45.413726,
            53.25
          ],
          [
            -75.714057,
            45.413537,
            52
          ],
          [
            -75.714748,
            45.413311,
            51.25
          ],
          [
            -75.71545,
            45.413048,
            51.25
          ],
          [
            -75.715648,
            45.412981,
            51.25
          ],
          [
            -75.718148,
            45.412176,
            52
          ],
          [
            -75.718372,
            45.412098,
            52.5
          ],
          [
            -75.718571,
            45.412019,
            53.75
          ],
          [
            -75.71882,
            45.411896,
            54.75
          ],
          [
            -75.718936,
            45.411828,
            55.25
          ],
          [
            -75.719046,
            45.411754,
            55.75
          ],
          [
            -75.719188,
            45.411647,
            56
          ],
          [
            -75.719334,
            45.411523,
            56.25
          ],
          [
            -75.720565,
            45.410413,
            58
          ],
          [
            -75.720787,
            45.410231,
            58
          ],
          [
            -75.720938,
            45.41012,
            58
          ],
          [
            -75.721139,
            45.409983,
            57.5
          ],
          [
            -75.721389,
            45.409826,
            57.25
          ],
          [
            -75.72215,
            45.409362,
            56.75
          ],
          [
            -75.722197,
            45.409334,
            56.75
          ],
          [
            -75.722637,
            45.409066,
            56.5
          ],
          [
            -75.722831,
            45.408948,
            56.5
          ],
          [
            -75.722972,
            45.408865,
            56.5
          ],
          [
            -75.723285,
            45.408707,
            57
          ],
          [
            -75.724349,
            45.408256,
            56.75
          ],
          [
            -75.724904,
            45.408022,
            56
          ],
          [
            -75.726806,
            45.407221,
            56
          ],
          [
            -75.728114,
            45.40667,
            59.25
          ],
          [
            -75.730612,
            45.405618,
            61.75
          ],
          [
            -75.730969,
            45.405473,
            62.75
          ],
          [
            -75.732278,
            45.40498,
            62
          ],
          [
            -75.732874,
            45.404744,
            63
          ],
          [
            -75.733932,
            45.404297,
            60.75
          ],
          [
            -75.734185,
            45.404189,
            58.5
          ],
          [
            -75.734447,
            45.404079,
            58.5
          ],
          [
            -75.734948,
            45.403866,
            57.5
          ],
          [
            -75.735237,
            45.403744,
            57.25
          ],
          [
            -75.735435,
            45.403659,
            57.25
          ],
          [
            -75.735719,
            45.403539,
            56
          ],
          [
            -75.735435,
            45.403659,
            57.25
          ],
          [
            -75.735237,
            45.403744,
            57.25
          ],
          [
            -75.734948,
            45.403866,
            57.5
          ],
          [
            -75.734447,
            45.404079,
            58.5
          ],
          [
            -75.734175,
            45.404174,
            59
          ],
          [
            -75.733904,
            45.404268,
            60.75
          ],
          [
            -75.732847,
            45.404713,
            62.75
          ],
          [
            -75.732824,
            45.404722,
            62
          ],
          [
            -75.732254,
            45.404948,
            62
          ],
          [
            -75.73123,
            45.405331,
            63
          ],
          [
            -75.730586,
            45.405587,
            61.75
          ],
          [
            -75.728091,
            45.406638,
            59.25
          ],
          [
            -75.726782,
            45.407189,
            56.25
          ],
          [
            -75.724878,
            45.407991,
            56
          ],
          [
            -75.724319,
            45.408226,
            56.75
          ],
          [
            -75.72325,
            45.40868,
            57
          ],
          [
            -75.723088,
            45.408758,
            56.75
          ],
          [
            -75.722797,
            45.408921,
            56.75
          ],
          [
            -75.722601,
            45.40904,
            56.75
          ],
          [
            -75.722162,
            45.409308,
            57
          ],
          [
            -75.722115,
            45.409337,
            57
          ],
          [
            -75.721356,
            45.409799,
            57.25
          ],
          [
            -75.721104,
            45.409956,
            57.5
          ],
          [
            -75.720902,
            45.410094,
            58
          ],
          [
            -75.720749,
            45.410207,
            58
          ],
          [
            -75.720525,
            45.410391,
            58
          ],
          [
            -75.719293,
            45.411502,
            56.25
          ],
          [
            -75.719148,
            45.411624,
            56
          ],
          [
            -75.719008,
            45.41173,
            55.5
          ],
          [
            -75.718901,
            45.411802,
            55.25
          ],
          [
            -75.718788,
            45.411868,
            54.75
          ],
          [
            -75.718547,
            45.411987,
            53.75
          ],
          [
            -75.71835,
            45.412066,
            52.5
          ],
          [
            -75.718128,
            45.412142,
            52
          ],
          [
            -75.715627,
            45.412949,
            51.5
          ],
          [
            -75.715221,
            45.413068,
            51.5
          ],
          [
            -75.71462,
            45.41323,
            51.75
          ],
          [
            -75.713988,
            45.413431,
            52.5
          ],
          [
            -75.713404,
            45.413619,
            54
          ],
          [
            -75.712702,
            45.413846,
            54.75
          ],
          [
            -75.712456,
            45.413929,
            55.25
          ],
          [
            -75.712256,
            45.414005,
            56
          ],
          [
            -75.71206,
            45.414087,
            56.75
          ],
          [
            -75.71187,
            45.414175,
            57.5
          ],
          [
            -75.711507,
            45.414368,
            58.25
          ],
          [
            -75.711169,
            45.414582,
            58
          ],
          [
            -75.711044,
            45.414677
          ],
          [
            -75.710852,
            45.414849
          ],
          [
            -75.710765,
            45.41494
          ],
          [
            -75.710656,
            45.415073
          ],
          [
            -75.710486,
            45.415324
          ],
          [
            -75.709961,
            45.4162
          ],
          [
            -75.709805,
            45.416438
          ],
          [
            -75.709746,
            45.416516
          ],
          [
            -75.709601,
            45.416671
          ],
          [
            -75.709517,
            45.416742
          ],
          [
            -75.709331,
            45.416872
          ],
          [
            -75.709229,
            45.41693
          ],
          [
            -75.708959,
            45.417054
          ],
          [
            -75.706463,
            45.41809
          ],
          [
            -75.704742,
            45.418831
          ],
          [
            -75.701957,
            45.420031
          ],
          [
            -75.701732,
            45.420128,
            75.5
          ],
          [
            -75.701502,
            45.420227,
            75.5
          ],
          [
            -75.699075,
            45.421272,
            75.5
          ],
          [
            -75.696062,
            45.422573,
            75.5
          ],
          [
            -75.695756,
            45.42273,
            75.5
          ],
          [
            -75.695543,
            45.422869,
            75.5
          ],
          [
            -75.695445,
            45.422944,
            75.5
          ],
          [
            -75.695268,
            45.423105,
            75.5
          ],
          [
            -75.695118,
            45.423279,
            75.5
          ],
          [
            -75.695024,
            45.423416,
            75.5
          ],
          [
            -75.694938,
            45.423571,
            75.5
          ],
          [
            -75.694856,
            45.423746,
            75.5
          ],
          [
            -75.694581,
            45.424376,
            75.5
          ],
          [
            -75.694502,
            45.424532,
            75.5
          ],
          [
            -75.694428,
            45.424654,
            75.5
          ],
          [
            -75.694356,
            45.424755,
            75.5
          ],
          [
            -75.694185,
            45.424946,
            75.5
          ],
          [
            -75.694087,
            45.425035,
            75.5
          ],
          [
            -75.693917,
            45.425167,
            75.25
          ],
          [
            -75.693747,
            45.425276,
            75.25
          ],
          [
            -75.693542,
            45.425386,
            75
          ],
          [
            -75.693286,
            45.425504,
            75
          ],
          [
            -75.69148,
            45.426287,
            74
          ],
          [
            -75.69056,
            45.42668,
            73.5
          ],
          [
            -75.690313,
            45.426755,
            73.25
          ],
          [
            -75.690184,
            45.426783,
            73.25
          ],
          [
            -75.690053,
            45.426805,
            73.25
          ],
          [
            -75.689787,
            45.426829,
            73
          ],
          [
            -75.689518,
            45.426827,
            73
          ],
          [
            -75.689252,
            45.426798,
            72.75
          ],
          [
            -75.689122,
            45.426773,
            72.75
          ],
          [
            -75.688995,
            45.426743,
            72.75
          ],
          [
            -75.688751,
            45.426663,
            72.5
          ],
          [
            -75.688636,
            45.426615,
            72.5
          ],
          [
            -75.688421,
            45.426501,
            72.25
          ],
          [
            -75.688322,
            45.426436,
            72.25
          ],
          [
            -75.688146,
            45.426293,
            72.25
          ],
          [
            -75.688069,
            45.426216,
            72
          ],
          [
            -75.688,
            45.426134,
            72
          ],
          [
            -75.687926,
            45.426032,
            72
          ],
          [
            -75.68785,
            45.425909,
            72
          ],
          [
            -75.686044,
            45.42286,
            69.75
          ],
          [
            -75.685884,
            45.422621,
            69.5
          ],
          [
            -75.685811,
            45.422529,
            69.5
          ],
          [
            -75.685677,
            45.422388,
            69.25
          ],
          [
            -75.685456,
            45.422198,
            69.5
          ],
          [
            -75.685304,
            45.422094,
            69.25
          ],
          [
            -75.685123,
            45.421984,
            69.5
          ],
          [
            -75.684592,
            45.421696,
            70.25
          ],
          [
            -75.684473,
            45.421632,
            70.5
          ],
          [
            -75.684302,
            45.421542,
            70.5
          ],
          [
            -75.683851,
            45.4213,
            71
          ],
          [
            -75.683331,
            45.421054,
            72.75
          ],
          [
            -75.68299,
            45.420883,
            72
          ],
          [
            -75.682782,
            45.420772,
            71
          ],
          [
            -75.682371,
            45.420551,
            68.5
          ],
          [
            -75.682264,
            45.420493,
            68.25
          ],
          [
            -75.680628,
            45.419618,
            67
          ],
          [
            -75.680328,
            45.419473,
            65.5
          ],
          [
            -75.680167,
            45.419402,
            65
          ],
          [
            -75.679784,
            45.419255,
            64
          ],
          [
            -75.679411,
            45.419135,
            63.25
          ],
          [
            -75.679225,
            45.419083,
            63.25
          ],
          [
            -75.678967,
            45.419019,
            62.75
          ],
          [
            -75.678205,
            45.418855,
            60.75
          ],
          [
            -75.677416,
            45.418682,
            59.75
          ],
          [
            -75.676864,
            45.418541,
            59.5
          ],
          [
            -75.673965,
            45.417673,
            61.25
          ],
          [
            -75.673289,
            45.417442,
            60.75
          ],
          [
            -75.670924,
            45.416519,
            57.75
          ],
          [
            -75.670903,
            45.416508,
            57.75
          ],
          [
            -75.670475,
            45.416342,
            58.5
          ],
          [
            -75.669943,
            45.416126,
            57.75
          ],
          [
            -75.669771,
            45.416017,
            58.5
          ],
          [
            -75.669699,
            45.41596,
            59
          ],
          [
            -75.669636,
            45.4159,
            59.5
          ],
          [
            -75.669518,
            45.41576,
            61.5
          ],
          [
            -75.669404,
            45.415572,
            64.75
          ],
          [
            -75.66898,
            45.414803,
            67.5
          ],
          [
            -75.668235,
            45.413453,
            57.5
          ],
          [
            -75.667968,
            45.41297,
            57.75
          ],
          [
            -75.667891,
            45.412849,
            58
          ],
          [
            -75.667811,
            45.412745,
            58.25
          ],
          [
            -75.667711,
            45.41264,
            58.75
          ],
          [
            -75.667636,
            45.412576,
            59
          ],
          [
            -75.667555,
            45.412515,
            59.5
          ],
          [
            -75.667468,
            45.41246,
            59.25
          ],
          [
            -75.667277,
            45.412363,
            59.25
          ],
          [
            -75.667068,
            45.412287,
            59
          ],
          [
            -75.666845,
            45.412234,
            58.75
          ],
          [
            -75.666731,
            45.412216,
            58.75
          ],
          [
            -75.66651,
            45.412199,
            58.5
          ],
          [
            -75.666258,
            45.412201,
            58.5
          ],
          [
            -75.66605,
            45.412213,
            58.25
          ],
          [
            -75.664241,
            45.412342,
            57
          ],
          [
            -75.663385,
            45.412403,
            56.5
          ],
          [
            -75.66232,
            45.412478,
            56.5
          ],
          [
            -75.662087,
            45.412497,
            57
          ],
          [
            -75.661905,
            45.412519,
            57.25
          ],
          [
            -75.6617,
            45.412561,
            57.75
          ],
          [
            -75.661596,
            45.412592,
            58
          ],
          [
            -75.661496,
            45.412628,
            58
          ],
          [
            -75.661358,
            45.412689,
            58
          ],
          [
            -75.661223,
            45.412767,
            58
          ],
          [
            -75.66109,
            45.412866,
            58
          ],
          [
            -75.661003,
            45.412947,
            58
          ],
          [
            -75.660944,
            45.413014,
            58
          ],
          [
            -75.660845,
            45.41316,
            58
          ],
          [
            -75.660801,
            45.41325,
            58
          ],
          [
            -75.660677,
            45.413562,
            58.25
          ],
          [
            -75.660322,
            45.414489,
            58.75
          ],
          [
            -75.660262,
            45.414622,
            58.5
          ],
          [
            -75.660199,
            45.414729,
            58.25
          ],
          [
            -75.660144,
            45.414802,
            58.25
          ],
          [
            -75.660009,
            45.414938,
            58
          ],
          [
            -75.659844,
            45.415055,
            58.5
          ],
          [
            -75.659654,
            45.415152,
            59
          ],
          [
            -75.659444,
            45.415225,
            59.5
          ],
          [
            -75.659333,
            45.415252,
            59.75
          ],
          [
            -75.659156,
            45.415281,
            60.25
          ],
          [
            -75.658961,
            45.415302,
            60.25
          ],
          [
            -75.658216,
            45.415359,
            58.5
          ],
          [
            -75.657686,
            45.4154,
            58.5
          ],
          [
            -75.657166,
            45.415438,
            58.25
          ],
          [
            -75.656422,
            45.415505,
            59.75
          ],
          [
            -75.65623,
            45.415538,
            60.75
          ],
          [
            -75.655939,
            45.41561,
            62
          ],
          [
            -75.655807,
            45.415654,
            62.5
          ],
          [
            -75.655565,
            45.415752,
            62.5
          ],
          [
            -75.655428,
            45.415818,
            62.5
          ],
          [
            -75.653764,
            45.416686,
            60.75
          ],
          [
            -75.653637,
            45.416752,
            60.75
          ],
          [
            -75.653063,
            45.417051,
            60.25
          ],
          [
            -75.652831,
            45.417173,
            59.75
          ],
          [
            -75.652648,
            45.417256,
            59.25
          ],
          [
            -75.651865,
            45.417572,
            58.75
          ],
          [
            -75.651723,
            45.417639,
            59.25
          ],
          [
            -75.651517,
            45.417752,
            59.5
          ],
          [
            -75.651413,
            45.417819,
            59.75
          ],
          [
            -75.651042,
            45.418093,
            59.25
          ],
          [
            -75.650478,
            45.418515,
            58.5
          ],
          [
            -75.650248,
            45.418664,
            58.75
          ],
          [
            -75.650166,
            45.418705,
            59
          ],
          [
            -75.649988,
            45.418774,
            59.5
          ],
          [
            -75.649805,
            45.418822,
            59.75
          ],
          [
            -75.649558,
            45.418859,
            60.5
          ],
          [
            -75.648704,
            45.418923,
            61.75
          ],
          [
            -75.648202,
            45.418958,
            62
          ],
          [
            -75.644947,
            45.419192,
            64.75
          ],
          [
            -75.643183,
            45.419319,
            65
          ],
          [
            -75.641768,
            45.419422,
            65.75
          ],
          [
            -75.641451,
            45.41944,
            66
          ],
          [
            -75.641071,
            45.419478,
            66
          ],
          [
            -75.640876,
            45.419513,
            66
          ],
          [
            -75.640582,
            45.419598,
            65.75
          ],
          [
            -75.64045,
            45.419645,
            65.75
          ],
          [
            -75.640247,
            45.419748,
            65.75
          ],
          [
            -75.639531,
            45.420219,
            65.5
          ],
          [
            -75.639338,
            45.420328,
            65.5
          ],
          [
            -75.639226,
            45.420381,
            65.5
          ],
          [
            -75.638986,
            45.420467,
            65.5
          ],
          [
            -75.63886,
            45.4205,
            65.5
          ],
          [
            -75.638731,
            45.420526,
            65.5
          ],
          [
            -75.638553,
            45.420552,
            65.25
          ],
          [
            -75.638341,
            45.420572,
            65.25
          ],
          [
            -75.637382,
            45.42064,
            65.25
          ],
          [
            -75.635789,
            45.420754,
            65
          ],
          [
            -75.635095,
            45.420786,
            65
          ],
          [
            -75.632936,
            45.420822,
            69.75
          ],
          [
            -75.632055,
            45.420857,
            71.5
          ],
          [
            -75.63171,
            45.420877,
            71.75
          ],
          [
            -75.631136,
            45.420929,
            71.25
          ],
          [
            -75.630908,
            45.420959,
            71
          ],
          [
            -75.630681,
            45.420995,
            71
          ],
          [
            -75.630255,
            45.421074,
            70.5
          ],
          [
            -75.627954,
            45.421546,
            69.25
          ],
          [
            -75.627755,
            45.421591,
            68.75
          ],
          [
            -75.627591,
            45.421636,
            68.25
          ],
          [
            -75.627475,
            45.421675,
            67.75
          ],
          [
            -75.627256,
            45.421769,
            67.75
          ],
          [
            -75.627057,
            45.421883,
            67.5
          ],
          [
            -75.626966,
            45.421947,
            67.5
          ],
          [
            -75.626822,
            45.422068,
            67.5
          ],
          [
            -75.626507,
            45.422408,
            68
          ],
          [
            -75.626356,
            45.422583,
            68.25
          ],
          [
            -75.626284,
            45.422659,
            68.25
          ],
          [
            -75.625301,
            45.423765,
            68.25
          ],
          [
            -75.625075,
            45.423996,
            68
          ],
          [
            -75.624857,
            45.424178,
            68
          ],
          [
            -75.624612,
            45.424342,
            68.25
          ],
          [
            -75.624344,
            45.424487,
            68.5
          ],
          [
            -75.624056,
            45.424617,
            69
          ],
          [
            -75.623905,
            45.424673,
            69.25
          ],
          [
            -75.623592,
            45.424762,
            69.5
          ],
          [
            -75.623431,
            45.4248,
            69.75
          ],
          [
            -75.623268,
            45.42483,
            69.75
          ],
          [
            -75.623102,
            45.424853,
            69.75
          ],
          [
            -75.62273,
            45.424889,
            69.25
          ],
          [
            -75.621448,
            45.424969,
            67.25
          ],
          [
            -75.620935,
            45.425022,
            65.25
          ],
          [
            -75.620678,
            45.425056,
            64.75
          ],
          [
            -75.620164,
            45.425148,
            64.25
          ],
          [
            -75.619662,
            45.425269,
            64.25
          ],
          [
            -75.619176,
            45.425412,
            65.75
          ],
          [
            -75.61894,
            45.425492,
            66.75
          ],
          [
            -75.618478,
            45.425674,
            68.75
          ],
          [
            -75.618046,
            45.425876,
            68.75
          ],
          [
            -75.617101,
            45.426358,
            66.5
          ],
          [
            -75.616336,
            45.426764,
            66.75
          ],
          [
            -75.615927,
            45.42698,
            66.75
          ],
          [
            -75.613216,
            45.428392,
            70.5
          ],
          [
            -75.613003,
            45.428501,
            70.25
          ],
          [
            -75.611007,
            45.429522,
            71.5
          ],
          [
            -75.610486,
            45.429789,
            71.5
          ],
          [
            -75.610092,
            45.42998,
            71.75
          ],
          [
            -75.609704,
            45.430217,
            72
          ],
          [
            -75.609577,
            45.430304,
            72
          ],
          [
            -75.609137,
            45.430647,
            72
          ],
          [
            -75.60874,
            45.430914,
            73.25
          ],
          [
            -75.608419,
            45.431128,
            73.75
          ],
          [
            -75.608176,
            45.431291,
            73.5
          ],
          [
            -75.608067,
            45.431366,
            73.5
          ]
        ]
      }
    }
  ]
}