{
  "type": "FeatureCollection",
  "features": [
    {
      "type": "Feature",
      "properties": {
        "creator": "BRouter-1.7.9",
        "name": "[OPRET] L1",
        "track-length": "26390",
        "filtered ascend": "15",
        "plain-ascend": "0",
        "total-time": "2112",
        "total-energy": "1167792",
        "cost": "52780",
        "messages": [
          [
            "Longitude",
            "Latitude",
            "Elevation",
            "Distance",
            "CostPerKm",
            "ElevCost",
            "TurnCost",
            "NodeCost",
            "InitialCost",
            "WayTags",
            "NodeTags",
            "Time",
            "Energy"
          ],
          [
            "-69927499",
            "18450833",
            "-8192",
            "215",
            "2000",
            "0",
            "0",
            "0",
            "0",
            "reversedirection=yes railway=subway",
            "railway=halt",
            "17",
            "9456"
          ],
          [
            "-69924055",
            "18455582",
            "-8192",
            "832",
            "2000",
            "0",
            "0",
            "0",
            "0",
            "reversedirection=yes railway=subway",
            "railway=halt",
            "83",
            "46052"
          ],
          [
            "-69916349",
            "18459232",
            "-8192",
            "909",
            "2000",
            "0",
            "0",
            "0",
            "0",
            "reversedirection=yes railway=subway",
            "railway=halt",
            "156",
            "86035"
          ],
          [
            "-69909987",
            "18464554",
            "-8192",
            "1063",
            "2000",
            "0",
            "0",
            "0",
            "0",
            "reversedirection=yes railway=subway",
            "railway=halt",
            "241",
            "132791"
          ],
          [
            "-69912154",
            "18471210",
            "-8192",
            "774",
            "2000",
            "0",
            "0",
            "0",
            "0",
            "reversedirection=yes railway=subway",
            "railway=halt",
            "303",
            "166836"
          ],
          [
            "-69913860",
            "18476677",
            "-8192",
            "631",
            "2000",
            "0",
            "0",
            "0",
            "0",
            "reversedirection=yes railway=subway",
            "railway=halt",
            "353",
            "194590"
          ],
          [
            "-69914426",
            "18481625",
            "-8192",
            "551",
            "2000",
            "0",
            "0",
            "0",
            "0",
            "reversedirection=yes railway=subway",
            "railway=halt",
            "398",
            "218826"
          ],
          [
            "-69914464",
            "18483879",
            "-8192",
            "250",
            "2000",
            "0",
            "0",
            "0",
            "0",
            "reversedirection=yes railway=subway",
            "railway=switch",
            "418",
            "229822"
          ],
          [
            "-69914561",
            "18485790",
            "-8192",
            "212",
            "2000",
            "0",
            "0",
            "0",
            "0",
            "reversedirection=yes railway=subway",
            "railway=halt",
            "434",
            "239147"
          ],
          [
            "-69915104",
            "18493857",
            "-8192",
            "895",
            "2000",
            "0",
            "0",
            "0",
            "0",
            "reversedirection=yes railway=subway",
            "railway=halt",
            "506",
            "278514"
          ],
          [
            "-69915505",
            "18499983",
            "-8192",
            "679",
            "2000",
            "0",
            "0",
            "0",
            "0",
            "reversedirection=yes railway=subway",
            "railway=halt",
            "560",
            "308380"
          ],
          [
            "-69915895",
            "18507362",
            "34",
            "819",
            "2000",
            "0",
            "0",
            "0",
            "0",
            "reversedirection=yes railway=subway",
            "railway=halt",
            "626",
            "344022"
          ],
          [
            "-69915732",
            "18509214",
            "17",
            "206",
            "2000",
            "0",
            "0",
            "0",
            "0",
            "reversedirection=yes railway=subway",
            "railway=switch",
            "642",
            "345676"
          ],
          [
            "-69915699",
            "18509507",
            "17",
            "33",
            "2000",
            "0",
            "0",
            "0",
            "0",
            "reversedirection=yes railway=subway",
            "railway=switch",
            "645",
            "346076"
          ],
          [
            "-69915044",
            "18517916",
            "22",
            "933",
            "2000",
            "0",
            "0",
            "0",
            "0",
            "reversedirection=yes railway=subway",
            "railway=halt",
            "720",
            "384425"
          ],
          [
            "-69916745",
            "18524407",
            "27",
            "801",
            "2000",
            "0",
            "0",
            "0",
            "0",
            "reversedirection=yes railway=subway",
            "railway=switch",
            "784",
            "419657"
          ],
          [
            "-69916267",
            "18525359",
            "28",
            "117",
            "2000",
            "0",
            "0",
            "0",
            "0",
            "reversedirection=yes railway=subway",
            "railway=halt",
            "793",
            "424803"
          ],
          [
            "-69908413",
            "18529591",
            "34",
            "1001",
            "2000",
            "0",
            "0",
            "0",
            "0",
            "reversedirection=yes railway=subway",
            "railway=halt",
            "873",
            "466184"
          ],
          [
            "-69904492",
            "18539974",
            "41",
            "1253",
            "2000",
            "0",
            "0",
            "0",
            "0",
            "reversedirection=yes railway=subway",
            "railway=halt",
            "973",
            "521297"
          ],
          [
            "-69904194",
            "18540915",
            "42",
            "109",
            "2000",
            "0",
            "0",
            "0",
            "0",
            "reversedirection=yes railway=subway",
            "railway=switch",
            "982",
            "526092"
          ],
          [
            "-69904078",
            "18541178",
            "42",
            "32",
            "2000",
            "0",
            "0",
            "0",
            "0",
            "reversedirection=yes railway=subway",
            "railway=switch",
            "985",
            "533060"
          ],
          [
            "-69900924",
            "18546628",
            "-8192",
            "841",
            "2000",
            "0",
            "0",
            "0",
            "0",
            "railway=subway",
            "railway=halt",
            "1052",
            "584794"
          ],
          [
            "-69901080",
            "18546960",
            "-8192",
            "40",
            "2000",
            "0",
            "0",
            "0",
            "0",
            "railway=subway",
            "",
            "1055",
            "586555"
          ],
          [
            "-69900924",
            "18546628",
            "-8192",
            "40",
            "2000",
            "0",
            "0",
            "0",
            "0",
            "reversedirection=yes railway=subway",
            "railway=halt",
            "3",
            "1759"
          ],
          [
            "-69904078",
            "18541178",
            "42",
            "841",
            "2000",
            "0",
            "0",
            "0",
            "0",
            "reversedirection=yes railway=subway",
            "railway=switch",
            "70",
            "38751"
          ],
          [
            "-69904462",
            "18539965",
            "41",
            "140",
            "2000",
            "0",
            "0",
            "0",
            "0",
            "reversedirection=yes railway=subway",
            "railway=halt",
            "81",
            "44908"
          ],
          [
            "-69908494",
            "18529447",
            "37",
            "1275",
            "2000",
            "0",
            "0",
            "0",
            "0",
            "reversedirection=yes railway=subway",
            "railway=halt",
            "183",
            "100990"
          ],
          [
            "-69916231",
            "18525344",
            "34",
            "980",
            "2000",
            "0",
            "0",
            "0",
            "0",
            "reversedirection=yes railway=subway",
            "railway=halt",
            "262",
            "144095"
          ],
          [
            "-69916604",
            "18524605",
            "34",
            "91",
            "2000",
            "0",
            "0",
            "0",
            "0",
            "reversedirection=yes railway=subway",
            "railway=switch",
            "269",
            "148098"
          ],
          [
            "-69915005",
            "18517915",
            "31",
            "827",
            "2000",
            "0",
            "0",
            "0",
            "0",
            "reversedirection=yes railway=subway",
            "railway=halt",
            "335",
            "184474"
          ],
          [
            "-69915616",
            "18509840",
            "28",
            "897",
            "2000",
            "0",
            "0",
            "0",
            "0",
            "reversedirection=yes railway=subway",
            "railway=switch",
            "407",
            "223928"
          ],
          [
            "-69915803",
            "18507784",
            "31",
            "229",
            "2000",
            "0",
            "0",
            "0",
            "0",
            "reversedirection=yes railway=subway",
            "railway=halt",
            "425",
            "230950"
          ],
          [
            "-69915434",
            "18499986",
            "-8192",
            "865",
            "2000",
            "0",
            "0",
            "0",
            "0",
            "reversedirection=yes railway=subway",
            "railway=halt",
            "494",
            "270295"
          ],
          [
            "-69915031",
            "18493864",
            "-8192",
            "679",
            "2000",
            "0",
            "0",
            "0",
            "0",
            "reversedirection=yes railway=subway",
            "railway=halt",
            "549",
            "300162"
          ],
          [
            "-69914489",
            "18485797",
            "-8192",
            "895",
            "2000",
            "0",
            "0",
            "0",
            "0",
            "reversedirection=yes railway=subway",
            "railway=halt",
            "620",
            "342172"
          ],
          [
            "-69914379",
            "18483547",
            "-8192",
            "249",
            "2000",
            "0",
            "0",
            "0",
            "0",
            "reversedirection=yes railway=subway",
            "railway=switch",
            "640",
            "353129"
          ],
          [
            "-69914347",
            "18482907",
            "-8192",
            "71",
            "2000",
            "0",
            "0",
            "0",
            "0",
            "reversedirection=yes railway=subway",
            "railway=switch",
            "646",
            "356252"
          ],
          [
            "-69914344",
            "18481625",
            "-8192",
            "142",
            "2000",
            "0",
            "0",
            "0",
            "0",
            "reversedirection=yes railway=subway",
            "railway=halt",
            "657",
            "362498"
          ],
          [
            "-69913765",
            "18476688",
            "-8192",
            "550",
            "2000",
            "0",
            "0",
            "0",
            "0",
            "reversedirection=yes railway=subway",
            "railway=halt",
            "701",
            "386690"
          ],
          [
            "-69912042",
            "18471231",
            "-8192",
            "631",
            "2000",
            "0",
            "0",
            "0",
            "0",
            "reversedirection=yes railway=subway",
            "railway=halt",
            "752",
            "414445"
          ],
          [
            "-69909895",
            "18464597",
            "-8192",
            "772",
            "2000",
            "0",
            "0",
            "0",
            "0",
            "reversedirection=yes railway=subway",
            "railway=halt",
            "813",
            "448401"
          ],
          [
            "-69916314",
            "18459159",
            "-8192",
            "1077",
            "2000",
            "0",
            "0",
            "0",
            "0",
            "reversedirection=yes railway=subway",
            "railway=halt",
            "900",
            "495774"
          ],
          [
            "-69924026",
            "18455524",
            "-8192",
            "909",
            "2000",
            "0",
            "0",
            "0",
            "0",
            "reversedirection=yes railway=subway",
            "railway=halt",
            "972",
            "535756"
          ],
          [
            "-69927442",
            "18450863",
            "-8192",
            "819",
            "2000",
            "0",
            "0",
            "0",
            "0",
            "reversedirection=yes railway=subway",
            "railway=halt",
            "1038",
            "571780"
          ],
          [
            "-69926351",
            "18449221",
            "-8192",
            "215",
            "2000",
            "0",
            "0",
            "0",
            "0",
            "reversedirection=yes railway=subway",
            "",
            "1055",
            "581237"
          ]
        ],
        "times": [
          0,
          17.2,
          26,
          33.44,
          35.92,
          38.16,
          40.16,
          42.56,
          45.12,
          58.72,
          63.92,
          83.76,
          156.48,
          210.32,
          219.04,
          220.96,
          222.8,
          224.32,
          225.92,
          227.76,
          229.84,
          241.52,
          260.32,
          273.36,
          285.28,
          303.44,
          338.64,
          353.92,
          398,
          407.2,
          418,
          434.96,
          484.96,
          506.56,
          560.88,
          585.52,
          592.88,
          604.16,
          620.08,
          623.68,
          626.4,
          633.12,
          642.88,
          643.2,
          645.52,
          648.56,
          657.52,
          678.64,
          696.88,
          720.16,
          725.68,
          728.16,
          729.92,
          731.6,
          733.44,
          735.36,
          737.36,
          739.68,
          756.96,
          758.72,
          760.8,
          762.72,
          764.48,
          766.08,
          767.68,
          770.72,
          772.88,
          774.24,
          775.84,
          777.44,
          779.2,
          784.24,
          793.6,
          796.8,
          799.28,
          800.88,
          802.8,
          805.36,
          807.84,
          810.16,
          812.24,
          814.64,
          816.56,
          849.52,
          851.76,
          854.16,
          856.4,
          858.32,
          860.48,
          862.32,
          864.24,
          866.24,
          873.68,
          882.48,
          884.56,
          886.56,
          888.96,
          891.52,
          893.92,
          896,
          898.16,
          899.92,
          902.16,
          904.56,
          906.64,
          921.6,
          923.36,
          925.04,
          927.12,
          928.88,
          930.88,
          932.72,
          936.88,
          949.52,
          956.4,
          963.84,
          965.6,
          969.04,
          973.92,
          982.64,
          985.2,
          992.24,
          994.72,
          996.48,
          998.72,
          1001.28,
          1003.04,
          1005.2,
          1006.88,
          1008.96,
          1011.28,
          1014.64,
          1016.56,
          1018.4,
          1020.4,
          1022.32,
          1024.16,
          1026.08,
          1027.92,
          1029.68,
          1031.52,
          1033.04,
          1034.4,
          1036.16,
          1037.6,
          1038.96,
          1040.72,
          1042.56,
          1052.48,
          1055.68,
          1058.88,
          1068.8,
          1070.64,
          1072.4,
          1073.76,
          1075.2,
          1076.96,
          1078.32,
          1079.84,
          1081.68,
          1083.44,
          1085.28,
          1087.2,
          1089.04,
          1090.96,
          1092.96,
          1094.8,
          1096.72,
          1100.08,
          1102.4,
          1104.48,
          1106.16,
          1108.32,
          1110.08,
          1112.64,
          1114.88,
          1116.64,
          1119.12,
          1126.16,
          1137.36,
          1143.84,
          1145.68,
          1147.52,
          1154.96,
          1169.68,
          1174.56,
          1178.64,
          1180.08,
          1181.6,
          1184.72,
          1186.32,
          1188.16,
          1197.12,
          1205.68,
          1207.76,
          1209.12,
          1212.56,
          1215.92,
          1218.16,
          1219.68,
          1221.6,
          1223.28,
          1225.28,
          1232.8,
          1237.92,
          1239.36,
          1244.8,
          1246.48,
          1248.72,
          1250.88,
          1253.44,
          1255.44,
          1257.6,
          1260.08,
          1262.56,
          1295.84,
          1297.68,
          1300.08,
          1302.48,
          1304.4,
          1306.56,
          1309.04,
          1310.48,
          1311.92,
          1317.76,
          1319.76,
          1325.04,
          1332.32,
          1334.32,
          1337.2,
          1338.4,
          1340.48,
          1343.28,
          1344.72,
          1346.48,
          1347.92,
          1349.92,
          1351.76,
          1354.24,
          1371.76,
          1374.08,
          1376.24,
          1377.92,
          1379.76,
          1381.52,
          1383.04,
          1391.2,
          1408.16,
          1432.32,
          1444.24,
          1450.88,
          1457.28,
          1462.96,
          1468.32,
          1478.32,
          1481.28,
          1487.84,
          1491.44,
          1507.12,
          1518.32,
          1525.84,
          1550.48,
          1604.8,
          1626.4,
          1635.6,
          1659.04,
          1676.4,
          1696.32,
          1702,
          1704.24,
          1708,
          1713.36,
          1757.36,
          1772.56,
          1807.84,
          1825.92,
          1838,
          1850.72,
          1869.6,
          1881.28,
          1883.52,
          1885.44,
          1886.96,
          1888.64,
          1890.56,
          1893.2,
          1902,
          1955.76,
          2028.48,
          2048.4,
          2053.52,
          2067.2,
          2069.44,
          2071.6,
          2073.6,
          2075.52,
          2077.76,
          2094,
          2111.2
        ]
      },
      "geometry": {
        "type": "LineString",
        "coordinates": [
          [
            -69.92642,
            18.449183,
            36.25
          ],
          [
            -69.927499,
            18.450833,
            36.25
          ],
          [
            -69.928014,
            18.451694,
            36.25
          ],
          [
            -69.928467,
            18.452416,
            36.25
          ],
          [
            -69.928566,
            18.45268,
            36.25
          ],
          [
            -69.928566,
            18.452933,
            36.25
          ],
          [
            -69.928488,
            18.453147,
            36.25
          ],
          [
            -69.928338,
            18.453376,
            36.25
          ],
          [
            -69.9281,
            18.453554,
            36.25
          ],
          [
            -69.926719,
            18.454339,
            36.25
          ],
          [
            -69.926186,
            18.454632,
            36.25
          ],
          [
            -69.924055,
            18.455582,
            36.25
          ],
          [
            -69.916349,
            18.459232,
            36.25
          ],
          [
            -69.910612,
            18.461871,
            36.25
          ],
          [
            -69.909688,
            18.462301,
            36.25
          ],
          [
            -69.909512,
            18.462444,
            36.25
          ],
          [
            -69.909374,
            18.462599,
            36.25
          ],
          [
            -69.909298,
            18.462757,
            36.25
          ],
          [
            -69.909284,
            18.462934,
            36.25
          ],
          [
            -69.909309,
            18.463139,
            36.25
          ],
          [
            -69.909381,
            18.463364,
            36.25
          ],
          [
            -69.909987,
            18.464554,
            36.25
          ],
          [
            -69.910931,
            18.466478,
            36.25
          ],
          [
            -69.911417,
            18.46788,
            36.25
          ],
          [
            -69.91172,
            18.469198,
            36.25
          ],
          [
            -69.912154,
            18.47121,
            36.25
          ],
          [
            -69.913294,
            18.475036,
            36.25
          ],
          [
            -69.91386,
            18.476677,
            36.25
          ],
          [
            -69.914426,
            18.481625,
            36.25
          ],
          [
            -69.914402,
            18.48266,
            36.25
          ],
          [
            -69.914464,
            18.483879,
            36.25
          ],
          [
            -69.914561,
            18.48579,
            36.25
          ],
          [
            -69.914902,
            18.491424,
            36.25
          ],
          [
            -69.915104,
            18.493857,
            36.25
          ],
          [
            -69.915505,
            18.499983,
            36.25
          ],
          [
            -69.915665,
            18.502765,
            36.25
          ],
          [
            -69.915702,
            18.503594,
            36.25
          ],
          [
            -69.915794,
            18.504864,
            36.25
          ],
          [
            -69.915956,
            18.506651,
            36.25
          ],
          [
            -69.915922,
            18.507053,
            36.25
          ],
          [
            -69.915895,
            18.507362,
            34.75
          ],
          [
            -69.91583,
            18.508119,
            28.75
          ],
          [
            -69.915732,
            18.509214,
            17
          ],
          [
            -69.91573,
            18.509246,
            17
          ],
          [
            -69.915699,
            18.509507,
            17
          ],
          [
            -69.915649,
            18.509844,
            17.25
          ],
          [
            -69.915555,
            18.51085,
            18
          ],
          [
            -69.915368,
            18.513233,
            19.5
          ],
          [
            -69.915232,
            18.51529,
            21
          ],
          [
            -69.915044,
            18.517916,
            22.75
          ],
          [
            -69.915003,
            18.51854,
            23
          ],
          [
            -69.914992,
            18.518816,
            23.25
          ],
          [
            -69.914998,
            18.519018,
            23.5
          ],
          [
            -69.91502,
            18.519205,
            23.5
          ],
          [
            -69.915069,
            18.519405,
            23.75
          ],
          [
            -69.91515,
            18.519611,
            23.75
          ],
          [
            -69.915259,
            18.519809,
            24
          ],
          [
            -69.915412,
            18.520029,
            24.25
          ],
          [
            -69.916734,
            18.521523,
            25.5
          ],
          [
            -69.916856,
            18.521684,
            25.5
          ],
          [
            -69.916975,
            18.521886,
            25.75
          ],
          [
            -69.917069,
            18.522079,
            26
          ],
          [
            -69.917139,
            18.52227,
            26
          ],
          [
            -69.917189,
            18.522444,
            26.25
          ],
          [
            -69.917221,
            18.522625,
            26.25
          ],
          [
            -69.917244,
            18.522968,
            26.5
          ],
          [
            -69.917222,
            18.52321,
            26.75
          ],
          [
            -69.917193,
            18.523362,
            26.75
          ],
          [
            -69.917146,
            18.523536,
            27
          ],
          [
            -69.917085,
            18.523707,
            27
          ],
          [
            -69.917002,
            18.52389,
            27.25
          ],
          [
            -69.916745,
            18.524407,
            27.5
          ],
          [
            -69.916267,
            18.525359,
            28.25
          ],
          [
            -69.916104,
            18.525689,
            28.5
          ],
          [
            -69.91597,
            18.525937,
            28.75
          ],
          [
            -69.915874,
            18.526095,
            28.75
          ],
          [
            -69.915747,
            18.526275,
            29
          ],
          [
            -69.91555,
            18.526497,
            29
          ],
          [
            -69.915326,
            18.526676,
            29.25
          ],
          [
            -69.915094,
            18.526817,
            29.5
          ],
          [
            -69.914875,
            18.526915,
            29.5
          ],
          [
            -69.914606,
            18.527007,
            29.75
          ],
          [
            -69.914391,
            18.527064,
            30
          ],
          [
            -69.910605,
            18.527955,
            32.5
          ],
          [
            -69.910354,
            18.528025,
            32.5
          ],
          [
            -69.910085,
            18.528117,
            32.75
          ],
          [
            -69.909847,
            18.528222,
            33
          ],
          [
            -69.909653,
            18.528335,
            33
          ],
          [
            -69.909449,
            18.528475,
            33.25
          ],
          [
            -69.909285,
            18.528609,
            33.5
          ],
          [
            -69.909122,
            18.528763,
            33.5
          ],
          [
            -69.908969,
            18.528934,
            33.75
          ],
          [
            -69.908413,
            18.529591,
            34.25
          ],
          [
            -69.907761,
            18.530366,
            35
          ],
          [
            -69.907617,
            18.530554,
            35
          ],
          [
            -69.907486,
            18.530744,
            35.25
          ],
          [
            -69.907337,
            18.53098,
            35.5
          ],
          [
            -69.907199,
            18.53124,
            35.5
          ],
          [
            -69.907098,
            18.531495,
            35.75
          ],
          [
            -69.907023,
            18.53172,
            36
          ],
          [
            -69.906961,
            18.531957,
            36
          ],
          [
            -69.906922,
            18.532151,
            36.25
          ],
          [
            -69.906898,
            18.532404,
            36.5
          ],
          [
            -69.906884,
            18.532678,
            36.5
          ],
          [
            -69.906885,
            18.532917,
            36.75
          ],
          [
            -69.906926,
            18.534602,
            37.75
          ],
          [
            -69.906921,
            18.5348,
            38
          ],
          [
            -69.9069,
            18.534989,
            38
          ],
          [
            -69.906862,
            18.535222,
            38.25
          ],
          [
            -69.906815,
            18.535418,
            38.5
          ],
          [
            -69.906747,
            18.53563,
            38.5
          ],
          [
            -69.906668,
            18.535819,
            38.75
          ],
          [
            -69.906446,
            18.536241,
            39
          ],
          [
            -69.905705,
            18.537478,
            40
          ],
          [
            -69.905293,
            18.538153,
            40.5
          ],
          [
            -69.904864,
            18.538889,
            41
          ],
          [
            -69.904779,
            18.539072,
            41.25
          ],
          [
            -69.904653,
            18.53944,
            41.5
          ],
          [
            -69.904492,
            18.539974,
            41.75
          ],
          [
            -69.904194,
            18.540915,
            42.5
          ],
          [
            -69.904078,
            18.541178,
            42.5
          ],
          [
            -69.90384,
            18.541937
          ],
          [
            -69.903713,
            18.542188
          ],
          [
            -69.903606,
            18.542354
          ],
          [
            -69.90344,
            18.542546
          ],
          [
            -69.903215,
            18.542739
          ],
          [
            -69.903041,
            18.542851
          ],
          [
            -69.902818,
            18.542962
          ],
          [
            -69.902628,
            18.543026
          ],
          [
            -69.902386,
            18.543085
          ],
          [
            -69.902115,
            18.543128
          ],
          [
            -69.901724,
            18.543201
          ],
          [
            -69.9015,
            18.543251
          ],
          [
            -69.901291,
            18.543324
          ],
          [
            -69.901082,
            18.543426
          ],
          [
            -69.900902,
            18.543553
          ],
          [
            -69.900737,
            18.54369
          ],
          [
            -69.90059,
            18.54385
          ],
          [
            -69.900474,
            18.544025
          ],
          [
            -69.900381,
            18.544202
          ],
          [
            -69.90031,
            18.544397
          ],
          [
            -69.900271,
            18.544561
          ],
          [
            -69.900254,
            18.544714
          ],
          [
            -69.900253,
            18.544915
          ],
          [
            -69.900266,
            18.545076
          ],
          [
            -69.900294,
            18.545225
          ],
          [
            -69.900358,
            18.545417
          ],
          [
            -69.900437,
            18.545613
          ],
          [
            -69.900924,
            18.546628
          ],
          [
            -69.90108,
            18.54696,
            42.75
          ],
          [
            -69.900924,
            18.546628,
            42.75
          ],
          [
            -69.900437,
            18.545613,
            42.75
          ],
          [
            -69.900358,
            18.545417,
            42.75
          ],
          [
            -69.900294,
            18.545225,
            42.75
          ],
          [
            -69.900266,
            18.545076,
            42.75
          ],
          [
            -69.900253,
            18.544915,
            42.75
          ],
          [
            -69.900254,
            18.544714,
            42.75
          ],
          [
            -69.900271,
            18.544561,
            42.75
          ],
          [
            -69.90031,
            18.544397,
            42.75
          ],
          [
            -69.900381,
            18.544202,
            42.75
          ],
          [
            -69.900474,
            18.544025,
            42.75
          ],
          [
            -69.90059,
            18.54385,
            42.75
          ],
          [
            -69.900737,
            18.54369,
            42.75
          ],
          [
            -69.900902,
            18.543553,
            42.75
          ],
          [
            -69.901082,
            18.543426,
            42.75
          ],
          [
            -69.901291,
            18.543324,
            42.75
          ],
          [
            -69.9015,
            18.543251,
            42.75
          ],
          [
            -69.901724,
            18.543201,
            42.75
          ],
          [
            -69.902115,
            18.543128,
            42.75
          ],
          [
            -69.902386,
            18.543085,
            42.75
          ],
          [
            -69.902628,
            18.543026,
            42.75
          ],
          [
            -69.902818,
            18.542962,
            42.75
          ],
          [
            -69.903041,
            18.542851,
            42.75
          ],
          [
            -69.903215,
            18.542739,
            42.75
          ],
          [
            -69.90344,
            18.542546,
            42.75
          ],
          [
            -69.903606,
            18.542354,
            42.75
          ],
          [
            -69.903713,
            18.542188,
            42.75
          ],
          [
            -69.90384,
            18.541937,
            42.75
          ],
          [
            -69.904078,
            18.541178,
            42.25
          ],
          [
            -69.904462,
            18.539965,
            41.75
          ],
          [
            -69.90468,
            18.539265,
            41.5
          ],
          [
            -69.904751,
            18.539067,
            41.5
          ],
          [
            -69.904836,
            18.53888,
            41.5
          ],
          [
            -69.905264,
            18.538141,
            41.25
          ],
          [
            -69.906136,
            18.536706,
            40.5
          ],
          [
            -69.906424,
            18.536227,
            40.25
          ],
          [
            -69.906639,
            18.535815,
            40.25
          ],
          [
            -69.9067,
            18.535665,
            40
          ],
          [
            -69.906754,
            18.535503,
            40
          ],
          [
            -69.906837,
            18.535161,
            40
          ],
          [
            -69.906867,
            18.534979,
            39.75
          ],
          [
            -69.906884,
            18.534774,
            39.75
          ],
          [
            -69.906875,
            18.533758,
            39.5
          ],
          [
            -69.906846,
            18.532791,
            39
          ],
          [
            -69.906844,
            18.532554,
            39
          ],
          [
            -69.906852,
            18.532397,
            39
          ],
          [
            -69.906903,
            18.532011,
            38.75
          ],
          [
            -69.906999,
            18.531642,
            38.5
          ],
          [
            -69.907084,
            18.531403,
            38.5
          ],
          [
            -69.907154,
            18.531241,
            38.5
          ],
          [
            -69.907251,
            18.531047,
            38.25
          ],
          [
            -69.907343,
            18.530878,
            38.25
          ],
          [
            -69.907464,
            18.530689,
            38.25
          ],
          [
            -69.908004,
            18.530014,
            38
          ],
          [
            -69.90839,
            18.529571,
            37.75
          ],
          [
            -69.908494,
            18.529447,
            37.75
          ],
          [
            -69.90889,
            18.528966,
            37.5
          ],
          [
            -69.909021,
            18.528825,
            37.25
          ],
          [
            -69.909205,
            18.52864,
            37.25
          ],
          [
            -69.909392,
            18.528468,
            37.25
          ],
          [
            -69.909635,
            18.528295,
            37
          ],
          [
            -69.909839,
            18.528184,
            37
          ],
          [
            -69.910069,
            18.528083,
            36.75
          ],
          [
            -69.910349,
            18.527991,
            36.75
          ],
          [
            -69.910636,
            18.527915,
            36.75
          ],
          [
            -69.914464,
            18.527014,
            35.25
          ],
          [
            -69.914677,
            18.526954,
            35.25
          ],
          [
            -69.914944,
            18.526853,
            35
          ],
          [
            -69.915192,
            18.526724,
            35
          ],
          [
            -69.915375,
            18.526592,
            35
          ],
          [
            -69.915562,
            18.526428,
            34.75
          ],
          [
            -69.915741,
            18.52621,
            34.75
          ],
          [
            -69.915836,
            18.526078,
            34.75
          ],
          [
            -69.915926,
            18.525937,
            34.5
          ],
          [
            -69.916231,
            18.525344,
            34.5
          ],
          [
            -69.916332,
            18.525142,
            34.25
          ],
          [
            -69.916604,
            18.524605,
            34
          ],
          [
            -69.916982,
            18.52387,
            33.75
          ],
          [
            -69.917074,
            18.523658,
            33.75
          ],
          [
            -69.917167,
            18.523341,
            33.5
          ],
          [
            -69.91719,
            18.523207,
            33.5
          ],
          [
            -69.917211,
            18.522972,
            33.5
          ],
          [
            -69.917194,
            18.522657,
            33.25
          ],
          [
            -69.917169,
            18.522497,
            33.25
          ],
          [
            -69.917116,
            18.522308,
            33.25
          ],
          [
            -69.91706,
            18.52215,
            33
          ],
          [
            -69.916966,
            18.52194,
            33
          ],
          [
            -69.916864,
            18.521755,
            33
          ],
          [
            -69.916692,
            18.521524,
            32.75
          ],
          [
            -69.915358,
            18.520012,
            32.25
          ],
          [
            -69.915205,
            18.519798,
            32
          ],
          [
            -69.915089,
            18.519585,
            32
          ],
          [
            -69.915023,
            18.519405,
            32
          ],
          [
            -69.914973,
            18.519202,
            31.75
          ],
          [
            -69.914953,
            18.519007,
            31.75
          ],
          [
            -69.914947,
            18.518835,
            31.75
          ],
          [
            -69.915005,
            18.517915,
            31.25
          ],
          [
            -69.915148,
            18.516006,
            30.5
          ],
          [
            -69.915331,
            18.513285,
            29.5
          ],
          [
            -69.915437,
            18.511945,
            29
          ],
          [
            -69.915484,
            18.511197,
            28.75
          ],
          [
            -69.91555,
            18.510474,
            28.5
          ],
          [
            -69.915616,
            18.50984,
            28.25
          ],
          [
            -69.915687,
            18.509243,
            28
          ],
          [
            -69.915778,
            18.508115,
            28.25
          ],
          [
            -69.915803,
            18.507784,
            31.25
          ],
          [
            -69.915866,
            18.507047,
            35.75
          ],
          [
            -69.915902,
            18.506645
          ],
          [
            -69.915732,
            18.504878
          ],
          [
            -69.915639,
            18.503617
          ],
          [
            -69.915601,
            18.502764
          ],
          [
            -69.915434,
            18.499986
          ],
          [
            -69.915031,
            18.493864
          ],
          [
            -69.914838,
            18.491434
          ],
          [
            -69.914789,
            18.490397
          ],
          [
            -69.914625,
            18.487753
          ],
          [
            -69.914489,
            18.485797
          ],
          [
            -69.914379,
            18.483547
          ],
          [
            -69.914347,
            18.482907
          ],
          [
            -69.914335,
            18.482655
          ],
          [
            -69.914344,
            18.482232
          ],
          [
            -69.914344,
            18.481625
          ],
          [
            -69.913765,
            18.476688
          ],
          [
            -69.913188,
            18.475066
          ],
          [
            -69.912042,
            18.471231
          ],
          [
            -69.911624,
            18.46923
          ],
          [
            -69.911298,
            18.4679
          ],
          [
            -69.910848,
            18.466527
          ],
          [
            -69.909895,
            18.464597
          ],
          [
            -69.9093,
            18.463402
          ],
          [
            -69.909218,
            18.463157
          ],
          [
            -69.909187,
            18.462939
          ],
          [
            -69.909186,
            18.462766
          ],
          [
            -69.909257,
            18.462587
          ],
          [
            -69.909408,
            18.462424
          ],
          [
            -69.909645,
            18.46223
          ],
          [
            -69.910577,
            18.461791
          ],
          [
            -69.916314,
            18.459159
          ],
          [
            -69.924026,
            18.455524
          ],
          [
            -69.926159,
            18.454568
          ],
          [
            -69.926684,
            18.454281
          ],
          [
            -69.928078,
            18.453495
          ],
          [
            -69.928285,
            18.453336
          ],
          [
            -69.928415,
            18.453128
          ],
          [
            -69.928483,
            18.452914
          ],
          [
            -69.928485,
            18.452693
          ],
          [
            -69.928397,
            18.452456
          ],
          [
            -69.927442,
            18.450863
          ],
          [
            -69.926351,
            18.449221
          ]
        ]
      }
    }
  ]
}