{
  "type": "FeatureCollection",
  "features": [
    {
      "type": "Feature",
      "properties": {
        "creator": "BRouter-1.7.9",
        "name": "[OPRET] L2",
        "track-length": "40585",
        "filtered ascend": "17",
        "plain-ascend": "4",
        "total-time": "3247",
        "total-energy": "1790696",
        "cost": "81170",
        "messages": [
          [
            "Longitude",
            "Latitude",
            "Elevation",
            "Distance",
            "CostPerKm",
            "ElevCost",
            "TurnCost",
            "NodeCost",
            "InitialCost",
            "WayTags",
            "NodeTags",
            "Time",
            "Energy"
          ],
          [
            "-69863415",
            "18509935",
            "-8192",
            "851",
            "2000",
            "0",
            "0",
            "0",
            "0",
            "railway=subway",
            "railway=halt",
            "68",
            "37431"
          ],
          [
            "-69869537",
            "18510178",
            "-8192",
            "647",
            "2000",
            "0",
            "0",
            "0",
            "0",
            "railway=subway",
            "railway=halt",
            "119",
            "65889"
          ],
          [
            "-69876088",
            "18509904",
            "-8192",
            "703",
            "2000",
            "0",
            "0",
            "0",
            "0",
            "railway=subway",
            "railway=halt",
            "176",
            "96811"
          ],
          [
            "-69883972",
            "18504403",
            "27",
            "1032",
            "2000",
            "0",
            "0",
            "0",
            "0",
            "railway=subway",
            "railway=halt",
            "258",
            "144631"
          ],
          [
            "-69889914",
            "18499790",
            "32",
            "809",
            "2000",
            "0",
            "0",
            "0",
            "0",
            "railway=subway",
            "railway=halt",
            "323",
            "180657"
          ],
          [
            "-69896192",
            "18495767",
            "37",
            "799",
            "2000",
            "0",
            "0",
            "0",
            "0",
            "railway=subway",
            "railway=halt",
            "387",
            "215802"
          ],
          [
            "-69899257",
            "18492959",
            "40",
            "449",
            "2000",
            "0",
            "0",
            "0",
            "0",
            "railway=subway",
            "railway=halt",
            "423",
            "238170"
          ],
          [
            "-69904649",
            "18487620",
            "44",
            "859",
            "2000",
            "0",
            "0",
            "0",
            "0",
            "railway=subway",
            "railway=halt",
            "491",
            "279253"
          ],
          [
            "-69906847",
            "18481852",
            "44",
            "730",
            "2000",
            "0",
            "0",
            "0",
            "0",
            "railway=subway",
            "railway=halt",
            "550",
            "312506"
          ],
          [
            "-69912005",
            "18481676",
            "45",
            "547",
            "2000",
            "0",
            "0",
            "0",
            "0",
            "railway=subway",
            "railway=switch",
            "594",
            "336567"
          ],
          [
            "-69912896",
            "18481656",
            "45",
            "94",
            "2000",
            "0",
            "0",
            "0",
            "0",
            "railway=subway",
            "railway=switch",
            "601",
            "340701"
          ],
          [
            "-69914546",
            "18481522",
            "45",
            "175",
            "2000",
            "0",
            "0",
            "0",
            "0",
            "railway=subway",
            "railway=halt",
            "615",
            "348399"
          ],
          [
            "-69920470",
            "18481976",
            "45",
            "628",
            "2000",
            "0",
            "0",
            "0",
            "0",
            "railway=subway",
            "railway=halt",
            "665",
            "378613"
          ],
          [
            "-69930834",
            "18482600",
            "45",
            "1098",
            "2000",
            "0",
            "0",
            "0",
            "0",
            "railway=subway",
            "railway=halt",
            "753",
            "426966"
          ],
          [
            "-69940785",
            "18483769",
            "46",
            "1066",
            "2000",
            "0",
            "0",
            "0",
            "0",
            "railway=subway",
            "railway=halt",
            "838",
            "473854"
          ],
          [
            "-69946569",
            "18482046",
            "46",
            "641",
            "2000",
            "0",
            "0",
            "0",
            "0",
            "railway=subway",
            "railway=halt",
            "890",
            "502049"
          ],
          [
            "-69954486",
            "18481491",
            "46",
            "840",
            "2000",
            "0",
            "0",
            "0",
            "0",
            "railway=subway",
            "railway=halt",
            "957",
            "538996"
          ],
          [
            "-69962016",
            "18479869",
            "46",
            "815",
            "2000",
            "0",
            "0",
            "0",
            "0",
            "railway=subway",
            "railway=halt",
            "1022",
            "574844"
          ],
          [
            "-69968194",
            "18478737",
            "47",
            "665",
            "2000",
            "0",
            "0",
            "0",
            "0",
            "railway=subway",
            "railway=halt",
            "1075",
            "604094"
          ],
          [
            "-69978138",
            "18485787",
            "-8192",
            "1526",
            "2000",
            "0",
            "0",
            "0",
            "0",
            "railway=subway",
            "railway=halt",
            "1197",
            "672974"
          ],
          [
            "-69978998",
            "18486612",
            "-8192",
            "129",
            "2000",
            "0",
            "0",
            "0",
            "0",
            "railway=subway",
            "railway=switch",
            "1208",
            "678654"
          ],
          [
            "-69991046",
            "18496481",
            "-8192",
            "1683",
            "2000",
            "0",
            "0",
            "0",
            "0",
            "railway=subway",
            "railway=halt",
            "1342",
            "752683"
          ],
          [
            "-69999370",
            "18502647",
            "-8192",
            "1115",
            "2000",
            "0",
            "0",
            "0",
            "0",
            "railway=subway",
            "railway=halt",
            "1432",
            "801727"
          ],
          [
            "-70008232",
            "18510480",
            "-8192",
            "1284",
            "2000",
            "0",
            "0",
            "0",
            "0",
            "railway=subway",
            "railway=halt",
            "1534",
            "858204"
          ],
          [
            "-70008471",
            "18510899",
            "-8192",
            "53",
            "2000",
            "0",
            "0",
            "0",
            "0",
            "railway=subway",
            "railway=switch",
            "1539",
            "860535"
          ],
          [
            "-70008731",
            "18511250",
            "-8192",
            "48",
            "2000",
            "0",
            "0",
            "0",
            "0",
            "reversedirection=yes railway=subway",
            "railway=switch",
            "1542",
            "862646"
          ],
          [
            "-70010412",
            "18519643",
            "-8192",
            "951",
            "2000",
            "0",
            "0",
            "0",
            "0",
            "reversedirection=yes railway=subway",
            "railway=halt",
            "1618",
            "904476"
          ],
          [
            "-70010483",
            "18520116",
            "-8192",
            "53",
            "2000",
            "0",
            "0",
            "0",
            "0",
            "reversedirection=yes railway=subway",
            "",
            "1623",
            "906807"
          ],
          [
            "-70010412",
            "18519643",
            "-8192",
            "53",
            "2000",
            "0",
            "0",
            "0",
            "0",
            "railway=subway",
            "railway=halt",
            "4",
            "2331"
          ],
          [
            "-70008731",
            "18511250",
            "-8192",
            "951",
            "2000",
            "0",
            "0",
            "0",
            "0",
            "railway=subway",
            "railway=switch",
            "80",
            "44161"
          ],
          [
            "-70008278",
            "18510458",
            "-8192",
            "100",
            "2000",
            "0",
            "0",
            "0",
            "0",
            "railway=subway",
            "railway=halt",
            "88",
            "48559"
          ],
          [
            "-69999409",
            "18502609",
            "-8192",
            "1287",
            "2000",
            "0",
            "0",
            "0",
            "0",
            "railway=subway",
            "railway=halt",
            "191",
            "105168"
          ],
          [
            "-69991075",
            "18496447",
            "-8192",
            "1114",
            "2000",
            "0",
            "0",
            "0",
            "0",
            "railway=subway",
            "railway=halt",
            "280",
            "154168"
          ],
          [
            "-69978824",
            "18486386",
            "-8192",
            "1712",
            "2000",
            "0",
            "0",
            "0",
            "0",
            "railway=subway",
            "railway=switch",
            "417",
            "229471"
          ],
          [
            "-69978185",
            "18485749",
            "-8192",
            "98",
            "2000",
            "0",
            "0",
            "0",
            "0",
            "railway=subway",
            "railway=halt",
            "425",
            "233781"
          ],
          [
            "-69968186",
            "18478677",
            "-8192",
            "1536",
            "2000",
            "0",
            "0",
            "0",
            "0",
            "railway=subway",
            "railway=halt",
            "548",
            "302446"
          ],
          [
            "-69962002",
            "18479811",
            "-8192",
            "665",
            "2000",
            "0",
            "0",
            "0",
            "0",
            "railway=subway",
            "railway=halt",
            "601",
            "331696"
          ],
          [
            "-69954473",
            "18481439",
            "-8192",
            "815",
            "2000",
            "0",
            "0",
            "0",
            "0",
            "railway=subway",
            "railway=halt",
            "666",
            "367544"
          ],
          [
            "-69946564",
            "18481988",
            "-8192",
            "838",
            "2000",
            "0",
            "0",
            "0",
            "0",
            "railway=subway",
            "railway=halt",
            "733",
            "404404"
          ],
          [
            "-69940761",
            "18483717",
            "-8192",
            "644",
            "2000",
            "0",
            "0",
            "0",
            "0",
            "railway=subway",
            "railway=halt",
            "785",
            "432730"
          ],
          [
            "-69930840",
            "18482536",
            "-8192",
            "1065",
            "2000",
            "0",
            "0",
            "0",
            "0",
            "railway=subway",
            "railway=halt",
            "870",
            "479575"
          ],
          [
            "-69920474",
            "18481920",
            "-8192",
            "1097",
            "2000",
            "0",
            "0",
            "0",
            "0",
            "railway=subway",
            "railway=halt",
            "958",
            "527826"
          ],
          [
            "-69914549",
            "18481451",
            "-8192",
            "628",
            "2000",
            "0",
            "0",
            "0",
            "0",
            "railway=subway",
            "railway=halt",
            "1008",
            "555449"
          ],
          [
            "-69912125",
            "18481607",
            "-8192",
            "257",
            "2000",
            "0",
            "0",
            "0",
            "0",
            "railway=subway",
            "",
            "1028",
            "566753"
          ],
          [
            "-69911527",
            "18481611",
            "-8192",
            "63",
            "2000",
            "0",
            "0",
            "0",
            "0",
            "railway=subway",
            "railway=switch",
            "5",
            "2771"
          ],
          [
            "-69906826",
            "18481780",
            "-8192",
            "498",
            "2000",
            "0",
            "0",
            "0",
            "0",
            "railway=subway",
            "railway=halt",
            "44",
            "24675"
          ],
          [
            "-69904575",
            "18487620",
            "43",
            "741",
            "2000",
            "0",
            "0",
            "0",
            "0",
            "railway=subway",
            "railway=halt",
            "104",
            "57268"
          ],
          [
            "-69899218",
            "18492897",
            "38",
            "851",
            "2000",
            "0",
            "0",
            "0",
            "0",
            "railway=subway",
            "railway=halt",
            "172",
            "94700"
          ],
          [
            "-69896161",
            "18495716",
            "36",
            "449",
            "2000",
            "0",
            "0",
            "0",
            "0",
            "railway=subway",
            "railway=halt",
            "208",
            "114449"
          ],
          [
            "-69889885",
            "18499740",
            "31",
            "799",
            "2000",
            "0",
            "0",
            "0",
            "0",
            "railway=subway",
            "railway=halt",
            "272",
            "149593"
          ],
          [
            "-69883934",
            "18504354",
            "26",
            "809",
            "2000",
            "0",
            "0",
            "0",
            "0",
            "railway=subway",
            "railway=halt",
            "336",
            "185177"
          ],
          [
            "-69876057",
            "18509860",
            "-8192",
            "1032",
            "2000",
            "0",
            "0",
            "0",
            "0",
            "railway=subway",
            "railway=halt",
            "419",
            "220678"
          ],
          [
            "-69869540",
            "18510123",
            "-8192",
            "699",
            "2000",
            "0",
            "0",
            "0",
            "0",
            "railway=subway",
            "railway=halt",
            "475",
            "251422"
          ],
          [
            "-69863421",
            "18509887",
            "-8192",
            "647",
            "2000",
            "0",
            "0",
            "0",
            "0",
            "railway=subway",
            "railway=halt",
            "527",
            "279881"
          ],
          [
            "-69857748",
            "18505239",
            "-8192",
            "847",
            "2000",
            "0",
            "0",
            "0",
            "0",
            "railway=subway",
            "",
            "594",
            "317136"
          ]
        ],
        "times": [
          0,
          44.64,
          48,
          50.72,
          52.88,
          55.68,
          68.08,
          119.84,
          163.44,
          167.84,
          171.68,
          176.08,
          187.44,
          239.12,
          247.28,
          258.64,
          290.8,
          323.36,
          387.28,
          388.56,
          423.2,
          441.36,
          454.96,
          465.28,
          472.16,
          481.12,
          491.92,
          515.6,
          521.28,
          527.2,
          534.72,
          541.52,
          546.8,
          550.32,
          554.72,
          560.24,
          594.08,
          601.6,
          615.6,
          635.12,
          665.84,
          730.24,
          753.68,
          780.4,
          816.8,
          826.32,
          830.96,
          834.16,
          836.88,
          838.96,
          862.08,
          888.56,
          890.24,
          950.08,
          957.44,
          1022.64,
          1075.84,
          1101.76,
          1108.8,
          1114.8,
          1120.16,
          1125.68,
          1129.92,
          1135.52,
          1140.72,
          1144.56,
          1148.64,
          1155.04,
          1157.2,
          1159.76,
          1164.96,
          1167.84,
          1171.52,
          1174.4,
          1178.4,
          1185.52,
          1188.4,
          1194.08,
          1197.92,
          1208.24,
          1214.24,
          1223.04,
          1230.8,
          1236.96,
          1249.92,
          1260.32,
          1268.08,
          1299.68,
          1317.12,
          1324.48,
          1333.52,
          1342.88,
          1354.8,
          1366.08,
          1401.52,
          1411.84,
          1422.08,
          1432.08,
          1434.08,
          1440.8,
          1453.04,
          1464.64,
          1484.08,
          1505.2,
          1510.8,
          1516.4,
          1522.32,
          1528.32,
          1534.8,
          1539.04,
          1542.88,
          1548.64,
          1553.68,
          1580.64,
          1595.92,
          1604,
          1618.96,
          1623.2,
          1627.44,
          1642.4,
          1650.48,
          1665.76,
          1692.72,
          1697.76,
          1703.52,
          1711.52,
          1724,
          1730.08,
          1735.6,
          1741.12,
          1761.68,
          1781.84,
          1793.44,
          1805.68,
          1814.48,
          1824.16,
          1834.48,
          1863.28,
          1880.96,
          1891.84,
          1903.6,
          1912.8,
          1922,
          1925.68,
          1941.6,
          1962.96,
          1978.16,
          1985.84,
          1996.56,
          2008.96,
          2015.6,
          2023.28,
          2032.24,
          2040.56,
          2048.4,
          2052.64,
          2057.84,
          2067.6,
          2070.16,
          2072.08,
          2075.6,
          2078.16,
          2081.52,
          2084.96,
          2088.88,
          2091.12,
          2097.52,
          2101.28,
          2105.52,
          2110.88,
          2116.72,
          2126.72,
          2132,
          2138.32,
          2145.28,
          2171.28,
          2224.48,
          2289.68,
          2296.96,
          2356.72,
          2358.48,
          2384.96,
          2408.24,
          2410.32,
          2413.04,
          2415.76,
          2420.8,
          2430.16,
          2466.72,
          2493.44,
          2516.88,
          2581.2,
          2631.44,
          2645.52,
          2652,
          2652.64,
          2657.04,
          2686.96,
          2692.4,
          2696.88,
          2700.56,
          2706.08,
          2713.2,
          2720.56,
          2726.64,
          2732.48,
          2756.16,
          2766.72,
          2775.52,
          2782.24,
          2792.4,
          2806.08,
          2824.24,
          2858.96,
          2860.16,
          2924.08,
          2956.72,
          2988.8,
          3000.16,
          3008.32,
          3060,
          3071.36,
          3075.68,
          3079.44,
          3083.84,
          3127.28,
          3179.04,
          3191.44,
          3194.16,
          3196.48,
          3198.96,
          3202.32,
          3246.8
        ]
      },
      "geometry": {
        "type": "LineString",
        "coordinates": [
          [
            -69.8577,
            18.505265,
            31.25
          ],
          [
            -69.860753,
            18.509378,
            31.25
          ],
          [
            -69.861081,
            18.5096,
            31.25
          ],
          [
            -69.861371,
            18.509739,
            31.25
          ],
          [
            -69.861616,
            18.509815,
            31.25
          ],
          [
            -69.861946,
            18.509867,
            31.25
          ],
          [
            -69.863415,
            18.509935,
            31.25
          ],
          [
            -69.869537,
            18.510178,
            31.25
          ],
          [
            -69.874693,
            18.510351,
            31.25
          ],
          [
            -69.875208,
            18.5103,
            31.25
          ],
          [
            -69.875638,
            18.510163,
            31.25
          ],
          [
            -69.876088,
            18.509904,
            31.25
          ],
          [
            -69.877134,
            18.509097,
            31.25
          ],
          [
            -69.882067,
            18.505648,
            25.75
          ],
          [
            -69.882853,
            18.505119,
            26.25
          ],
          [
            -69.883972,
            18.504403,
            27.25
          ],
          [
            -69.886922,
            18.502102,
            29.75
          ],
          [
            -69.889914,
            18.49979,
            32.25
          ],
          [
            -69.896192,
            18.495767,
            37.25
          ],
          [
            -69.89632,
            18.495685,
            37.25
          ],
          [
            -69.899257,
            18.492959,
            40
          ],
          [
            -69.901123,
            18.491933,
            41.5
          ],
          [
            -69.902427,
            18.491033,
            42.5
          ],
          [
            -69.903398,
            18.490324,
            43.25
          ],
          [
            -69.903905,
            18.489712,
            43.75
          ],
          [
            -69.904389,
            18.488813,
            44.5
          ],
          [
            -69.904649,
            18.48762,
            44.5
          ],
          [
            -69.904614,
            18.48495,
            44.5
          ],
          [
            -69.90473,
            18.484316,
            44.5
          ],
          [
            -69.905042,
            18.483722,
            44.5
          ],
          [
            -69.905486,
            18.482985,
            44.5
          ],
          [
            -69.905978,
            18.482373,
            44.75
          ],
          [
            -69.906466,
            18.482005,
            44.75
          ],
          [
            -69.906847,
            18.481852,
            44.75
          ],
          [
            -69.907352,
            18.481738,
            44.75
          ],
          [
            -69.907998,
            18.481669,
            44.75
          ],
          [
            -69.912005,
            18.481676,
            45
          ],
          [
            -69.912896,
            18.481656,
            45
          ],
          [
            -69.914546,
            18.481522,
            45
          ],
          [
            -69.916852,
            18.481686,
            45
          ],
          [
            -69.92047,
            18.481976,
            45.25
          ],
          [
            -69.928067,
            18.4825,
            45.5
          ],
          [
            -69.930834,
            18.4826,
            45.5
          ],
          [
            -69.93399,
            18.482768,
            45.75
          ],
          [
            -69.938191,
            18.483683,
            45.75
          ],
          [
            -69.939303,
            18.483866,
            46
          ],
          [
            -69.939853,
            18.483897,
            46
          ],
          [
            -69.940227,
            18.483897,
            46
          ],
          [
            -69.940548,
            18.483847,
            46
          ],
          [
            -69.940785,
            18.483769,
            46
          ],
          [
            -69.943328,
            18.482799,
            46
          ],
          [
            -69.946372,
            18.482077,
            46.25
          ],
          [
            -69.946569,
            18.482046,
            46.25
          ],
          [
            -69.953635,
            18.481658,
            46.5
          ],
          [
            -69.954486,
            18.481491,
            46.5
          ],
          [
            -69.962016,
            18.479869,
            46.75
          ],
          [
            -69.968194,
            18.478737,
            47
          ],
          [
            -69.971244,
            18.478461,
            47.25
          ],
          [
            -69.972078,
            18.478481,
            47.25
          ],
          [
            -69.972779,
            18.478613,
            47.25
          ],
          [
            -69.973377,
            18.478803,
            47.25
          ],
          [
            -69.97393,
            18.479131,
            47.25
          ],
          [
            -69.974351,
            18.479392,
            47.25
          ],
          [
            -69.974803,
            18.47986,
            47.25
          ],
          [
            -69.97506,
            18.480393,
            47.25
          ],
          [
            -69.975097,
            18.480821,
            47.25
          ],
          [
            -69.975155,
            18.481275,
            47.25
          ],
          [
            -69.975232,
            18.481996,
            47.5
          ],
          [
            -69.975267,
            18.482242,
            47.5
          ],
          [
            -69.975329,
            18.482523
          ],
          [
            -69.975512,
            18.483084
          ],
          [
            -69.975657,
            18.483379
          ],
          [
            -69.975887,
            18.483727
          ],
          [
            -69.976099,
            18.483981
          ],
          [
            -69.976437,
            18.484301
          ],
          [
            -69.977089,
            18.484812
          ],
          [
            -69.977345,
            18.485024
          ],
          [
            -69.97782,
            18.485472
          ],
          [
            -69.978138,
            18.485787
          ],
          [
            -69.978998,
            18.486612
          ],
          [
            -69.979489,
            18.487096
          ],
          [
            -69.980187,
            18.487831
          ],
          [
            -69.980789,
            18.488496
          ],
          [
            -69.981276,
            18.48901
          ],
          [
            -69.98237,
            18.490042
          ],
          [
            -69.983286,
            18.490827
          ],
          [
            -69.984002,
            18.49138
          ],
          [
            -69.986963,
            18.493554
          ],
          [
            -69.988584,
            18.49477
          ],
          [
            -69.989283,
            18.495261
          ],
          [
            -69.990184,
            18.495816
          ],
          [
            -69.991046,
            18.496481
          ],
          [
            -69.992121,
            18.497349
          ],
          [
            -69.993112,
            18.498209
          ],
          [
            -69.996417,
            18.500667
          ],
          [
            -69.9974,
            18.501354
          ],
          [
            -69.99843,
            18.501966
          ],
          [
            -69.99937,
            18.502647
          ],
          [
            -69.999553,
            18.50279
          ],
          [
            -70.000176,
            18.503263
          ],
          [
            -70.001238,
            18.5042
          ],
          [
            -70.002275,
            18.505065
          ],
          [
            -70.004093,
            18.506412
          ],
          [
            -70.006052,
            18.507901
          ],
          [
            -70.006568,
            18.5083
          ],
          [
            -70.007045,
            18.508744
          ],
          [
            -70.007473,
            18.509275
          ],
          [
            -70.007834,
            18.509857
          ],
          [
            -70.008232,
            18.51048
          ],
          [
            -70.008471,
            18.510899
          ],
          [
            -70.008731,
            18.51125
          ],
          [
            -70.009052,
            18.511824
          ],
          [
            -70.009233,
            18.512365
          ],
          [
            -70.009703,
            18.515376
          ],
          [
            -70.009962,
            18.51708
          ],
          [
            -70.010149,
            18.517973
          ],
          [
            -70.010412,
            18.519643
          ],
          [
            -70.010483,
            18.520116,
            47.5
          ],
          [
            -70.010412,
            18.519643,
            47.5
          ],
          [
            -70.010149,
            18.517973,
            47.5
          ],
          [
            -70.009962,
            18.51708,
            47.5
          ],
          [
            -70.009703,
            18.515376,
            47.5
          ],
          [
            -70.009233,
            18.512365,
            47.5
          ],
          [
            -70.009052,
            18.511824,
            47.5
          ],
          [
            -70.008731,
            18.51125,
            47.5
          ],
          [
            -70.008278,
            18.510458,
            47.5
          ],
          [
            -70.007509,
            18.509253,
            47.5
          ],
          [
            -70.007073,
            18.508705,
            47.5
          ],
          [
            -70.0066,
            18.508277,
            47.5
          ],
          [
            -70.006094,
            18.50788,
            47.5
          ],
          [
            -70.004184,
            18.506443,
            47.5
          ],
          [
            -70.002305,
            18.505039,
            47.5
          ],
          [
            -70.001275,
            18.504178,
            47.5
          ],
          [
            -70.000212,
            18.503237,
            47.5
          ],
          [
            -69.999409,
            18.502609,
            47.5
          ],
          [
            -69.998489,
            18.501961,
            47.5
          ],
          [
            -69.997455,
            18.501344,
            47.5
          ],
          [
            -69.994743,
            18.499373,
            47.5
          ],
          [
            -69.993092,
            18.49814,
            47.5
          ],
          [
            -69.992143,
            18.497303,
            47.5
          ],
          [
            -69.991075,
            18.496447,
            47.5
          ],
          [
            -69.990227,
            18.495802,
            47.5
          ],
          [
            -69.989312,
            18.495232,
            47.5
          ],
          [
            -69.988958,
            18.494991,
            47.5
          ],
          [
            -69.987471,
            18.493881,
            47.5
          ],
          [
            -69.985464,
            18.492414,
            47.5
          ],
          [
            -69.98404,
            18.491359,
            47.5
          ],
          [
            -69.983328,
            18.490813,
            47.5
          ],
          [
            -69.982386,
            18.489999,
            47.5
          ],
          [
            -69.98134,
            18.489014,
            47.5
          ],
          [
            -69.980814,
            18.488462,
            47.5
          ],
          [
            -69.980219,
            18.487807,
            47.5
          ],
          [
            -69.979509,
            18.487057,
            47.5
          ],
          [
            -69.978824,
            18.486386,
            47.5
          ],
          [
            -69.978185,
            18.485749,
            47.5
          ],
          [
            -69.977824,
            18.485421,
            47.5
          ],
          [
            -69.977386,
            18.485004,
            47.5
          ],
          [
            -69.976499,
            18.484299,
            47.5
          ],
          [
            -69.976272,
            18.484104,
            47.5
          ],
          [
            -69.976116,
            18.483942,
            47.5
          ],
          [
            -69.975863,
            18.483628,
            47.5
          ],
          [
            -69.975709,
            18.483383,
            47.5
          ],
          [
            -69.975536,
            18.483043,
            47.5
          ],
          [
            -69.97541,
            18.482675,
            47.5
          ],
          [
            -69.975314,
            18.482238,
            47.5
          ],
          [
            -69.975276,
            18.48199,
            48.75
          ],
          [
            -69.975203,
            18.481272
          ],
          [
            -69.975182,
            18.480846
          ],
          [
            -69.975145,
            18.480369
          ],
          [
            -69.974874,
            18.479825
          ],
          [
            -69.974407,
            18.479334
          ],
          [
            -69.973405,
            18.478733
          ],
          [
            -69.972811,
            18.478541
          ],
          [
            -69.972072,
            18.478408
          ],
          [
            -69.971248,
            18.478396
          ],
          [
            -69.968186,
            18.478677
          ],
          [
            -69.962002,
            18.479811
          ],
          [
            -69.954473,
            18.481439
          ],
          [
            -69.953626,
            18.481596
          ],
          [
            -69.946564,
            18.481988
          ],
          [
            -69.946358,
            18.482024
          ],
          [
            -69.943319,
            18.482742
          ],
          [
            -69.940761,
            18.483717
          ],
          [
            -69.940533,
            18.483794
          ],
          [
            -69.940217,
            18.483837
          ],
          [
            -69.939896,
            18.48384
          ],
          [
            -69.939303,
            18.483804
          ],
          [
            -69.938214,
            18.483627
          ],
          [
            -69.933999,
            18.482707
          ],
          [
            -69.93084,
            18.482536
          ],
          [
            -69.928065,
            18.482449
          ],
          [
            -69.920474,
            18.48192
          ],
          [
            -69.914549,
            18.481451
          ],
          [
            -69.912893,
            18.481586
          ],
          [
            -69.912125,
            18.481607,
            45.5
          ],
          [
            -69.912048,
            18.48161,
            45.5
          ],
          [
            -69.911527,
            18.481611,
            45.5
          ],
          [
            -69.907983,
            18.481601,
            45.5
          ],
          [
            -69.90734,
            18.481667,
            45.5
          ],
          [
            -69.906826,
            18.48178,
            45.5
          ],
          [
            -69.906426,
            18.481935,
            45.5
          ],
          [
            -69.905911,
            18.482322,
            45.5
          ],
          [
            -69.905394,
            18.482962,
            45.5
          ],
          [
            -69.904972,
            18.483685,
            45.5
          ],
          [
            -69.904643,
            18.4843,
            45.5
          ],
          [
            -69.904529,
            18.484946,
            45.5
          ],
          [
            -69.904575,
            18.48762,
            43.75
          ],
          [
            -69.90432,
            18.488785,
            43
          ],
          [
            -69.903839,
            18.48967,
            42.25
          ],
          [
            -69.90335,
            18.490269,
            41.75
          ],
          [
            -69.902392,
            18.490968,
            41
          ],
          [
            -69.901083,
            18.491875,
            40
          ],
          [
            -69.899218,
            18.492897,
            38.75
          ],
          [
            -69.89628,
            18.49564,
            36.25
          ],
          [
            -69.896161,
            18.495716,
            36
          ],
          [
            -69.889885,
            18.49974,
            31.5
          ],
          [
            -69.886884,
            18.502065,
            29
          ],
          [
            -69.883934,
            18.504354,
            26.75
          ],
          [
            -69.882826,
            18.505075,
            25.75
          ],
          [
            -69.882034,
            18.505607,
            26
          ],
          [
            -69.877101,
            18.509058,
            31.25
          ],
          [
            -69.876057,
            18.50986
          ],
          [
            -69.875616,
            18.510105
          ],
          [
            -69.875196,
            18.51025
          ],
          [
            -69.874678,
            18.510298
          ],
          [
            -69.86954,
            18.510123
          ],
          [
            -69.863421,
            18.509887
          ],
          [
            -69.861952,
            18.509826
          ],
          [
            -69.861633,
            18.509773
          ],
          [
            -69.861374,
            18.509692
          ],
          [
            -69.86111,
            18.50956
          ],
          [
            -69.860783,
            18.509342
          ],
          [
            -69.857748,
            18.505239
          ]
        ]
      }
    }
  ]
}