{
  "type": "FeatureCollection",
  "features": [
    {
      "type": "Feature",
      "properties": {
        "creator": "BRouter-1.7.9",
        "name": "[ORD Airport] ATS",
        "track-length": "9778",
        "filtered ascend": "6",
        "plain-ascend": "3",
        "total-time": "782",
        "total-energy": "429513",
        "cost": "9778",
        "messages": [
          [
            "Longitude",
            "Latitude",
            "Elevation",
            "Distance",
            "CostPerKm",
            "ElevCost",
            "TurnCost",
            "NodeCost",
            "InitialCost",
            "WayTags",
            "NodeTags",
            "Time",
            "Energy"
          ],
          [
            "-87882283",
            "41993059",
            "194",
            "42",
            "1000",
            "0",
            "0",
            "0",
            "0",
            "reversedirection=yes railway=light_rail",
            "railway=halt",
            "3",
            "1771"
          ],
          [
            "-87882003",
            "41992258",
            "-8192",
            "92",
            "1000",
            "0",
            "0",
            "0",
            "0",
            "reversedirection=yes railway=light_rail",
            "railway=switch",
            "10",
            "5465"
          ],
          [
            "-87882015",
            "41992052",
            "-8192",
            "23",
            "1000",
            "0",
            "0",
            "0",
            "0",
            "railway=light_rail",
            "railway=unknown",
            "12",
            "6429"
          ],
          [
            "-87882031",
            "41991826",
            "-8192",
            "25",
            "1000",
            "0",
            "0",
            "0",
            "0",
            "railway=light_rail",
            "railway=switch",
            "14",
            "7487"
          ],
          [
            "-87883086",
            "41988799",
            "-8192",
            "361",
            "1000",
            "0",
            "0",
            "0",
            "0",
            "railway=light_rail",
            "",
            "43",
            "23225"
          ],
          [
            "-87883082",
            "41987931",
            "-8192",
            "97",
            "1000",
            "0",
            "0",
            "0",
            "0",
            "railway=light_rail",
            "railway=switch",
            "7",
            "4266"
          ],
          [
            "-87883080",
            "41987585",
            "-8192",
            "38",
            "1000",
            "0",
            "0",
            "0",
            "0",
            "railway=light_rail",
            "railway=switch",
            "10",
            "5938"
          ],
          [
            "-87883039",
            "41981211",
            "-8192",
            "707",
            "1000",
            "0",
            "0",
            "0",
            "0",
            "railway=light_rail",
            "railway=switch",
            "67",
            "37035"
          ],
          [
            "-87883034",
            "41980753",
            "-8192",
            "51",
            "1000",
            "0",
            "0",
            "0",
            "0",
            "railway=light_rail",
            "railway=switch",
            "71",
            "39278"
          ],
          [
            "-87883032",
            "41977883",
            "197",
            "319",
            "1000",
            "0",
            "0",
            "0",
            "0",
            "railway=light_rail",
            "railway=switch",
            "96",
            "53763"
          ],
          [
            "-87890316",
            "41975083",
            "199",
            "945",
            "1000",
            "0",
            "0",
            "0",
            "0",
            "railway=light_rail",
            "railway=halt",
            "172",
            "98393"
          ],
          [
            "-87891446",
            "41976300",
            "197",
            "166",
            "1000",
            "0",
            "0",
            "0",
            "0",
            "railway=light_rail",
            "railway=switch",
            "185",
            "104840"
          ],
          [
            "-87891620",
            "41976595",
            "197",
            "36",
            "1000",
            "0",
            "0",
            "0",
            "0",
            "railway=light_rail",
            "railway=switch",
            "188",
            "105885"
          ],
          [
            "-87900980",
            "41977625",
            "-8192",
            "1294",
            "1000",
            "0",
            "0",
            "0",
            "0",
            "railway=light_rail",
            "railway=switch",
            "292",
            "162000"
          ],
          [
            "-87901242",
            "41977490",
            "-8192",
            "26",
            "1000",
            "0",
            "0",
            "0",
            "0",
            "railway=light_rail",
            "",
            "294",
            "163144"
          ],
          [
            "-87901358",
            "41977430",
            "-8192",
            "12",
            "1000",
            "0",
            "0",
            "0",
            "0",
            "railway=light_rail",
            "railway=switch",
            "0",
            "527"
          ],
          [
            "-87902046",
            "41977069",
            "-8192",
            "70",
            "1000",
            "0",
            "0",
            "0",
            "0",
            "railway=light_rail",
            "railway=halt",
            "6",
            "3606"
          ],
          [
            "-87905068",
            "41977429",
            "-8192",
            "294",
            "1000",
            "0",
            "0",
            "0",
            "0",
            "railway=light_rail",
            "railway=halt",
            "30",
            "16538"
          ],
          [
            "-87905688",
            "41978461",
            "-8192",
            "139",
            "1000",
            "0",
            "0",
            "0",
            "0",
            "railway=light_rail",
            "railway=switch",
            "41",
            "22652"
          ],
          [
            "-87905612",
            "41978769",
            "-8192",
            "35",
            "1000",
            "0",
            "0",
            "0",
            "0",
            "railway=light_rail",
            "railway=switch",
            "44",
            "24191"
          ],
          [
            "-87905457",
            "41979449",
            "-8192",
            "77",
            "1000",
            "0",
            "0",
            "0",
            "0",
            "railway=light_rail",
            "railway=halt",
            "50",
            "27578"
          ],
          [
            "-87905414",
            "41979643",
            "-8192",
            "22",
            "1000",
            "0",
            "0",
            "0",
            "0",
            "railway=light_rail",
            "",
            "51",
            "28546"
          ],
          [
            "-87905457",
            "41979449",
            "-8192",
            "22",
            "1000",
            "0",
            "0",
            "0",
            "0",
            "reversedirection=yes railway=light_rail",
            "railway=halt",
            "1",
            "967"
          ],
          [
            "-87905612",
            "41978769",
            "-8192",
            "77",
            "1000",
            "0",
            "0",
            "0",
            "0",
            "reversedirection=yes railway=light_rail",
            "railway=switch",
            "7",
            "4354"
          ],
          [
            "-87905701",
            "41978626",
            "-8192",
            "18",
            "1000",
            "0",
            "0",
            "0",
            "0",
            "railway=light_rail",
            "railway=unknown",
            "9",
            "5146"
          ],
          [
            "-87905792",
            "41978473",
            "-8192",
            "18",
            "1000",
            "0",
            "0",
            "0",
            "0",
            "railway=light_rail",
            "railway=switch",
            "10",
            "5938"
          ],
          [
            "-87904834",
            "41977217",
            "-8192",
            "180",
            "1000",
            "0",
            "0",
            "0",
            "0",
            "railway=light_rail",
            "railway=halt",
            "25",
            "13855"
          ],
          [
            "-87901637",
            "41977185",
            "-8192",
            "308",
            "1000",
            "0",
            "0",
            "0",
            "0",
            "railway=light_rail",
            "railway=halt",
            "49",
            "27402"
          ],
          [
            "-87901303",
            "41977367",
            "-8192",
            "34",
            "1000",
            "0",
            "0",
            "0",
            "0",
            "railway=light_rail",
            "railway=switch",
            "52",
            "28898"
          ],
          [
            "-87901152",
            "41977445",
            "-8192",
            "15",
            "1000",
            "0",
            "0",
            "0",
            "0",
            "railway=light_rail",
            "",
            "53",
            "29558"
          ],
          [
            "-87900922",
            "41977563",
            "-8192",
            "23",
            "1000",
            "0",
            "0",
            "0",
            "0",
            "railway=light_rail",
            "railway=switch",
            "1",
            "1011"
          ],
          [
            "-87891730",
            "41976563",
            "197",
            "1291",
            "1000",
            "0",
            "0",
            "0",
            "0",
            "railway=light_rail",
            "railway=switch",
            "105",
            "57589"
          ],
          [
            "-87891552",
            "41976265",
            "197",
            "36",
            "1000",
            "0",
            "0",
            "0",
            "0",
            "railway=light_rail",
            "railway=switch",
            "108",
            "59302"
          ],
          [
            "-87891537",
            "41976239",
            "198",
            "3",
            "1000",
            "0",
            "0",
            "0",
            "0",
            "railway=light_rail",
            "",
            "108",
            "59443"
          ],
          [
            "-87890176",
            "41974884",
            "199",
            "190",
            "1000",
            "0",
            "0",
            "0",
            "0",
            "railway=light_rail",
            "railway=halt",
            "15",
            "9082"
          ],
          [
            "-87882982",
            "41977614",
            "197",
            "904",
            "1000",
            "0",
            "0",
            "0",
            "0",
            "railway=light_rail",
            "railway=switch",
            "87",
            "47523"
          ],
          [
            "-87882983",
            "41977730",
            "197",
            "13",
            "1000",
            "0",
            "0",
            "0",
            "0",
            "railway=light_rail",
            "railway=switch",
            "88",
            "48113"
          ],
          [
            "-87882981",
            "41977911",
            "197",
            "20",
            "1000",
            "0",
            "0",
            "0",
            "0",
            "railway=light_rail",
            "railway=switch",
            "90",
            "48978"
          ],
          [
            "-87882985",
            "41980959",
            "-8192",
            "339",
            "1000",
            "0",
            "0",
            "0",
            "0",
            "railway=light_rail",
            "railway=switch",
            "117",
            "62969"
          ],
          [
            "-87882986",
            "41981015",
            "-8192",
            "6",
            "1000",
            "0",
            "0",
            "0",
            "0",
            "railway=light_rail",
            "railway=switch",
            "117",
            "63231"
          ],
          [
            "-87882972",
            "41987587",
            "-8192",
            "730",
            "1000",
            "0",
            "0",
            "0",
            "0",
            "railway=light_rail",
            "railway=switch",
            "176",
            "95310"
          ],
          [
            "-87882973",
            "41987932",
            "-8192",
            "38",
            "1000",
            "0",
            "0",
            "0",
            "0",
            "railway=light_rail",
            "railway=switch",
            "179",
            "96981"
          ],
          [
            "-87881809",
            "41991719",
            "-8192",
            "446",
            "1000",
            "0",
            "0",
            "0",
            "0",
            "railway=light_rail",
            "",
            "214",
            "116599"
          ],
          [
            "-87881854",
            "41991858",
            "-8192",
            "16",
            "1000",
            "0",
            "0",
            "0",
            "0",
            "railway=light_rail",
            "railway=switch",
            "1",
            "703"
          ],
          [
            "-87882003",
            "41992258",
            "-8192",
            "46",
            "1000",
            "0",
            "0",
            "0",
            "0",
            "railway=light_rail",
            "railway=switch",
            "4",
            "2727"
          ],
          [
            "-87882283",
            "41993059",
            "194",
            "92",
            "1000",
            "0",
            "0",
            "0",
            "0",
            "railway=light_rail",
            "railway=halt",
            "12",
            "7002"
          ],
          [
            "-87882421",
            "41993423",
            "194",
            "42",
            "1000",
            "0",
            "0",
            "0",
            "0",
            "railway=light_rail",
            "",
            "15",
            "8998"
          ]
        ],
        "times": [
          0,
          3.36,
          9.2,
          10.72,
          11.68,
          12.56,
          13.68,
          14.56,
          17.52,
          18.4,
          19.28,
          20.4,
          21.04,
          29.28,
          30.88,
          32.4,
          33.92,
          35.2,
          36.4,
          37.52,
          39.04,
          40.8,
          43.44,
          44.64,
          51.2,
          54.24,
          58.16,
          64.24,
          69.68,
          110.8,
          114.88,
          134.64,
          140.4,
          148.4,
          154.4,
          156.16,
          157.44,
          158.72,
          160,
          162.8,
          163.92,
          166.08,
          167.12,
          168.16,
          169.28,
          171.6,
          173.92,
          175.6,
          177.2,
          179.04,
          180.8,
          182.88,
          183.84,
          193.76,
          201.04,
          202.64,
          203.6,
          205.12,
          205.84,
          207.36,
          208.64,
          216,
          219.92,
          220.72,
          222.48,
          223.28,
          224.48,
          226.48,
          229.28,
          232.16,
          238.88,
          241.76,
          242.96,
          245.52,
          256.08,
          258.88,
          268.88,
          275.2,
          276.88,
          278.48,
          279.52,
          280.48,
          281.44,
          282.56,
          284,
          284.8,
          286,
          287.2,
          295.44,
          297.6,
          298.64,
          300.24,
          301.28,
          302.24,
          303.28,
          304,
          304.8,
          305.6,
          306.4,
          307.2,
          307.92,
          309.04,
          310.08,
          318.4,
          321.12,
          322.16,
          323.12,
          324.4,
          325.6,
          326.56,
          327.52,
          328.64,
          329.92,
          332.32,
          335.68,
          337.76,
          338.72,
          344.32,
          348.56,
          350.56,
          351.36,
          352.08,
          352.72,
          353.28,
          354.32,
          355.36,
          356.56,
          367.84,
          371.04,
          372.16,
          372.88,
          373.52,
          374.16,
          374.8,
          376.16,
          377.44,
          378.96,
          381.76,
          387.92,
          389.68,
          391.44,
          397.6,
          398.4,
          399.04,
          399.76,
          400.48,
          402.08,
          404.24,
          405.12,
          406.56,
          407.28,
          408,
          409.6,
          414.88,
          423.84,
          424.56,
          425.28,
          425.92,
          426.56,
          427.68,
          428.24,
          428.8,
          429.52,
          430.24,
          433.44,
          439.52,
          442.24,
          443.44,
          445.28,
          449.84,
          452,
          453.2,
          454.32,
          455.52,
          456.56,
          457.44,
          458.64,
          460.32,
          462.4,
          471.76,
          473.04,
          474.48,
          475.2,
          475.92,
          476.8,
          477.52,
          478.32,
          479.04,
          479.76,
          480.64,
          481.44,
          482.32,
          484,
          493.6,
          495.52,
          496.4,
          497.36,
          498.56,
          500.64,
          501.68,
          503.28,
          504.08,
          505.76,
          512.08,
          522.08,
          533.36,
          534.96,
          538.16,
          541.84,
          548.56,
          551.44,
          551.68,
          554.32,
          556.4,
          558.16,
          559.68,
          566.88,
          572.88,
          574,
          574.8,
          575.36,
          576.64,
          577.6,
          578.96,
          579.92,
          597.68,
          599.84,
          601.68,
          602.56,
          604.16,
          605.84,
          607.28,
          608.32,
          609.6,
          611.84,
          614.08,
          615.28,
          617.52,
          619.36,
          621.2,
          623.28,
          624.4,
          625.68,
          628.4,
          633.6,
          639.2,
          640.24,
          641.84,
          647.68,
          668.96,
          669.44,
          714.32,
          717.76,
          722.08,
          727.84,
          730.88,
          741.44,
          743.36,
          744.96,
          746.16,
          747.68,
          749.44,
          751.04,
          753.84,
          761.28,
          762.32,
          763.2,
          764.08,
          764.96,
          765.6,
          766.56,
          767.84,
          771.52,
          773.04,
          778.88,
          782.24
        ]
      },
      "geometry": {
        "type": "LineString",
        "coordinates": [
          [
            -87.882421,
            41.993423,
            194.75
          ],
          [
            -87.882283,
            41.993059,
            194.5
          ],
          [
            -87.882061,
            41.992419,
            194
          ],
          [
            -87.882003,
            41.992258
          ],
          [
            -87.881994,
            41.99215
          ],
          [
            -87.882015,
            41.992052
          ],
          [
            -87.882037,
            41.991926
          ],
          [
            -87.882031,
            41.991826
          ],
          [
            -87.881918,
            41.991505
          ],
          [
            -87.881896,
            41.99141
          ],
          [
            -87.881902,
            41.991307
          ],
          [
            -87.881942,
            41.991187
          ],
          [
            -87.881983,
            41.99112
          ],
          [
            -87.882636,
            41.990334
          ],
          [
            -87.882751,
            41.990175
          ],
          [
            -87.882848,
            41.99002
          ],
          [
            -87.882931,
            41.989858
          ],
          [
            -87.882991,
            41.989719
          ],
          [
            -87.883031,
            41.989583
          ],
          [
            -87.883059,
            41.989461
          ],
          [
            -87.88308,
            41.989293
          ],
          [
            -87.883092,
            41.989092
          ],
          [
            -87.883086,
            41.988799,
            196
          ],
          [
            -87.883083,
            41.988668,
            196
          ],
          [
            -87.883082,
            41.987931,
            196
          ],
          [
            -87.88308,
            41.987585,
            196
          ],
          [
            -87.883075,
            41.98714,
            196
          ],
          [
            -87.883046,
            41.986457,
            196
          ],
          [
            -87.88304,
            41.985841,
            196
          ],
          [
            -87.883039,
            41.981211,
            196
          ],
          [
            -87.883034,
            41.980753,
            196
          ],
          [
            -87.883032,
            41.978532,
            196
          ],
          [
            -87.883032,
            41.977883,
            197
          ],
          [
            -87.883026,
            41.976984,
            197
          ],
          [
            -87.883026,
            41.976312,
            197
          ],
          [
            -87.883046,
            41.976112,
            197
          ],
          [
            -87.883075,
            41.975974,
            197
          ],
          [
            -87.883112,
            41.975837,
            197
          ],
          [
            -87.883162,
            41.975702,
            197.25
          ],
          [
            -87.883322,
            41.975406,
            197.25
          ],
          [
            -87.883403,
            41.975293,
            197.25
          ],
          [
            -87.883579,
            41.975088,
            197.25
          ],
          [
            -87.883675,
            41.974992,
            197.25
          ],
          [
            -87.883777,
            41.974903,
            197.25
          ],
          [
            -87.883894,
            41.974813,
            197.25
          ],
          [
            -87.884159,
            41.97464,
            197.25
          ],
          [
            -87.884451,
            41.974491,
            197.25
          ],
          [
            -87.884671,
            41.974401,
            197.25
          ],
          [
            -87.884898,
            41.974328,
            197.25
          ],
          [
            -87.885168,
            41.974268,
            197.25
          ],
          [
            -87.885424,
            41.974225,
            197.5
          ],
          [
            -87.885739,
            41.974196,
            197.75
          ],
          [
            -87.885879,
            41.97419,
            198
          ],
          [
            -87.887378,
            41.974183,
            198
          ],
          [
            -87.88848,
            41.974186,
            199.25
          ],
          [
            -87.888725,
            41.974205,
            199.75
          ],
          [
            -87.888862,
            41.974227,
            200
          ],
          [
            -87.889076,
            41.974281,
            200.25
          ],
          [
            -87.889175,
            41.974317,
            200
          ],
          [
            -87.88937,
            41.97441,
            200
          ],
          [
            -87.889521,
            41.974503,
            199.75
          ],
          [
            -87.890316,
            41.975083,
            199
          ],
          [
            -87.890734,
            41.975396,
            198.5
          ],
          [
            -87.890813,
            41.975462,
            198.5
          ],
          [
            -87.890983,
            41.975619,
            198.25
          ],
          [
            -87.891048,
            41.97569,
            198.25
          ],
          [
            -87.891134,
            41.975805,
            198.25
          ],
          [
            -87.89127,
            41.976009,
            198.25
          ],
          [
            -87.891446,
            41.9763,
            197.75
          ],
          [
            -87.89162,
            41.976595,
            197
          ],
          [
            -87.892041,
            41.977286,
            197.75
          ],
          [
            -87.89224,
            41.977569,
            197.75
          ],
          [
            -87.892335,
            41.977687,
            197.5
          ],
          [
            -87.892544,
            41.977925,
            197
          ],
          [
            -87.893505,
            41.97887,
            196
          ],
          [
            -87.893766,
            41.979117,
            195.5
          ],
          [
            -87.89473,
            41.979977,
            192.75
          ],
          [
            -87.895357,
            41.980517,
            195
          ],
          [
            -87.895544,
            41.980645,
            195.5
          ],
          [
            -87.895733,
            41.980752,
            196
          ],
          [
            -87.895863,
            41.980811,
            196
          ],
          [
            -87.895995,
            41.980861,
            196.5
          ],
          [
            -87.896127,
            41.980905,
            196.75
          ],
          [
            -87.89629,
            41.980949,
            197.5
          ],
          [
            -87.896502,
            41.980992
          ],
          [
            -87.896623,
            41.981008
          ],
          [
            -87.8968,
            41.981025
          ],
          [
            -87.896982,
            41.981034
          ],
          [
            -87.898226,
            41.981036
          ],
          [
            -87.898557,
            41.98103
          ],
          [
            -87.898713,
            41.981019
          ],
          [
            -87.898945,
            41.980976
          ],
          [
            -87.899087,
            41.980927
          ],
          [
            -87.899213,
            41.980869
          ],
          [
            -87.899335,
            41.980792
          ],
          [
            -87.899411,
            41.980728
          ],
          [
            -87.899484,
            41.980653
          ],
          [
            -87.899545,
            41.980573
          ],
          [
            -87.899594,
            41.980492
          ],
          [
            -87.899631,
            41.980409
          ],
          [
            -87.899651,
            41.98033
          ],
          [
            -87.899667,
            41.980204
          ],
          [
            -87.899672,
            41.980086
          ],
          [
            -87.899668,
            41.979149
          ],
          [
            -87.899676,
            41.978847
          ],
          [
            -87.899692,
            41.978732
          ],
          [
            -87.899722,
            41.978625
          ],
          [
            -87.899777,
            41.978489
          ],
          [
            -87.899854,
            41.978364
          ],
          [
            -87.899931,
            41.978269
          ],
          [
            -87.900019,
            41.978182
          ],
          [
            -87.900132,
            41.978093
          ],
          [
            -87.900276,
            41.978001
          ],
          [
            -87.900562,
            41.977841
          ],
          [
            -87.90098,
            41.977625
          ],
          [
            -87.901242,
            41.97749
          ],
          [
            -87.901358,
            41.97743
          ],
          [
            -87.902046,
            41.977069
          ],
          [
            -87.90257,
            41.976798
          ],
          [
            -87.902821,
            41.976676
          ],
          [
            -87.902926,
            41.97664
          ],
          [
            -87.903025,
            41.976616
          ],
          [
            -87.903118,
            41.976604
          ],
          [
            -87.903204,
            41.976599
          ],
          [
            -87.903356,
            41.97661
          ],
          [
            -87.903503,
            41.976647
          ],
          [
            -87.903664,
            41.976712
          ],
          [
            -87.905068,
            41.977429
          ],
          [
            -87.905461,
            41.977642
          ],
          [
            -87.905578,
            41.977732
          ],
          [
            -87.905643,
            41.977799
          ],
          [
            -87.905685,
            41.97786
          ],
          [
            -87.905718,
            41.977925
          ],
          [
            -87.90574,
            41.977997
          ],
          [
            -87.905752,
            41.978149
          ],
          [
            -87.905729,
            41.97829
          ],
          [
            -87.905688,
            41.978461
          ],
          [
            -87.905612,
            41.978769
          ],
          [
            -87.905457,
            41.979449
          ],
          [
            -87.905414,
            41.979643
          ],
          [
            -87.905457,
            41.979449
          ],
          [
            -87.905612,
            41.978769
          ],
          [
            -87.905651,
            41.978688
          ],
          [
            -87.905701,
            41.978626
          ],
          [
            -87.905756,
            41.978552
          ],
          [
            -87.905792,
            41.978473
          ],
          [
            -87.905833,
            41.978294
          ],
          [
            -87.905859,
            41.978056
          ],
          [
            -87.905842,
            41.977962
          ],
          [
            -87.905775,
            41.97781
          ],
          [
            -87.90572,
            41.977739
          ],
          [
            -87.905656,
            41.977674
          ],
          [
            -87.905488,
            41.97755
          ],
          [
            -87.904834,
            41.977217
          ],
          [
            -87.903721,
            41.976644
          ],
          [
            -87.903628,
            41.976603
          ],
          [
            -87.903536,
            41.976568
          ],
          [
            -87.90344,
            41.976542
          ],
          [
            -87.903344,
            41.976526
          ],
          [
            -87.903171,
            41.976518
          ],
          [
            -87.903081,
            41.976524
          ],
          [
            -87.902994,
            41.976538
          ],
          [
            -87.902889,
            41.976562
          ],
          [
            -87.902792,
            41.976597
          ],
          [
            -87.90239,
            41.976792
          ],
          [
            -87.901637,
            41.977185
          ],
          [
            -87.901303,
            41.977367
          ],
          [
            -87.901152,
            41.977445,
            197.5
          ],
          [
            -87.900922,
            41.977563,
            197.5
          ],
          [
            -87.900358,
            41.97785,
            197.5
          ],
          [
            -87.900103,
            41.978005,
            197.5
          ],
          [
            -87.899979,
            41.978106,
            197.5
          ],
          [
            -87.899879,
            41.978208,
            197.5
          ],
          [
            -87.899791,
            41.978324,
            197.5
          ],
          [
            -87.899729,
            41.97843,
            197.5
          ],
          [
            -87.899687,
            41.978523,
            197.5
          ],
          [
            -87.899648,
            41.978653,
            197.5
          ],
          [
            -87.899626,
            41.978837,
            197.5
          ],
          [
            -87.89962,
            41.979068,
            197.5
          ],
          [
            -87.899623,
            41.980122,
            197.5
          ],
          [
            -87.899614,
            41.980269,
            197.5
          ],
          [
            -87.899574,
            41.980424,
            197.5
          ],
          [
            -87.899539,
            41.980502,
            197.5
          ],
          [
            -87.899489,
            41.980577,
            197.5
          ],
          [
            -87.89942,
            41.980661,
            197.5
          ],
          [
            -87.899355,
            41.980723,
            197.5
          ],
          [
            -87.899267,
            41.980788,
            197.5
          ],
          [
            -87.899188,
            41.980838,
            197.5
          ],
          [
            -87.899099,
            41.98088,
            197.5
          ],
          [
            -87.898981,
            41.980926,
            197.5
          ],
          [
            -87.898865,
            41.980957,
            197.5
          ],
          [
            -87.898737,
            41.98098,
            197.5
          ],
          [
            -87.898487,
            41.980997,
            197.5
          ],
          [
            -87.897043,
            41.980999,
            197.5
          ],
          [
            -87.896751,
            41.980986,
            197.5
          ],
          [
            -87.896622,
            41.980972,
            197.5
          ],
          [
            -87.89648,
            41.980952,
            197.5
          ],
          [
            -87.896304,
            41.980915,
            197.5
          ],
          [
            -87.896014,
            41.98083,
            196.5
          ],
          [
            -87.895871,
            41.980773,
            196.25
          ],
          [
            -87.895665,
            41.980672,
            196
          ],
          [
            -87.895574,
            41.980619,
            195.75
          ],
          [
            -87.89539,
            41.980492,
            195.25
          ],
          [
            -87.894768,
            41.979955,
            193
          ],
          [
            -87.893798,
            41.979093,
            195.75
          ],
          [
            -87.892765,
            41.978083,
            197
          ],
          [
            -87.892628,
            41.977931,
            197
          ],
          [
            -87.892385,
            41.977624,
            197.5
          ],
          [
            -87.892136,
            41.977251,
            197.75
          ],
          [
            -87.89173,
            41.976563,
            197.25
          ],
          [
            -87.891552,
            41.976265,
            197.75
          ],
          [
            -87.891537,
            41.976239,
            198.25
          ],
          [
            -87.891373,
            41.975967,
            198.25
          ],
          [
            -87.891226,
            41.975763,
            198.25
          ],
          [
            -87.891086,
            41.975596,
            198.5
          ],
          [
            -87.890947,
            41.975459,
            198.75
          ],
          [
            -87.890176,
            41.974884,
            199.5
          ],
          [
            -87.889532,
            41.97441,
            200
          ],
          [
            -87.889399,
            41.974331,
            200.25
          ],
          [
            -87.889295,
            41.974285,
            200.25
          ],
          [
            -87.889213,
            41.974258,
            200.5
          ],
          [
            -87.889034,
            41.974203,
            200.5
          ],
          [
            -87.888894,
            41.974176,
            200.25
          ],
          [
            -87.88869,
            41.974154,
            199.75
          ],
          [
            -87.888543,
            41.974148,
            199.5
          ],
          [
            -87.88587,
            41.974154,
            198
          ],
          [
            -87.88555,
            41.974175,
            197.5
          ],
          [
            -87.885281,
            41.97421,
            197.25
          ],
          [
            -87.885153,
            41.974233,
            197.25
          ],
          [
            -87.884919,
            41.974286,
            197.25
          ],
          [
            -87.884681,
            41.974361,
            197.25
          ],
          [
            -87.884489,
            41.974433,
            197.25
          ],
          [
            -87.884352,
            41.974495,
            197.25
          ],
          [
            -87.884198,
            41.974575,
            197.25
          ],
          [
            -87.883933,
            41.974737,
            197.25
          ],
          [
            -87.883696,
            41.974915,
            197.25
          ],
          [
            -87.883584,
            41.97502,
            197.25
          ],
          [
            -87.883397,
            41.975227,
            197.25
          ],
          [
            -87.883265,
            41.975412,
            197.25
          ],
          [
            -87.883158,
            41.975603,
            197.25
          ],
          [
            -87.883068,
            41.975824,
            197.25
          ],
          [
            -87.883028,
            41.975948,
            197.25
          ],
          [
            -87.883002,
            41.976091,
            197.25
          ],
          [
            -87.882977,
            41.976396,
            197.25
          ],
          [
            -87.882979,
            41.976983,
            197.25
          ],
          [
            -87.882982,
            41.977614,
            197.25
          ],
          [
            -87.882983,
            41.97773,
            197.25
          ],
          [
            -87.882981,
            41.977911,
            197
          ],
          [
            -87.882985,
            41.978566,
            196
          ],
          [
            -87.882985,
            41.980959
          ],
          [
            -87.882986,
            41.981015
          ],
          [
            -87.883004,
            41.986067
          ],
          [
            -87.883003,
            41.986457
          ],
          [
            -87.88298,
            41.986943
          ],
          [
            -87.882972,
            41.987587
          ],
          [
            -87.882973,
            41.987932
          ],
          [
            -87.882977,
            41.989119
          ],
          [
            -87.882969,
            41.989332
          ],
          [
            -87.882947,
            41.989512
          ],
          [
            -87.882919,
            41.989647
          ],
          [
            -87.882864,
            41.989815
          ],
          [
            -87.882782,
            41.990008
          ],
          [
            -87.882685,
            41.990169
          ],
          [
            -87.882483,
            41.990444
          ],
          [
            -87.881897,
            41.991155
          ],
          [
            -87.881821,
            41.991255
          ],
          [
            -87.881771,
            41.991349
          ],
          [
            -87.881752,
            41.991444
          ],
          [
            -87.881757,
            41.991544
          ],
          [
            -87.881774,
            41.991616
          ],
          [
            -87.881809,
            41.991719,
            194
          ],
          [
            -87.881854,
            41.991858,
            194
          ],
          [
            -87.882003,
            41.992258,
            194
          ],
          [
            -87.882061,
            41.992419,
            194
          ],
          [
            -87.882283,
            41.993059,
            194.5
          ],
          [
            -87.882421,
            41.993423,
            194.75
          ]
        ]
      }
    }
  ]
}