{
  "type": "FeatureCollection",
  "features": [
    {
      "type": "Feature",
      "properties": {
        "creator": "BRouter-1.7.0",
        "name": "Denver (18.4km)",
        "track-length": "18406",
        "filtered ascend": "43",
        "plain-ascend": "9",
        "total-time": "1472",
        "total-energy": "806243",
        "cost": "18406",
        "messages": [
          [
            "Longitude",
            "Latitude",
            "Elevation",
            "Distance",
            "CostPerKm",
            "ElevCost",
            "TurnCost",
            "NodeCost",
            "InitialCost",
            "WayTags",
            "NodeTags",
            "Time",
            "Energy"
          ],
          [
            "-105000679",
            "39753965",
            "1582",
            "5",
            "1000",
            "0",
            "0",
            "0",
            "0",
            "reversedirection=yes railway=rail",
            "railway=unknown",
            "0",
            "209"
          ],
          [
            "-104998590",
            "39755537",
            "1583",
            "251",
            "1000",
            "0",
            "0",
            "0",
            "0",
            "reversedirection=yes railway=rail",
            "railway=switch",
            "20",
            "12196"
          ],
          [
            "-104997996",
            "39755801",
            "1584",
            "59",
            "1000",
            "0",
            "0",
            "0",
            "0",
            "railway=rail",
            "railway=switch",
            "25",
            "15062"
          ],
          [
            "-104997948",
            "39755827",
            "1584",
            "5",
            "1000",
            "0",
            "0",
            "0",
            "0",
            "railway=rail",
            "railway=switch",
            "25",
            "15299"
          ],
          [
            "-104996747",
            "39756528",
            "1584",
            "129",
            "1000",
            "0",
            "0",
            "0",
            "0",
            "railway=rail",
            "railway=switch",
            "35",
            "21813"
          ],
          [
            "-104996244",
            "39756856",
            "1584",
            "56",
            "1000",
            "0",
            "0",
            "0",
            "0",
            "railway=rail",
            "railway=switch",
            "40",
            "23959"
          ],
          [
            "-104996192",
            "39756897",
            "1584",
            "6",
            "1000",
            "0",
            "0",
            "0",
            "0",
            "railway=rail",
            "railway=switch",
            "40",
            "24211"
          ],
          [
            "-104995738",
            "39757306",
            "1584",
            "60",
            "1000",
            "0",
            "0",
            "0",
            "0",
            "railway=rail",
            "railway=switch",
            "45",
            "26864"
          ],
          [
            "-104995553",
            "39757445",
            "1584",
            "22",
            "1000",
            "0",
            "0",
            "0",
            "0",
            "reversedirection=yes railway=rail",
            "railway=switch",
            "47",
            "27791"
          ],
          [
            "-104994769",
            "39758247",
            "1583",
            "109",
            "1000",
            "0",
            "0",
            "0",
            "0",
            "reversedirection=yes railway=rail",
            "",
            "56",
            "32038"
          ],
          [
            "-104996664",
            "39764682",
            "1579",
            "750",
            "1000",
            "0",
            "0",
            "0",
            "0",
            "reversedirection=yes railway=rail",
            "",
            "60",
            "30963"
          ],
          [
            "-104997020",
            "39766718",
            "1581",
            "228",
            "1000",
            "0",
            "0",
            "0",
            "0",
            "railway=rail",
            "railway=level_crossing",
            "78",
            "40445"
          ],
          [
            "-104997049",
            "39769172",
            "1584",
            "273",
            "1000",
            "0",
            "0",
            "0",
            "0",
            "railway=rail",
            "",
            "100",
            "53417"
          ],
          [
            "-104997044",
            "39769386",
            "1584",
            "24",
            "1000",
            "0",
            "0",
            "0",
            "0",
            "reversedirection=yes railway=rail",
            "",
            "102",
            "54957"
          ],
          [
            "-104996929",
            "39770764",
            "1584",
            "153",
            "1000",
            "0",
            "0",
            "0",
            "0",
            "railway=rail",
            "railway=switch",
            "114",
            "62766"
          ],
          [
            "-104996842",
            "39772893",
            "1587",
            "237",
            "1000",
            "0",
            "0",
            "0",
            "0",
            "railway=rail",
            "railway=crossing",
            "133",
            "74105"
          ],
          [
            "-104996842",
            "39773423",
            "1589",
            "52",
            "1000",
            "0",
            "0",
            "0",
            "0",
            "railway=rail",
            "",
            "137",
            "76934"
          ],
          [
            "-104996842",
            "39773423",
            "1589",
            "7",
            "1000",
            "0",
            "0",
            "0",
            "0",
            "railway=rail",
            "railway=unknown",
            "0",
            "322"
          ],
          [
            "-104996841",
            "39773564",
            "1589",
            "16",
            "1000",
            "0",
            "0",
            "0",
            "0",
            "railway=rail",
            "railway=crossing",
            "1",
            "1089"
          ],
          [
            "-104996951",
            "39779724",
            "1597",
            "684",
            "1000",
            "0",
            "0",
            "0",
            "0",
            "railway=rail",
            "",
            "56",
            "35254"
          ],
          [
            "-104996831",
            "39783334",
            "1593",
            "402",
            "1000",
            "0",
            "0",
            "0",
            "0",
            "reversedirection=yes railway=rail",
            "railway=switch",
            "88",
            "55183"
          ],
          [
            "-104996664",
            "39784039",
            "1593",
            "80",
            "1000",
            "0",
            "0",
            "0",
            "0",
            "reversedirection=yes railway=rail",
            "railway=switch",
            "95",
            "57485"
          ],
          [
            "-104996615",
            "39784234",
            "1594",
            "22",
            "1000",
            "0",
            "0",
            "0",
            "0",
            "reversedirection=yes railway=rail",
            "railway=level_crossing",
            "96",
            "58343"
          ],
          [
            "-104996516",
            "39785243",
            "1595",
            "113",
            "1000",
            "0",
            "0",
            "0",
            "0",
            "reversedirection=yes railway=rail",
            "railway=switch",
            "105",
            "63574"
          ],
          [
            "-104996530",
            "39789003",
            "1592",
            "417",
            "1000",
            "0",
            "0",
            "0",
            "0",
            "reversedirection=yes railway=rail",
            "railway=switch",
            "139",
            "79920"
          ],
          [
            "-104996532",
            "39789807",
            "1592",
            "89",
            "1000",
            "0",
            "0",
            "0",
            "0",
            "reversedirection=yes railway=rail",
            "railway=switch",
            "146",
            "83816"
          ],
          [
            "-104996543",
            "39793844",
            "1593",
            "448",
            "1000",
            "0",
            "0",
            "0",
            "0",
            "reversedirection=yes railway=rail",
            "railway=switch",
            "182",
            "104164"
          ],
          [
            "-104996548",
            "39794039",
            "1593",
            "22",
            "1000",
            "0",
            "0",
            "0",
            "0",
            "reversedirection=yes railway=rail",
            "railway=switch",
            "183",
            "105089"
          ],
          [
            "-104996556",
            "39795921",
            "1593",
            "209",
            "1000",
            "0",
            "0",
            "0",
            "0",
            "reversedirection=yes railway=rail",
            "",
            "200",
            "114519"
          ],
          [
            "-105005360",
            "39805302",
            "1590",
            "1310",
            "1000",
            "0",
            "0",
            "0",
            "0",
            "railway=rail",
            "",
            "305",
            "169693"
          ],
          [
            "-105005360",
            "39805302",
            "1590",
            "44",
            "1000",
            "0",
            "0",
            "0",
            "0",
            "railway=rail",
            "railway=unknown",
            "3",
            "1856"
          ],
          [
            "-105007735",
            "39806434",
            "1583",
            "239",
            "1000",
            "0",
            "0",
            "0",
            "0",
            "railway=rail",
            "railway=switch",
            "22",
            "9232"
          ],
          [
            "-105007941",
            "39806533",
            "1582",
            "21",
            "1000",
            "0",
            "0",
            "0",
            "0",
            "reversedirection=yes railway=rail",
            "railway=switch",
            "24",
            "10012"
          ],
          [
            "-105029076",
            "39822742",
            "1605",
            "2622",
            "1000",
            "0",
            "0",
            "0",
            "0",
            "railway=rail",
            "railway=unknown",
            "234",
            "139719"
          ],
          [
            "-105030088",
            "39823246",
            "1608",
            "45",
            "1000",
            "0",
            "0",
            "0",
            "0",
            "railway=rail",
            "",
            "237",
            "142025"
          ],
          [
            "-105029076",
            "39822742",
            "1605",
            "45",
            "1000",
            "0",
            "0",
            "0",
            "0",
            "reversedirection=yes railway=rail",
            "railway=unknown",
            "3",
            "1659"
          ],
          [
            "-105007941",
            "39806533",
            "1582",
            "2622",
            "1000",
            "0",
            "0",
            "0",
            "0",
            "reversedirection=yes railway=rail",
            "railway=switch",
            "213",
            "97430"
          ],
          [
            "-105007735",
            "39806434",
            "1583",
            "21",
            "1000",
            "0",
            "0",
            "0",
            "0",
            "railway=rail",
            "railway=switch",
            "215",
            "98189"
          ],
          [
            "-105005814",
            "39805385",
            "1590",
            "201",
            "1000",
            "0",
            "0",
            "0",
            "0",
            "railway=rail",
            "railway=switch",
            "231",
            "109630"
          ],
          [
            "-105004927",
            "39804960",
            "1589",
            "89",
            "1000",
            "0",
            "0",
            "0",
            "0",
            "railway=rail",
            "railway=unknown",
            "238",
            "114719"
          ],
          [
            "-105003440",
            "39804246",
            "1592",
            "4",
            "1000",
            "0",
            "0",
            "0",
            "0",
            "railway=rail",
            "",
            "238",
            "114927"
          ],
          [
            "-104996612",
            "39795921",
            "1593",
            "1297",
            "1000",
            "0",
            "0",
            "0",
            "0",
            "railway=rail",
            "",
            "103",
            "61021"
          ],
          [
            "-104996605",
            "39794859",
            "1593",
            "118",
            "1000",
            "0",
            "0",
            "0",
            "0",
            "reversedirection=yes railway=rail",
            "railway=switch",
            "113",
            "66212"
          ],
          [
            "-104996629",
            "39785052",
            "1595",
            "1089",
            "1000",
            "0",
            "0",
            "0",
            "0",
            "reversedirection=yes railway=rail",
            "railway=switch",
            "200",
            "115185"
          ],
          [
            "-104996684",
            "39784190",
            "1594",
            "96",
            "1000",
            "0",
            "0",
            "0",
            "0",
            "reversedirection=yes railway=rail",
            "railway=level_crossing",
            "208",
            "119029"
          ],
          [
            "-104996892",
            "39783303",
            "1593",
            "100",
            "1000",
            "0",
            "0",
            "0",
            "0",
            "reversedirection=yes railway=rail",
            "railway=switch",
            "216",
            "122709"
          ],
          [
            "-104997009",
            "39779724",
            "1597",
            "399",
            "1000",
            "0",
            "0",
            "0",
            "0",
            "reversedirection=yes railway=rail",
            "",
            "247",
            "143095"
          ],
          [
            "-104996992",
            "39773044",
            "1588",
            "742",
            "1000",
            "0",
            "0",
            "0",
            "0",
            "railway=rail",
            "railway=unknown",
            "307",
            "170958"
          ],
          [
            "-104996991",
            "39772655",
            "1587",
            "26",
            "1000",
            "0",
            "0",
            "0",
            "0",
            "railway=rail",
            "",
            "309",
            "171894"
          ],
          [
            "-104996991",
            "39772655",
            "1587",
            "18",
            "1000",
            "0",
            "0",
            "0",
            "0",
            "railway=rail",
            "railway=switch",
            "1",
            "755"
          ],
          [
            "-104997108",
            "39769172",
            "1584",
            "387",
            "1000",
            "0",
            "0",
            "0",
            "0",
            "railway=rail",
            "",
            "32",
            "15113"
          ],
          [
            "-104997081",
            "39766716",
            "1581",
            "273",
            "1000",
            "0",
            "0",
            "0",
            "0",
            "reversedirection=yes railway=rail",
            "railway=level_crossing",
            "54",
            "27449"
          ],
          [
            "-104994928",
            "39758075",
            "1583",
            "986",
            "1000",
            "0",
            "0",
            "0",
            "0",
            "reversedirection=yes railway=rail",
            "",
            "133",
            "69145"
          ],
          [
            "-104995143",
            "39757833",
            "1583",
            "36",
            "1000",
            "0",
            "0",
            "0",
            "0",
            "reversedirection=yes railway=rail",
            "railway=switch",
            "2",
            "1583"
          ],
          [
            "-104997156",
            "39756294",
            "1585",
            "243",
            "1000",
            "0",
            "0",
            "0",
            "0",
            "reversedirection=yes railway=rail",
            "",
            "22",
            "13608"
          ],
          [
            "-104997467",
            "39756130",
            "1585",
            "32",
            "1000",
            "0",
            "0",
            "0",
            "0",
            "railway=rail",
            "railway=switch",
            "24",
            "15254"
          ],
          [
            "-104998590",
            "39755537",
            "1583",
            "55",
            "1000",
            "0",
            "0",
            "0",
            "0",
            "railway=rail",
            "",
            "29",
            "17567"
          ],
          [
            "-104998590",
            "39755537",
            "1583",
            "62",
            "1000",
            "0",
            "0",
            "0",
            "0",
            "railway=rail",
            "railway=switch",
            "4",
            "2319"
          ],
          [
            "-105000679",
            "39753965",
            "1582",
            "251",
            "1000",
            "0",
            "0",
            "0",
            "0",
            "railway=rail",
            "railway=unknown",
            "25",
            "11802"
          ],
          [
            "-105000716",
            "39753936",
            "1582",
            "5",
            "1000",
            "0",
            "0",
            "0",
            "0",
            "railway=rail",
            "",
            "25",
            "12020"
          ]
        ],
        "times": [
          0,
          0.4,
          4,
          15.28,
          17.92,
          19.12,
          20.48,
          25.2,
          25.6,
          32.48,
          33.2,
          34.64,
          35.92,
          40.4,
          40.88,
          45.68,
          47.44,
          52.4,
          53.36,
          54.72,
          55.36,
          56.16,
          56.56,
          57.44,
          59.92,
          61.84,
          62.96,
          63.92,
          65.2,
          66.16,
          67.6,
          69.92,
          76.8,
          81.36,
          95.2,
          101.04,
          104.32,
          107.36,
          110.24,
          116.16,
          120.64,
          126.8,
          129.28,
          131.76,
          134.4,
          136.56,
          156.24,
          158.16,
          162.72,
          170.4,
          174.72,
          178.24,
          189.36,
          193.52,
          194.08,
          195.36,
          195.6,
          204.32,
          215.36,
          219.12,
          237.68,
          250.08,
          261.6,
          273.84,
          275.12,
          277.6,
          282.24,
          288.64,
          290.4,
          292.64,
          293.92,
          295.44,
          299.44,
          332.8,
          339.92,
          375.76,
          377.52,
          394.24,
          405.12,
          406.64,
          411.2,
          414.08,
          415.12,
          417.36,
          419.44,
          422.96,
          425.76,
          427.36,
          430.72,
          432.72,
          435.76,
          439.68,
          450.24,
          454.96,
          464.48,
          469.2,
          472.08,
          475.84,
          480.8,
          485.92,
          490.56,
          499.04,
          502.56,
          521.68,
          523.36,
          525.28,
          527.68,
          531.36,
          533.44,
          537.04,
          540.48,
          542.32,
          545.52,
          547.84,
          550.32,
          555.2,
          569.6,
          585.84,
          589.92,
          596.96,
          601.6,
          612.72,
          614.4,
          616.8,
          619.36,
          621.28,
          624.24,
          625.68,
          627.44,
          629.12,
          630.48,
          632.24,
          667.52,
          682.8,
          689.6,
          733.12,
          736.72,
          740.32,
          783.84,
          790.64,
          805.92,
          841.2,
          842.96,
          844.32,
          846,
          847.76,
          849.2,
          852.16,
          854.08,
          856.64,
          859.04,
          860.72,
          871.84,
          876.48,
          883.52,
          887.6,
          903.84,
          918.24,
          923.12,
          925.6,
          927.92,
          931.12,
          932.96,
          936.4,
          940,
          942.08,
          945.76,
          948.16,
          950.08,
          951.76,
          954.88,
          958.8,
          960.96,
          967.84,
          974.96,
          975.28,
          986.96,
          992.32,
          995.68,
          999.36,
          1002.72,
          1004.16,
          1006.88,
          1018.4,
          1023.2,
          1034,
          1037.68,
          1040.24,
          1042.72,
          1044.48,
          1047.6,
          1050.4,
          1052.08,
          1055.36,
          1057.28,
          1058.72,
          1062.08,
          1064.24,
          1067.84,
          1079.04,
          1088.48,
          1095.68,
          1108.64,
          1125.2,
          1132.48,
          1147.28,
          1154.72,
          1175.6,
          1179.92,
          1181.28,
          1183.28,
          1191.28,
          1194.88,
          1197.44,
          1199.84,
          1204.24,
          1223.2,
          1235.6,
          1265.68,
          1282.56,
          1284.64,
          1286.08,
          1293.44,
          1304.16,
          1315.12,
          1317.04,
          1320.56,
          1326.8,
          1336.8,
          1338.88,
          1341.52,
          1346.56,
          1352.88,
          1357.2,
          1362.72,
          1366,
          1367.28,
          1370.96,
          1373.6,
          1378,
          1391.76,
          1394.08,
          1401.2,
          1405.52,
          1407.04,
          1408.64,
          1412.24,
          1414.48,
          1415.84,
          1417.44,
          1417.76,
          1418,
          1418.88,
          1420.64,
          1422.64,
          1437.92,
          1440.08,
          1442.64,
          1447.04,
          1452,
          1453.36,
          1454.56,
          1457.2,
          1468.48,
          1472.08,
          1472.48
        ]
      },
      "geometry": {
        "type": "LineString",
        "coordinates": [
          [
            -105.000716,
            39.753936,
            1582.5
          ],
          [
            -105.000679,
            39.753965,
            1582.25
          ],
          [
            -105.000308,
            39.754257,
            1582.25
          ],
          [
            -104.999149,
            39.755154,
            1583.5
          ],
          [
            -104.99888,
            39.755364,
            1584
          ],
          [
            -104.998747,
            39.75545,
            1584
          ],
          [
            -104.99859,
            39.755537,
            1583.75
          ],
          [
            -104.997996,
            39.755801,
            1584.25
          ],
          [
            -104.997948,
            39.755827,
            1584.25
          ],
          [
            -104.997117,
            39.756265,
            1584
          ],
          [
            -104.997031,
            39.756318,
            1584
          ],
          [
            -104.99688,
            39.756427,
            1584
          ],
          [
            -104.996747,
            39.756528,
            1584
          ],
          [
            -104.996244,
            39.756856,
            1584
          ],
          [
            -104.996192,
            39.756897,
            1584.25
          ],
          [
            -104.995738,
            39.757306,
            1584.5
          ],
          [
            -104.995553,
            39.757445,
            1584.25
          ],
          [
            -104.995051,
            39.757846,
            1583.5
          ],
          [
            -104.994971,
            39.75793,
            1583.5
          ],
          [
            -104.994871,
            39.758057,
            1583.5
          ],
          [
            -104.994826,
            39.758125,
            1583.5
          ],
          [
            -104.994788,
            39.758208,
            1583.5
          ],
          [
            -104.994769,
            39.758247,
            1583.5
          ],
          [
            -104.994733,
            39.758341,
            1583.5
          ],
          [
            -104.994653,
            39.758612,
            1583.25
          ],
          [
            -104.994597,
            39.758824,
            1583
          ],
          [
            -104.994573,
            39.758949,
            1582.75
          ],
          [
            -104.994562,
            39.759061,
            1582.75
          ],
          [
            -104.994565,
            39.759202,
            1582.5
          ],
          [
            -104.994586,
            39.759307,
            1582.25
          ],
          [
            -104.994631,
            39.759461,
            1582
          ],
          [
            -104.994719,
            39.759715,
            1582
          ],
          [
            -104.994996,
            39.760459,
            1581.75
          ],
          [
            -104.995207,
            39.760944,
            1581.5
          ],
          [
            -104.995933,
            39.762397,
            1580.75
          ],
          [
            -104.996213,
            39.76302,
            1580.5
          ],
          [
            -104.996344,
            39.763375,
            1580.5
          ],
          [
            -104.996443,
            39.763704,
            1580.25
          ],
          [
            -104.996526,
            39.764025,
            1580.25
          ],
          [
            -104.996664,
            39.764682,
            1579.75
          ],
          [
            -104.99675,
            39.765185,
            1580
          ],
          [
            -104.99688,
            39.765869,
            1580.25
          ],
          [
            -104.99694,
            39.766142,
            1580.25
          ],
          [
            -104.996985,
            39.76642,
            1580.5
          ],
          [
            -104.99702,
            39.766718,
            1581
          ],
          [
            -104.997038,
            39.76696,
            1582
          ],
          [
            -104.997049,
            39.769172,
            1584.75
          ],
          [
            -104.997044,
            39.769386,
            1584.25
          ],
          [
            -104.997009,
            39.769903,
            1583
          ],
          [
            -104.996929,
            39.770764,
            1584
          ],
          [
            -104.996882,
            39.771251,
            1584.75
          ],
          [
            -104.996854,
            39.771644,
            1585.25
          ],
          [
            -104.996842,
            39.772893,
            1587.5
          ],
          [
            -104.996842,
            39.77336,
            1589.25
          ],
          [
            -104.996842,
            39.773423,
            1589.25
          ],
          [
            -104.996841,
            39.773564,
            1589.5
          ],
          [
            -104.996841,
            39.773595,
            1589.5
          ],
          [
            -104.996843,
            39.774573,
            1590.75
          ],
          [
            -104.996921,
            39.775814,
            1590.75
          ],
          [
            -104.996929,
            39.776241,
            1592.25
          ],
          [
            -104.996933,
            39.778331,
            1594.75
          ],
          [
            -104.996951,
            39.779724,
            1597.25
          ],
          [
            -104.996972,
            39.781022,
            1597.75
          ],
          [
            -104.996998,
            39.782397,
            1597.25
          ],
          [
            -104.996991,
            39.78254,
            1597
          ],
          [
            -104.996951,
            39.782821,
            1595.75
          ],
          [
            -104.996831,
            39.783334,
            1593
          ],
          [
            -104.996664,
            39.784039,
            1593.75
          ],
          [
            -104.996615,
            39.784234,
            1594.25
          ],
          [
            -104.996558,
            39.784479,
            1594.5
          ],
          [
            -104.996534,
            39.784625,
            1594.75
          ],
          [
            -104.996521,
            39.784793,
            1595
          ],
          [
            -104.996516,
            39.785243,
            1595.5
          ],
          [
            -104.99653,
            39.789003,
            1592.75
          ],
          [
            -104.996532,
            39.789807,
            1592.75
          ],
          [
            -104.996543,
            39.793844,
            1593.5
          ],
          [
            -104.996548,
            39.794039,
            1593.25
          ],
          [
            -104.996556,
            39.795921,
            1593.25
          ],
          [
            -104.996567,
            39.797148,
            1593.25
          ],
          [
            -104.996577,
            39.797323,
            1593.25
          ],
          [
            -104.996633,
            39.797833,
            1593.25
          ],
          [
            -104.996701,
            39.798155,
            1593.25
          ],
          [
            -104.996735,
            39.798273,
            1593.25
          ],
          [
            -104.996825,
            39.79852,
            1593.25
          ],
          [
            -104.996916,
            39.798744,
            1593.25
          ],
          [
            -104.997101,
            39.799117,
            1593.25
          ],
          [
            -104.997278,
            39.799404,
            1593.25
          ],
          [
            -104.997395,
            39.799563,
            1593.25
          ],
          [
            -104.997665,
            39.799882,
            1593.25
          ],
          [
            -104.997839,
            39.800067,
            1593.25
          ],
          [
            -104.998115,
            39.800331,
            1593.25
          ],
          [
            -104.998493,
            39.800665,
            1593.25
          ],
          [
            -104.999542,
            39.801532,
            1593.25
          ],
          [
            -105.000019,
            39.801921,
            1593.5
          ],
          [
            -105.000964,
            39.802702,
            1593.5
          ],
          [
            -105.001443,
            39.803084,
            1594.5
          ],
          [
            -105.001744,
            39.803308,
            1594
          ],
          [
            -105.002159,
            39.803582,
            1593.25
          ],
          [
            -105.002734,
            39.803928,
            1593.25
          ],
          [
            -105.003328,
            39.804274,
            1592.5
          ],
          [
            -105.003879,
            39.804585,
            1591.25
          ],
          [
            -105.004928,
            39.805092,
            1590
          ],
          [
            -105.00536,
            39.805302,
            1590
          ],
          [
            -105.007735,
            39.806434,
            1583.25
          ],
          [
            -105.007941,
            39.806533,
            1582.75
          ],
          [
            -105.008174,
            39.806653,
            1582.5
          ],
          [
            -105.008459,
            39.806813,
            1583.75
          ],
          [
            -105.008887,
            39.807065,
            1585.25
          ],
          [
            -105.009119,
            39.807217,
            1585.75
          ],
          [
            -105.009504,
            39.807499,
            1587
          ],
          [
            -105.009841,
            39.807785,
            1588
          ],
          [
            -105.010013,
            39.807946,
            1587.75
          ],
          [
            -105.010291,
            39.808236,
            1587.25
          ],
          [
            -105.010473,
            39.808451,
            1586.75
          ],
          [
            -105.010657,
            39.80869,
            1586
          ],
          [
            -105.010987,
            39.809172,
            1585.75
          ],
          [
            -105.011972,
            39.810609,
            1585.5
          ],
          [
            -105.013079,
            39.812225,
            1585.25
          ],
          [
            -105.013354,
            39.812629,
            1585.25
          ],
          [
            -105.013831,
            39.813335,
            1588
          ],
          [
            -105.014132,
            39.813804,
            1589
          ],
          [
            -105.014838,
            39.814935,
            1592.25
          ],
          [
            -105.014952,
            39.815098,
            1593
          ],
          [
            -105.015133,
            39.815327,
            1594
          ],
          [
            -105.015349,
            39.815563,
            1594.5
          ],
          [
            -105.01552,
            39.815734,
            1595
          ],
          [
            -105.015809,
            39.815978,
            1594.25
          ],
          [
            -105.015961,
            39.81609,
            1594
          ],
          [
            -105.016156,
            39.816224,
            1594
          ],
          [
            -105.016349,
            39.816346,
            1594
          ],
          [
            -105.01651,
            39.816439,
            1594.25
          ],
          [
            -105.016727,
            39.816553,
            1594.5
          ],
          [
            -105.021063,
            39.818704,
            1599.75
          ],
          [
            -105.022906,
            39.819675,
            1600
          ],
          [
            -105.023727,
            39.820098,
            1602.25
          ],
          [
            -105.029076,
            39.822742,
            1605.75
          ],
          [
            -105.029518,
            39.822961,
            1608.25
          ],
          [
            -105.029076,
            39.822742,
            1605.75
          ],
          [
            -105.023727,
            39.820098,
            1602.25
          ],
          [
            -105.022906,
            39.819675,
            1600
          ],
          [
            -105.021063,
            39.818704,
            1599.75
          ],
          [
            -105.016727,
            39.816553,
            1594.5
          ],
          [
            -105.01651,
            39.816439,
            1594.25
          ],
          [
            -105.016349,
            39.816346,
            1594
          ],
          [
            -105.016156,
            39.816224,
            1594
          ],
          [
            -105.015961,
            39.81609,
            1594
          ],
          [
            -105.015809,
            39.815978,
            1594.25
          ],
          [
            -105.01552,
            39.815734,
            1595
          ],
          [
            -105.015349,
            39.815563,
            1594.5
          ],
          [
            -105.015133,
            39.815327,
            1594
          ],
          [
            -105.014952,
            39.815098,
            1593
          ],
          [
            -105.014838,
            39.814935,
            1592.25
          ],
          [
            -105.014132,
            39.813804,
            1589
          ],
          [
            -105.013831,
            39.813335,
            1588
          ],
          [
            -105.013354,
            39.812629,
            1585.25
          ],
          [
            -105.013079,
            39.812225,
            1585.25
          ],
          [
            -105.011972,
            39.810609,
            1585.5
          ],
          [
            -105.010987,
            39.809172,
            1586
          ],
          [
            -105.010657,
            39.80869,
            1586
          ],
          [
            -105.010473,
            39.808451,
            1586.75
          ],
          [
            -105.010291,
            39.808236,
            1587.25
          ],
          [
            -105.010013,
            39.807946,
            1587.75
          ],
          [
            -105.009841,
            39.807785,
            1588
          ],
          [
            -105.009504,
            39.807499,
            1587
          ],
          [
            -105.009119,
            39.807217,
            1585.75
          ],
          [
            -105.008887,
            39.807065,
            1585.25
          ],
          [
            -105.008459,
            39.806813,
            1583.75
          ],
          [
            -105.008174,
            39.806653,
            1582.5
          ],
          [
            -105.007941,
            39.806533,
            1582.75
          ],
          [
            -105.007735,
            39.806434,
            1583.25
          ],
          [
            -105.007352,
            39.806236,
            1584.75
          ],
          [
            -105.006886,
            39.805979,
            1587
          ],
          [
            -105.006636,
            39.805831,
            1588
          ],
          [
            -105.005814,
            39.805385,
            1590.75
          ],
          [
            -105.004927,
            39.80496,
            1589.25
          ],
          [
            -105.004885,
            39.804939,
            1592.5
          ],
          [
            -105.00344,
            39.804246,
            1592.5
          ],
          [
            -105.002796,
            39.80391,
            1593.5
          ],
          [
            -105.002406,
            39.80368,
            1593.25
          ],
          [
            -105.001996,
            39.803418,
            1593.5
          ],
          [
            -105.001632,
            39.803164,
            1594.5
          ],
          [
            -105.001483,
            39.803052,
            1594.5
          ],
          [
            -105.001207,
            39.802838,
            1594.25
          ],
          [
            -105.000057,
            39.801897,
            1594
          ],
          [
            -104.99958,
            39.801499,
            1594
          ],
          [
            -104.998507,
            39.800613,
            1594
          ],
          [
            -104.998145,
            39.800302,
            1594
          ],
          [
            -104.997914,
            39.80008,
            1594
          ],
          [
            -104.997699,
            39.799851,
            1594
          ],
          [
            -104.99756,
            39.79968,
            1593.75
          ],
          [
            -104.997329,
            39.799377,
            1593.75
          ],
          [
            -104.997152,
            39.799095,
            1593.75
          ],
          [
            -104.997056,
            39.798921,
            1593.75
          ],
          [
            -104.996897,
            39.798575,
            1593.75
          ],
          [
            -104.996823,
            39.798371,
            1593.75
          ],
          [
            -104.996774,
            39.79821,
            1593.75
          ],
          [
            -104.996688,
            39.797834,
            1593.75
          ],
          [
            -104.996656,
            39.797592,
            1593.75
          ],
          [
            -104.996628,
            39.797183,
            1593.75
          ],
          [
            -104.996612,
            39.795921,
            1593.75
          ],
          [
            -104.996605,
            39.794859,
            1593.75
          ],
          [
            -104.996601,
            39.794048,
            1593
          ],
          [
            -104.996603,
            39.792593,
            1593
          ],
          [
            -104.996636,
            39.790727,
            1592.75
          ],
          [
            -104.996641,
            39.789903,
            1592.75
          ],
          [
            -104.996638,
            39.78824,
            1594
          ],
          [
            -104.996625,
            39.787402,
            1595
          ],
          [
            -104.996629,
            39.785052,
            1595
          ],
          [
            -104.996635,
            39.784568,
            1594.5
          ],
          [
            -104.996646,
            39.784417,
            1594.25
          ],
          [
            -104.996684,
            39.78419,
            1594
          ],
          [
            -104.996892,
            39.783303,
            1593.25
          ],
          [
            -104.996989,
            39.782906,
            1595.25
          ],
          [
            -104.997036,
            39.782623,
            1596.5
          ],
          [
            -104.997057,
            39.782349,
            1597
          ],
          [
            -104.997042,
            39.781858,
            1597.5
          ],
          [
            -104.997009,
            39.779724,
            1597
          ],
          [
            -104.99699,
            39.778331,
            1594.75
          ],
          [
            -104.996985,
            39.774942,
            1590.5
          ],
          [
            -104.996992,
            39.773044,
            1588.25
          ],
          [
            -104.996992,
            39.772814,
            1587.25
          ],
          [
            -104.996991,
            39.772655,
            1587.25
          ],
          [
            -104.997005,
            39.771829,
            1586
          ],
          [
            -104.99706,
            39.770621,
            1584
          ],
          [
            -104.997106,
            39.769386,
            1584.25
          ],
          [
            -104.997108,
            39.769172,
            1584.75
          ],
          [
            -104.997113,
            39.768778,
            1585.5
          ],
          [
            -104.997108,
            39.768077,
            1585.5
          ],
          [
            -104.997095,
            39.766948,
            1582
          ],
          [
            -104.997081,
            39.766716,
            1581
          ],
          [
            -104.997048,
            39.766416,
            1580.75
          ],
          [
            -104.996949,
            39.765858,
            1580.25
          ],
          [
            -104.996801,
            39.765156,
            1580
          ],
          [
            -104.996714,
            39.764676,
            1580
          ],
          [
            -104.99659,
            39.764063,
            1580.25
          ],
          [
            -104.996499,
            39.763697,
            1580.25
          ],
          [
            -104.996457,
            39.763552,
            1580.5
          ],
          [
            -104.996324,
            39.763155,
            1580.5
          ],
          [
            -104.996213,
            39.762872,
            1580.75
          ],
          [
            -104.995993,
            39.762402,
            1580.75
          ],
          [
            -104.995268,
            39.760954,
            1581.25
          ],
          [
            -104.995156,
            39.760704,
            1581.5
          ],
          [
            -104.994854,
            39.759938,
            1581.75
          ],
          [
            -104.9947,
            39.75947,
            1581.75
          ],
          [
            -104.994675,
            39.7593,
            1582
          ],
          [
            -104.994676,
            39.759123,
            1582
          ],
          [
            -104.994726,
            39.758718,
            1582.75
          ],
          [
            -104.994774,
            39.758465,
            1583.25
          ],
          [
            -104.994817,
            39.758314,
            1583.25
          ],
          [
            -104.994893,
            39.758139,
            1583.25
          ],
          [
            -104.994914,
            39.758102,
            1583.25
          ],
          [
            -104.994928,
            39.758075,
            1583.25
          ],
          [
            -104.994992,
            39.757988,
            1583.25
          ],
          [
            -104.995143,
            39.757833,
            1583.25
          ],
          [
            -104.995343,
            39.757672,
            1583.5
          ],
          [
            -104.996919,
            39.756457,
            1584.75
          ],
          [
            -104.997156,
            39.756294,
            1585.5
          ],
          [
            -104.997467,
            39.75613,
            1585.75
          ],
          [
            -104.997997,
            39.75585,
            1583.75
          ],
          [
            -104.99859,
            39.755537,
            1583.75
          ],
          [
            -104.998747,
            39.75545,
            1584
          ],
          [
            -104.99888,
            39.755364,
            1584
          ],
          [
            -104.999149,
            39.755154,
            1583.5
          ],
          [
            -105.000308,
            39.754257,
            1582.25
          ],
          [
            -105.000679,
            39.753965,
            1582.25
          ],
          [
            -105.000716,
            39.753936,
            1582.5
          ]
        ]
      }
    }
  ]
}