{
  "type": "FeatureCollection",
  "features": [
    {
      "type": "Feature",
      "properties": {
        "creator": "BRouter-1.7.0",
        "name": "Denver Light Rail (30th & Downing - Loop)",
        "track-length": "5487",
        "filtered ascend": "32",
        "plain-ascend": "5",
        "total-time": "438",
        "total-energy": "240414",
        "cost": "5487",
        "messages": [
          [
            "Longitude",
            "Latitude",
            "Elevation",
            "Distance",
            "CostPerKm",
            "ElevCost",
            "TurnCost",
            "NodeCost",
            "InitialCost",
            "WayTags",
            "NodeTags",
            "Time",
            "Energy"
          ],
          [
            "-104973544",
            "39759177",
            "1593",
            "20",
            "1000",
            "0",
            "0",
            "0",
            "0",
            "reversedirection=yes railway=light_rail",
            "railway=unknown",
            "1",
            "879"
          ],
          [
            "-104973548",
            "39758381",
            "1596",
            "88",
            "1000",
            "0",
            "0",
            "0",
            "0",
            "reversedirection=yes railway=light_rail",
            "railway=crossing",
            "8",
            "6171"
          ],
          [
            "-104973604",
            "39758218",
            "1596",
            "19",
            "1000",
            "0",
            "0",
            "0",
            "0",
            "reversedirection=yes railway=light_rail",
            "railway=level_crossing",
            "10",
            "7219"
          ],
          [
            "-104974240",
            "39757644",
            "1595",
            "84",
            "1000",
            "0",
            "0",
            "0",
            "0",
            "reversedirection=yes railway=light_rail",
            "railway=switch",
            "16",
            "11131"
          ],
          [
            "-104974272",
            "39757620",
            "1595",
            "4",
            "1000",
            "0",
            "0",
            "0",
            "0",
            "reversedirection=yes railway=light_rail",
            "railway=crossing",
            "17",
            "11304"
          ],
          [
            "-104974361",
            "39757551",
            "1595",
            "11",
            "1000",
            "0",
            "0",
            "0",
            "0",
            "reversedirection=yes railway=light_rail",
            "railway=level_crossing",
            "18",
            "11779"
          ],
          [
            "-104974446",
            "39757482",
            "1595",
            "11",
            "1000",
            "0",
            "0",
            "0",
            "0",
            "reversedirection=yes railway=light_rail",
            "railway=crossing",
            "18",
            "12255"
          ],
          [
            "-104974485",
            "39757453",
            "1595",
            "5",
            "1000",
            "0",
            "0",
            "0",
            "0",
            "reversedirection=yes railway=light_rail",
            "railway=crossing",
            "19",
            "12472"
          ],
          [
            "-104975435",
            "39756721",
            "1598",
            "115",
            "1000",
            "0",
            "0",
            "0",
            "0",
            "reversedirection=yes railway=light_rail",
            "railway=crossing",
            "28",
            "18996"
          ],
          [
            "-104975480",
            "39756685",
            "1598",
            "6",
            "1000",
            "0",
            "0",
            "0",
            "0",
            "reversedirection=yes railway=light_rail",
            "railway=crossing",
            "29",
            "19300"
          ],
          [
            "-104975562",
            "39756622",
            "1598",
            "10",
            "1000",
            "0",
            "0",
            "0",
            "0",
            "reversedirection=yes railway=light_rail",
            "railway=level_crossing",
            "29",
            "19800"
          ],
          [
            "-104975655",
            "39756549",
            "1598",
            "11",
            "1000",
            "0",
            "0",
            "0",
            "0",
            "reversedirection=yes railway=light_rail",
            "railway=crossing",
            "30",
            "20344"
          ],
          [
            "-104976694",
            "39755745",
            "1598",
            "126",
            "1000",
            "0",
            "0",
            "0",
            "0",
            "reversedirection=yes railway=light_rail",
            "railway=crossing",
            "40",
            "26100"
          ],
          [
            "-104976770",
            "39755686",
            "1597",
            "9",
            "1000",
            "0",
            "0",
            "0",
            "0",
            "reversedirection=yes railway=light_rail",
            "railway=level_crossing",
            "41",
            "26484"
          ],
          [
            "-104976862",
            "39755614",
            "1597",
            "11",
            "1000",
            "0",
            "0",
            "0",
            "0",
            "reversedirection=yes railway=light_rail",
            "railway=crossing",
            "42",
            "26955"
          ],
          [
            "-104977325",
            "39755255",
            "1597",
            "56",
            "1000",
            "0",
            "0",
            "0",
            "0",
            "reversedirection=yes railway=light_rail",
            "railway=unknown",
            "46",
            "29276"
          ],
          [
            "-104977891",
            "39754816",
            "1598",
            "69",
            "1000",
            "0",
            "0",
            "0",
            "0",
            "reversedirection=yes railway=light_rail",
            "railway=crossing",
            "52",
            "32546"
          ],
          [
            "-104977977",
            "39754750",
            "1598",
            "10",
            "1000",
            "0",
            "0",
            "0",
            "0",
            "reversedirection=yes railway=light_rail",
            "railway=level_crossing",
            "53",
            "33008"
          ],
          [
            "-104978057",
            "39754686",
            "1598",
            "10",
            "1000",
            "0",
            "0",
            "0",
            "0",
            "reversedirection=yes railway=light_rail",
            "railway=crossing",
            "53",
            "33469"
          ],
          [
            "-104978159",
            "39754607",
            "1598",
            "12",
            "1000",
            "0",
            "0",
            "0",
            "0",
            "reversedirection=yes railway=light_rail",
            "railway=level_crossing",
            "54",
            "34018"
          ],
          [
            "-104978296",
            "39754503",
            "1598",
            "16",
            "1000",
            "0",
            "0",
            "0",
            "0",
            "reversedirection=yes railway=light_rail",
            "railway=crossing",
            "56",
            "34715"
          ],
          [
            "-104979123",
            "39753860",
            "1598",
            "101",
            "1000",
            "0",
            "0",
            "0",
            "0",
            "reversedirection=yes railway=light_rail",
            "railway=crossing",
            "64",
            "39552"
          ],
          [
            "-104979187",
            "39753814",
            "1598",
            "7",
            "1000",
            "0",
            "0",
            "0",
            "0",
            "reversedirection=yes railway=light_rail",
            "railway=level_crossing",
            "64",
            "39875"
          ],
          [
            "-104979254",
            "39753761",
            "1598",
            "8",
            "1000",
            "0",
            "0",
            "0",
            "0",
            "reversedirection=yes railway=light_rail",
            "railway=crossing",
            "65",
            "40243"
          ],
          [
            "-104979798",
            "39753341",
            "1598",
            "66",
            "1000",
            "0",
            "0",
            "0",
            "0",
            "reversedirection=yes railway=light_rail",
            "railway=unknown",
            "70",
            "43027"
          ],
          [
            "-104980317",
            "39752938",
            "1598",
            "63",
            "1000",
            "0",
            "0",
            "0",
            "0",
            "reversedirection=yes railway=light_rail",
            "railway=crossing",
            "75",
            "45739"
          ],
          [
            "-104980392",
            "39752880",
            "1598",
            "9",
            "1000",
            "0",
            "0",
            "0",
            "0",
            "reversedirection=yes railway=light_rail",
            "railway=level_crossing",
            "76",
            "46110"
          ],
          [
            "-104980482",
            "39752811",
            "1598",
            "11",
            "1000",
            "0",
            "0",
            "0",
            "0",
            "reversedirection=yes railway=light_rail",
            "railway=crossing",
            "77",
            "46566"
          ],
          [
            "-104981234",
            "39752228",
            "1598",
            "91",
            "1000",
            "0",
            "0",
            "0",
            "0",
            "reversedirection=yes railway=light_rail",
            "railway=signal",
            "84",
            "50427"
          ],
          [
            "-104981250",
            "39752215",
            "1598",
            "2",
            "1000",
            "0",
            "0",
            "0",
            "0",
            "reversedirection=yes railway=light_rail",
            "railway=switch",
            "84",
            "50513"
          ],
          [
            "-104981380",
            "39752130",
            "1598",
            "15",
            "1000",
            "0",
            "0",
            "0",
            "0",
            "railway=light_rail",
            "railway=crossing",
            "86",
            "51191"
          ],
          [
            "-104981543",
            "39752030",
            "1598",
            "18",
            "1000",
            "0",
            "0",
            "0",
            "0",
            "railway=light_rail",
            "railway=crossing",
            "87",
            "52037"
          ],
          [
            "-104981646",
            "39751967",
            "1598",
            "11",
            "1000",
            "0",
            "0",
            "0",
            "0",
            "railway=light_rail",
            "railway=level_crossing",
            "88",
            "52550"
          ],
          [
            "-104981727",
            "39751904",
            "1598",
            "10",
            "1000",
            "0",
            "0",
            "0",
            "0",
            "railway=light_rail",
            "railway=level_crossing",
            "89",
            "53013"
          ],
          [
            "-104981744",
            "39751891",
            "1598",
            "2",
            "1000",
            "0",
            "0",
            "0",
            "0",
            "railway=light_rail",
            "railway=signal",
            "89",
            "53106"
          ],
          [
            "-104982771",
            "39751098",
            "1598",
            "124",
            "1000",
            "0",
            "0",
            "0",
            "0",
            "railway=light_rail",
            "railway=crossing",
            "99",
            "58559"
          ],
          [
            "-104982853",
            "39751032",
            "1598",
            "10",
            "1000",
            "0",
            "0",
            "0",
            "0",
            "railway=light_rail",
            "railway=level_crossing",
            "100",
            "58998"
          ],
          [
            "-104982940",
            "39750965",
            "1598",
            "11",
            "1000",
            "0",
            "0",
            "0",
            "0",
            "railway=light_rail",
            "railway=crossing",
            "100",
            "59482"
          ],
          [
            "-104983971",
            "39750163",
            "1598",
            "125",
            "1000",
            "0",
            "0",
            "0",
            "0",
            "railway=light_rail",
            "railway=level_crossing",
            "110",
            "64980"
          ],
          [
            "-104984050",
            "39750102",
            "1598",
            "10",
            "1000",
            "0",
            "0",
            "0",
            "0",
            "railway=light_rail",
            "railway=level_crossing",
            "111",
            "65399"
          ],
          [
            "-104984146",
            "39750028",
            "1598",
            "12",
            "1000",
            "0",
            "0",
            "0",
            "0",
            "railway=light_rail",
            "railway=crossing",
            "112",
            "65904"
          ],
          [
            "-104985179",
            "39749229",
            "1600",
            "70",
            "1000",
            "0",
            "0",
            "0",
            "0",
            "railway=light_rail",
            "",
            "118",
            "69338"
          ],
          [
            "-104985179",
            "39749229",
            "1600",
            "55",
            "1000",
            "0",
            "0",
            "0",
            "0",
            "railway=light_rail",
            "railway=crossing",
            "4",
            "2792"
          ],
          [
            "-104985255",
            "39749171",
            "1600",
            "9",
            "1000",
            "0",
            "0",
            "0",
            "0",
            "railway=light_rail",
            "railway=level_crossing",
            "5",
            "3251"
          ],
          [
            "-104985354",
            "39749093",
            "1600",
            "12",
            "1000",
            "0",
            "0",
            "0",
            "0",
            "railway=light_rail",
            "railway=crossing",
            "6",
            "3854"
          ],
          [
            "-104985417",
            "39749043",
            "1600",
            "8",
            "1000",
            "0",
            "0",
            "0",
            "0",
            "railway=light_rail",
            "railway=crossing",
            "6",
            "4269"
          ],
          [
            "-104985929",
            "39748641",
            "1600",
            "63",
            "1000",
            "0",
            "0",
            "0",
            "0",
            "railway=light_rail",
            "railway=crossing",
            "11",
            "7184"
          ],
          [
            "-104986297",
            "39748403",
            "1598",
            "42",
            "1000",
            "0",
            "0",
            "0",
            "0",
            "railway=light_rail",
            "railway=level_crossing",
            "15",
            "8754"
          ],
          [
            "-104986442",
            "39748333",
            "1598",
            "15",
            "1000",
            "0",
            "0",
            "0",
            "0",
            "railway=light_rail",
            "railway=crossing",
            "16",
            "9291"
          ],
          [
            "-104986546",
            "39748280",
            "1598",
            "11",
            "1000",
            "0",
            "0",
            "0",
            "0",
            "railway=light_rail",
            "railway=level_crossing",
            "17",
            "9673"
          ],
          [
            "-104986619",
            "39748224",
            "1598",
            "9",
            "1000",
            "0",
            "0",
            "0",
            "0",
            "railway=light_rail",
            "railway=crossing",
            "17",
            "9974"
          ],
          [
            "-104987165",
            "39747714",
            "1598",
            "73",
            "1000",
            "0",
            "0",
            "0",
            "0",
            "railway=light_rail",
            "railway=unknown",
            "23",
            "12863"
          ],
          [
            "-104987295",
            "39747590",
            "1599",
            "18",
            "1000",
            "0",
            "0",
            "0",
            "0",
            "railway=light_rail",
            "railway=crossing",
            "25",
            "13688"
          ],
          [
            "-104987327",
            "39747560",
            "1599",
            "4",
            "1000",
            "0",
            "0",
            "0",
            "0",
            "railway=light_rail",
            "railway=level_crossing",
            "25",
            "13879"
          ],
          [
            "-104987383",
            "39747515",
            "1599",
            "7",
            "1000",
            "0",
            "0",
            "0",
            "0",
            "railway=light_rail",
            "railway=level_crossing",
            "26",
            "14242"
          ],
          [
            "-104987503",
            "39747450",
            "1600",
            "12",
            "1000",
            "0",
            "0",
            "0",
            "0",
            "railway=light_rail",
            "railway=level_crossing",
            "27",
            "14889"
          ],
          [
            "-104987617",
            "39747434",
            "1602",
            "10",
            "1000",
            "0",
            "0",
            "0",
            "0",
            "railway=light_rail",
            "railway=crossing",
            "27",
            "15348"
          ],
          [
            "-104988454",
            "39747967",
            "1607",
            "94",
            "1000",
            "0",
            "0",
            "0",
            "0",
            "railway=light_rail",
            "railway=crossing",
            "35",
            "22279"
          ],
          [
            "-104988535",
            "39748027",
            "1607",
            "10",
            "1000",
            "0",
            "0",
            "0",
            "0",
            "railway=light_rail",
            "railway=level_crossing",
            "36",
            "22890"
          ],
          [
            "-104988628",
            "39748092",
            "1606",
            "11",
            "1000",
            "0",
            "0",
            "0",
            "0",
            "railway=light_rail",
            "railway=crossing",
            "37",
            "23474"
          ],
          [
            "-104988783",
            "39748202",
            "1605",
            "18",
            "1000",
            "0",
            "0",
            "0",
            "0",
            "railway=light_rail",
            "railway=switch",
            "38",
            "24699"
          ],
          [
            "-104989339",
            "39748591",
            "1606",
            "65",
            "1000",
            "0",
            "0",
            "0",
            "0",
            "railway=light_rail",
            "railway=crossing",
            "43",
            "28717"
          ],
          [
            "-104989383",
            "39748597",
            "1607",
            "4",
            "1000",
            "0",
            "0",
            "0",
            "0",
            "railway=light_rail",
            "railway=level_crossing",
            "43",
            "28986"
          ],
          [
            "-104989471",
            "39748608",
            "1607",
            "8",
            "1000",
            "0",
            "0",
            "0",
            "0",
            "railway=light_rail",
            "railway=level_crossing",
            "44",
            "29525"
          ],
          [
            "-104989542",
            "39748599",
            "1607",
            "6",
            "1000",
            "0",
            "0",
            "0",
            "0",
            "railway=light_rail",
            "railway=crossing",
            "45",
            "29794"
          ],
          [
            "-104990330",
            "39748042",
            "1607",
            "51",
            "1000",
            "0",
            "0",
            "0",
            "0",
            "railway=light_rail",
            "",
            "49",
            "32179"
          ],
          [
            "-104990330",
            "39748042",
            "1607",
            "42",
            "1000",
            "0",
            "0",
            "0",
            "0",
            "railway=light_rail",
            "railway=unknown",
            "3",
            "1695"
          ],
          [
            "-104990617",
            "39747824",
            "1604",
            "35",
            "1000",
            "0",
            "0",
            "0",
            "0",
            "railway=light_rail",
            "railway=crossing",
            "6",
            "3019"
          ],
          [
            "-104990654",
            "39747796",
            "1603",
            "4",
            "1000",
            "0",
            "0",
            "0",
            "0",
            "railway=light_rail",
            "railway=crossing",
            "6",
            "3157"
          ],
          [
            "-104990674",
            "39747780",
            "1603",
            "2",
            "1000",
            "0",
            "0",
            "0",
            "0",
            "railway=light_rail",
            "railway=level_crossing",
            "6",
            "3223"
          ],
          [
            "-104990697",
            "39747762",
            "1603",
            "3",
            "1000",
            "0",
            "0",
            "0",
            "0",
            "railway=light_rail",
            "railway=level_crossing",
            "6",
            "3315"
          ],
          [
            "-104990775",
            "39747700",
            "1601",
            "10",
            "1000",
            "0",
            "0",
            "0",
            "0",
            "railway=light_rail",
            "railway=crossing",
            "7",
            "3551"
          ],
          [
            "-104991238",
            "39747335",
            "1603",
            "57",
            "1000",
            "0",
            "0",
            "0",
            "0",
            "railway=light_rail",
            "railway=level_crossing",
            "12",
            "5678"
          ],
          [
            "-104991809",
            "39746886",
            "1607",
            "70",
            "1000",
            "0",
            "0",
            "0",
            "0",
            "railway=light_rail",
            "railway=crossing",
            "17",
            "8953"
          ],
          [
            "-104991887",
            "39746825",
            "1607",
            "10",
            "1000",
            "0",
            "0",
            "0",
            "0",
            "railway=light_rail",
            "railway=level_crossing",
            "18",
            "9453"
          ],
          [
            "-104991921",
            "39746797",
            "1608",
            "4",
            "1000",
            "0",
            "0",
            "0",
            "0",
            "railway=light_rail",
            "railway=level_crossing",
            "18",
            "9660"
          ],
          [
            "-104991972",
            "39746757",
            "1608",
            "6",
            "1000",
            "0",
            "0",
            "0",
            "0",
            "railway=light_rail",
            "railway=crossing",
            "19",
            "9982"
          ],
          [
            "-104992533",
            "39746317",
            "1611",
            "69",
            "1000",
            "0",
            "0",
            "0",
            "0",
            "railway=light_rail",
            "railway=level_crossing",
            "24",
            "13479"
          ],
          [
            "-104992858",
            "39746062",
            "1609",
            "40",
            "1000",
            "0",
            "0",
            "0",
            "0",
            "railway=light_rail",
            "railway=unknown",
            "28",
            "15828"
          ],
          [
            "-104993012",
            "39745943",
            "1609",
            "19",
            "1000",
            "0",
            "0",
            "0",
            "0",
            "railway=light_rail",
            "railway=crossing",
            "29",
            "16795"
          ],
          [
            "-104993071",
            "39745896",
            "1609",
            "7",
            "1000",
            "0",
            "0",
            "0",
            "0",
            "railway=light_rail",
            "railway=level_crossing",
            "30",
            "17145"
          ],
          [
            "-104993141",
            "39745844",
            "1609",
            "8",
            "1000",
            "0",
            "0",
            "0",
            "0",
            "railway=light_rail",
            "railway=level_crossing",
            "30",
            "17542"
          ],
          [
            "-104993179",
            "39745815",
            "1609",
            "5",
            "1000",
            "0",
            "0",
            "0",
            "0",
            "railway=light_rail",
            "railway=crossing",
            "31",
            "17788"
          ],
          [
            "-104994224",
            "39745016",
            "1598",
            "126",
            "1000",
            "0",
            "0",
            "0",
            "0",
            "railway=light_rail",
            "railway=crossing",
            "41",
            "18480"
          ],
          [
            "-104994271",
            "39744980",
            "1598",
            "6",
            "1000",
            "0",
            "0",
            "0",
            "0",
            "railway=light_rail",
            "railway=level_crossing",
            "41",
            "18632"
          ],
          [
            "-104994305",
            "39744954",
            "1598",
            "4",
            "1000",
            "0",
            "0",
            "0",
            "0",
            "railway=light_rail",
            "railway=level_crossing",
            "42",
            "18737"
          ],
          [
            "-104994366",
            "39744907",
            "1598",
            "3",
            "1000",
            "0",
            "0",
            "0",
            "0",
            "railway=light_rail",
            "",
            "42",
            "18818"
          ],
          [
            "-104994366",
            "39744907",
            "1598",
            "4",
            "1000",
            "0",
            "0",
            "0",
            "0",
            "railway=light_rail",
            "railway=crossing",
            "0",
            "175"
          ],
          [
            "-104994394",
            "39744885",
            "1598",
            "3",
            "1000",
            "0",
            "0",
            "0",
            "0",
            "railway=light_rail",
            "railway=crossing",
            "0",
            "307"
          ],
          [
            "-104994850",
            "39744537",
            "1597",
            "55",
            "1000",
            "0",
            "0",
            "0",
            "0",
            "railway=light_rail",
            "railway=level_crossing",
            "4",
            "2540"
          ],
          [
            "-104994944",
            "39744466",
            "1597",
            "11",
            "1000",
            "0",
            "0",
            "0",
            "0",
            "railway=light_rail",
            "railway=level_crossing",
            "5",
            "2974"
          ],
          [
            "-104995149",
            "39744309",
            "1597",
            "25",
            "1000",
            "0",
            "0",
            "0",
            "0",
            "railway=light_rail",
            "railway=switch",
            "7",
            "4077"
          ],
          [
            "-104995235",
            "39744172",
            "1597",
            "17",
            "1000",
            "0",
            "0",
            "0",
            "0",
            "railway=light_rail",
            "railway=level_crossing",
            "9",
            "4781"
          ],
          [
            "-104995243",
            "39744059",
            "1597",
            "12",
            "1000",
            "0",
            "0",
            "0",
            "0",
            "railway=light_rail",
            "railway=crossing",
            "10",
            "5305"
          ],
          [
            "-104995104",
            "39743897",
            "1598",
            "22",
            "1000",
            "0",
            "0",
            "0",
            "0",
            "railway=light_rail",
            "railway=switch",
            "11",
            "6426"
          ],
          [
            "-104994906",
            "39743759",
            "1599",
            "23",
            "1000",
            "0",
            "0",
            "0",
            "0",
            "railway=light_rail",
            "railway=level_crossing",
            "13",
            "7736"
          ],
          [
            "-104994548",
            "39743504",
            "1600",
            "42",
            "1000",
            "0",
            "0",
            "0",
            "0",
            "railway=light_rail",
            "railway=crossing",
            "17",
            "10292"
          ],
          [
            "-104994431",
            "39743479",
            "1600",
            "11",
            "1000",
            "0",
            "0",
            "0",
            "0",
            "railway=light_rail",
            "railway=level_crossing",
            "18",
            "10937"
          ],
          [
            "-104993440",
            "39744165",
            "1600",
            "116",
            "1000",
            "0",
            "0",
            "0",
            "0",
            "railway=light_rail",
            "railway=crossing",
            "27",
            "16807"
          ],
          [
            "-104993412",
            "39744185",
            "1600",
            "3",
            "1000",
            "0",
            "0",
            "0",
            "0",
            "railway=light_rail",
            "railway=crossing",
            "27",
            "16957"
          ],
          [
            "-104993360",
            "39744224",
            "1601",
            "6",
            "1000",
            "0",
            "0",
            "0",
            "0",
            "railway=light_rail",
            "railway=level_crossing",
            "27",
            "17281"
          ],
          [
            "-104993330",
            "39744246",
            "1601",
            "4",
            "1000",
            "0",
            "0",
            "0",
            "0",
            "railway=light_rail",
            "railway=level_crossing",
            "28",
            "17496"
          ],
          [
            "-104993277",
            "39744286",
            "1601",
            "6",
            "1000",
            "0",
            "0",
            "0",
            "0",
            "railway=light_rail",
            "railway=crossing",
            "28",
            "17828"
          ],
          [
            "-104992596",
            "39744814",
            "1603",
            "45",
            "1000",
            "0",
            "0",
            "0",
            "0",
            "railway=light_rail",
            "",
            "32",
            "20444"
          ],
          [
            "-104992596",
            "39744814",
            "1603",
            "38",
            "1000",
            "0",
            "0",
            "0",
            "0",
            "railway=light_rail",
            "railway=level_crossing",
            "3",
            "1950"
          ],
          [
            "-104992365",
            "39744994",
            "1604",
            "28",
            "1000",
            "0",
            "0",
            "0",
            "0",
            "railway=light_rail",
            "railway=unknown",
            "5",
            "3545"
          ],
          [
            "-104992239",
            "39745092",
            "1605",
            "15",
            "1000",
            "0",
            "0",
            "0",
            "0",
            "railway=light_rail",
            "railway=crossing",
            "6",
            "4515"
          ],
          [
            "-104992210",
            "39745120",
            "1605",
            "4",
            "1000",
            "0",
            "0",
            "0",
            "0",
            "railway=light_rail",
            "railway=level_crossing",
            "6",
            "4774"
          ],
          [
            "-104992145",
            "39745175",
            "1606",
            "8",
            "1000",
            "0",
            "0",
            "0",
            "0",
            "railway=light_rail",
            "railway=level_crossing",
            "7",
            "5132"
          ],
          [
            "-104992074",
            "39745220",
            "1607",
            "8",
            "1000",
            "0",
            "0",
            "0",
            "0",
            "railway=light_rail",
            "railway=crossing",
            "8",
            "5522"
          ],
          [
            "-104991029",
            "39746029",
            "1604",
            "127",
            "1000",
            "0",
            "0",
            "0",
            "0",
            "railway=light_rail",
            "railway=crossing",
            "18",
            "11760"
          ],
          [
            "-104990973",
            "39746072",
            "1603",
            "7",
            "1000",
            "0",
            "0",
            "0",
            "0",
            "railway=light_rail",
            "railway=level_crossing",
            "18",
            "12040"
          ],
          [
            "-104990941",
            "39746096",
            "1603",
            "4",
            "1000",
            "0",
            "0",
            "0",
            "0",
            "railway=light_rail",
            "railway=level_crossing",
            "19",
            "12193"
          ],
          [
            "-104990859",
            "39746158",
            "1603",
            "10",
            "1000",
            "0",
            "0",
            "0",
            "0",
            "railway=light_rail",
            "railway=crossing",
            "19",
            "12536"
          ],
          [
            "-104990042",
            "39746789",
            "1605",
            "99",
            "1000",
            "0",
            "0",
            "0",
            "0",
            "railway=light_rail",
            "railway=unknown",
            "27",
            "17559"
          ],
          [
            "-104989817",
            "39746963",
            "1607",
            "27",
            "1000",
            "0",
            "0",
            "0",
            "0",
            "railway=light_rail",
            "railway=crossing",
            "29",
            "19206"
          ],
          [
            "-104989737",
            "39747023",
            "1607",
            "10",
            "1000",
            "0",
            "0",
            "0",
            "0",
            "railway=light_rail",
            "railway=level_crossing",
            "30",
            "19829"
          ],
          [
            "-104989721",
            "39747036",
            "1607",
            "2",
            "1000",
            "0",
            "0",
            "0",
            "0",
            "railway=light_rail",
            "railway=level_crossing",
            "30",
            "19956"
          ],
          [
            "-104989696",
            "39747055",
            "1608",
            "3",
            "1000",
            "0",
            "0",
            "0",
            "0",
            "railway=light_rail",
            "railway=crossing",
            "31",
            "20151"
          ],
          [
            "-104989657",
            "39747086",
            "1608",
            "5",
            "1000",
            "0",
            "0",
            "0",
            "0",
            "railway=light_rail",
            "railway=crossing",
            "31",
            "20483"
          ],
          [
            "-104988783",
            "39747758",
            "1610",
            "57",
            "1000",
            "0",
            "0",
            "0",
            "0",
            "railway=light_rail",
            "",
            "36",
            "23174"
          ],
          [
            "-104988783",
            "39747758",
            "1610",
            "49",
            "1000",
            "0",
            "0",
            "0",
            "0",
            "railway=light_rail",
            "railway=switch",
            "3",
            "2582"
          ],
          [
            "-104988698",
            "39747818",
            "1609",
            "10",
            "1000",
            "0",
            "0",
            "0",
            "0",
            "railway=light_rail",
            "railway=level_crossing",
            "4",
            "3023"
          ],
          [
            "-104988588",
            "39747863",
            "1609",
            "10",
            "1000",
            "0",
            "0",
            "0",
            "0",
            "railway=light_rail",
            "railway=crossing",
            "5",
            "3423"
          ],
          [
            "-104988478",
            "39747863",
            "1609",
            "9",
            "1000",
            "0",
            "0",
            "0",
            "0",
            "railway=light_rail",
            "railway=level_crossing",
            "6",
            "3785"
          ],
          [
            "-104987620",
            "39747392",
            "1602",
            "93",
            "1000",
            "0",
            "0",
            "0",
            "0",
            "railway=light_rail",
            "railway=crossing",
            "13",
            "7071"
          ],
          [
            "-104987503",
            "39747402",
            "1600",
            "10",
            "1000",
            "0",
            "0",
            "0",
            "0",
            "railway=light_rail",
            "railway=level_crossing",
            "14",
            "7091"
          ],
          [
            "-104987383",
            "39747435",
            "1600",
            "11",
            "1000",
            "0",
            "0",
            "0",
            "0",
            "railway=light_rail",
            "railway=level_crossing",
            "15",
            "7124"
          ],
          [
            "-104987294",
            "39747506",
            "1599",
            "11",
            "1000",
            "0",
            "0",
            "0",
            "0",
            "railway=light_rail",
            "railway=crossing",
            "16",
            "7125"
          ],
          [
            "-104987263",
            "39747530",
            "1599",
            "4",
            "1000",
            "0",
            "0",
            "0",
            "0",
            "railway=light_rail",
            "railway=level_crossing",
            "16",
            "7138"
          ],
          [
            "-104986715",
            "39748047",
            "1598",
            "74",
            "1000",
            "0",
            "0",
            "0",
            "0",
            "railway=light_rail",
            "railway=unknown",
            "22",
            "7682"
          ],
          [
            "-104986569",
            "39748188",
            "1598",
            "20",
            "1000",
            "0",
            "0",
            "0",
            "0",
            "railway=light_rail",
            "railway=crossing",
            "24",
            "8129"
          ],
          [
            "-104986498",
            "39748244",
            "1598",
            "9",
            "1000",
            "0",
            "0",
            "0",
            "0",
            "railway=light_rail",
            "railway=level_crossing",
            "24",
            "8357"
          ],
          [
            "-104986400",
            "39748303",
            "1598",
            "11",
            "1000",
            "0",
            "0",
            "0",
            "0",
            "railway=light_rail",
            "railway=crossing",
            "25",
            "8678"
          ],
          [
            "-104986368",
            "39748319",
            "1598",
            "3",
            "1000",
            "0",
            "0",
            "0",
            "0",
            "railway=light_rail",
            "railway=level_crossing",
            "25",
            "8769"
          ],
          [
            "-104985920",
            "39748594",
            "1600",
            "50",
            "1000",
            "0",
            "0",
            "0",
            "0",
            "railway=light_rail",
            "railway=crossing",
            "29",
            "10433"
          ],
          [
            "-104985332",
            "39749043",
            "1600",
            "71",
            "1000",
            "0",
            "0",
            "0",
            "0",
            "railway=light_rail",
            "railway=crossing",
            "35",
            "12575"
          ],
          [
            "-104985311",
            "39749061",
            "1600",
            "3",
            "1000",
            "0",
            "0",
            "0",
            "0",
            "railway=light_rail",
            "railway=crossing",
            "35",
            "12679"
          ],
          [
            "-104985214",
            "39749140",
            "1600",
            "12",
            "1000",
            "0",
            "0",
            "0",
            "0",
            "railway=light_rail",
            "railway=level_crossing",
            "36",
            "13103"
          ],
          [
            "-104985139",
            "39749198",
            "1600",
            "9",
            "1000",
            "0",
            "0",
            "0",
            "0",
            "railway=light_rail",
            "railway=crossing",
            "37",
            "13409"
          ],
          [
            "-104984108",
            "39749997",
            "1598",
            "55",
            "1000",
            "0",
            "0",
            "0",
            "0",
            "railway=light_rail",
            "",
            "41",
            "15054"
          ],
          [
            "-104984108",
            "39749997",
            "1598",
            "70",
            "1000",
            "0",
            "0",
            "0",
            "0",
            "railway=light_rail",
            "railway=crossing",
            "5",
            "2634"
          ],
          [
            "-104984011",
            "39750072",
            "1598",
            "12",
            "1000",
            "0",
            "0",
            "0",
            "0",
            "railway=light_rail",
            "railway=level_crossing",
            "6",
            "3137"
          ],
          [
            "-104983933",
            "39750133",
            "1598",
            "10",
            "1000",
            "0",
            "0",
            "0",
            "0",
            "railway=light_rail",
            "railway=level_crossing",
            "7",
            "3559"
          ],
          [
            "-104982899",
            "39750934",
            "1598",
            "126",
            "1000",
            "0",
            "0",
            "0",
            "0",
            "railway=light_rail",
            "railway=crossing",
            "17",
            "9134"
          ],
          [
            "-104982813",
            "39751001",
            "1598",
            "10",
            "1000",
            "0",
            "0",
            "0",
            "0",
            "railway=light_rail",
            "railway=level_crossing",
            "18",
            "9575"
          ],
          [
            "-104982729",
            "39751065",
            "1598",
            "10",
            "1000",
            "0",
            "0",
            "0",
            "0",
            "railway=light_rail",
            "railway=crossing",
            "19",
            "10016"
          ],
          [
            "-104981704",
            "39751863",
            "1598",
            "125",
            "1000",
            "0",
            "0",
            "0",
            "0",
            "railway=light_rail",
            "railway=signal",
            "29",
            "15522"
          ],
          [
            "-104981689",
            "39751874",
            "1598",
            "2",
            "1000",
            "0",
            "0",
            "0",
            "0",
            "railway=light_rail",
            "railway=crossing",
            "29",
            "15610"
          ],
          [
            "-104981607",
            "39751938",
            "1598",
            "10",
            "1000",
            "0",
            "0",
            "0",
            "0",
            "railway=light_rail",
            "railway=level_crossing",
            "29",
            "16050"
          ],
          [
            "-104981518",
            "39752009",
            "1598",
            "11",
            "1000",
            "0",
            "0",
            "0",
            "0",
            "railway=light_rail",
            "railway=crossing",
            "30",
            "16534"
          ],
          [
            "-104981377",
            "39752119",
            "1598",
            "17",
            "1000",
            "0",
            "0",
            "0",
            "0",
            "railway=light_rail",
            "railway=crossing",
            "32",
            "17248"
          ],
          [
            "-104981250",
            "39752215",
            "1598",
            "15",
            "1000",
            "0",
            "0",
            "0",
            "0",
            "railway=light_rail",
            "railway=switch",
            "33",
            "17851"
          ],
          [
            "-104981234",
            "39752228",
            "1598",
            "2",
            "1000",
            "0",
            "0",
            "0",
            "0",
            "railway=light_rail",
            "railway=signal",
            "33",
            "17932"
          ],
          [
            "-104980482",
            "39752811",
            "1598",
            "91",
            "1000",
            "0",
            "0",
            "0",
            "0",
            "railway=light_rail",
            "railway=crossing",
            "40",
            "21731"
          ],
          [
            "-104980392",
            "39752880",
            "1598",
            "11",
            "1000",
            "0",
            "0",
            "0",
            "0",
            "railway=light_rail",
            "railway=level_crossing",
            "41",
            "22200"
          ],
          [
            "-104980317",
            "39752938",
            "1598",
            "9",
            "1000",
            "0",
            "0",
            "0",
            "0",
            "railway=light_rail",
            "railway=crossing",
            "42",
            "22604"
          ],
          [
            "-104979798",
            "39753341",
            "1598",
            "63",
            "1000",
            "0",
            "0",
            "0",
            "0",
            "railway=light_rail",
            "railway=unknown",
            "47",
            "25417"
          ],
          [
            "-104979254",
            "39753761",
            "1598",
            "66",
            "1000",
            "0",
            "0",
            "0",
            "0",
            "railway=light_rail",
            "railway=crossing",
            "52",
            "28556"
          ],
          [
            "-104979187",
            "39753814",
            "1598",
            "8",
            "1000",
            "0",
            "0",
            "0",
            "0",
            "railway=light_rail",
            "railway=level_crossing",
            "53",
            "28928"
          ],
          [
            "-104979123",
            "39753860",
            "1598",
            "7",
            "1000",
            "0",
            "0",
            "0",
            "0",
            "railway=light_rail",
            "railway=crossing",
            "54",
            "29251"
          ],
          [
            "-104978296",
            "39754503",
            "1598",
            "101",
            "1000",
            "0",
            "0",
            "0",
            "0",
            "railway=light_rail",
            "railway=crossing",
            "62",
            "33411"
          ],
          [
            "-104978159",
            "39754607",
            "1598",
            "16",
            "1000",
            "0",
            "0",
            "0",
            "0",
            "railway=light_rail",
            "railway=level_crossing",
            "63",
            "34124"
          ],
          [
            "-104978057",
            "39754686",
            "1598",
            "12",
            "1000",
            "0",
            "0",
            "0",
            "0",
            "railway=light_rail",
            "railway=crossing",
            "64",
            "34657"
          ],
          [
            "-104977977",
            "39754750",
            "1598",
            "10",
            "1000",
            "0",
            "0",
            "0",
            "0",
            "railway=light_rail",
            "railway=level_crossing",
            "65",
            "35101"
          ],
          [
            "-104977891",
            "39754816",
            "1598",
            "10",
            "1000",
            "0",
            "0",
            "0",
            "0",
            "railway=light_rail",
            "railway=crossing",
            "65",
            "35545"
          ],
          [
            "-104977325",
            "39755255",
            "1597",
            "69",
            "1000",
            "0",
            "0",
            "0",
            "0",
            "railway=light_rail",
            "railway=unknown",
            "71",
            "38268"
          ],
          [
            "-104976862",
            "39755614",
            "1597",
            "56",
            "1000",
            "0",
            "0",
            "0",
            "0",
            "railway=light_rail",
            "railway=crossing",
            "75",
            "40691"
          ],
          [
            "-104976770",
            "39755686",
            "1597",
            "11",
            "1000",
            "0",
            "0",
            "0",
            "0",
            "railway=light_rail",
            "railway=level_crossing",
            "76",
            "41169"
          ],
          [
            "-104976694",
            "39755745",
            "1598",
            "9",
            "1000",
            "0",
            "0",
            "0",
            "0",
            "railway=light_rail",
            "railway=crossing",
            "77",
            "41580"
          ],
          [
            "-104975655",
            "39756549",
            "1598",
            "126",
            "1000",
            "0",
            "0",
            "0",
            "0",
            "railway=light_rail",
            "railway=crossing",
            "87",
            "47394"
          ],
          [
            "-104975562",
            "39756622",
            "1598",
            "11",
            "1000",
            "0",
            "0",
            "0",
            "0",
            "railway=light_rail",
            "railway=level_crossing",
            "88",
            "47889"
          ],
          [
            "-104975480",
            "39756685",
            "1598",
            "10",
            "1000",
            "0",
            "0",
            "0",
            "0",
            "railway=light_rail",
            "railway=crossing",
            "89",
            "48338"
          ],
          [
            "-104975435",
            "39756721",
            "1598",
            "6",
            "1000",
            "0",
            "0",
            "0",
            "0",
            "railway=light_rail",
            "railway=crossing",
            "89",
            "48607"
          ],
          [
            "-104974485",
            "39757453",
            "1595",
            "115",
            "1000",
            "0",
            "0",
            "0",
            "0",
            "railway=light_rail",
            "railway=crossing",
            "98",
            "52213"
          ],
          [
            "-104974446",
            "39757482",
            "1595",
            "5",
            "1000",
            "0",
            "0",
            "0",
            "0",
            "railway=light_rail",
            "railway=crossing",
            "99",
            "52400"
          ],
          [
            "-104974361",
            "39757551",
            "1595",
            "11",
            "1000",
            "0",
            "0",
            "0",
            "0",
            "railway=light_rail",
            "railway=level_crossing",
            "100",
            "52817"
          ],
          [
            "-104974272",
            "39757620",
            "1595",
            "11",
            "1000",
            "0",
            "0",
            "0",
            "0",
            "railway=light_rail",
            "railway=crossing",
            "101",
            "53241"
          ],
          [
            "-104974240",
            "39757644",
            "1595",
            "4",
            "1000",
            "0",
            "0",
            "0",
            "0",
            "railway=light_rail",
            "railway=switch",
            "101",
            "53397"
          ],
          [
            "-104973528",
            "39758230",
            "1596",
            "90",
            "1000",
            "0",
            "0",
            "0",
            "0",
            "railway=light_rail",
            "railway=level_crossing",
            "108",
            "57587"
          ],
          [
            "-104973502",
            "39758381",
            "1596",
            "17",
            "1000",
            "0",
            "0",
            "0",
            "0",
            "railway=light_rail",
            "railway=crossing",
            "110",
            "58342"
          ],
          [
            "-104973502",
            "39759177",
            "1593",
            "88",
            "1000",
            "0",
            "0",
            "0",
            "0",
            "railway=light_rail",
            "railway=unknown",
            "117",
            "60751"
          ],
          [
            "-104973503",
            "39759352",
            "1593",
            "19",
            "1000",
            "0",
            "0",
            "0",
            "0",
            "railway=light_rail",
            "",
            "118",
            "61407"
          ]
        ],
        "times": [
          0,
          1.6,
          8.64,
          9.28,
          10.16,
          10.96,
          13.2,
          16.88,
          17.2,
          18.08,
          18.96,
          19.36,
          28.56,
          29.04,
          29.84,
          30.72,
          40.8,
          41.52,
          42.4,
          46.88,
          52.4,
          53.2,
          54,
          54.96,
          56.24,
          64.32,
          64.88,
          65.52,
          70.8,
          75.84,
          76.56,
          77.44,
          84.72,
          84.88,
          86.08,
          87.52,
          88.4,
          89.2,
          89.36,
          96.4,
          99.28,
          100.08,
          100.96,
          110.96,
          111.76,
          112.72,
          118.32,
          122.72,
          123.44,
          124.4,
          125.04,
          130.08,
          132.24,
          133.44,
          134.64,
          135.52,
          136.24,
          137.28,
          142.08,
          143.52,
          143.84,
          144.4,
          145.04,
          145.36,
          146.16,
          146.96,
          147.52,
          148.16,
          153.68,
          154.48,
          155.36,
          156.8,
          159.92,
          161.2,
          162,
          162.32,
          162.48,
          162.96,
          163.44,
          164.08,
          164.56,
          167.52,
          170.88,
          173.68,
          174,
          174.16,
          174.4,
          174.88,
          175.2,
          179.76,
          185.36,
          186.16,
          186.48,
          186.96,
          192.48,
          195.68,
          197.2,
          197.76,
          198.4,
          198.8,
          208.88,
          209.36,
          209.68,
          209.92,
          210.24,
          210.48,
          214.88,
          215.76,
          217.76,
          218.24,
          219.12,
          219.52,
          220.08,
          220.8,
          221.84,
          223.68,
          226.64,
          227.04,
          227.52,
          227.92,
          228.48,
          229.12,
          230.64,
          237.2,
          237.44,
          237.92,
          238.24,
          238.72,
          242.32,
          245.36,
          247.6,
          248.8,
          249.12,
          249.76,
          250.4,
          260.56,
          261.12,
          261.44,
          262.24,
          270.16,
          272.32,
          273.12,
          273.28,
          273.52,
          273.92,
          278.48,
          282.4,
          283.2,
          283.76,
          284,
          284.72,
          285.12,
          285.92,
          290.48,
          291.36,
          291.84,
          292.16,
          292.96,
          293.36,
          293.84,
          294.72,
          295.04,
          296.64,
          300.96,
          302.56,
          303.28,
          304.16,
          304.4,
          306.48,
          307.2,
          308.4,
          314.08,
          314.32,
          315.28,
          316,
          320.4,
          326,
          326.96,
          327.76,
          337.84,
          338.64,
          339.44,
          349.44,
          349.6,
          350.4,
          351.28,
          352.64,
          353.84,
          354,
          361.28,
          362.16,
          362.88,
          367.92,
          373.2,
          373.84,
          374.4,
          382.48,
          383.76,
          384.72,
          385.52,
          386.32,
          391.84,
          396.32,
          397.2,
          397.92,
          408,
          408.88,
          409.68,
          410.16,
          419.36,
          419.76,
          420.64,
          421.52,
          421.84,
          428.4,
          429.04,
          429.76,
          430.4,
          437.44,
          438.96
        ]
      },
      "geometry": {
        "type": "LineString",
        "coordinates": [
          [
            -104.973544,
            39.759354,
            1593.75
          ],
          [
            -104.973544,
            39.759177,
            1593.75
          ],
          [
            -104.973548,
            39.758381,
            1596.5
          ],
          [
            -104.973561,
            39.758312,
            1596.75
          ],
          [
            -104.973604,
            39.758218,
            1596.75
          ],
          [
            -104.97367,
            39.758144,
            1596.75
          ],
          [
            -104.973899,
            39.757964,
            1596.5
          ],
          [
            -104.97424,
            39.757644,
            1595.75
          ],
          [
            -104.974272,
            39.75762,
            1595.75
          ],
          [
            -104.974361,
            39.757551,
            1595.75
          ],
          [
            -104.974446,
            39.757482,
            1595.75
          ],
          [
            -104.974485,
            39.757453,
            1595.75
          ],
          [
            -104.975435,
            39.756721,
            1598.25
          ],
          [
            -104.97548,
            39.756685,
            1598.25
          ],
          [
            -104.975562,
            39.756622,
            1598.25
          ],
          [
            -104.975655,
            39.756549,
            1598.25
          ],
          [
            -104.976694,
            39.755745,
            1598
          ],
          [
            -104.97677,
            39.755686,
            1597.75
          ],
          [
            -104.976862,
            39.755614,
            1597.75
          ],
          [
            -104.977325,
            39.755255,
            1597.5
          ],
          [
            -104.977891,
            39.754816,
            1598.25
          ],
          [
            -104.977977,
            39.75475,
            1598.25
          ],
          [
            -104.978057,
            39.754686,
            1598.25
          ],
          [
            -104.978159,
            39.754607,
            1598.25
          ],
          [
            -104.978296,
            39.754503,
            1598
          ],
          [
            -104.979123,
            39.75386,
            1598.75
          ],
          [
            -104.979187,
            39.753814,
            1598.75
          ],
          [
            -104.979254,
            39.753761,
            1598.75
          ],
          [
            -104.979798,
            39.753341,
            1598.25
          ],
          [
            -104.980317,
            39.752938,
            1598.25
          ],
          [
            -104.980392,
            39.75288,
            1598
          ],
          [
            -104.980482,
            39.752811,
            1598
          ],
          [
            -104.981234,
            39.752228,
            1598
          ],
          [
            -104.98125,
            39.752215,
            1598
          ],
          [
            -104.98138,
            39.75213,
            1598.25
          ],
          [
            -104.981543,
            39.75203,
            1598.5
          ],
          [
            -104.981646,
            39.751967,
            1598.5
          ],
          [
            -104.981727,
            39.751904,
            1598.5
          ],
          [
            -104.981744,
            39.751891,
            1598.5
          ],
          [
            -104.982472,
            39.751329,
            1598.25
          ],
          [
            -104.982771,
            39.751098,
            1598.25
          ],
          [
            -104.982853,
            39.751032,
            1598.25
          ],
          [
            -104.98294,
            39.750965,
            1598.25
          ],
          [
            -104.983971,
            39.750163,
            1598.25
          ],
          [
            -104.98405,
            39.750102,
            1598
          ],
          [
            -104.984146,
            39.750028,
            1598
          ],
          [
            -104.984722,
            39.749583,
            1600
          ],
          [
            -104.985179,
            39.749229,
            1600
          ],
          [
            -104.985255,
            39.749171,
            1600.25
          ],
          [
            -104.985354,
            39.749093,
            1600.25
          ],
          [
            -104.985417,
            39.749043,
            1600.5
          ],
          [
            -104.985929,
            39.748641,
            1600
          ],
          [
            -104.986149,
            39.748469,
            1599
          ],
          [
            -104.986297,
            39.748403,
            1598.75
          ],
          [
            -104.986442,
            39.748333,
            1598.5
          ],
          [
            -104.986546,
            39.74828,
            1598.25
          ],
          [
            -104.986619,
            39.748224,
            1598
          ],
          [
            -104.986721,
            39.748135,
            1598
          ],
          [
            -104.987165,
            39.747714,
            1598.5
          ],
          [
            -104.987295,
            39.74759,
            1599
          ],
          [
            -104.987327,
            39.74756,
            1599.25
          ],
          [
            -104.987383,
            39.747515,
            1599.75
          ],
          [
            -104.987458,
            39.747468,
            1600
          ],
          [
            -104.987503,
            39.74745,
            1600.25
          ],
          [
            -104.987617,
            39.747434,
            1602.25
          ],
          [
            -104.987732,
            39.74745,
            1604
          ],
          [
            -104.987808,
            39.747483,
            1605
          ],
          [
            -104.987882,
            39.74753,
            1606
          ],
          [
            -104.988454,
            39.747967,
            1607.75
          ],
          [
            -104.988535,
            39.748027,
            1607.25
          ],
          [
            -104.988628,
            39.748092,
            1606.5
          ],
          [
            -104.988783,
            39.748202,
            1605.5
          ],
          [
            -104.989111,
            39.748443,
            1605.25
          ],
          [
            -104.989246,
            39.748541,
            1606
          ],
          [
            -104.989339,
            39.748591,
            1606.75
          ],
          [
            -104.989383,
            39.748597,
            1607
          ],
          [
            -104.989407,
            39.748604,
            1607
          ],
          [
            -104.989471,
            39.748608,
            1607.25
          ],
          [
            -104.989542,
            39.748599,
            1607.75
          ],
          [
            -104.989625,
            39.748573,
            1608
          ],
          [
            -104.989683,
            39.748542,
            1608.5
          ],
          [
            -104.989985,
            39.748308,
            1607.5
          ],
          [
            -104.99033,
            39.748042,
            1607.5
          ],
          [
            -104.990617,
            39.747824,
            1604
          ],
          [
            -104.990654,
            39.747796,
            1603.5
          ],
          [
            -104.990674,
            39.74778,
            1603.25
          ],
          [
            -104.990697,
            39.747762,
            1603
          ],
          [
            -104.990746,
            39.747723,
            1602.25
          ],
          [
            -104.990775,
            39.7477,
            1601.75
          ],
          [
            -104.991238,
            39.747335,
            1603.25
          ],
          [
            -104.991809,
            39.746886,
            1607.25
          ],
          [
            -104.991887,
            39.746825,
            1607.75
          ],
          [
            -104.991921,
            39.746797,
            1608
          ],
          [
            -104.991972,
            39.746757,
            1608.25
          ],
          [
            -104.992533,
            39.746317,
            1611.25
          ],
          [
            -104.992858,
            39.746062,
            1609.75
          ],
          [
            -104.993012,
            39.745943,
            1609.25
          ],
          [
            -104.993071,
            39.745896,
            1609.25
          ],
          [
            -104.993141,
            39.745844,
            1609.25
          ],
          [
            -104.993179,
            39.745815,
            1609.25
          ],
          [
            -104.994224,
            39.745016,
            1598
          ],
          [
            -104.994271,
            39.74498,
            1598
          ],
          [
            -104.994305,
            39.744954,
            1598
          ],
          [
            -104.99433,
            39.744935,
            1598
          ],
          [
            -104.994366,
            39.744907,
            1598
          ],
          [
            -104.994394,
            39.744885,
            1598
          ],
          [
            -104.99485,
            39.744537,
            1597.5
          ],
          [
            -104.994944,
            39.744466,
            1597.25
          ],
          [
            -104.995149,
            39.744309,
            1597.75
          ],
          [
            -104.995191,
            39.744263,
            1597.75
          ],
          [
            -104.995235,
            39.744172,
            1597.25
          ],
          [
            -104.995249,
            39.744125,
            1597.5
          ],
          [
            -104.995243,
            39.744059,
            1597.75
          ],
          [
            -104.995207,
            39.743984,
            1598.25
          ],
          [
            -104.995104,
            39.743897,
            1598.75
          ],
          [
            -104.994906,
            39.743759,
            1599.5
          ],
          [
            -104.994592,
            39.743528,
            1600.5
          ],
          [
            -104.994548,
            39.743504,
            1600.75
          ],
          [
            -104.994483,
            39.743485,
            1600.75
          ],
          [
            -104.994431,
            39.743479,
            1600.75
          ],
          [
            -104.99435,
            39.743486,
            1600.5
          ],
          [
            -104.994269,
            39.743529,
            1600.5
          ],
          [
            -104.99411,
            39.743644,
            1600
          ],
          [
            -104.99344,
            39.744165,
            1600.5
          ],
          [
            -104.993412,
            39.744185,
            1600.75
          ],
          [
            -104.99336,
            39.744224,
            1601.25
          ],
          [
            -104.99333,
            39.744246,
            1601.25
          ],
          [
            -104.993277,
            39.744286,
            1601.5
          ],
          [
            -104.992906,
            39.744573,
            1603.25
          ],
          [
            -104.992596,
            39.744814,
            1603.25
          ],
          [
            -104.992365,
            39.744994,
            1604.25
          ],
          [
            -104.992239,
            39.745092,
            1605.5
          ],
          [
            -104.99221,
            39.74512,
            1605.75
          ],
          [
            -104.992145,
            39.745175,
            1606.5
          ],
          [
            -104.992074,
            39.74522,
            1607
          ],
          [
            -104.991029,
            39.746029,
            1604.5
          ],
          [
            -104.990973,
            39.746072,
            1603.75
          ],
          [
            -104.990941,
            39.746096,
            1603.5
          ],
          [
            -104.990859,
            39.746158,
            1603
          ],
          [
            -104.990042,
            39.746789,
            1605.25
          ],
          [
            -104.989817,
            39.746963,
            1607
          ],
          [
            -104.989737,
            39.747023,
            1607.5
          ],
          [
            -104.989721,
            39.747036,
            1607.75
          ],
          [
            -104.989696,
            39.747055,
            1608
          ],
          [
            -104.989657,
            39.747086,
            1608.25
          ],
          [
            -104.989188,
            39.747447,
            1610.5
          ],
          [
            -104.988783,
            39.747758,
            1610.5
          ],
          [
            -104.988698,
            39.747818,
            1609.75
          ],
          [
            -104.988625,
            39.747855,
            1609.25
          ],
          [
            -104.988588,
            39.747863,
            1609.25
          ],
          [
            -104.988478,
            39.747863,
            1609.25
          ],
          [
            -104.988419,
            39.747855,
            1609.25
          ],
          [
            -104.988317,
            39.747815,
            1609.5
          ],
          [
            -104.987846,
            39.747458,
            1605.75
          ],
          [
            -104.987737,
            39.747412,
            1604.25
          ],
          [
            -104.987668,
            39.747396,
            1603.25
          ],
          [
            -104.98762,
            39.747392,
            1602.5
          ],
          [
            -104.987503,
            39.747402,
            1600.75
          ],
          [
            -104.987445,
            39.747414,
            1600.5
          ],
          [
            -104.987383,
            39.747435,
            1600.25
          ],
          [
            -104.987294,
            39.747506,
            1599.5
          ],
          [
            -104.987263,
            39.74753,
            1599.5
          ],
          [
            -104.987109,
            39.747667,
            1598.75
          ],
          [
            -104.986715,
            39.748047,
            1598
          ],
          [
            -104.986569,
            39.748188,
            1598.25
          ],
          [
            -104.986498,
            39.748244,
            1598.25
          ],
          [
            -104.9864,
            39.748303,
            1598.5
          ],
          [
            -104.986368,
            39.748319,
            1598.5
          ],
          [
            -104.986113,
            39.748444,
            1599.25
          ],
          [
            -104.986041,
            39.748499,
            1599.5
          ],
          [
            -104.98592,
            39.748594,
            1600
          ],
          [
            -104.985332,
            39.749043,
            1600.25
          ],
          [
            -104.985311,
            39.749061,
            1600.25
          ],
          [
            -104.985214,
            39.74914,
            1600.25
          ],
          [
            -104.985139,
            39.749198,
            1600
          ],
          [
            -104.984688,
            39.749548,
            1598
          ],
          [
            -104.984108,
            39.749997,
            1598
          ],
          [
            -104.984011,
            39.750072,
            1598.25
          ],
          [
            -104.983933,
            39.750133,
            1598.25
          ],
          [
            -104.982899,
            39.750934,
            1598.5
          ],
          [
            -104.982813,
            39.751001,
            1598.5
          ],
          [
            -104.982729,
            39.751065,
            1598.5
          ],
          [
            -104.981704,
            39.751863,
            1598.5
          ],
          [
            -104.981689,
            39.751874,
            1598.5
          ],
          [
            -104.981607,
            39.751938,
            1598.5
          ],
          [
            -104.981518,
            39.752009,
            1598.5
          ],
          [
            -104.981377,
            39.752119,
            1598.25
          ],
          [
            -104.98125,
            39.752215,
            1598
          ],
          [
            -104.981234,
            39.752228,
            1598
          ],
          [
            -104.980482,
            39.752811,
            1598
          ],
          [
            -104.980392,
            39.75288,
            1598
          ],
          [
            -104.980317,
            39.752938,
            1598.25
          ],
          [
            -104.979798,
            39.753341,
            1598.25
          ],
          [
            -104.979254,
            39.753761,
            1598.75
          ],
          [
            -104.979187,
            39.753814,
            1598.75
          ],
          [
            -104.979123,
            39.75386,
            1598.75
          ],
          [
            -104.978296,
            39.754503,
            1598
          ],
          [
            -104.978159,
            39.754607,
            1598.25
          ],
          [
            -104.978057,
            39.754686,
            1598.25
          ],
          [
            -104.977977,
            39.75475,
            1598.25
          ],
          [
            -104.977891,
            39.754816,
            1598.25
          ],
          [
            -104.977325,
            39.755255,
            1597.5
          ],
          [
            -104.976862,
            39.755614,
            1597.75
          ],
          [
            -104.97677,
            39.755686,
            1597.75
          ],
          [
            -104.976694,
            39.755745,
            1598
          ],
          [
            -104.975655,
            39.756549,
            1598.25
          ],
          [
            -104.975562,
            39.756622,
            1598.25
          ],
          [
            -104.97548,
            39.756685,
            1598.25
          ],
          [
            -104.975435,
            39.756721,
            1598.25
          ],
          [
            -104.974485,
            39.757453,
            1595.75
          ],
          [
            -104.974446,
            39.757482,
            1595.75
          ],
          [
            -104.974361,
            39.757551,
            1595.75
          ],
          [
            -104.974272,
            39.75762,
            1595.75
          ],
          [
            -104.97424,
            39.757644,
            1595.75
          ],
          [
            -104.973571,
            39.758168,
            1596.75
          ],
          [
            -104.973528,
            39.75823,
            1596.75
          ],
          [
            -104.973502,
            39.75831,
            1596.75
          ],
          [
            -104.973502,
            39.758381,
            1596.5
          ],
          [
            -104.973502,
            39.759177,
            1593.75
          ],
          [
            -104.973503,
            39.759352,
            1593.75
          ]
        ]
      }
    }
  ]
}