{
  "type": "FeatureCollection",
  "features": [
    {
      "type": "Feature",
      "properties": {
        "creator": "BRouter-1.7.9",
        "name": "[SacRT] Green Line",
        "track-length": "7409",
        "filtered ascend": "29",
        "plain-ascend": "2",
        "total-time": "593",
        "total-energy": "332709",
        "cost": "7409",
        "messages": [
          [
            "Longitude",
            "Latitude",
            "Elevation",
            "Distance",
            "CostPerKm",
            "ElevCost",
            "TurnCost",
            "NodeCost",
            "InitialCost",
            "WayTags",
            "NodeTags",
            "Time",
            "Energy"
          ],
          [
            "-121491660",
            "38596314",
            "9",
            "102",
            "1000",
            "0",
            "0",
            "0",
            "0",
            "reversedirection=yes railway=light_rail",
            "railway=unknown",
            "8",
            "5897"
          ],
          [
            "-121491394",
            "38596241",
            "9",
            "25",
            "1000",
            "0",
            "0",
            "0",
            "0",
            "reversedirection=yes railway=light_rail",
            "railway=unknown",
            "10",
            "7075"
          ],
          [
            "-121491293",
            "38596203",
            "9",
            "10",
            "1000",
            "0",
            "0",
            "0",
            "0",
            "reversedirection=yes railway=light_rail",
            "railway=unknown",
            "10",
            "7520"
          ],
          [
            "-121491260",
            "38596187",
            "8",
            "3",
            "1000",
            "0",
            "0",
            "0",
            "0",
            "reversedirection=yes railway=light_rail",
            "railway=unknown",
            "11",
            "7647"
          ],
          [
            "-121491191",
            "38596142",
            "8",
            "8",
            "1000",
            "0",
            "0",
            "0",
            "0",
            "reversedirection=yes railway=light_rail",
            "railway=unknown",
            "11",
            "7970"
          ],
          [
            "-121491133",
            "38596066",
            "8",
            "10",
            "1000",
            "0",
            "0",
            "0",
            "0",
            "reversedirection=yes railway=light_rail",
            "railway=crossing",
            "12",
            "8363"
          ],
          [
            "-121491113",
            "38596003",
            "8",
            "7",
            "1000",
            "0",
            "0",
            "0",
            "0",
            "reversedirection=yes railway=light_rail",
            "railway=unknown",
            "13",
            "8635"
          ],
          [
            "-121491131",
            "38595884",
            "8",
            "13",
            "1000",
            "0",
            "0",
            "0",
            "0",
            "reversedirection=yes railway=light_rail",
            "railway=unknown",
            "14",
            "9119"
          ],
          [
            "-121491186",
            "38595752",
            "8",
            "15",
            "1000",
            "0",
            "0",
            "0",
            "0",
            "reversedirection=yes railway=light_rail",
            "railway=unknown",
            "15",
            "9692"
          ],
          [
            "-121491716",
            "38594533",
            "6",
            "143",
            "1000",
            "0",
            "0",
            "0",
            "0",
            "reversedirection=yes railway=light_rail",
            "railway=unknown",
            "26",
            "14395"
          ],
          [
            "-121491742",
            "38594469",
            "6",
            "7",
            "1000",
            "0",
            "0",
            "0",
            "0",
            "reversedirection=yes railway=light_rail",
            "railway=crossing",
            "27",
            "14654"
          ],
          [
            "-121491882",
            "38594150",
            "5",
            "37",
            "1000",
            "0",
            "0",
            "0",
            "0",
            "reversedirection=yes railway=light_rail",
            "railway=unknown",
            "30",
            "15937"
          ],
          [
            "-121492091",
            "38593665",
            "6",
            "57",
            "1000",
            "0",
            "0",
            "0",
            "0",
            "reversedirection=yes railway=light_rail",
            "railway=unknown",
            "34",
            "18398"
          ],
          [
            "-121492293",
            "38593200",
            "6",
            "55",
            "1000",
            "0",
            "0",
            "0",
            "0",
            "reversedirection=yes railway=light_rail",
            "railway=unknown",
            "39",
            "20792"
          ],
          [
            "-121492306",
            "38593169",
            "6",
            "4",
            "1000",
            "0",
            "0",
            "0",
            "0",
            "reversedirection=yes railway=light_rail",
            "railway=crossing",
            "39",
            "20967"
          ],
          [
            "-121492470",
            "38592789",
            "6",
            "45",
            "1000",
            "0",
            "0",
            "0",
            "0",
            "reversedirection=yes railway=light_rail",
            "railway=unknown",
            "43",
            "23014"
          ],
          [
            "-121492619",
            "38592499",
            "7",
            "35",
            "1000",
            "0",
            "0",
            "0",
            "0",
            "reversedirection=yes railway=light_rail",
            "railway=unknown",
            "46",
            "24696"
          ],
          [
            "-121492667",
            "38592395",
            "7",
            "12",
            "1000",
            "0",
            "0",
            "0",
            "0",
            "reversedirection=yes railway=light_rail",
            "railway=unknown",
            "47",
            "25296"
          ],
          [
            "-121492717",
            "38592283",
            "7",
            "13",
            "1000",
            "0",
            "0",
            "0",
            "0",
            "reversedirection=yes railway=light_rail",
            "railway=crossing",
            "48",
            "25964"
          ],
          [
            "-121492768",
            "38592166",
            "7",
            "14",
            "1000",
            "0",
            "0",
            "0",
            "0",
            "reversedirection=yes railway=light_rail",
            "railway=switch",
            "49",
            "26699"
          ],
          [
            "-121495344",
            "38586304",
            "8",
            "688",
            "1000",
            "0",
            "0",
            "0",
            "0",
            "reversedirection=yes railway=light_rail",
            "railway=unknown",
            "104",
            "58563"
          ],
          [
            "-121495540",
            "38585719",
            "7",
            "67",
            "1000",
            "0",
            "0",
            "0",
            "0",
            "reversedirection=yes railway=light_rail",
            "railway=unknown",
            "109",
            "61115"
          ],
          [
            "-121495573",
            "38585641",
            "7",
            "9",
            "1000",
            "0",
            "0",
            "0",
            "0",
            "reversedirection=yes railway=light_rail",
            "railway=unknown",
            "110",
            "61475"
          ],
          [
            "-121495794",
            "38585118",
            "7",
            "61",
            "1000",
            "0",
            "0",
            "0",
            "0",
            "reversedirection=yes railway=light_rail",
            "railway=level_crossing",
            "115",
            "63784"
          ],
          [
            "-121495897",
            "38584875",
            "7",
            "28",
            "1000",
            "0",
            "0",
            "0",
            "0",
            "reversedirection=yes railway=light_rail",
            "railway=switch",
            "117",
            "64907"
          ],
          [
            "-121495954",
            "38584752",
            "7",
            "15",
            "1000",
            "0",
            "0",
            "0",
            "0",
            "railway=light_rail",
            "railway=crossing",
            "118",
            "65519"
          ],
          [
            "-121496011",
            "38584628",
            "7",
            "15",
            "1000",
            "0",
            "0",
            "0",
            "0",
            "railway=light_rail",
            "railway=unknown",
            "119",
            "66170"
          ],
          [
            "-121496440",
            "38583643",
            "9",
            "115",
            "1000",
            "0",
            "0",
            "0",
            "0",
            "railway=light_rail",
            "railway=crossing",
            "129",
            "71774"
          ],
          [
            "-121496462",
            "38583592",
            "9",
            "6",
            "1000",
            "0",
            "0",
            "0",
            "0",
            "railway=light_rail",
            "railway=unknown",
            "129",
            "72080"
          ],
          [
            "-121496479",
            "38583543",
            "9",
            "6",
            "1000",
            "0",
            "0",
            "0",
            "0",
            "railway=light_rail",
            "railway=level_crossing",
            "129",
            "72396"
          ],
          [
            "-121496514",
            "38583460",
            "9",
            "10",
            "1000",
            "0",
            "0",
            "0",
            "0",
            "railway=light_rail",
            "railway=crossing",
            "130",
            "72916"
          ],
          [
            "-121496581",
            "38583302",
            "9",
            "18",
            "1000",
            "0",
            "0",
            "0",
            "0",
            "railway=light_rail",
            "railway=switch",
            "132",
            "73907"
          ],
          [
            "-121496878",
            "38582626",
            "15",
            "79",
            "1000",
            "0",
            "0",
            "0",
            "0",
            "railway=light_rail",
            "railway=halt",
            "138",
            "79379"
          ],
          [
            "-121496913",
            "38582550",
            "16",
            "9",
            "1000",
            "0",
            "0",
            "0",
            "0",
            "railway=light_rail",
            "railway=crossing",
            "139",
            "79974"
          ],
          [
            "-121496956",
            "38582458",
            "17",
            "11",
            "1000",
            "0",
            "0",
            "0",
            "0",
            "railway=light_rail",
            "railway=level_crossing",
            "140",
            "80725"
          ],
          [
            "-121496996",
            "38582365",
            "17",
            "11",
            "1000",
            "0",
            "0",
            "0",
            "0",
            "railway=light_rail",
            "railway=crossing",
            "141",
            "81448"
          ],
          [
            "-121497149",
            "38582009",
            "17",
            "42",
            "1000",
            "0",
            "0",
            "0",
            "0",
            "railway=light_rail",
            "railway=level_crossing",
            "144",
            "84228"
          ],
          [
            "-121497195",
            "38581914",
            "18",
            "11",
            "1000",
            "0",
            "0",
            "0",
            "0",
            "railway=light_rail",
            "railway=level_crossing",
            "145",
            "84921"
          ],
          [
            "-121497384",
            "38581449",
            "18",
            "54",
            "1000",
            "0",
            "0",
            "0",
            "0",
            "railway=light_rail",
            "railway=crossing",
            "149",
            "88046"
          ],
          [
            "-121497420",
            "38581362",
            "17",
            "10",
            "1000",
            "0",
            "0",
            "0",
            "0",
            "railway=light_rail",
            "railway=level_crossing",
            "150",
            "88565"
          ],
          [
            "-121497460",
            "38581267",
            "17",
            "11",
            "1000",
            "0",
            "0",
            "0",
            "0",
            "railway=light_rail",
            "railway=crossing",
            "151",
            "89104"
          ],
          [
            "-121497663",
            "38580783",
            "15",
            "57",
            "1000",
            "0",
            "0",
            "0",
            "0",
            "railway=light_rail",
            "railway=level_crossing",
            "155",
            "92200"
          ],
          [
            "-121497881",
            "38580302",
            "14",
            "57",
            "1000",
            "0",
            "0",
            "0",
            "0",
            "railway=light_rail",
            "railway=level_crossing",
            "160",
            "94657"
          ],
          [
            "-121497985",
            "38580049",
            "14",
            "30",
            "1000",
            "0",
            "0",
            "0",
            "0",
            "railway=light_rail",
            "railway=switch",
            "162",
            "95845"
          ],
          [
            "-121498123",
            "38579714",
            "13",
            "39",
            "1000",
            "0",
            "0",
            "0",
            "0",
            "railway=light_rail",
            "railway=level_crossing",
            "165",
            "97296"
          ],
          [
            "-121498331",
            "38579257",
            "11",
            "54",
            "1000",
            "0",
            "0",
            "0",
            "0",
            "railway=light_rail",
            "railway=crossing",
            "170",
            "98612"
          ],
          [
            "-121498371",
            "38579169",
            "10",
            "10",
            "1000",
            "0",
            "0",
            "0",
            "0",
            "railway=light_rail",
            "railway=level_crossing",
            "171",
            "98869"
          ],
          [
            "-121498407",
            "38579084",
            "11",
            "10",
            "1000",
            "0",
            "0",
            "0",
            "0",
            "railway=light_rail",
            "railway=crossing",
            "171",
            "99164"
          ],
          [
            "-121498604",
            "38578617",
            "11",
            "55",
            "1000",
            "0",
            "0",
            "0",
            "0",
            "railway=light_rail",
            "railway=level_crossing",
            "176",
            "101189"
          ],
          [
            "-121498734",
            "38578321",
            "11",
            "35",
            "1000",
            "0",
            "0",
            "0",
            "0",
            "railway=light_rail",
            "railway=halt",
            "179",
            "102570"
          ],
          [
            "-121498778",
            "38578213",
            "12",
            "13",
            "1000",
            "0",
            "0",
            "0",
            "0",
            "railway=light_rail",
            "railway=crossing",
            "180",
            "103203"
          ],
          [
            "-121498808",
            "38578146",
            "13",
            "8",
            "1000",
            "0",
            "0",
            "0",
            "0",
            "railway=light_rail",
            "railway=level_crossing",
            "180",
            "103623"
          ],
          [
            "-121498894",
            "38577943",
            "15",
            "24",
            "1000",
            "0",
            "0",
            "0",
            "0",
            "railway=light_rail",
            "railway=level_crossing",
            "182",
            "104711"
          ],
          [
            "-121498924",
            "38577874",
            "16",
            "8",
            "1000",
            "0",
            "0",
            "0",
            "0",
            "railway=light_rail",
            "railway=crossing",
            "183",
            "105123"
          ],
          [
            "-121499292",
            "38577022",
            "18",
            "100",
            "1000",
            "0",
            "0",
            "0",
            "0",
            "railway=light_rail",
            "railway=crossing",
            "191",
            "111235"
          ],
          [
            "-121499335",
            "38576922",
            "17",
            "12",
            "1000",
            "0",
            "0",
            "0",
            "0",
            "railway=light_rail",
            "railway=level_crossing",
            "192",
            "111800"
          ],
          [
            "-121499375",
            "38576833",
            "16",
            "10",
            "1000",
            "0",
            "0",
            "0",
            "0",
            "railway=light_rail",
            "railway=crossing",
            "193",
            "112436"
          ],
          [
            "-121499697",
            "38575874",
            "12",
            "112",
            "1000",
            "0",
            "0",
            "0",
            "0",
            "railway=light_rail",
            "railway=crossing",
            "202",
            "116472"
          ],
          [
            "-121499015",
            "38575632",
            "11",
            "67",
            "1000",
            "0",
            "0",
            "0",
            "0",
            "railway=light_rail",
            "railway=halt",
            "207",
            "118657"
          ],
          [
            "-121498649",
            "38575536",
            "12",
            "34",
            "1000",
            "0",
            "0",
            "0",
            "0",
            "railway=light_rail",
            "railway=crossing",
            "210",
            "120149"
          ],
          [
            "-121498519",
            "38575502",
            "13",
            "12",
            "1000",
            "0",
            "0",
            "0",
            "0",
            "railway=light_rail",
            "railway=level_crossing",
            "211",
            "120726"
          ],
          [
            "-121498417",
            "38575475",
            "13",
            "9",
            "1000",
            "0",
            "0",
            "0",
            "0",
            "railway=light_rail",
            "railway=crossing",
            "211",
            "121193"
          ],
          [
            "-121497321",
            "38575187",
            "15",
            "101",
            "1000",
            "0",
            "0",
            "0",
            "0",
            "railway=light_rail",
            "railway=crossing",
            "219",
            "125693"
          ],
          [
            "-121497196",
            "38575153",
            "15",
            "12",
            "1000",
            "0",
            "0",
            "0",
            "0",
            "railway=light_rail",
            "railway=level_crossing",
            "220",
            "126475"
          ],
          [
            "-121497134",
            "38575135",
            "15",
            "6",
            "1000",
            "0",
            "0",
            "0",
            "0",
            "railway=light_rail",
            "railway=crossing",
            "221",
            "126841"
          ],
          [
            "-121497083",
            "38575122",
            "14",
            "5",
            "1000",
            "0",
            "0",
            "0",
            "0",
            "railway=light_rail",
            "railway=crossing",
            "221",
            "127132"
          ],
          [
            "-121496017",
            "38574767",
            "11",
            "101",
            "1000",
            "0",
            "0",
            "0",
            "0",
            "railway=light_rail",
            "railway=crossing",
            "229",
            "130808"
          ],
          [
            "-121495894",
            "38574735",
            "11",
            "11",
            "1000",
            "0",
            "0",
            "0",
            "0",
            "railway=light_rail",
            "railway=level_crossing",
            "230",
            "131238"
          ],
          [
            "-121495863",
            "38574727",
            "11",
            "3",
            "1000",
            "0",
            "0",
            "0",
            "0",
            "railway=light_rail",
            "railway=crossing",
            "230",
            "131357"
          ],
          [
            "-121495784",
            "38574706",
            "12",
            "7",
            "1000",
            "0",
            "0",
            "0",
            "0",
            "railway=light_rail",
            "railway=crossing",
            "231",
            "131665"
          ],
          [
            "-121494802",
            "38574447",
            "17",
            "90",
            "1000",
            "0",
            "0",
            "0",
            "0",
            "railway=light_rail",
            "railway=halt",
            "238",
            "136801"
          ],
          [
            "-121494674",
            "38574413",
            "17",
            "12",
            "1000",
            "0",
            "0",
            "0",
            "0",
            "railway=light_rail",
            "railway=crossing",
            "239",
            "137445"
          ],
          [
            "-121494555",
            "38574381",
            "18",
            "11",
            "1000",
            "0",
            "0",
            "0",
            "0",
            "railway=light_rail",
            "railway=level_crossing",
            "240",
            "138047"
          ],
          [
            "-121494458",
            "38574355",
            "18",
            "9",
            "1000",
            "0",
            "0",
            "0",
            "0",
            "railway=light_rail",
            "railway=crossing",
            "241",
            "138549"
          ],
          [
            "-121493368",
            "38573999",
            "17",
            "104",
            "1000",
            "0",
            "0",
            "0",
            "0",
            "railway=light_rail",
            "railway=crossing",
            "249",
            "144148"
          ],
          [
            "-121493473",
            "38573519",
            "13",
            "55",
            "1000",
            "0",
            "0",
            "0",
            "0",
            "railway=light_rail",
            "railway=level_crossing",
            "253",
            "146275"
          ],
          [
            "-121493670",
            "38573073",
            "10",
            "52",
            "1000",
            "0",
            "0",
            "0",
            "0",
            "railway=light_rail",
            "railway=crossing",
            "258",
            "148186"
          ],
          [
            "-121493715",
            "38572969",
            "10",
            "12",
            "1000",
            "0",
            "0",
            "0",
            "0",
            "railway=light_rail",
            "railway=level_crossing",
            "259",
            "148602"
          ],
          [
            "-121493733",
            "38572927",
            "10",
            "5",
            "1000",
            "0",
            "0",
            "0",
            "0",
            "railway=light_rail",
            "railway=crossing",
            "259",
            "148779"
          ],
          [
            "-121493749",
            "38572892",
            "10",
            "4",
            "1000",
            "0",
            "0",
            "0",
            "0",
            "railway=light_rail",
            "railway=crossing",
            "259",
            "148913"
          ],
          [
            "-121493951",
            "38572429",
            "8",
            "54",
            "1000",
            "0",
            "0",
            "0",
            "0",
            "railway=light_rail",
            "railway=level_crossing",
            "264",
            "150219"
          ],
          [
            "-121494149",
            "38571977",
            "8",
            "53",
            "1000",
            "0",
            "0",
            "0",
            "0",
            "railway=light_rail",
            "railway=crossing",
            "268",
            "152118"
          ],
          [
            "-121494166",
            "38571937",
            "8",
            "5",
            "1000",
            "0",
            "0",
            "0",
            "0",
            "railway=light_rail",
            "railway=crossing",
            "268",
            "152308"
          ],
          [
            "-121494195",
            "38571871",
            "9",
            "8",
            "1000",
            "0",
            "0",
            "0",
            "0",
            "railway=light_rail",
            "railway=level_crossing",
            "269",
            "152631"
          ],
          [
            "-121494225",
            "38571797",
            "9",
            "9",
            "1000",
            "0",
            "0",
            "0",
            "0",
            "railway=light_rail",
            "railway=crossing",
            "270",
            "152998"
          ],
          [
            "-121494276",
            "38571683",
            "9",
            "13",
            "1000",
            "0",
            "0",
            "0",
            "0",
            "railway=light_rail",
            "railway=switch",
            "271",
            "153532"
          ],
          [
            "-121494375",
            "38571364",
            "8",
            "37",
            "1000",
            "0",
            "0",
            "0",
            "0",
            "railway=light_rail",
            "railway=level_crossing",
            "274",
            "154918"
          ],
          [
            "-121494367",
            "38571335",
            "8",
            "3",
            "1000",
            "0",
            "0",
            "0",
            "0",
            "railway=light_rail",
            "railway=level_crossing",
            "274",
            "155029"
          ],
          [
            "-121493441",
            "38570967",
            "4",
            "93",
            "1000",
            "0",
            "0",
            "0",
            "0",
            "railway=light_rail",
            "",
            "281",
            "157511"
          ],
          [
            "-121492996",
            "38570849",
            "4",
            "41",
            "1000",
            "0",
            "0",
            "0",
            "0",
            "railway=light_rail",
            "railway=halt",
            "3",
            "1506"
          ],
          [
            "-121492959",
            "38570839",
            "4",
            "3",
            "1000",
            "0",
            "0",
            "0",
            "0",
            "railway=light_rail",
            "railway=crossing",
            "3",
            "1621"
          ],
          [
            "-121492836",
            "38570807",
            "4",
            "11",
            "1000",
            "0",
            "0",
            "0",
            "0",
            "railway=light_rail",
            "railway=level_crossing",
            "4",
            "2091"
          ],
          [
            "-121492733",
            "38570780",
            "5",
            "9",
            "1000",
            "0",
            "0",
            "0",
            "0",
            "railway=light_rail",
            "railway=crossing",
            "5",
            "2515"
          ],
          [
            "-121492266",
            "38570657",
            "6",
            "43",
            "1000",
            "0",
            "0",
            "0",
            "0",
            "railway=light_rail",
            "railway=switch",
            "8",
            "4974"
          ],
          [
            "-121491637",
            "38570489",
            "8",
            "58",
            "1000",
            "0",
            "0",
            "0",
            "0",
            "railway=light_rail",
            "railway=crossing",
            "13",
            "8573"
          ],
          [
            "-121491509",
            "38570455",
            "8",
            "12",
            "1000",
            "0",
            "0",
            "0",
            "0",
            "railway=light_rail",
            "railway=level_crossing",
            "14",
            "9251"
          ],
          [
            "-121491400",
            "38570426",
            "8",
            "10",
            "1000",
            "0",
            "0",
            "0",
            "0",
            "railway=light_rail",
            "railway=crossing",
            "14",
            "9804"
          ],
          [
            "-121491296",
            "38570397",
            "8",
            "10",
            "1000",
            "0",
            "0",
            "0",
            "0",
            "railway=light_rail",
            "",
            "15",
            "10345"
          ],
          [
            "-121491400",
            "38570426",
            "8",
            "10",
            "1000",
            "0",
            "0",
            "0",
            "0",
            "reversedirection=yes railway=light_rail",
            "railway=crossing",
            "0",
            "439"
          ],
          [
            "-121491509",
            "38570455",
            "8",
            "10",
            "1000",
            "0",
            "0",
            "0",
            "0",
            "reversedirection=yes railway=light_rail",
            "railway=level_crossing",
            "1",
            "879"
          ],
          [
            "-121491637",
            "38570489",
            "8",
            "12",
            "1000",
            "0",
            "0",
            "0",
            "0",
            "reversedirection=yes railway=light_rail",
            "railway=crossing",
            "2",
            "1407"
          ],
          [
            "-121492266",
            "38570657",
            "6",
            "58",
            "1000",
            "0",
            "0",
            "0",
            "0",
            "reversedirection=yes railway=light_rail",
            "railway=switch",
            "7",
            "3375"
          ],
          [
            "-121492667",
            "38570800",
            "5",
            "39",
            "1000",
            "0",
            "0",
            "0",
            "0",
            "reversedirection=yes railway=light_rail",
            "railway=switch",
            "10",
            "4603"
          ],
          [
            "-121492717",
            "38570813",
            "5",
            "5",
            "1000",
            "0",
            "0",
            "0",
            "0",
            "railway=light_rail",
            "railway=crossing",
            "10",
            "4746"
          ],
          [
            "-121492822",
            "38570840",
            "4",
            "10",
            "1000",
            "0",
            "0",
            "0",
            "0",
            "railway=light_rail",
            "railway=level_crossing",
            "11",
            "5001"
          ],
          [
            "-121492946",
            "38570875",
            "4",
            "11",
            "1000",
            "0",
            "0",
            "0",
            "0",
            "railway=light_rail",
            "railway=crossing",
            "12",
            "5279"
          ],
          [
            "-121493814",
            "38571117",
            "6",
            "80",
            "1000",
            "0",
            "0",
            "0",
            "0",
            "railway=light_rail",
            "railway=halt",
            "18",
            "8551"
          ],
          [
            "-121493887",
            "38571134",
            "6",
            "7",
            "1000",
            "0",
            "0",
            "0",
            "0",
            "railway=light_rail",
            "",
            "19",
            "8860"
          ],
          [
            "-121494244",
            "38571308",
            "8",
            "38",
            "1000",
            "0",
            "0",
            "0",
            "0",
            "railway=light_rail",
            "railway=level_crossing",
            "3",
            "2038"
          ],
          [
            "-121494179",
            "38571783",
            "9",
            "54",
            "1000",
            "0",
            "0",
            "0",
            "0",
            "railway=light_rail",
            "railway=crossing",
            "7",
            "5186"
          ],
          [
            "-121494148",
            "38571859",
            "8",
            "9",
            "1000",
            "0",
            "0",
            "0",
            "0",
            "railway=light_rail",
            "railway=level_crossing",
            "8",
            "5674"
          ],
          [
            "-121494119",
            "38571925",
            "8",
            "8",
            "1000",
            "0",
            "0",
            "0",
            "0",
            "railway=light_rail",
            "railway=crossing",
            "8",
            "6101"
          ],
          [
            "-121494102",
            "38571965",
            "8",
            "5",
            "1000",
            "0",
            "0",
            "0",
            "0",
            "railway=light_rail",
            "railway=crossing",
            "9",
            "6365"
          ],
          [
            "-121493907",
            "38572417",
            "8",
            "53",
            "1000",
            "0",
            "0",
            "0",
            "0",
            "railway=light_rail",
            "railway=level_crossing",
            "13",
            "8867"
          ],
          [
            "-121493703",
            "38572879",
            "9",
            "54",
            "1000",
            "0",
            "0",
            "0",
            "0",
            "railway=light_rail",
            "railway=crossing",
            "17",
            "11896"
          ],
          [
            "-121493687",
            "38572915",
            "10",
            "4",
            "1000",
            "0",
            "0",
            "0",
            "0",
            "railway=light_rail",
            "railway=crossing",
            "18",
            "12117"
          ],
          [
            "-121493668",
            "38572958",
            "10",
            "5",
            "1000",
            "0",
            "0",
            "0",
            "0",
            "railway=light_rail",
            "railway=level_crossing",
            "18",
            "12401"
          ],
          [
            "-121493619",
            "38573061",
            "10",
            "12",
            "1000",
            "0",
            "0",
            "0",
            "0",
            "railway=light_rail",
            "railway=crossing",
            "19",
            "13119"
          ],
          [
            "-121493406",
            "38573500",
            "13",
            "52",
            "1000",
            "0",
            "0",
            "0",
            "0",
            "railway=light_rail",
            "railway=level_crossing",
            "23",
            "15835"
          ],
          [
            "-121493264",
            "38573898",
            "16",
            "46",
            "1000",
            "0",
            "0",
            "0",
            "0",
            "railway=light_rail",
            "railway=level_crossing",
            "27",
            "18896"
          ],
          [
            "-121493343",
            "38574063",
            "18",
            "20",
            "1000",
            "0",
            "0",
            "0",
            "0",
            "railway=light_rail",
            "railway=crossing",
            "28",
            "20393"
          ],
          [
            "-121494306",
            "38574358",
            "18",
            "90",
            "1000",
            "0",
            "0",
            "0",
            "0",
            "railway=light_rail",
            "railway=halt",
            "35",
            "26388"
          ],
          [
            "-121494443",
            "38574392",
            "18",
            "13",
            "1000",
            "0",
            "0",
            "0",
            "0",
            "railway=light_rail",
            "railway=crossing",
            "37",
            "27124"
          ],
          [
            "-121494540",
            "38574416",
            "18",
            "9",
            "1000",
            "0",
            "0",
            "0",
            "0",
            "railway=light_rail",
            "railway=level_crossing",
            "37",
            "27603"
          ],
          [
            "-121494659",
            "38574448",
            "17",
            "11",
            "1000",
            "0",
            "0",
            "0",
            "0",
            "railway=light_rail",
            "railway=crossing",
            "38",
            "28133"
          ],
          [
            "-121495768",
            "38574743",
            "11",
            "102",
            "1000",
            "0",
            "0",
            "0",
            "0",
            "railway=light_rail",
            "railway=crossing",
            "46",
            "31320"
          ],
          [
            "-121495845",
            "38574764",
            "11",
            "7",
            "1000",
            "0",
            "0",
            "0",
            "0",
            "railway=light_rail",
            "railway=crossing",
            "47",
            "31563"
          ],
          [
            "-121495878",
            "38574772",
            "11",
            "3",
            "1000",
            "0",
            "0",
            "0",
            "0",
            "railway=light_rail",
            "railway=level_crossing",
            "47",
            "31669"
          ],
          [
            "-121496000",
            "38574807",
            "11",
            "11",
            "1000",
            "0",
            "0",
            "0",
            "0",
            "railway=light_rail",
            "railway=crossing",
            "48",
            "32040"
          ],
          [
            "-121497069",
            "38575154",
            "14",
            "101",
            "1000",
            "0",
            "0",
            "0",
            "0",
            "railway=light_rail",
            "railway=crossing",
            "56",
            "36748"
          ],
          [
            "-121497120",
            "38575168",
            "14",
            "5",
            "1000",
            "0",
            "0",
            "0",
            "0",
            "railway=light_rail",
            "railway=crossing",
            "56",
            "37059"
          ],
          [
            "-121497182",
            "38575186",
            "15",
            "6",
            "1000",
            "0",
            "0",
            "0",
            "0",
            "railway=light_rail",
            "railway=level_crossing",
            "57",
            "37438"
          ],
          [
            "-121497307",
            "38575219",
            "15",
            "11",
            "1000",
            "0",
            "0",
            "0",
            "0",
            "railway=light_rail",
            "railway=crossing",
            "58",
            "38162"
          ],
          [
            "-121498171",
            "38575449",
            "14",
            "80",
            "1000",
            "0",
            "0",
            "0",
            "0",
            "railway=light_rail",
            "railway=halt",
            "64",
            "42091"
          ],
          [
            "-121498391",
            "38575532",
            "13",
            "21",
            "1000",
            "0",
            "0",
            "0",
            "0",
            "railway=light_rail",
            "railway=crossing",
            "66",
            "43003"
          ],
          [
            "-121498434",
            "38575572",
            "12",
            "6",
            "1000",
            "0",
            "0",
            "0",
            "0",
            "railway=light_rail",
            "railway=crossing",
            "66",
            "43223"
          ],
          [
            "-121498467",
            "38575622",
            "12",
            "6",
            "1000",
            "0",
            "0",
            "0",
            "0",
            "railway=light_rail",
            "railway=level_crossing",
            "67",
            "43432"
          ],
          [
            "-121498153",
            "38576509",
            "15",
            "104",
            "1000",
            "0",
            "0",
            "0",
            "0",
            "railway=light_rail",
            "railway=crossing",
            "75",
            "48790"
          ],
          [
            "-121498116",
            "38576595",
            "15",
            "10",
            "1000",
            "0",
            "0",
            "0",
            "0",
            "railway=light_rail",
            "railway=level_crossing",
            "76",
            "49324"
          ],
          [
            "-121498073",
            "38576695",
            "16",
            "12",
            "1000",
            "0",
            "0",
            "0",
            "0",
            "railway=light_rail",
            "railway=crossing",
            "77",
            "50003"
          ],
          [
            "-121497732",
            "38577484",
            "14",
            "92",
            "1000",
            "0",
            "0",
            "0",
            "0",
            "railway=light_rail",
            "railway=halt",
            "84",
            "53699"
          ],
          [
            "-121497700",
            "38577553",
            "14",
            "8",
            "1000",
            "0",
            "0",
            "0",
            "0",
            "railway=light_rail",
            "railway=crossing",
            "85",
            "54033"
          ],
          [
            "-121497670",
            "38577616",
            "14",
            "7",
            "1000",
            "0",
            "0",
            "0",
            "0",
            "railway=light_rail",
            "railway=level_crossing",
            "86",
            "54341"
          ],
          [
            "-121497580",
            "38577822",
            "15",
            "24",
            "1000",
            "0",
            "0",
            "0",
            "0",
            "railway=light_rail",
            "railway=level_crossing",
            "87",
            "55586"
          ],
          [
            "-121497550",
            "38577890",
            "15",
            "8",
            "1000",
            "0",
            "0",
            "0",
            "0",
            "railway=light_rail",
            "railway=crossing",
            "88",
            "56026"
          ],
          [
            "-121497375",
            "38578288",
            "17",
            "47",
            "1000",
            "0",
            "0",
            "0",
            "0",
            "railway=light_rail",
            "railway=level_crossing",
            "92",
            "58157"
          ],
          [
            "-121497175",
            "38578752",
            "14",
            "54",
            "1000",
            "0",
            "0",
            "0",
            "0",
            "railway=light_rail",
            "railway=crossing",
            "96",
            "60484"
          ],
          [
            "-121497133",
            "38578841",
            "13",
            "11",
            "1000",
            "0",
            "0",
            "0",
            "0",
            "railway=light_rail",
            "railway=unknown",
            "97",
            "60892"
          ],
          [
            "-121497099",
            "38578931",
            "13",
            "10",
            "1000",
            "0",
            "0",
            "0",
            "0",
            "railway=light_rail",
            "railway=crossing",
            "98",
            "61207"
          ],
          [
            "-121496901",
            "38579388",
            "11",
            "54",
            "1000",
            "0",
            "0",
            "0",
            "0",
            "railway=light_rail",
            "railway=unknown",
            "102",
            "62625"
          ],
          [
            "-121496818",
            "38579570",
            "12",
            "21",
            "1000",
            "0",
            "0",
            "0",
            "0",
            "railway=light_rail",
            "railway=switch",
            "104",
            "63463"
          ],
          [
            "-121496698",
            "38579850",
            "15",
            "33",
            "1000",
            "0",
            "0",
            "0",
            "0",
            "railway=light_rail",
            "crossing=traffic_signals bicycle=yes railway=crossing",
            "106",
            "65431"
          ],
          [
            "-121496664",
            "38579929",
            "16",
            "9",
            "1000",
            "0",
            "0",
            "0",
            "0",
            "railway=light_rail",
            "railway=unknown",
            "107",
            "66017"
          ],
          [
            "-121496653",
            "38579956",
            "16",
            "3",
            "1000",
            "0",
            "0",
            "0",
            "0",
            "railway=light_rail",
            "railway=unknown",
            "107",
            "66215"
          ],
          [
            "-121496631",
            "38580011",
            "17",
            "6",
            "1000",
            "0",
            "0",
            "0",
            "0",
            "railway=light_rail",
            "crossing=traffic_signals bicycle=yes railway=crossing",
            "108",
            "66631"
          ],
          [
            "-121496480",
            "38580385",
            "17",
            "44",
            "1000",
            "0",
            "0",
            "0",
            "0",
            "railway=light_rail",
            "railway=halt",
            "111",
            "68656"
          ],
          [
            "-121496443",
            "38580466",
            "17",
            "10",
            "1000",
            "0",
            "0",
            "0",
            "0",
            "railway=light_rail",
            "railway=unknown",
            "112",
            "69343"
          ],
          [
            "-121496231",
            "38580942",
            "16",
            "56",
            "1000",
            "0",
            "0",
            "0",
            "0",
            "railway=light_rail",
            "railway=crossing",
            "117",
            "72432"
          ],
          [
            "-121496190",
            "38581034",
            "16",
            "11",
            "1000",
            "0",
            "0",
            "0",
            "0",
            "railway=light_rail",
            "railway=unknown",
            "118",
            "73026"
          ],
          [
            "-121495927",
            "38581578",
            "19",
            "65",
            "1000",
            "0",
            "0",
            "0",
            "0",
            "railway=light_rail",
            "railway=unknown",
            "123",
            "76256"
          ],
          [
            "-121495870",
            "38581707",
            "20",
            "15",
            "1000",
            "0",
            "0",
            "0",
            "0",
            "railway=light_rail",
            "railway=unknown",
            "124",
            "77057"
          ],
          [
            "-121495732",
            "38582030",
            "21",
            "38",
            "1000",
            "0",
            "0",
            "0",
            "0",
            "railway=light_rail",
            "railway=crossing",
            "127",
            "79354"
          ],
          [
            "-121495693",
            "38582123",
            "21",
            "11",
            "1000",
            "0",
            "0",
            "0",
            "0",
            "railway=light_rail",
            "railway=unknown",
            "128",
            "80002"
          ],
          [
            "-121495656",
            "38582208",
            "21",
            "10",
            "1000",
            "0",
            "0",
            "0",
            "0",
            "railway=light_rail",
            "railway=crossing",
            "129",
            "80597"
          ],
          [
            "-121495322",
            "38582988",
            "16",
            "91",
            "1000",
            "0",
            "0",
            "0",
            "0",
            "railway=light_rail",
            "railway=halt",
            "136",
            "84426"
          ],
          [
            "-121495300",
            "38583041",
            "16",
            "6",
            "1000",
            "0",
            "0",
            "0",
            "0",
            "railway=light_rail",
            "railway=switch",
            "136",
            "84657"
          ],
          [
            "-121495264",
            "38583122",
            "15",
            "10",
            "1000",
            "0",
            "0",
            "0",
            "0",
            "railway=light_rail",
            "railway=crossing",
            "137",
            "84984"
          ],
          [
            "-121495225",
            "38583209",
            "14",
            "10",
            "1000",
            "0",
            "0",
            "0",
            "0",
            "railway=light_rail",
            "railway=unknown",
            "138",
            "85258"
          ],
          [
            "-121495185",
            "38583304",
            "14",
            "11",
            "1000",
            "0",
            "0",
            "0",
            "0",
            "railway=light_rail",
            "railway=crossing",
            "139",
            "85510"
          ],
          [
            "-121494922",
            "38583932",
            "12",
            "73",
            "1000",
            "0",
            "0",
            "0",
            "0",
            "railway=light_rail",
            "",
            "145",
            "88478"
          ],
          [
            "-121494861",
            "38584298",
            "12",
            "42",
            "1000",
            "0",
            "0",
            "0",
            "0",
            "railway=light_rail",
            "railway=crossing",
            "3",
            "1830"
          ],
          [
            "-121494883",
            "38584333",
            "12",
            "4",
            "1000",
            "0",
            "0",
            "0",
            "0",
            "railway=light_rail",
            "railway=unknown",
            "3",
            "1998"
          ],
          [
            "-121495320",
            "38584482",
            "10",
            "42",
            "1000",
            "0",
            "0",
            "0",
            "0",
            "railway=light_rail",
            "railway=level_crossing",
            "7",
            "3383"
          ],
          [
            "-121495894",
            "38584736",
            "7",
            "60",
            "1000",
            "0",
            "0",
            "0",
            "0",
            "railway=light_rail",
            "railway=crossing",
            "11",
            "5643"
          ],
          [
            "-121495897",
            "38584875",
            "7",
            "16",
            "1000",
            "0",
            "0",
            "0",
            "0",
            "railway=light_rail",
            "railway=switch",
            "13",
            "6181"
          ],
          [
            "-121495794",
            "38585118",
            "7",
            "28",
            "1000",
            "0",
            "0",
            "0",
            "0",
            "railway=light_rail",
            "railway=level_crossing",
            "15",
            "7179"
          ],
          [
            "-121495573",
            "38585641",
            "7",
            "61",
            "1000",
            "0",
            "0",
            "0",
            "0",
            "railway=light_rail",
            "railway=unknown",
            "20",
            "9735"
          ],
          [
            "-121495540",
            "38585719",
            "7",
            "9",
            "1000",
            "0",
            "0",
            "0",
            "0",
            "railway=light_rail",
            "railway=unknown",
            "20",
            "10118"
          ],
          [
            "-121495344",
            "38586304",
            "8",
            "67",
            "1000",
            "0",
            "0",
            "0",
            "0",
            "railway=light_rail",
            "railway=unknown",
            "26",
            "11919"
          ],
          [
            "-121492768",
            "38592166",
            "7",
            "688",
            "1000",
            "0",
            "0",
            "0",
            "0",
            "railway=light_rail",
            "railway=switch",
            "81",
            "40506"
          ],
          [
            "-121492717",
            "38592283",
            "7",
            "14",
            "1000",
            "0",
            "0",
            "0",
            "0",
            "railway=light_rail",
            "railway=crossing",
            "82",
            "41097"
          ],
          [
            "-121492667",
            "38592395",
            "7",
            "13",
            "1000",
            "0",
            "0",
            "0",
            "0",
            "railway=light_rail",
            "railway=unknown",
            "83",
            "41622"
          ],
          [
            "-121492619",
            "38592499",
            "7",
            "12",
            "1000",
            "0",
            "0",
            "0",
            "0",
            "railway=light_rail",
            "railway=unknown",
            "84",
            "42087"
          ],
          [
            "-121492470",
            "38592789",
            "6",
            "35",
            "1000",
            "0",
            "0",
            "0",
            "0",
            "railway=light_rail",
            "railway=unknown",
            "87",
            "43386"
          ],
          [
            "-121492306",
            "38593169",
            "6",
            "45",
            "1000",
            "0",
            "0",
            "0",
            "0",
            "railway=light_rail",
            "railway=crossing",
            "90",
            "45033"
          ],
          [
            "-121492293",
            "38593200",
            "6",
            "4",
            "1000",
            "0",
            "0",
            "0",
            "0",
            "railway=light_rail",
            "railway=unknown",
            "91",
            "45186"
          ],
          [
            "-121492091",
            "38593665",
            "6",
            "55",
            "1000",
            "0",
            "0",
            "0",
            "0",
            "railway=light_rail",
            "railway=unknown",
            "95",
            "47368"
          ],
          [
            "-121491882",
            "38594150",
            "5",
            "57",
            "1000",
            "0",
            "0",
            "0",
            "0",
            "railway=light_rail",
            "railway=unknown",
            "100",
            "49446"
          ],
          [
            "-121491742",
            "38594469",
            "6",
            "37",
            "1000",
            "0",
            "0",
            "0",
            "0",
            "railway=light_rail",
            "railway=crossing",
            "103",
            "51038"
          ],
          [
            "-121491716",
            "38594533",
            "6",
            "7",
            "1000",
            "0",
            "0",
            "0",
            "0",
            "railway=light_rail",
            "railway=unknown",
            "103",
            "51355"
          ],
          [
            "-121491186",
            "38595752",
            "8",
            "143",
            "1000",
            "0",
            "0",
            "0",
            "0",
            "railway=light_rail",
            "railway=unknown",
            "115",
            "58920"
          ],
          [
            "-121491131",
            "38595884",
            "8",
            "15",
            "1000",
            "0",
            "0",
            "0",
            "0",
            "railway=light_rail",
            "railway=unknown",
            "116",
            "59636"
          ],
          [
            "-121491113",
            "38596003",
            "8",
            "13",
            "1000",
            "0",
            "0",
            "0",
            "0",
            "railway=light_rail",
            "railway=unknown",
            "117",
            "60256"
          ],
          [
            "-121491133",
            "38596066",
            "8",
            "7",
            "1000",
            "0",
            "0",
            "0",
            "0",
            "railway=light_rail",
            "railway=crossing",
            "117",
            "60599"
          ],
          [
            "-121491191",
            "38596142",
            "8",
            "10",
            "1000",
            "0",
            "0",
            "0",
            "0",
            "railway=light_rail",
            "railway=unknown",
            "118",
            "61106"
          ],
          [
            "-121491260",
            "38596187",
            "8",
            "8",
            "1000",
            "0",
            "0",
            "0",
            "0",
            "railway=light_rail",
            "railway=unknown",
            "119",
            "61524"
          ],
          [
            "-121491293",
            "38596203",
            "9",
            "3",
            "1000",
            "0",
            "0",
            "0",
            "0",
            "railway=light_rail",
            "railway=unknown",
            "119",
            "61685"
          ],
          [
            "-121491394",
            "38596241",
            "9",
            "10",
            "1000",
            "0",
            "0",
            "0",
            "0",
            "railway=light_rail",
            "railway=unknown",
            "120",
            "62240"
          ],
          [
            "-121491660",
            "38596314",
            "9",
            "25",
            "1000",
            "0",
            "0",
            "0",
            "0",
            "railway=light_rail",
            "railway=unknown",
            "122",
            "63678"
          ],
          [
            "-121492765",
            "38596609",
            "7",
            "102",
            "1000",
            "0",
            "0",
            "0",
            "0",
            "railway=light_rail",
            "",
            "130",
            "67515"
          ]
        ],
        "times": [
          0,
          8.16,
          10.16,
          10.96,
          11.2,
          11.84,
          12.16,
          12.64,
          13.2,
          13.44,
          14.24,
          15.44,
          26.88,
          27.44,
          30.4,
          34.96,
          39.36,
          39.68,
          43.28,
          44.4,
          46.08,
          47.04,
          48.08,
          49.2,
          50.72,
          52.72,
          57.2,
          61.44,
          69.84,
          76.8,
          80,
          84,
          89.04,
          92.08,
          96.64,
          104.24,
          109.6,
          110.32,
          115.2,
          117.44,
          118.64,
          119.84,
          125.92,
          129.04,
          129.52,
          130,
          130.8,
          132.24,
          138.56,
          139.28,
          140.16,
          141.04,
          144.4,
          145.28,
          149.6,
          150.4,
          151.28,
          155.84,
          160.4,
          162.8,
          165.92,
          170.24,
          171.04,
          171.84,
          176.24,
          179.04,
          180.08,
          180.72,
          182.64,
          183.28,
          191.28,
          192.24,
          193.04,
          200,
          200.88,
          201.36,
          202,
          202.72,
          203.2,
          207.36,
          210.08,
          211.04,
          211.76,
          219.84,
          220.8,
          221.28,
          221.68,
          222.48,
          224.32,
          227.36,
          229.76,
          230.64,
          230.88,
          231.44,
          238.64,
          239.6,
          240.48,
          241.2,
          247.68,
          248.64,
          249.12,
          249.52,
          249.84,
          250.32,
          251.04,
          253.92,
          258.08,
          259.04,
          259.44,
          259.76,
          264.08,
          268.32,
          268.72,
          269.36,
          270.08,
          271.12,
          273.28,
          273.76,
          274.08,
          274.32,
          274.88,
          275.12,
          275.36,
          275.76,
          276.56,
          277.84,
          281.76,
          285.04,
          285.28,
          286.16,
          286.88,
          290.32,
          294.96,
          295.92,
          296.72,
          297.52,
          298.32,
          299.12,
          300.08,
          304.72,
          305.6,
          307.28,
          307.84,
          308.24,
          309.04,
          309.92,
          316.32,
          316.88,
          317.36,
          318.24,
          319.04,
          319.92,
          320.4,
          320.8,
          321.44,
          322.32,
          324.24,
          324.96,
          325.6,
          326,
          330.24,
          334.56,
          334.88,
          335.28,
          336.24,
          340.4,
          343.2,
          343.92,
          344.08,
          344.8,
          345.68,
          346.48,
          347.12,
          352.88,
          353.92,
          354.64,
          355.52,
          363.68,
          364.24,
          364.48,
          365.36,
          368.32,
          370.24,
          372.24,
          373.44,
          373.84,
          374.32,
          375.2,
          381.6,
          382.32,
          382.96,
          383.28,
          383.76,
          384.24,
          384.88,
          385.68,
          392.56,
          393.36,
          394.32,
          401.68,
          402.32,
          402.88,
          404.8,
          405.44,
          409.2,
          413.52,
          414.4,
          415.2,
          419.52,
          421.2,
          423.84,
          424.56,
          424.8,
          425.28,
          428.08,
          428.8,
          429.6,
          434.08,
          434.96,
          435.76,
          440.16,
          441.36,
          444.4,
          445.28,
          446.08,
          453.36,
          453.84,
          454.64,
          455.44,
          456.32,
          459.6,
          462.16,
          464.16,
          464.88,
          465.52,
          465.84,
          466.32,
          467.12,
          469.2,
          472.24,
          472.88,
          473.44,
          474,
          474.4,
          475.28,
          477.52,
          482.4,
          483.12,
          488.48,
          496.08,
          500.64,
          503.68,
          508.72,
          512.72,
          515.92,
          522.88,
          531.28,
          535.52,
          540,
          542,
          543.52,
          544.64,
          545.68,
          546.64,
          548.32,
          549.44,
          553.04,
          553.36,
          557.76,
          562.32,
          565.28,
          565.84,
          577.28,
          578.48,
          579.28,
          579.52,
          580.08,
          580.56,
          580.88,
          581.52,
          581.76,
          582.56,
          584.56,
          592.72
        ]
      },
      "geometry": {
        "type": "LineString",
        "coordinates": [
          [
            -121.492763,
            38.596608,
            7.25
          ],
          [
            -121.49166,
            38.596314,
            9.75
          ],
          [
            -121.491394,
            38.596241,
            9.25
          ],
          [
            -121.491293,
            38.596203,
            9
          ],
          [
            -121.49126,
            38.596187,
            8.75
          ],
          [
            -121.491191,
            38.596142,
            8.5
          ],
          [
            -121.491162,
            38.596113,
            8.5
          ],
          [
            -121.491133,
            38.596066,
            8.25
          ],
          [
            -121.491113,
            38.596003,
            8.25
          ],
          [
            -121.491109,
            38.595973,
            8
          ],
          [
            -121.491131,
            38.595884,
            8
          ],
          [
            -121.491186,
            38.595752,
            8
          ],
          [
            -121.491716,
            38.594533,
            6.25
          ],
          [
            -121.491742,
            38.594469,
            6
          ],
          [
            -121.491882,
            38.59415,
            5.5
          ],
          [
            -121.492091,
            38.593665,
            6.25
          ],
          [
            -121.492293,
            38.5932,
            6.25
          ],
          [
            -121.492306,
            38.593169,
            6.25
          ],
          [
            -121.49247,
            38.592789,
            6.5
          ],
          [
            -121.492521,
            38.592673,
            6.75
          ],
          [
            -121.492619,
            38.592499,
            7
          ],
          [
            -121.492667,
            38.592395,
            7.25
          ],
          [
            -121.492717,
            38.592283,
            7.5
          ],
          [
            -121.492768,
            38.592166,
            7.75
          ],
          [
            -121.492834,
            38.592003,
            7.75
          ],
          [
            -121.492903,
            38.591784,
            7.75
          ],
          [
            -121.493113,
            38.591304,
            6.5
          ],
          [
            -121.493331,
            38.590855,
            5
          ],
          [
            -121.493792,
            38.589978,
            10
          ],
          [
            -121.49419,
            38.589258,
            6.75
          ],
          [
            -121.494351,
            38.588918,
            7.5
          ],
          [
            -121.494539,
            38.588494,
            9
          ],
          [
            -121.494758,
            38.587955,
            11
          ],
          [
            -121.494887,
            38.587631,
            12
          ],
          [
            -121.495071,
            38.587136,
            10.75
          ],
          [
            -121.495344,
            38.586304,
            8.25
          ],
          [
            -121.49554,
            38.585719,
            7.75
          ],
          [
            -121.495573,
            38.585641,
            7.75
          ],
          [
            -121.495794,
            38.585118,
            7.25
          ],
          [
            -121.495897,
            38.584875,
            7.25
          ],
          [
            -121.495954,
            38.584752,
            7.25
          ],
          [
            -121.496011,
            38.584628,
            7.5
          ],
          [
            -121.496295,
            38.583978,
            8
          ],
          [
            -121.49644,
            38.583643,
            9
          ],
          [
            -121.496462,
            38.583592,
            9
          ],
          [
            -121.496479,
            38.583543,
            9.25
          ],
          [
            -121.496514,
            38.58346,
            9.25
          ],
          [
            -121.496581,
            38.583302,
            9.75
          ],
          [
            -121.496878,
            38.582626,
            15.75
          ],
          [
            -121.496913,
            38.58255,
            16.5
          ],
          [
            -121.496956,
            38.582458,
            17
          ],
          [
            -121.496996,
            38.582365,
            17
          ],
          [
            -121.497149,
            38.582009,
            17.75
          ],
          [
            -121.497195,
            38.581914,
            18
          ],
          [
            -121.497384,
            38.581449,
            18
          ],
          [
            -121.49742,
            38.581362,
            17.75
          ],
          [
            -121.49746,
            38.581267,
            17.5
          ],
          [
            -121.497663,
            38.580783,
            15.5
          ],
          [
            -121.497881,
            38.580302,
            14.5
          ],
          [
            -121.497985,
            38.580049,
            14
          ],
          [
            -121.498123,
            38.579714,
            13.5
          ],
          [
            -121.498331,
            38.579257,
            11.25
          ],
          [
            -121.498371,
            38.579169,
            10.75
          ],
          [
            -121.498407,
            38.579084,
            11
          ],
          [
            -121.498604,
            38.578617,
            11.5
          ],
          [
            -121.498734,
            38.578321,
            11.5
          ],
          [
            -121.498778,
            38.578213,
            12.5
          ],
          [
            -121.498808,
            38.578146,
            13
          ],
          [
            -121.498894,
            38.577943,
            15.25
          ],
          [
            -121.498924,
            38.577874,
            16
          ],
          [
            -121.499292,
            38.577022,
            18.25
          ],
          [
            -121.499335,
            38.576922,
            17.5
          ],
          [
            -121.499375,
            38.576833,
            16.5
          ],
          [
            -121.499709,
            38.576092,
            13
          ],
          [
            -121.499734,
            38.575993,
            12.75
          ],
          [
            -121.499729,
            38.575943,
            12.75
          ],
          [
            -121.499697,
            38.575874,
            12.5
          ],
          [
            -121.499636,
            38.575813,
            12.25
          ],
          [
            -121.499583,
            38.575784,
            12
          ],
          [
            -121.499015,
            38.575632,
            11.5
          ],
          [
            -121.498649,
            38.575536,
            12.5
          ],
          [
            -121.498519,
            38.575502,
            13
          ],
          [
            -121.498417,
            38.575475,
            13.5
          ],
          [
            -121.497321,
            38.575187,
            15.75
          ],
          [
            -121.497196,
            38.575153,
            15.25
          ],
          [
            -121.497134,
            38.575135,
            15
          ],
          [
            -121.497083,
            38.575122,
            14.75
          ],
          [
            -121.496976,
            38.575092,
            14.25
          ],
          [
            -121.496736,
            38.575008,
            12.5
          ],
          [
            -121.496345,
            38.57486,
            11.5
          ],
          [
            -121.496017,
            38.574767,
            11.5
          ],
          [
            -121.495894,
            38.574735,
            11.75
          ],
          [
            -121.495863,
            38.574727,
            11.75
          ],
          [
            -121.495784,
            38.574706,
            12.25
          ],
          [
            -121.494802,
            38.574447,
            17.5
          ],
          [
            -121.494674,
            38.574413,
            17.75
          ],
          [
            -121.494555,
            38.574381,
            18
          ],
          [
            -121.494458,
            38.574355,
            18.25
          ],
          [
            -121.493577,
            38.57412,
            18.5
          ],
          [
            -121.493457,
            38.574075,
            18
          ],
          [
            -121.493404,
            38.574039,
            17.75
          ],
          [
            -121.493368,
            38.573999,
            17.5
          ],
          [
            -121.493347,
            38.573963,
            17.25
          ],
          [
            -121.493334,
            38.573911,
            16.75
          ],
          [
            -121.493342,
            38.573829,
            16
          ],
          [
            -121.493473,
            38.573519,
            13.5
          ],
          [
            -121.49367,
            38.573073,
            10.75
          ],
          [
            -121.493715,
            38.572969,
            10.25
          ],
          [
            -121.493733,
            38.572927,
            10.25
          ],
          [
            -121.493749,
            38.572892,
            10
          ],
          [
            -121.493951,
            38.572429,
            8.25
          ],
          [
            -121.494149,
            38.571977,
            8.75
          ],
          [
            -121.494166,
            38.571937,
            8.75
          ],
          [
            -121.494195,
            38.571871,
            9
          ],
          [
            -121.494225,
            38.571797,
            9
          ],
          [
            -121.494276,
            38.571683,
            9
          ],
          [
            -121.494368,
            38.571453,
            8.5
          ],
          [
            -121.494377,
            38.571399,
            8.25
          ],
          [
            -121.494375,
            38.571364,
            8.25
          ],
          [
            -121.494367,
            38.571335,
            8.25
          ],
          [
            -121.494336,
            38.571281,
            8
          ],
          [
            -121.494313,
            38.571256,
            8
          ],
          [
            -121.494291,
            38.571235,
            8
          ],
          [
            -121.494248,
            38.571209,
            7.75
          ],
          [
            -121.494145,
            38.571165,
            7.5
          ],
          [
            -121.493976,
            38.57111,
            6.75
          ],
          [
            -121.493441,
            38.570967,
            4.25
          ],
          [
            -121.492996,
            38.570849,
            4.25
          ],
          [
            -121.492959,
            38.570839,
            4.25
          ],
          [
            -121.492836,
            38.570807,
            4.75
          ],
          [
            -121.492733,
            38.57078,
            5.25
          ],
          [
            -121.492266,
            38.570657,
            6.75
          ],
          [
            -121.491637,
            38.570489,
            8.25
          ],
          [
            -121.491509,
            38.570455,
            8.25
          ],
          [
            -121.4914,
            38.570426,
            8.25
          ],
          [
            -121.491296,
            38.570397,
            8.25
          ],
          [
            -121.4914,
            38.570426,
            8.25
          ],
          [
            -121.491509,
            38.570455,
            8.25
          ],
          [
            -121.491637,
            38.570489,
            8.25
          ],
          [
            -121.492266,
            38.570657,
            6.75
          ],
          [
            -121.492382,
            38.570692,
            6.5
          ],
          [
            -121.492595,
            38.570777,
            5.75
          ],
          [
            -121.492667,
            38.5708,
            5.5
          ],
          [
            -121.492717,
            38.570813,
            5.25
          ],
          [
            -121.492822,
            38.57084,
            4.75
          ],
          [
            -121.492946,
            38.570875,
            4.5
          ],
          [
            -121.493814,
            38.571117,
            6
          ],
          [
            -121.493887,
            38.571134,
            6.75
          ],
          [
            -121.493956,
            38.571152,
            6.75
          ],
          [
            -121.494072,
            38.571189,
            7.25
          ],
          [
            -121.494164,
            38.571235,
            7.75
          ],
          [
            -121.494244,
            38.571308,
            8
          ],
          [
            -121.494275,
            38.571361,
            8.25
          ],
          [
            -121.494287,
            38.571401,
            8.25
          ],
          [
            -121.494292,
            38.571476,
            8.5
          ],
          [
            -121.494265,
            38.571574,
            8.75
          ],
          [
            -121.494179,
            38.571783,
            9
          ],
          [
            -121.494148,
            38.571859,
            8.75
          ],
          [
            -121.494119,
            38.571925,
            8.75
          ],
          [
            -121.494102,
            38.571965,
            8.75
          ],
          [
            -121.493907,
            38.572417,
            8.25
          ],
          [
            -121.493703,
            38.572879,
            9.75
          ],
          [
            -121.493687,
            38.572915,
            10
          ],
          [
            -121.493668,
            38.572958,
            10.25
          ],
          [
            -121.493619,
            38.573061,
            10.75
          ],
          [
            -121.493406,
            38.5735,
            13.25
          ],
          [
            -121.493275,
            38.573795,
            15.5
          ],
          [
            -121.493258,
            38.573877,
            16.25
          ],
          [
            -121.493264,
            38.573898,
            16.5
          ],
          [
            -121.493281,
            38.573976,
            17
          ],
          [
            -121.493343,
            38.574063,
            18
          ],
          [
            -121.493434,
            38.574116,
            18.5
          ],
          [
            -121.493521,
            38.574145,
            18.75
          ],
          [
            -121.494306,
            38.574358,
            18.25
          ],
          [
            -121.494443,
            38.574392,
            18.25
          ],
          [
            -121.49454,
            38.574416,
            18
          ],
          [
            -121.494659,
            38.574448,
            17.5
          ],
          [
            -121.495768,
            38.574743,
            11.75
          ],
          [
            -121.495845,
            38.574764,
            11.5
          ],
          [
            -121.495878,
            38.574772,
            11.5
          ],
          [
            -121.496,
            38.574807,
            11.25
          ],
          [
            -121.496404,
            38.574923,
            11.25
          ],
          [
            -121.49665,
            38.575019,
            11.75
          ],
          [
            -121.496908,
            38.575109,
            13.75
          ],
          [
            -121.497069,
            38.575154,
            14.5
          ],
          [
            -121.49712,
            38.575168,
            14.75
          ],
          [
            -121.497182,
            38.575186,
            15
          ],
          [
            -121.497307,
            38.575219,
            15.5
          ],
          [
            -121.498171,
            38.575449,
            14
          ],
          [
            -121.498272,
            38.575476,
            13.75
          ],
          [
            -121.498357,
            38.57551,
            13.5
          ],
          [
            -121.498391,
            38.575532,
            13.25
          ],
          [
            -121.498434,
            38.575572,
            12.75
          ],
          [
            -121.498467,
            38.575622,
            12.5
          ],
          [
            -121.498485,
            38.575689,
            12
          ],
          [
            -121.498471,
            38.575776,
            11.5
          ],
          [
            -121.498153,
            38.576509,
            15.25
          ],
          [
            -121.498116,
            38.576595,
            15.5
          ],
          [
            -121.498073,
            38.576695,
            16
          ],
          [
            -121.497732,
            38.577484,
            14
          ],
          [
            -121.4977,
            38.577553,
            14
          ],
          [
            -121.49767,
            38.577616,
            14.25
          ],
          [
            -121.49758,
            38.577822,
            15.25
          ],
          [
            -121.49755,
            38.57789,
            15.75
          ],
          [
            -121.497375,
            38.578288,
            17.75
          ],
          [
            -121.497175,
            38.578752,
            14.5
          ],
          [
            -121.497133,
            38.578841,
            13.75
          ],
          [
            -121.497099,
            38.578931,
            13
          ],
          [
            -121.496901,
            38.579388,
            11.75
          ],
          [
            -121.496818,
            38.57957,
            12.75
          ],
          [
            -121.496698,
            38.57985,
            15.25
          ],
          [
            -121.496664,
            38.579929,
            16.25
          ],
          [
            -121.496653,
            38.579956,
            16.5
          ],
          [
            -121.496631,
            38.580011,
            17
          ],
          [
            -121.496509,
            38.58031,
            17.5
          ],
          [
            -121.49648,
            38.580385,
            17.5
          ],
          [
            -121.496443,
            38.580466,
            17.25
          ],
          [
            -121.496231,
            38.580942,
            16.25
          ],
          [
            -121.49619,
            38.581034,
            16.5
          ],
          [
            -121.496153,
            38.581119,
            16.75
          ],
          [
            -121.495927,
            38.581578,
            19.25
          ],
          [
            -121.49587,
            38.581707,
            20
          ],
          [
            -121.495732,
            38.58203,
            21.25
          ],
          [
            -121.495693,
            38.582123,
            21.5
          ],
          [
            -121.495656,
            38.582208,
            21.75
          ],
          [
            -121.495322,
            38.582988,
            16.75
          ],
          [
            -121.4953,
            38.583041,
            16.25
          ],
          [
            -121.495264,
            38.583122,
            15.5
          ],
          [
            -121.495225,
            38.583209,
            14.75
          ],
          [
            -121.495185,
            38.583304,
            14
          ],
          [
            -121.495035,
            38.583658,
            13
          ],
          [
            -121.494922,
            38.583932,
            12.5
          ],
          [
            -121.494831,
            38.584149,
            12.5
          ],
          [
            -121.49483,
            38.584227,
            12.5
          ],
          [
            -121.494861,
            38.584298,
            12.25
          ],
          [
            -121.494883,
            38.584333,
            12.25
          ],
          [
            -121.494941,
            38.584369,
            12
          ],
          [
            -121.495041,
            38.584408,
            11.75
          ],
          [
            -121.49532,
            38.584482,
            10.5
          ],
          [
            -121.495732,
            38.584593,
            8.25
          ],
          [
            -121.495804,
            38.584632,
            8
          ],
          [
            -121.495862,
            38.58468,
            7.5
          ],
          [
            -121.495894,
            38.584736,
            7.5
          ],
          [
            -121.495906,
            38.584778,
            7.25
          ],
          [
            -121.495897,
            38.584875,
            7.25
          ],
          [
            -121.495794,
            38.585118,
            7.25
          ],
          [
            -121.495573,
            38.585641,
            7.75
          ],
          [
            -121.49554,
            38.585719,
            7.75
          ],
          [
            -121.495344,
            38.586304,
            8.25
          ],
          [
            -121.495071,
            38.587136,
            10.75
          ],
          [
            -121.494887,
            38.587631,
            12
          ],
          [
            -121.494758,
            38.587955,
            11
          ],
          [
            -121.494539,
            38.588494,
            9
          ],
          [
            -121.494351,
            38.588918,
            7.5
          ],
          [
            -121.49419,
            38.589258,
            6.75
          ],
          [
            -121.493792,
            38.589978,
            10
          ],
          [
            -121.493331,
            38.590855,
            5
          ],
          [
            -121.493113,
            38.591304,
            6.5
          ],
          [
            -121.492903,
            38.591784,
            7.75
          ],
          [
            -121.492834,
            38.592003,
            7.75
          ],
          [
            -121.492768,
            38.592166,
            7.75
          ],
          [
            -121.492717,
            38.592283,
            7.5
          ],
          [
            -121.492667,
            38.592395,
            7.25
          ],
          [
            -121.492619,
            38.592499,
            7
          ],
          [
            -121.492521,
            38.592673,
            6.75
          ],
          [
            -121.49247,
            38.592789,
            6.5
          ],
          [
            -121.492306,
            38.593169,
            6.25
          ],
          [
            -121.492293,
            38.5932,
            6.25
          ],
          [
            -121.492091,
            38.593665,
            6.25
          ],
          [
            -121.491882,
            38.59415,
            5.5
          ],
          [
            -121.491742,
            38.594469,
            6
          ],
          [
            -121.491716,
            38.594533,
            6.25
          ],
          [
            -121.491186,
            38.595752,
            8
          ],
          [
            -121.491131,
            38.595884,
            8
          ],
          [
            -121.491109,
            38.595973,
            8
          ],
          [
            -121.491113,
            38.596003,
            8.25
          ],
          [
            -121.491133,
            38.596066,
            8.25
          ],
          [
            -121.491162,
            38.596113,
            8.5
          ],
          [
            -121.491191,
            38.596142,
            8.5
          ],
          [
            -121.49126,
            38.596187,
            8.75
          ],
          [
            -121.491293,
            38.596203,
            9
          ],
          [
            -121.491394,
            38.596241,
            9.25
          ],
          [
            -121.49166,
            38.596314,
            9.75
          ],
          [
            -121.492765,
            38.596609,
            7.25
          ]
        ]
      }
    }
  ]
}