{
  "type": "FeatureCollection",
  "features": [
    {
      "type": "Feature",
      "properties": {
        "creator": "BRouter-1.7.9",
        "name": "[SITEUR] L3",
        "track-length": "39584",
        "filtered ascend": "22",
        "plain-ascend": "5",
        "total-time": "3167",
        "total-energy": "1765113",
        "cost": "79168",
        "messages": [
          [
            "Longitude",
            "Latitude",
            "Elevation",
            "Distance",
            "CostPerKm",
            "ElevCost",
            "TurnCost",
            "NodeCost",
            "InitialCost",
            "WayTags",
            "NodeTags",
            "Time",
            "Energy"
          ],
          [
            "-103407410",
            "20741210",
            "-8192",
            "47",
            "2000",
            "0",
            "0",
            "0",
            "0",
            "railway=subway",
            "railway=halt",
            "3",
            "2067"
          ],
          [
            "-103406830",
            "20740798",
            "1608",
            "76",
            "2000",
            "0",
            "0",
            "0",
            "0",
            "railway=subway",
            "railway=switch",
            "9",
            "5410"
          ],
          [
            "-103405187",
            "20739612",
            "-8192",
            "215",
            "2000",
            "0",
            "0",
            "0",
            "0",
            "railway=subway",
            "",
            "27",
            "14867"
          ],
          [
            "-103403056",
            "20738026",
            "-8192",
            "283",
            "2000",
            "0",
            "0",
            "0",
            "0",
            "railway=subway",
            "railway=halt",
            "22",
            "12447"
          ],
          [
            "-103389200",
            "20728796",
            "-8192",
            "1787",
            "2000",
            "0",
            "0",
            "0",
            "0",
            "railway=subway",
            "railway=halt",
            "165",
            "91049"
          ],
          [
            "-103386979",
            "20720596",
            "-8192",
            "1180",
            "2000",
            "0",
            "0",
            "0",
            "0",
            "railway=subway",
            "railway=halt",
            "260",
            "142952"
          ],
          [
            "-103375677",
            "20712644",
            "1533",
            "1483",
            "2000",
            "0",
            "0",
            "0",
            "0",
            "railway=subway",
            "railway=switch",
            "378",
            "208182"
          ],
          [
            "-103375085",
            "20712273",
            "1533",
            "74",
            "2000",
            "0",
            "0",
            "0",
            "0",
            "railway=subway",
            "railway=halt",
            "384",
            "211437"
          ],
          [
            "-103366022",
            "20706500",
            "1540",
            "1140",
            "2000",
            "0",
            "0",
            "0",
            "0",
            "railway=subway",
            "railway=halt",
            "475",
            "261580"
          ],
          [
            "-103355379",
            "20699642",
            "1547",
            "1345",
            "2000",
            "0",
            "0",
            "0",
            "0",
            "railway=subway",
            "railway=switch",
            "583",
            "330296"
          ],
          [
            "-103354774",
            "20699256",
            "1548",
            "76",
            "2000",
            "0",
            "0",
            "0",
            "0",
            "railway=subway",
            "railway=halt",
            "589",
            "334074"
          ],
          [
            "-103348410",
            "20693024",
            "1549",
            "1023",
            "2000",
            "0",
            "0",
            "0",
            "0",
            "railway=subway",
            "railway=halt",
            "671",
            "381661"
          ],
          [
            "-103347882",
            "20683970",
            "1549",
            "1005",
            "2000",
            "0",
            "0",
            "0",
            "0",
            "railway=subway",
            "railway=halt",
            "751",
            "425866"
          ],
          [
            "-103347390",
            "20675585",
            "1548",
            "929",
            "2000",
            "0",
            "0",
            "0",
            "0",
            "railway=subway",
            "railway=halt",
            "826",
            "466729"
          ],
          [
            "-103344706",
            "20670952",
            "1548",
            "655",
            "2000",
            "0",
            "0",
            "0",
            "0",
            "railway=subway",
            "railway=halt",
            "878",
            "495539"
          ],
          [
            "-103332581",
            "20665004",
            "1548",
            "1441",
            "2000",
            "0",
            "0",
            "0",
            "0",
            "railway=subway",
            "railway=halt",
            "993",
            "558922"
          ],
          [
            "-103324901",
            "20660232",
            "-8192",
            "959",
            "2000",
            "0",
            "0",
            "0",
            "0",
            "railway=subway",
            "railway=switch",
            "1070",
            "601773"
          ],
          [
            "-103324105",
            "20659724",
            "-8192",
            "100",
            "2000",
            "0",
            "0",
            "0",
            "0",
            "railway=subway",
            "railway=halt",
            "1078",
            "606167"
          ],
          [
            "-103310347",
            "20651056",
            "-8192",
            "1725",
            "2000",
            "0",
            "0",
            "0",
            "0",
            "railway=subway",
            "railway=halt",
            "1216",
            "682039"
          ],
          [
            "-103304450",
            "20645347",
            "-8192",
            "906",
            "2000",
            "0",
            "0",
            "0",
            "0",
            "railway=subway",
            "railway=switch",
            "1288",
            "721889"
          ],
          [
            "-103304143",
            "20644799",
            "-8192",
            "69",
            "2000",
            "0",
            "0",
            "0",
            "0",
            "railway=subway",
            "railway=halt",
            "1294",
            "724924"
          ],
          [
            "-103300053",
            "20637706",
            "-8192",
            "893",
            "2000",
            "0",
            "0",
            "0",
            "0",
            "railway=subway",
            "railway=halt",
            "1365",
            "764203"
          ],
          [
            "-103296218",
            "20632158",
            "-8192",
            "732",
            "2000",
            "0",
            "0",
            "0",
            "0",
            "railway=subway",
            "railway=halt",
            "1424",
            "796400"
          ],
          [
            "-103286242",
            "20623536",
            "-8192",
            "1476",
            "2000",
            "0",
            "0",
            "0",
            "0",
            "railway=subway",
            "railway=switch",
            "1542",
            "861323"
          ],
          [
            "-103285758",
            "20623427",
            "-8192",
            "52",
            "2000",
            "0",
            "0",
            "0",
            "0",
            "railway=subway",
            "railway=switch",
            "1546",
            "863610"
          ],
          [
            "-103285266",
            "20623264",
            "-8192",
            "54",
            "2000",
            "0",
            "0",
            "0",
            "0",
            "reversedirection=yes railway=subway",
            "railway=halt",
            "1550",
            "865985"
          ],
          [
            "-103284620",
            "20623060",
            "-8192",
            "71",
            "2000",
            "0",
            "0",
            "0",
            "0",
            "reversedirection=yes railway=subway",
            "",
            "1556",
            "869108"
          ],
          [
            "-103285266",
            "20623264",
            "-8192",
            "71",
            "2000",
            "0",
            "0",
            "0",
            "0",
            "railway=subway",
            "railway=halt",
            "5",
            "3122"
          ],
          [
            "-103285758",
            "20623427",
            "-8192",
            "54",
            "2000",
            "0",
            "0",
            "0",
            "0",
            "railway=subway",
            "railway=switch",
            "10",
            "5498"
          ],
          [
            "-103287335",
            "20623930",
            "-8192",
            "174",
            "2000",
            "0",
            "0",
            "0",
            "0",
            "railway=subway",
            "",
            "23",
            "13151"
          ],
          [
            "-103296170",
            "20632187",
            "-8192",
            "1351",
            "2000",
            "0",
            "0",
            "0",
            "0",
            "railway=subway",
            "railway=halt",
            "108",
            "59424"
          ],
          [
            "-103300020",
            "20637726",
            "-8192",
            "733",
            "2000",
            "0",
            "0",
            "0",
            "0",
            "railway=subway",
            "railway=halt",
            "166",
            "91665"
          ],
          [
            "-103304104",
            "20644818",
            "-8192",
            "893",
            "2000",
            "0",
            "0",
            "0",
            "0",
            "railway=subway",
            "railway=halt",
            "238",
            "130944"
          ],
          [
            "-103304564",
            "20645637",
            "-8192",
            "103",
            "2000",
            "0",
            "0",
            "0",
            "0",
            "railway=subway",
            "railway=switch",
            "246",
            "135474"
          ],
          [
            "-103310332",
            "20651077",
            "-8192",
            "875",
            "2000",
            "0",
            "0",
            "0",
            "0",
            "railway=subway",
            "railway=halt",
            "316",
            "173961"
          ],
          [
            "-103324082",
            "20659759",
            "-8192",
            "1725",
            "2000",
            "0",
            "0",
            "0",
            "0",
            "railway=subway",
            "railway=halt",
            "454",
            "249836"
          ],
          [
            "-103325140",
            "20660430",
            "-8192",
            "133",
            "2000",
            "0",
            "0",
            "0",
            "0",
            "railway=subway",
            "railway=switch",
            "465",
            "255686"
          ],
          [
            "-103332556",
            "20665042",
            "1548",
            "927",
            "2000",
            "0",
            "0",
            "0",
            "0",
            "railway=subway",
            "railway=halt",
            "539",
            "296240"
          ],
          [
            "-103344692",
            "20670983",
            "1548",
            "1439",
            "2000",
            "0",
            "0",
            "0",
            "0",
            "railway=subway",
            "railway=halt",
            "654",
            "359534"
          ],
          [
            "-103347341",
            "20675585",
            "1548",
            "645",
            "2000",
            "0",
            "0",
            "0",
            "0",
            "railway=subway",
            "railway=halt",
            "705",
            "387905"
          ],
          [
            "-103347806",
            "20683973",
            "1549",
            "930",
            "2000",
            "0",
            "0",
            "0",
            "0",
            "railway=subway",
            "railway=halt",
            "780",
            "428811"
          ],
          [
            "-103348343",
            "20693028",
            "1549",
            "1004",
            "2000",
            "0",
            "0",
            "0",
            "0",
            "railway=subway",
            "railway=halt",
            "860",
            "472972"
          ],
          [
            "-103354753",
            "20699291",
            "1547",
            "1028",
            "2000",
            "0",
            "0",
            "0",
            "0",
            "railway=subway",
            "railway=halt",
            "942",
            "519748"
          ],
          [
            "-103355655",
            "20699874",
            "1546",
            "114",
            "2000",
            "0",
            "0",
            "0",
            "0",
            "railway=subway",
            "railway=switch",
            "951",
            "523402"
          ],
          [
            "-103365998",
            "20706523",
            "1539",
            "1304",
            "2000",
            "0",
            "0",
            "0",
            "0",
            "railway=subway",
            "railway=halt",
            "1056",
            "580119"
          ],
          [
            "-103375069",
            "20712300",
            "1532",
            "1141",
            "2000",
            "0",
            "0",
            "0",
            "0",
            "railway=subway",
            "railway=halt",
            "1147",
            "630306"
          ],
          [
            "-103376013",
            "20712904",
            "1532",
            "119",
            "2000",
            "0",
            "0",
            "0",
            "0",
            "railway=subway",
            "railway=switch",
            "1157",
            "630306"
          ],
          [
            "-103386950",
            "20720607",
            "1532",
            "1436",
            "2000",
            "0",
            "0",
            "0",
            "0",
            "railway=subway",
            "railway=halt",
            "1271",
            "690447"
          ],
          [
            "-103389195",
            "20728830",
            "1532",
            "1183",
            "2000",
            "0",
            "0",
            "0",
            "0",
            "railway=subway",
            "railway=halt",
            "1366",
            "739833"
          ],
          [
            "-103403028",
            "20738061",
            "1532",
            "1785",
            "2000",
            "0",
            "0",
            "0",
            "0",
            "railway=subway",
            "railway=halt",
            "1509",
            "818346"
          ],
          [
            "-103405905",
            "20740184",
            "1532",
            "380",
            "2000",
            "0",
            "0",
            "0",
            "0",
            "railway=subway",
            "",
            "1539",
            "855908"
          ],
          [
            "-103406454",
            "20740581",
            "1607",
            "72",
            "2000",
            "0",
            "0",
            "0",
            "0",
            "railway=subway",
            "railway=switch",
            "5",
            "3166"
          ],
          [
            "-103406830",
            "20740798",
            "1607",
            "46",
            "2000",
            "0",
            "0",
            "0",
            "0",
            "railway=subway",
            "railway=switch",
            "9",
            "5597"
          ],
          [
            "-103407410",
            "20741210",
            "1609",
            "76",
            "2000",
            "0",
            "0",
            "0",
            "0",
            "reversedirection=yes railway=subway",
            "railway=halt",
            "15",
            "9310"
          ],
          [
            "-103407766",
            "20741472",
            "1610",
            "47",
            "2000",
            "0",
            "0",
            "0",
            "0",
            "reversedirection=yes railway=subway",
            "",
            "19",
            "12079"
          ]
        ],
        "times": [
          0,
          3.76,
          9.84,
          26.72,
          27.04,
          49.68,
          178,
          179.44,
          181.2,
          183.36,
          185.28,
          192.64,
          199.2,
          208.72,
          210.16,
          211.68,
          213.28,
          214.56,
          215.68,
          216.8,
          218.24,
          219.6,
          220.56,
          221.76,
          223.12,
          235.92,
          258.16,
          263.6,
          266.48,
          268,
          270,
          272,
          278.4,
          279.84,
          283.6,
          287.04,
          290.56,
          293.36,
          294.64,
          296.88,
          298.56,
          300.4,
          308.24,
          330.72,
          359.92,
          376.4,
          391.28,
          405.68,
          411.6,
          439.12,
          455.68,
          484.16,
          494.4,
          502.8,
          521.68,
          524,
          531.12,
          544.72,
          563.36,
          590.08,
          610.4,
          616.48,
          630,
          640.48,
          655.04,
          670.24,
          673.84,
          674.96,
          676.72,
          680.4,
          684.24,
          698.32,
          701.52,
          754,
          760.16,
          774.8,
          778.72,
          796.8,
          838.08,
          850.32,
          853.04,
          855.76,
          874.48,
          877.6,
          881.12,
          884.32,
          887.04,
          890.4,
          895.36,
          901.84,
          905.44,
          907.6,
          913.76,
          927.52,
          932.88,
          940.72,
          953.84,
          977.04,
          988.64,
          990.16,
          1011.6,
          1013.6,
          1016.96,
          1020.72,
          1045.52,
          1061.52,
          1071.52,
          1076.16,
          1084.48,
          1097.44,
          1105.44,
          1111.04,
          1239.6,
          1243.44,
          1281.28,
          1284.64,
          1286,
          1287.92,
          1290.16,
          1315.92,
          1321.44,
          1332.8,
          1334.72,
          1352.48,
          1377.76,
          1383.6,
          1388.96,
          1392.88,
          1397.2,
          1401.04,
          1451.44,
          1460.4,
          1471.36,
          1486.24,
          1498.8,
          1512.16,
          1517.04,
          1520.64,
          1522.56,
          1525.12,
          1527.92,
          1531.84,
          1535.84,
          1538.96,
          1569.52,
          1573.68,
          1578,
          1583.68,
          1589.36,
          1593.68,
          1607.6,
          1618.88,
          1627.92,
          1631.92,
          1635.6,
          1638.16,
          1640.16,
          1642.72,
          1645.44,
          1649.84,
          1653.84,
          1668.24,
          1674.88,
          1685.6,
          1695.6,
          1706.72,
          1715.68,
          1729.44,
          1766.08,
          1770.08,
          1774.32,
          1778.16,
          1783.6,
          1786.88,
          1818.32,
          1834.48,
          1845.76,
          1854,
          1877.04,
          1879.36,
          1882.72,
          1884,
          1886.16,
          1924,
          1927.76,
          2046,
          2056.32,
          2062,
          2072.64,
          2083.04,
          2091.36,
          2096,
          2106,
          2121.92,
          2131.04,
          2146.8,
          2150.48,
          2155.68,
          2165.92,
          2175.52,
          2177.2,
          2178.56,
          2180.08,
          2199.6,
          2213.36,
          2226.8,
          2238.88,
          2245.76,
          2253.6,
          2259.76,
          2261.92,
          2276.96,
          2280.08,
          2282.72,
          2285.76,
          2287.28,
          2289.04,
          2292.08,
          2313.52,
          2316.24,
          2328.56,
          2369.84,
          2377.6,
          2387.92,
          2412.96,
          2424.32,
          2432.24,
          2468.24,
          2482.32,
          2486.32,
          2490,
          2491.92,
          2493.04,
          2496.72,
          2511.84,
          2526.48,
          2536.96,
          2550.48,
          2559.6,
          2620,
          2642.8,
          2645.04,
          2663.92,
          2696.24,
          2755.2,
          2764.72,
          2798.96,
          2826.32,
          2853.44,
          2866.4,
          2866.96,
          2868.16,
          2869.76,
          2872,
          2873.36,
          2879.6,
          2882.96,
          2885.28,
          2886.8,
          2888.24,
          2894.56,
          2896.48,
          2898.4,
          2899.76,
          2908,
          2916.8,
          2942.96,
          2944.08,
          2945.04,
          2946.24,
          2947.2,
          2948.48,
          2950,
          2951.6,
          2953.52,
          2955.12,
          2956.64,
          2958.24,
          2974.24,
          2981.52,
          2983.6,
          2985.68,
          2987.28,
          2988.72,
          3117.039,
          3139.999,
          3147.439,
          3153.199,
          3156.879,
          3162.959,
          3166.719
        ]
      },
      "geometry": {
        "type": "LineString",
        "coordinates": [
          [
            -103.407767,
            20.741472,
            1608.25
          ],
          [
            -103.40741,
            20.74121,
            1608.25
          ],
          [
            -103.40683,
            20.740798,
            1608.25
          ],
          [
            -103.405219,
            20.739636
          ],
          [
            -103.405187,
            20.739612,
            1532.5
          ],
          [
            -103.403056,
            20.738026,
            1532.5
          ],
          [
            -103.390888,
            20.729151,
            1532.5
          ],
          [
            -103.390741,
            20.729069,
            1532.5
          ],
          [
            -103.390551,
            20.728978,
            1532.5
          ],
          [
            -103.390307,
            20.728906,
            1532.5
          ],
          [
            -103.390076,
            20.728868,
            1532.5
          ],
          [
            -103.3892,
            20.728796,
            1532.5
          ],
          [
            -103.388413,
            20.728732,
            1532.5
          ],
          [
            -103.387275,
            20.728653,
            1532.5
          ],
          [
            -103.387101,
            20.728621,
            1532.5
          ],
          [
            -103.386928,
            20.728562,
            1532.5
          ],
          [
            -103.386762,
            20.728475,
            1532.5
          ],
          [
            -103.38664,
            20.728394,
            1532.5
          ],
          [
            -103.386556,
            20.728301,
            1532.5
          ],
          [
            -103.386481,
            20.728197,
            1532.5
          ],
          [
            -103.386397,
            20.728054,
            1532.5
          ],
          [
            -103.386349,
            20.727908,
            1532.5
          ],
          [
            -103.386328,
            20.727804,
            1532.5
          ],
          [
            -103.386328,
            20.727672,
            1532.5
          ],
          [
            -103.386342,
            20.727523,
            1532.5
          ],
          [
            -103.386725,
            20.726122,
            1532.5
          ],
          [
            -103.38741,
            20.723697,
            1532.5
          ],
          [
            -103.387569,
            20.723102,
            1532.5
          ],
          [
            -103.387646,
            20.722788,
            1532.5
          ],
          [
            -103.387667,
            20.722614,
            1532.5
          ],
          [
            -103.387665,
            20.722391,
            1532.5
          ],
          [
            -103.387621,
            20.72217,
            1532.5
          ],
          [
            -103.387401,
            20.721482,
            1532.5
          ],
          [
            -103.387342,
            20.721331,
            1532.5
          ],
          [
            -103.387158,
            20.720945,
            1532.5
          ],
          [
            -103.386979,
            20.720596,
            1532.5
          ],
          [
            -103.386796,
            20.72024,
            1532.5
          ],
          [
            -103.386661,
            20.719952,
            1532.5
          ],
          [
            -103.386592,
            20.71982,
            1532.5
          ],
          [
            -103.386435,
            20.71961,
            1532.5
          ],
          [
            -103.386299,
            20.71947,
            1532.5
          ],
          [
            -103.386124,
            20.719336,
            1532.5
          ],
          [
            -103.385364,
            20.718818,
            1532.5
          ],
          [
            -103.383127,
            20.717395,
            1532.5
          ],
          [
            -103.380224,
            20.715542,
            1532.5
          ],
          [
            -103.378582,
            20.714503,
            1532.5
          ],
          [
            -103.377115,
            20.71355,
            1532.5
          ],
          [
            -103.375677,
            20.712644,
            1533.25
          ],
          [
            -103.375085,
            20.712273,
            1533.75
          ],
          [
            -103.372364,
            20.710518,
            1535.5
          ],
          [
            -103.370726,
            20.709464,
            1536.75
          ],
          [
            -103.367895,
            20.707663,
            1538.75
          ],
          [
            -103.366868,
            20.70702,
            1539.25
          ],
          [
            -103.366022,
            20.7065,
            1540
          ],
          [
            -103.364155,
            20.705288,
            1541.25
          ],
          [
            -103.363926,
            20.705143,
            1541.25
          ],
          [
            -103.363219,
            20.704694,
            1541.75
          ],
          [
            -103.361883,
            20.703817,
            1542.75
          ],
          [
            -103.360033,
            20.702637,
            1544
          ],
          [
            -103.357394,
            20.700928,
            1545.75
          ],
          [
            -103.355379,
            20.699642,
            1547.5
          ],
          [
            -103.354774,
            20.699256,
            1548
          ],
          [
            -103.353441,
            20.698389,
            1549.25
          ],
          [
            -103.352403,
            20.697716,
            1549.5
          ],
          [
            -103.350961,
            20.696781,
            1549.25
          ],
          [
            -103.349447,
            20.695831,
            1549.25
          ],
          [
            -103.349092,
            20.695599,
            1549.25
          ],
          [
            -103.348987,
            20.695525,
            1549.25
          ],
          [
            -103.348866,
            20.695365,
            1549.25
          ],
          [
            -103.348638,
            20.69501,
            1549.25
          ],
          [
            -103.348456,
            20.694612,
            1549.25
          ],
          [
            -103.34841,
            20.693024,
            1549.25
          ],
          [
            -103.348381,
            20.692664,
            1549.25
          ],
          [
            -103.34801,
            20.68675,
            1549
          ],
          [
            -103.347986,
            20.686059,
            1549
          ],
          [
            -103.34791,
            20.68441,
            1549
          ],
          [
            -103.347882,
            20.68397,
            1549
          ],
          [
            -103.347753,
            20.681929,
            1548.75
          ],
          [
            -103.347501,
            20.677274,
            1548.75
          ],
          [
            -103.347403,
            20.675894,
            1548.75
          ],
          [
            -103.34739,
            20.675585,
            1548.5
          ],
          [
            -103.347381,
            20.675277,
            1548.5
          ],
          [
            -103.347255,
            20.673166,
            1548.5
          ],
          [
            -103.347188,
            20.672823,
            1548.5
          ],
          [
            -103.347057,
            20.672449,
            1548.5
          ],
          [
            -103.346868,
            20.672139,
            1548.5
          ],
          [
            -103.346664,
            20.671902,
            1548.5
          ],
          [
            -103.346336,
            20.671679,
            1548.5
          ],
          [
            -103.345801,
            20.671432,
            1548.5
          ],
          [
            -103.345095,
            20.671135,
            1548.5
          ],
          [
            -103.344706,
            20.670952,
            1548.5
          ],
          [
            -103.344472,
            20.670841,
            1548.5
          ],
          [
            -103.343883,
            20.67042,
            1548.5
          ],
          [
            -103.342376,
            20.669783,
            1548.25
          ],
          [
            -103.341795,
            20.669534,
            1548.25
          ],
          [
            -103.340931,
            20.669196,
            1548.25
          ],
          [
            -103.33946,
            20.66866,
            1548.25
          ],
          [
            -103.336859,
            20.667725,
            1548.25
          ],
          [
            -103.335557,
            20.667274,
            1548.25
          ],
          [
            -103.335396,
            20.667199,
            1548.25
          ],
          [
            -103.333475,
            20.665583,
            1548
          ],
          [
            -103.333284,
            20.665448,
            1548
          ],
          [
            -103.332953,
            20.665239,
            1548
          ],
          [
            -103.332581,
            20.665004,
            1548
          ],
          [
            -103.330116,
            20.663435,
            1548
          ],
          [
            -103.328486,
            20.662484,
            1548
          ],
          [
            -103.327497,
            20.66185,
            1548
          ],
          [
            -103.327033,
            20.661563,
            1547.5
          ],
          [
            -103.326196,
            20.661045
          ],
          [
            -103.324901,
            20.660232
          ],
          [
            -103.324105,
            20.659724
          ],
          [
            -103.32355,
            20.659364
          ],
          [
            -103.310732,
            20.651298
          ],
          [
            -103.310347,
            20.651056
          ],
          [
            -103.306567,
            20.648687
          ],
          [
            -103.306277,
            20.648428
          ],
          [
            -103.306176,
            20.648302
          ],
          [
            -103.30603,
            20.648137
          ],
          [
            -103.305887,
            20.647926
          ],
          [
            -103.30445,
            20.645347
          ],
          [
            -103.304143,
            20.644799
          ],
          [
            -103.303511,
            20.643667
          ],
          [
            -103.303394,
            20.643476
          ],
          [
            -103.302401,
            20.641698
          ],
          [
            -103.300975,
            20.639176
          ],
          [
            -103.300642,
            20.638601
          ],
          [
            -103.300309,
            20.638079
          ],
          [
            -103.300053,
            20.637706
          ],
          [
            -103.299761,
            20.637302
          ],
          [
            -103.299518,
            20.63693
          ],
          [
            -103.296218,
            20.632158
          ],
          [
            -103.29563,
            20.631306
          ],
          [
            -103.29489,
            20.630283
          ],
          [
            -103.293909,
            20.628882
          ],
          [
            -103.293103,
            20.627682
          ],
          [
            -103.292222,
            20.626425
          ],
          [
            -103.291879,
            20.62598
          ],
          [
            -103.29159,
            20.625674
          ],
          [
            -103.291429,
            20.625524
          ],
          [
            -103.291192,
            20.625346
          ],
          [
            -103.290915,
            20.625162
          ],
          [
            -103.290503,
            20.624946
          ],
          [
            -103.290068,
            20.624765
          ],
          [
            -103.289713,
            20.624642
          ],
          [
            -103.286242,
            20.623536
          ],
          [
            -103.285758,
            20.623427
          ],
          [
            -103.285266,
            20.623264
          ],
          [
            -103.28462,
            20.62306
          ],
          [
            -103.285266,
            20.623264
          ],
          [
            -103.285758,
            20.623427
          ],
          [
            -103.287335,
            20.62393,
            1547.25
          ],
          [
            -103.288612,
            20.624338,
            1547.25
          ],
          [
            -103.289633,
            20.624672,
            1547.25
          ],
          [
            -103.290081,
            20.624831,
            1547.25
          ],
          [
            -103.290484,
            20.624993,
            1547.25
          ],
          [
            -103.290752,
            20.625132,
            1547.25
          ],
          [
            -103.290953,
            20.625249,
            1547.25
          ],
          [
            -103.291202,
            20.625425,
            1547.25
          ],
          [
            -103.291452,
            20.62562,
            1547.25
          ],
          [
            -103.291804,
            20.62599,
            1547.25
          ],
          [
            -103.292096,
            20.626352,
            1547.25
          ],
          [
            -103.293056,
            20.627709,
            1547.25
          ],
          [
            -103.293479,
            20.628342,
            1547.25
          ],
          [
            -103.294177,
            20.629354,
            1547.25
          ],
          [
            -103.29484,
            20.630298,
            1547.25
          ],
          [
            -103.295588,
            20.631333,
            1547.25
          ],
          [
            -103.29617,
            20.632187,
            1547.25
          ],
          [
            -103.297077,
            20.633487,
            1547.25
          ],
          [
            -103.299471,
            20.636956,
            1547.25
          ],
          [
            -103.299741,
            20.637327,
            1547.25
          ],
          [
            -103.30002,
            20.637726,
            1547.25
          ],
          [
            -103.300275,
            20.638088,
            1547.25
          ],
          [
            -103.3006,
            20.638618,
            1547.25
          ],
          [
            -103.300791,
            20.638942,
            1547.25
          ],
          [
            -103.302557,
            20.642082,
            1547.25
          ],
          [
            -103.303474,
            20.643688,
            1547.25
          ],
          [
            -103.304104,
            20.644818,
            1547.25
          ],
          [
            -103.304564,
            20.645637,
            1547.25
          ],
          [
            -103.305839,
            20.647942,
            1547.25
          ],
          [
            -103.305989,
            20.648163,
            1547.25
          ],
          [
            -103.306238,
            20.648461,
            1547.25
          ],
          [
            -103.306343,
            20.648563,
            1547.25
          ],
          [
            -103.306544,
            20.648722,
            1547.25
          ],
          [
            -103.310332,
            20.651077,
            1547.25
          ],
          [
            -103.310706,
            20.651322,
            1547.25
          ],
          [
            -103.322488,
            20.658757,
            1547.25
          ],
          [
            -103.323521,
            20.6594,
            1547.25
          ],
          [
            -103.324082,
            20.659759,
            1547.25
          ],
          [
            -103.32514,
            20.66043,
            1547.25
          ],
          [
            -103.326177,
            20.661086,
            1547.25
          ],
          [
            -103.327007,
            20.661603,
            1547.25
          ],
          [
            -103.32747,
            20.661891,
            1548
          ],
          [
            -103.328461,
            20.662524,
            1548
          ],
          [
            -103.330084,
            20.663473,
            1548
          ],
          [
            -103.330987,
            20.664052,
            1548
          ],
          [
            -103.332556,
            20.665042,
            1548
          ],
          [
            -103.332926,
            20.665276,
            1548
          ],
          [
            -103.333432,
            20.665622,
            1548
          ],
          [
            -103.334342,
            20.666395,
            1548.25
          ],
          [
            -103.335205,
            20.667116,
            1548.25
          ],
          [
            -103.335364,
            20.667238,
            1548.25
          ],
          [
            -103.335506,
            20.667308,
            1548.25
          ],
          [
            -103.335678,
            20.667375,
            1548.25
          ],
          [
            -103.337868,
            20.668146,
            1548.25
          ],
          [
            -103.339406,
            20.668703,
            1548.25
          ],
          [
            -103.340913,
            20.669234,
            1548.25
          ],
          [
            -103.342243,
            20.669779,
            1548.5
          ],
          [
            -103.342996,
            20.670106,
            1548.5
          ],
          [
            -103.343863,
            20.670456,
            1548.5
          ],
          [
            -103.344456,
            20.670872,
            1548.5
          ],
          [
            -103.344692,
            20.670983,
            1548.5
          ],
          [
            -103.346309,
            20.671741,
            1548.5
          ],
          [
            -103.346613,
            20.671948,
            1548.5
          ],
          [
            -103.346806,
            20.672186,
            1548.5
          ],
          [
            -103.346995,
            20.672483,
            1548.5
          ],
          [
            -103.347061,
            20.672643,
            1548.5
          ],
          [
            -103.347126,
            20.67283,
            1548.5
          ],
          [
            -103.347188,
            20.673168,
            1548.5
          ],
          [
            -103.347341,
            20.675585,
            1548.75
          ],
          [
            -103.347353,
            20.675893,
            1548.75
          ],
          [
            -103.347446,
            20.677279,
            1548.75
          ],
          [
            -103.347696,
            20.681936,
            1548.75
          ],
          [
            -103.347758,
            20.682808,
            1549
          ],
          [
            -103.347806,
            20.683973,
            1549
          ],
          [
            -103.347958,
            20.686799,
            1549
          ],
          [
            -103.348044,
            20.688081,
            1549
          ],
          [
            -103.348093,
            20.688972,
            1549
          ],
          [
            -103.348343,
            20.693028,
            1549.25
          ],
          [
            -103.348407,
            20.694613,
            1549.25
          ],
          [
            -103.348587,
            20.695028,
            1549.25
          ],
          [
            -103.348817,
            20.695381,
            1549.25
          ],
          [
            -103.348964,
            20.695546,
            1549.25
          ],
          [
            -103.34907,
            20.695629,
            1549.25
          ],
          [
            -103.349436,
            20.695855,
            1549.25
          ],
          [
            -103.350929,
            20.696819,
            1549.5
          ],
          [
            -103.352374,
            20.697751,
            1549.5
          ],
          [
            -103.353412,
            20.698425,
            1548.5
          ],
          [
            -103.354753,
            20.699291,
            1547.25
          ],
          [
            -103.355655,
            20.699874,
            1546.5
          ],
          [
            -103.361647,
            20.703717,
            1542.25
          ],
          [
            -103.363907,
            20.705174,
            1540.75
          ],
          [
            -103.364131,
            20.705317,
            1540.5
          ],
          [
            -103.365998,
            20.706523,
            1539.25
          ],
          [
            -103.36922,
            20.708556,
            1537
          ],
          [
            -103.375069,
            20.7123,
            1532.75
          ],
          [
            -103.376013,
            20.712904,
            1532.5
          ],
          [
            -103.379408,
            20.715081,
            1532.5
          ],
          [
            -103.382131,
            20.716814,
            1532.5
          ],
          [
            -103.384827,
            20.718535,
            1532.5
          ],
          [
            -103.386108,
            20.71937,
            1532.5
          ],
          [
            -103.386166,
            20.71941,
            1532.5
          ],
          [
            -103.386271,
            20.719498,
            1532.5
          ],
          [
            -103.3864,
            20.71963,
            1532.5
          ],
          [
            -103.386555,
            20.719835,
            1532.5
          ],
          [
            -103.386628,
            20.719968,
            1532.5
          ],
          [
            -103.38695,
            20.720607,
            1532.5
          ],
          [
            -103.387124,
            20.720946,
            1532.5
          ],
          [
            -103.387227,
            20.721191,
            1532.5
          ],
          [
            -103.387302,
            20.721346,
            1532.5
          ],
          [
            -103.387358,
            20.721497,
            1532.5
          ],
          [
            -103.387575,
            20.722179,
            1532.5
          ],
          [
            -103.387613,
            20.722395,
            1532.5
          ],
          [
            -103.387609,
            20.722616,
            1532.5
          ],
          [
            -103.387595,
            20.722773,
            1532.5
          ],
          [
            -103.387365,
            20.723674,
            1532.5
          ],
          [
            -103.387106,
            20.724636,
            1532.5
          ],
          [
            -103.386307,
            20.727494,
            1532.5
          ],
          [
            -103.386287,
            20.727616,
            1532.5
          ],
          [
            -103.386281,
            20.727727,
            1532.5
          ],
          [
            -103.386292,
            20.727861,
            1532.5
          ],
          [
            -103.386314,
            20.727963,
            1532.5
          ],
          [
            -103.386367,
            20.728099,
            1532.5
          ],
          [
            -103.386452,
            20.728249,
            1532.5
          ],
          [
            -103.386566,
            20.728391,
            1532.25
          ],
          [
            -103.38675,
            20.728522,
            1532.25
          ],
          [
            -103.386923,
            20.728604,
            1532.25
          ],
          [
            -103.38709,
            20.728665,
            1532.25
          ],
          [
            -103.387284,
            20.728691,
            1532.25
          ],
          [
            -103.389195,
            20.72883,
            1532.25
          ],
          [
            -103.390067,
            20.728903,
            1532.25
          ],
          [
            -103.39031,
            20.728945,
            1532.25
          ],
          [
            -103.390547,
            20.729015,
            1532.25
          ],
          [
            -103.390719,
            20.729096,
            1532.25
          ],
          [
            -103.390861,
            20.729184,
            1532.25
          ],
          [
            -103.403028,
            20.738061,
            1532.25
          ],
          [
            -103.405192,
            20.739671,
            1532.25
          ],
          [
            -103.405905,
            20.740184,
            1532
          ],
          [
            -103.406454,
            20.740581,
            1607
          ],
          [
            -103.40683,
            20.740798,
            1607.75
          ],
          [
            -103.40741,
            20.74121,
            1609.5
          ],
          [
            -103.407766,
            20.741472,
            1610.5
          ]
        ]
      }
    }
  ]
}