{
  "type": "FeatureCollection",
  "features": [
    {
      "type": "Feature",
      "properties": {
        "creator": "BRouter-1.7.9",
        "name": "[SITEUR] L2",
        "track-length": "17262",
        "filtered ascend": "0",
        "plain-ascend": "0",
        "total-time": "1381",
        "total-energy": "759271",
        "cost": "34524",
        "messages": [
          [
            "Longitude",
            "Latitude",
            "Elevation",
            "Distance",
            "CostPerKm",
            "ElevCost",
            "TurnCost",
            "NodeCost",
            "InitialCost",
            "WayTags",
            "NodeTags",
            "Time",
            "Energy"
          ],
          [
            "-103356057",
            "20674852",
            "-8192",
            "2",
            "2000",
            "0",
            "0",
            "0",
            "0",
            "reversedirection=yes railway=subway",
            "railway=switch",
            "0",
            "87"
          ],
          [
            "-103355688",
            "20674860",
            "-8192",
            "38",
            "2000",
            "0",
            "0",
            "0",
            "0",
            "reversedirection=yes railway=subway",
            "railway=switch",
            "3",
            "1759"
          ],
          [
            "-103355610",
            "20674862",
            "-8192",
            "8",
            "2000",
            "0",
            "0",
            "0",
            "0",
            "railway=subway",
            "railway=halt",
            "3",
            "2111"
          ],
          [
            "-103348096",
            "20675100",
            "-8192",
            "783",
            "2000",
            "0",
            "0",
            "0",
            "0",
            "railway=subway",
            "railway=halt",
            "66",
            "36551"
          ],
          [
            "-103340413",
            "20675077",
            "-8192",
            "803",
            "2000",
            "0",
            "0",
            "0",
            "0",
            "railway=subway",
            "railway=halt",
            "130",
            "71871"
          ],
          [
            "-103331461",
            "20672716",
            "-8192",
            "969",
            "2000",
            "0",
            "0",
            "0",
            "0",
            "railway=subway",
            "railway=halt",
            "208",
            "114493"
          ],
          [
            "-103322524",
            "20670263",
            "-8192",
            "971",
            "2000",
            "0",
            "0",
            "0",
            "0",
            "railway=subway",
            "railway=halt",
            "285",
            "157203"
          ],
          [
            "-103313388",
            "20667495",
            "-8192",
            "1000",
            "2000",
            "0",
            "0",
            "0",
            "0",
            "railway=subway",
            "railway=halt",
            "365",
            "201188"
          ],
          [
            "-103306095",
            "20665263",
            "-8192",
            "799",
            "2000",
            "0",
            "0",
            "0",
            "0",
            "railway=subway",
            "railway=halt",
            "429",
            "236332"
          ],
          [
            "-103297293",
            "20663855",
            "-8192",
            "933",
            "2000",
            "0",
            "0",
            "0",
            "0",
            "railway=subway",
            "railway=halt",
            "504",
            "277371"
          ],
          [
            "-103285572",
            "20662437",
            "-8192",
            "1233",
            "2000",
            "0",
            "0",
            "0",
            "0",
            "railway=subway",
            "railway=halt",
            "603",
            "331604"
          ],
          [
            "-103276560",
            "20659848",
            "-8192",
            "1003",
            "2000",
            "0",
            "0",
            "0",
            "0",
            "railway=subway",
            "railway=switch",
            "683",
            "375722"
          ],
          [
            "-103275963",
            "20659782",
            "-8192",
            "63",
            "2000",
            "0",
            "0",
            "0",
            "0",
            "railway=subway",
            "railway=halt",
            "688",
            "378493"
          ],
          [
            "-103275742",
            "20659755",
            "-8192",
            "23",
            "2000",
            "0",
            "0",
            "0",
            "0",
            "railway=subway",
            "",
            "690",
            "379504"
          ],
          [
            "-103275963",
            "20659782",
            "-8192",
            "23",
            "2000",
            "0",
            "0",
            "0",
            "0",
            "reversedirection=yes railway=subway",
            "railway=halt",
            "1",
            "1011"
          ],
          [
            "-103276560",
            "20659848",
            "-8192",
            "63",
            "2000",
            "0",
            "0",
            "0",
            "0",
            "reversedirection=yes railway=subway",
            "railway=switch",
            "6",
            "3782"
          ],
          [
            "-103276803",
            "20659912",
            "-8192",
            "26",
            "2000",
            "0",
            "0",
            "0",
            "0",
            "railway=subway",
            "railway=switch",
            "8",
            "4926"
          ],
          [
            "-103280085",
            "20661624",
            "-8192",
            "400",
            "2000",
            "0",
            "0",
            "0",
            "0",
            "railway=subway",
            "",
            "40",
            "22520"
          ],
          [
            "-103285568",
            "20662480",
            "-8192",
            "581",
            "2000",
            "0",
            "0",
            "0",
            "0",
            "railway=subway",
            "railway=halt",
            "46",
            "25555"
          ],
          [
            "-103297284",
            "20663909",
            "-8192",
            "1234",
            "2000",
            "0",
            "0",
            "0",
            "0",
            "railway=subway",
            "railway=halt",
            "145",
            "79833"
          ],
          [
            "-103306073",
            "20665322",
            "-8192",
            "931",
            "2000",
            "0",
            "0",
            "0",
            "0",
            "railway=subway",
            "railway=halt",
            "219",
            "120783"
          ],
          [
            "-103313372",
            "20667538",
            "-8192",
            "800",
            "2000",
            "0",
            "0",
            "0",
            "0",
            "railway=subway",
            "railway=halt",
            "283",
            "155971"
          ],
          [
            "-103322513",
            "20670304",
            "-8192",
            "1000",
            "2000",
            "0",
            "0",
            "0",
            "0",
            "railway=subway",
            "railway=halt",
            "363",
            "199956"
          ],
          [
            "-103331449",
            "20672759",
            "-8192",
            "970",
            "2000",
            "0",
            "0",
            "0",
            "0",
            "railway=subway",
            "railway=halt",
            "441",
            "242622"
          ],
          [
            "-103340405",
            "20675109",
            "-8192",
            "969",
            "2000",
            "0",
            "0",
            "0",
            "0",
            "railway=subway",
            "railway=halt",
            "518",
            "285244"
          ],
          [
            "-103348101",
            "20675161",
            "-8192",
            "805",
            "2000",
            "0",
            "0",
            "0",
            "0",
            "railway=subway",
            "railway=halt",
            "583",
            "320652"
          ],
          [
            "-103352180",
            "20675004",
            "-8192",
            "425",
            "2000",
            "0",
            "0",
            "0",
            "0",
            "railway=subway",
            "",
            "617",
            "339346"
          ],
          [
            "-103355612",
            "20674905",
            "-8192",
            "358",
            "2000",
            "0",
            "0",
            "0",
            "0",
            "railway=subway",
            "railway=halt",
            "28",
            "15746"
          ],
          [
            "-103355879",
            "20674896",
            "-8192",
            "28",
            "2000",
            "0",
            "0",
            "0",
            "0",
            "railway=subway",
            "railway=switch",
            "30",
            "16978"
          ],
          [
            "-103355897",
            "20674896",
            "-8192",
            "2",
            "2000",
            "0",
            "0",
            "0",
            "0",
            "railway=subway",
            "railway=switch",
            "31",
            "17066"
          ],
          [
            "-103356080",
            "20674890",
            "-8192",
            "19",
            "2000",
            "0",
            "0",
            "0",
            "0",
            "railway=subway",
            "",
            "32",
            "17901"
          ]
        ],
        "times": [
          0,
          0.16,
          3.2,
          3.84,
          66.48,
          97.6,
          121.28,
          123.36,
          126.64,
          130.72,
          147.52,
          208.24,
          251.28,
          273.92,
          282.88,
          285.92,
          365.92,
          402.4,
          429.84,
          446,
          448.48,
          476.4,
          488.32,
          504.48,
          576.64,
          579.12,
          590.16,
          592.96,
          603.12,
          622.72,
          640.72,
          646.8,
          648.56,
          650.32,
          663.12,
          668.48,
          670.08,
          672.24,
          673.84,
          675.52,
          683.36,
          688.4,
          690.24,
          692.08,
          697.12,
          699.2,
          704.96,
          706.56,
          708.16,
          710.32,
          711.76,
          727.2,
          729.36,
          730.24,
          731.2,
          731.28,
          732.64,
          733.76,
          747.36,
          777.68,
          780.24,
          787.52,
          789.52,
          791.6,
          798.32,
          801.04,
          802.8,
          805.04,
          820.72,
          849.6,
          876.4,
          888.4,
          903.92,
          919.2,
          932.32,
          934.4,
          950.88,
          994.32,
          1011.28,
          1014.88,
          1091.92,
          1094.88,
          1110,
          1135.12,
          1143.6,
          1160.24,
          1170.16,
          1172.48,
          1233.2,
          1246.96,
          1250,
          1254.16,
          1257.44,
          1259.52,
          1283.44,
          1314.4,
          1342.08,
          1348.4,
          1377.04,
          1377.68,
          1379.28,
          1379.44,
          1380.96
        ]
      },
      "geometry": {
        "type": "LineString",
        "coordinates": [
          [
            -103.35608,
            20.674851
          ],
          [
            -103.356057,
            20.674852
          ],
          [
            -103.355688,
            20.67486
          ],
          [
            -103.35561,
            20.674862
          ],
          [
            -103.348096,
            20.6751
          ],
          [
            -103.344368,
            20.675209
          ],
          [
            -103.34153,
            20.675276
          ],
          [
            -103.34128,
            20.675255
          ],
          [
            -103.340892,
            20.675184
          ],
          [
            -103.340413,
            20.675077
          ],
          [
            -103.338451,
            20.674627
          ],
          [
            -103.331461,
            20.672716
          ],
          [
            -103.326517,
            20.671329
          ],
          [
            -103.323905,
            20.670631
          ],
          [
            -103.322871,
            20.670364
          ],
          [
            -103.322524,
            20.670263
          ],
          [
            -103.313388,
            20.667495
          ],
          [
            -103.309229,
            20.666217
          ],
          [
            -103.306095,
            20.665263
          ],
          [
            -103.304249,
            20.664698
          ],
          [
            -103.303964,
            20.664627
          ],
          [
            -103.300628,
            20.664327
          ],
          [
            -103.299211,
            20.664137
          ],
          [
            -103.297293,
            20.663855
          ],
          [
            -103.288734,
            20.662615
          ],
          [
            -103.288438,
            20.662591
          ],
          [
            -103.287113,
            20.662611
          ],
          [
            -103.286778,
            20.662601
          ],
          [
            -103.285572,
            20.662437
          ],
          [
            -103.283248,
            20.662082
          ],
          [
            -103.281112,
            20.661768
          ],
          [
            -103.280398,
            20.661652
          ],
          [
            -103.280199,
            20.6616
          ],
          [
            -103.280005,
            20.661512
          ],
          [
            -103.278793,
            20.660624
          ],
          [
            -103.278268,
            20.660267
          ],
          [
            -103.278107,
            20.660174
          ],
          [
            -103.277877,
            20.660059
          ],
          [
            -103.277695,
            20.659997
          ],
          [
            -103.277494,
            20.659963
          ],
          [
            -103.27656,
            20.659848
          ],
          [
            -103.275963,
            20.659782
          ],
          [
            -103.275742,
            20.659755
          ],
          [
            -103.275963,
            20.659782
          ],
          [
            -103.27656,
            20.659848
          ],
          [
            -103.276803,
            20.659912
          ],
          [
            -103.277488,
            20.659998
          ],
          [
            -103.277675,
            20.660035
          ],
          [
            -103.27786,
            20.660094
          ],
          [
            -103.278088,
            20.660201
          ],
          [
            -103.278234,
            20.660288
          ],
          [
            -103.279692,
            20.661358
          ],
          [
            -103.279889,
            20.661514
          ],
          [
            -103.279978,
            20.661575
          ],
          [
            -103.280085,
            20.661624
          ],
          [
            -103.28009,
            20.661627
          ],
          [
            -103.280241,
            20.66168
          ],
          [
            -103.280369,
            20.661715
          ],
          [
            -103.281976,
            20.661961
          ],
          [
            -103.285568,
            20.66248
          ],
          [
            -103.285876,
            20.662522
          ],
          [
            -103.286737,
            20.662658
          ],
          [
            -103.286976,
            20.662673
          ],
          [
            -103.287227,
            20.662675
          ],
          [
            -103.28803,
            20.662661
          ],
          [
            -103.288352,
            20.662662
          ],
          [
            -103.288564,
            20.662676
          ],
          [
            -103.288828,
            20.662708
          ],
          [
            -103.290685,
            20.662964
          ],
          [
            -103.294104,
            20.663474
          ],
          [
            -103.297284,
            20.663909
          ],
          [
            -103.298709,
            20.664121
          ],
          [
            -103.30055,
            20.664386
          ],
          [
            -103.302369,
            20.664567
          ],
          [
            -103.303938,
            20.664716
          ],
          [
            -103.304185,
            20.66477
          ],
          [
            -103.306073,
            20.665322
          ],
          [
            -103.31102,
            20.666848
          ],
          [
            -103.312966,
            20.667413
          ],
          [
            -103.313372,
            20.667538
          ],
          [
            -103.322171,
            20.670205
          ],
          [
            -103.322513,
            20.670304
          ],
          [
            -103.324249,
            20.670813
          ],
          [
            -103.327146,
            20.671599
          ],
          [
            -103.328119,
            20.671873
          ],
          [
            -103.330032,
            20.672397
          ],
          [
            -103.331181,
            20.672685
          ],
          [
            -103.331449,
            20.672759
          ],
          [
            -103.338442,
            20.674668
          ],
          [
            -103.340049,
            20.675025
          ],
          [
            -103.340405,
            20.675109
          ],
          [
            -103.340888,
            20.675216
          ],
          [
            -103.341277,
            20.675279
          ],
          [
            -103.341521,
            20.67531
          ],
          [
            -103.344391,
            20.675284
          ],
          [
            -103.348101,
            20.675161
          ],
          [
            -103.351418,
            20.675027
          ],
          [
            -103.35218,
            20.675004
          ],
          [
            -103.355612,
            20.674905
          ],
          [
            -103.355691,
            20.674903
          ],
          [
            -103.355879,
            20.674896
          ],
          [
            -103.355897,
            20.674896
          ],
          [
            -103.35608,
            20.67489
          ]
        ]
      }
    }
  ]
}