{
  "type": "FeatureCollection",
  "features": [
    {
      "type": "Feature",
      "properties": {
        "creator": "BRouter-1.7.9",
        "name": "[SITEUR] L4",
        "track-length": "40586",
        "filtered ascend": "87",
        "plain-ascend": "4",
        "total-time": "3247",
        "total-energy": "1781787",
        "cost": "40586",
        "messages": [
          [
            "Longitude",
            "Latitude",
            "Elevation",
            "Distance",
            "CostPerKm",
            "ElevCost",
            "TurnCost",
            "NodeCost",
            "InitialCost",
            "WayTags",
            "NodeTags",
            "Time",
            "Energy"
          ],
          [
            "-103340830",
            "20607513",
            "1581",
            "86",
            "1000",
            "0",
            "0",
            "0",
            "0",
            "reversedirection=yes railway=light_rail",
            "railway=halt",
            "6",
            "2764"
          ],
          [
            "-103341081",
            "20606462",
            "1579",
            "119",
            "1000",
            "0",
            "0",
            "0",
            "0",
            "reversedirection=yes railway=light_rail",
            "",
            "16",
            "6710"
          ],
          [
            "-103345293",
            "20590036",
            "1565",
            "1879",
            "1000",
            "0",
            "0",
            "0",
            "0",
            "railway=light_rail",
            "railway=level_crossing",
            "166",
            "79273"
          ],
          [
            "-103346547",
            "20588297",
            "1558",
            "233",
            "1000",
            "0",
            "0",
            "0",
            "0",
            "railway=light_rail",
            "railway=halt",
            "185",
            "83982"
          ],
          [
            "-103351016",
            "20581984",
            "1558",
            "840",
            "1000",
            "0",
            "0",
            "0",
            "0",
            "railway=light_rail",
            "railway=level_crossing",
            "252",
            "117461"
          ],
          [
            "-103351092",
            "20581874",
            "1558",
            "15",
            "1000",
            "0",
            "0",
            "0",
            "0",
            "railway=light_rail",
            "railway=level_crossing",
            "253",
            "118088"
          ],
          [
            "-103355965",
            "20575029",
            "1547",
            "913",
            "1000",
            "0",
            "0",
            "0",
            "0",
            "railway=light_rail",
            "railway=halt",
            "326",
            "151966"
          ],
          [
            "-103357415",
            "20572895",
            "1545",
            "280",
            "1000",
            "0",
            "0",
            "0",
            "0",
            "railway=light_rail",
            "railway=level_crossing",
            "349",
            "161645"
          ],
          [
            "-103365547",
            "20559512",
            "1537",
            "1708",
            "1000",
            "0",
            "0",
            "0",
            "0",
            "railway=light_rail",
            "railway=halt",
            "485",
            "228286"
          ],
          [
            "-103365930",
            "20558848",
            "1538",
            "84",
            "1000",
            "0",
            "0",
            "0",
            "0",
            "railway=light_rail",
            "railway=crossing",
            "492",
            "231495"
          ],
          [
            "-103366664",
            "20557687",
            "1541",
            "149",
            "1000",
            "0",
            "0",
            "0",
            "0",
            "railway=light_rail",
            "railway=switch",
            "504",
            "239668"
          ],
          [
            "-103367920",
            "20555612",
            "1538",
            "264",
            "1000",
            "0",
            "0",
            "0",
            "0",
            "railway=light_rail",
            "railway=switch",
            "525",
            "250282"
          ],
          [
            "-103369389",
            "20553121",
            "1537",
            "315",
            "1000",
            "0",
            "0",
            "0",
            "0",
            "railway=light_rail",
            "railway=level_crossing",
            "550",
            "262440"
          ],
          [
            "-103377692",
            "20539251",
            "1536",
            "1763",
            "1000",
            "0",
            "0",
            "0",
            "0",
            "railway=light_rail",
            "railway=level_crossing",
            "691",
            "339550"
          ],
          [
            "-103382677",
            "20531011",
            "1536",
            "1050",
            "1000",
            "0",
            "0",
            "0",
            "0",
            "railway=light_rail",
            "railway=level_crossing",
            "775",
            "385514"
          ],
          [
            "-103382803",
            "20530804",
            "1536",
            "26",
            "1000",
            "0",
            "0",
            "0",
            "0",
            "railway=light_rail",
            "railway=level_crossing",
            "777",
            "386607"
          ],
          [
            "-103383994",
            "20528815",
            "1539",
            "253",
            "1000",
            "0",
            "0",
            "0",
            "0",
            "railway=light_rail",
            "railway=halt",
            "798",
            "400016"
          ],
          [
            "-103393784",
            "20506880",
            "1551",
            "2739",
            "1000",
            "0",
            "0",
            "0",
            "0",
            "railway=light_rail",
            "railway=halt",
            "1017",
            "531622"
          ],
          [
            "-103403603",
            "20487463",
            "1558",
            "2406",
            "1000",
            "0",
            "0",
            "0",
            "0",
            "railway=light_rail",
            "railway=level_crossing",
            "1209",
            "642251"
          ],
          [
            "-103403663",
            "20487399",
            "1558",
            "9",
            "1000",
            "0",
            "0",
            "0",
            "0",
            "railway=light_rail",
            "railway=level_crossing",
            "1210",
            "642737"
          ],
          [
            "-103404202",
            "20486778",
            "1561",
            "89",
            "1000",
            "0",
            "0",
            "0",
            "0",
            "railway=light_rail",
            "railway=halt",
            "1217",
            "647473"
          ],
          [
            "-103414608",
            "20469426",
            "1584",
            "2479",
            "1000",
            "0",
            "0",
            "0",
            "0",
            "railway=light_rail",
            "railway=halt",
            "1415",
            "775379"
          ],
          [
            "-103416805",
            "20468503",
            "1581",
            "251",
            "1000",
            "0",
            "0",
            "0",
            "0",
            "railway=light_rail",
            "railway=level_crossing",
            "1435",
            "787704"
          ],
          [
            "-103421544",
            "20466587",
            "1583",
            "538",
            "1000",
            "0",
            "0",
            "0",
            "0",
            "railway=light_rail",
            "railway=level_crossing",
            "1479",
            "814096"
          ],
          [
            "-103436545",
            "20468583",
            "1574",
            "1743",
            "1000",
            "0",
            "0",
            "0",
            "0",
            "railway=light_rail",
            "railway=halt",
            "1618",
            "882192"
          ],
          [
            "-103437085",
            "20468400",
            "1573",
            "60",
            "1000",
            "0",
            "0",
            "0",
            "0",
            "railway=light_rail",
            "",
            "1623",
            "884310"
          ],
          [
            "-103436545",
            "20468583",
            "1574",
            "60",
            "1000",
            "0",
            "0",
            "0",
            "0",
            "reversedirection=yes railway=light_rail",
            "railway=halt",
            "4",
            "3037"
          ],
          [
            "-103435856",
            "20468803",
            "1574",
            "76",
            "1000",
            "0",
            "0",
            "0",
            "0",
            "reversedirection=yes railway=light_rail",
            "",
            "10",
            "6755"
          ],
          [
            "-103434249",
            "20469207",
            "1575",
            "174",
            "1000",
            "0",
            "0",
            "0",
            "0",
            "railway=light_rail",
            "",
            "24",
            "14733"
          ],
          [
            "-103421494",
            "20466563",
            "1581",
            "1495",
            "1000",
            "0",
            "0",
            "0",
            "0",
            "railway=light_rail",
            "railway=level_crossing",
            "119",
            "73882"
          ],
          [
            "-103416787",
            "20468461",
            "1581",
            "535",
            "1000",
            "0",
            "0",
            "0",
            "0",
            "railway=light_rail",
            "railway=level_crossing",
            "162",
            "94910"
          ],
          [
            "-103414573",
            "20469353",
            "1584",
            "251",
            "1000",
            "0",
            "0",
            "0",
            "0",
            "railway=light_rail",
            "railway=halt",
            "182",
            "108585"
          ],
          [
            "-103404146",
            "20486745",
            "1561",
            "2481",
            "1000",
            "0",
            "0",
            "0",
            "0",
            "railway=light_rail",
            "railway=halt",
            "380",
            "197942"
          ],
          [
            "-103403602",
            "20487349",
            "1558",
            "88",
            "1000",
            "0",
            "0",
            "0",
            "0",
            "railway=light_rail",
            "railway=level_crossing",
            "388",
            "201576"
          ],
          [
            "-103403543",
            "20487411",
            "1557",
            "9",
            "1000",
            "0",
            "0",
            "0",
            "0",
            "railway=light_rail",
            "railway=level_crossing",
            "388",
            "201920"
          ],
          [
            "-103393688",
            "20506855",
            "1550",
            "2409",
            "1000",
            "0",
            "0",
            "0",
            "0",
            "railway=light_rail",
            "railway=halt",
            "581",
            "297812"
          ],
          [
            "-103383919",
            "20528789",
            "1539",
            "2741",
            "1000",
            "0",
            "0",
            "0",
            "0",
            "railway=light_rail",
            "railway=halt",
            "800",
            "409925"
          ],
          [
            "-103382768",
            "20530786",
            "1536",
            "252",
            "1000",
            "0",
            "0",
            "0",
            "0",
            "railway=light_rail",
            "railway=level_crossing",
            "820",
            "417897"
          ],
          [
            "-103382642",
            "20530993",
            "1536",
            "26",
            "1000",
            "0",
            "0",
            "0",
            "0",
            "railway=light_rail",
            "railway=level_crossing",
            "822",
            "418913"
          ],
          [
            "-103377643",
            "20539232",
            "1536",
            "1051",
            "1000",
            "0",
            "0",
            "0",
            "0",
            "railway=light_rail",
            "railway=level_crossing",
            "907",
            "464984"
          ],
          [
            "-103369332",
            "20553096",
            "1537",
            "1763",
            "1000",
            "0",
            "0",
            "0",
            "0",
            "railway=light_rail",
            "railway=level_crossing",
            "1048",
            "543362"
          ],
          [
            "-103368430",
            "20554577",
            "1536",
            "189",
            "1000",
            "0",
            "0",
            "0",
            "0",
            "railway=light_rail",
            "railway=switch",
            "1063",
            "551113"
          ],
          [
            "-103367840",
            "20555562",
            "1538",
            "125",
            "1000",
            "0",
            "0",
            "0",
            "0",
            "railway=light_rail",
            "railway=switch",
            "1073",
            "557800"
          ],
          [
            "-103365884",
            "20558822",
            "1538",
            "415",
            "1000",
            "0",
            "0",
            "0",
            "0",
            "railway=light_rail",
            "railway=crossing",
            "1106",
            "576726"
          ],
          [
            "-103365478",
            "20559476",
            "1537",
            "84",
            "1000",
            "0",
            "0",
            "0",
            "0",
            "railway=light_rail",
            "railway=halt",
            "1113",
            "579475"
          ],
          [
            "-103357361",
            "20572889",
            "1545",
            "1710",
            "1000",
            "0",
            "0",
            "0",
            "0",
            "railway=light_rail",
            "railway=level_crossing",
            "1249",
            "658530"
          ],
          [
            "-103355896",
            "20574988",
            "1547",
            "278",
            "1000",
            "0",
            "0",
            "0",
            "0",
            "railway=light_rail",
            "railway=halt",
            "1272",
            "674171"
          ],
          [
            "-103351053",
            "20581856",
            "1558",
            "914",
            "1000",
            "0",
            "0",
            "0",
            "0",
            "railway=light_rail",
            "railway=level_crossing",
            "1345",
            "722343"
          ],
          [
            "-103350973",
            "20581964",
            "1558",
            "15",
            "1000",
            "0",
            "0",
            "0",
            "0",
            "railway=light_rail",
            "railway=level_crossing",
            "1346",
            "723047"
          ],
          [
            "-103346493",
            "20588267",
            "1557",
            "839",
            "1000",
            "0",
            "0",
            "0",
            "0",
            "railway=light_rail",
            "railway=halt",
            "1413",
            "761971"
          ],
          [
            "-103345264",
            "20590011",
            "1565",
            "232",
            "1000",
            "0",
            "0",
            "0",
            "0",
            "railway=light_rail",
            "railway=level_crossing",
            "1432",
            "775497"
          ],
          [
            "-103341468",
            "20604874",
            "1579",
            "1698",
            "1000",
            "0",
            "0",
            "0",
            "0",
            "railway=light_rail",
            "",
            "1568",
            "862966"
          ],
          [
            "-103340830",
            "20607513",
            "1581",
            "299",
            "1000",
            "0",
            "0",
            "0",
            "0",
            "railway=light_rail",
            "railway=halt",
            "23",
            "14757"
          ],
          [
            "-103340643",
            "20608267",
            "1583",
            "86",
            "1000",
            "0",
            "0",
            "0",
            "0",
            "railway=light_rail",
            "",
            "30",
            "19778"
          ]
        ],
        "times": [
          0,
          6.88,
          16.4,
          21.84,
          80.32,
          83.52,
          89.36,
          124.32,
          139.52,
          142.24,
          144.24,
          147.2,
          151.68,
          154.56,
          156.56,
          159.68,
          162.8,
          166.72,
          176.4,
          185.36,
          189.68,
          214.4,
          252.56,
          253.76,
          282.24,
          309.04,
          317.28,
          326.8,
          336.64,
          349.2,
          353.04,
          359.2,
          410.96,
          449.52,
          452.08,
          476.08,
          482.08,
          485.84,
          489.6,
          492.56,
          494.4,
          504.48,
          517.84,
          525.6,
          534.4,
          538.64,
          550.8,
          691.84,
          692.08,
          692.96,
          716.08,
          716.8,
          775.84,
          777.92,
          798.16,
          811.6,
          817.52,
          821.44,
          824.24,
          829.52,
          832.32,
          866.08,
          870.4,
          875.36,
          880.96,
          884.24,
          889.2,
          894.8,
          924,
          961.12,
          972.24,
          974.64,
          986.88,
          990,
          992.72,
          996.8,
          1008.24,
          1017.28,
          1035.92,
          1044.32,
          1086.16,
          1146.56,
          1152.56,
          1157.44,
          1163.28,
          1167.68,
          1175.6,
          1207.04,
          1209.76,
          1210.48,
          1217.6,
          1231.84,
          1245.2,
          1248.16,
          1250.64,
          1253.92,
          1257.28,
          1260.24,
          1263.12,
          1265.76,
          1270.48,
          1285.68,
          1289.44,
          1293.92,
          1299.92,
          1340,
          1344.719,
          1347.12,
          1349.28,
          1351.359,
          1353.92,
          1356.32,
          1358.4,
          1360.64,
          1364.079,
          1405.919,
          1411.679,
          1415.919,
          1419.599,
          1422.719,
          1436,
          1460.719,
          1465.28,
          1479.04,
          1505.6,
          1508.56,
          1511.52,
          1514.8,
          1518.32,
          1521.2,
          1524.08,
          1526.72,
          1529.36,
          1533.92,
          1538.32,
          1564.4,
          1567.52,
          1570.16,
          1572.72,
          1575.2,
          1580.56,
          1584.72,
          1588.88,
          1592.24,
          1595.36,
          1598.8,
          1601.84,
          1612.4,
          1618.48,
          1623.28,
          1628.08,
          1634.16,
          1640.48,
          1644.88,
          1647.6,
          1648.08,
          1650.96,
          1653.92,
          1657.44,
          1661.6,
          1669.92,
          1672.88,
          1675.68,
          1678.56,
          1707.68,
          1712.24,
          1716.8,
          1719.52,
          1722.24,
          1725.04,
          1728,
          1731.6,
          1734.88,
          1737.92,
          1740.8,
          1767.68,
          1781.44,
          1785.6,
          1810.48,
          1823.76,
          1826.72,
          1830.56,
          1834.64,
          1840.48,
          1880.56,
          1883.04,
          1885.68,
          1888.08,
          1890.08,
          1892.64,
          1895.2,
          1897.44,
          1899.76,
          1902.08,
          1904,
          1907.12,
          1947.04,
          1952.96,
          1957.44,
          1961.36,
          1976.64,
          1981.12,
          1983.76,
          1986.48,
          1989.44,
          1992.72,
          1996.08,
          1998.4,
          2001.36,
          2009.92,
          2029.04,
          2036.08,
          2036.8,
          2039.52,
          2071.12,
          2079.04,
          2083.44,
          2089.28,
          2094.32,
          2100.4,
          2211.28,
          2222.56,
          2229.52,
          2234.8,
          2250.08,
          2254.08,
          2260,
          2264.8,
          2274.56,
          2286.4,
          2322.8,
          2352.08,
          2357.68,
          2362.64,
          2365.84,
          2371.36,
          2376.32,
          2380.4,
          2414.4,
          2417.84,
          2422.48,
          2425.12,
          2429.36,
          2442.24,
          2448.8,
          2458.72,
          2468.96,
          2471.04,
          2530.24,
          2530.96,
          2554,
          2554.88,
          2555.12,
          2696.16,
          2711.28,
          2721.28,
          2729.28,
          2752.4,
          2754.48,
          2757.44,
          2761.2,
          2764.96,
          2770.88,
          2780.64,
          2794.8,
          2797.44,
          2836.16,
          2898,
          2910.56,
          2920.24,
          2929.84,
          2938.08,
          2964.8,
          2993.36,
          2994.56,
          3032.72,
          3057.36,
          3061.68,
          3066.64,
          3070.96,
          3080.24,
          3084.32,
          3087.52,
          3090.56,
          3092.64,
          3095.6,
          3098.16,
          3101.36,
          3104.88,
          3107.52,
          3122.8,
          3157.76,
          3163.52,
          3166.8,
          3184.16,
          3216.08,
          3230.48,
          3240,
          3246.88
        ]
      },
      "geometry": {
        "type": "LineString",
        "coordinates": [
          [
            -103.340643,
            20.608267,
            1583
          ],
          [
            -103.34083,
            20.607513,
            1581
          ],
          [
            -103.341081,
            20.606462,
            1579.75
          ],
          [
            -103.341262,
            20.605872,
            1579
          ],
          [
            -103.34285,
            20.599445,
            1577.25
          ],
          [
            -103.342922,
            20.599086,
            1576.25
          ],
          [
            -103.343065,
            20.598444,
            1575.5
          ],
          [
            -103.343822,
            20.594566,
            1570.5
          ],
          [
            -103.344145,
            20.592876,
            1567.25
          ],
          [
            -103.344201,
            20.592578,
            1566.25
          ],
          [
            -103.344253,
            20.59236,
            1566.25
          ],
          [
            -103.344341,
            20.59204,
            1566.5
          ],
          [
            -103.344505,
            20.591563,
            1566.5
          ],
          [
            -103.344625,
            20.591258,
            1566
          ],
          [
            -103.344716,
            20.591048,
            1566
          ],
          [
            -103.344877,
            20.590731,
            1566
          ],
          [
            -103.345049,
            20.590415,
            1565.75
          ],
          [
            -103.345293,
            20.590036,
            1565.75
          ],
          [
            -103.345953,
            20.589141,
            1562
          ],
          [
            -103.346547,
            20.588297,
            1558
          ],
          [
            -103.34684,
            20.587898,
            1557.75
          ],
          [
            -103.348462,
            20.585559,
            1560
          ],
          [
            -103.351016,
            20.581984,
            1558.75
          ],
          [
            -103.351092,
            20.581874,
            1558.5
          ],
          [
            -103.352992,
            20.579202,
            1554.5
          ],
          [
            -103.354762,
            20.576677,
            1552.25
          ],
          [
            -103.355324,
            20.575914,
            1550.5
          ],
          [
            -103.355965,
            20.575029,
            1547.5
          ],
          [
            -103.356617,
            20.574102,
            1547.75
          ],
          [
            -103.357415,
            20.572895,
            1545
          ],
          [
            -103.357634,
            20.572518,
            1545.25
          ],
          [
            -103.358,
            20.571916,
            1547.25
          ],
          [
            -103.361104,
            20.566858,
            1540.5
          ],
          [
            -103.363379,
            20.563067,
            1540.75
          ],
          [
            -103.363533,
            20.562818,
            1541
          ],
          [
            -103.364955,
            20.560464,
            1541.25
          ],
          [
            -103.365326,
            20.559879,
            1538.75
          ],
          [
            -103.365547,
            20.559512,
            1537.5
          ],
          [
            -103.36577,
            20.559142,
            1537.5
          ],
          [
            -103.36593,
            20.558848,
            1538.5
          ],
          [
            -103.366039,
            20.558663,
            1538.75
          ],
          [
            -103.366664,
            20.557687,
            1541
          ],
          [
            -103.367449,
            20.556368,
            1540.25
          ],
          [
            -103.36792,
            20.555612,
            1538.5
          ],
          [
            -103.368429,
            20.554737,
            1536.75
          ],
          [
            -103.368665,
            20.554309,
            1536.75
          ],
          [
            -103.369389,
            20.553121,
            1537.25
          ],
          [
            -103.377692,
            20.539251,
            1536.75
          ],
          [
            -103.377706,
            20.539228,
            1536.75
          ],
          [
            -103.377758,
            20.539141,
            1536.5
          ],
          [
            -103.379125,
            20.536871,
            1537
          ],
          [
            -103.379166,
            20.536802,
            1537
          ],
          [
            -103.382677,
            20.531011,
            1536.5
          ],
          [
            -103.382803,
            20.530804,
            1536.25
          ],
          [
            -103.383994,
            20.528815,
            1539.25
          ],
          [
            -103.384772,
            20.527491,
            1541.75
          ],
          [
            -103.385134,
            20.526916,
            1542.75
          ],
          [
            -103.385393,
            20.526548,
            1542.75
          ],
          [
            -103.385608,
            20.526308,
            1542.25
          ],
          [
            -103.386051,
            20.525884,
            1541.5
          ],
          [
            -103.386301,
            20.525672,
            1542
          ],
          [
            -103.389407,
            20.523229,
            1547.25
          ],
          [
            -103.38977,
            20.522877,
            1547
          ],
          [
            -103.390147,
            20.522441,
            1547.5
          ],
          [
            -103.390499,
            20.521906,
            1548.5
          ],
          [
            -103.390656,
            20.521564,
            1549.5
          ],
          [
            -103.390881,
            20.521041,
            1550.25
          ],
          [
            -103.391004,
            20.520422,
            1551.25
          ],
          [
            -103.391558,
            20.517166,
            1552.25
          ],
          [
            -103.392201,
            20.513015,
            1553.25
          ],
          [
            -103.392358,
            20.511769,
            1553.5
          ],
          [
            -103.3924,
            20.511498,
            1553.25
          ],
          [
            -103.392644,
            20.510138,
            1552
          ],
          [
            -103.392718,
            20.509791,
            1552.5
          ],
          [
            -103.392795,
            20.509495,
            1553
          ],
          [
            -103.392929,
            20.509054,
            1553.25
          ],
          [
            -103.393402,
            20.507838,
            1553
          ],
          [
            -103.393784,
            20.50688,
            1551
          ],
          [
            -103.39455,
            20.504902,
            1546.5
          ],
          [
            -103.39489,
            20.504006,
            1544
          ],
          [
            -103.396623,
            20.499577,
            1544.75
          ],
          [
            -103.399148,
            20.49319,
            1549.75
          ],
          [
            -103.399435,
            20.492569,
            1550.75
          ],
          [
            -103.3997,
            20.492076,
            1552
          ],
          [
            -103.400052,
            20.491502,
            1554
          ],
          [
            -103.400342,
            20.491083,
            1554.25
          ],
          [
            -103.400913,
            20.49037,
            1554.25
          ],
          [
            -103.403386,
            20.487687,
            1556.75
          ],
          [
            -103.403603,
            20.487463,
            1558
          ],
          [
            -103.403663,
            20.487399,
            1558.25
          ],
          [
            -103.404202,
            20.486778,
            1561.75
          ],
          [
            -103.405315,
            20.485556,
            1560.5
          ],
          [
            -103.406346,
            20.484403,
            1560.5
          ],
          [
            -103.406551,
            20.484135,
            1559.75
          ],
          [
            -103.406708,
            20.483901,
            1560.5
          ],
          [
            -103.406886,
            20.483566,
            1561.25
          ],
          [
            -103.40702,
            20.483207,
            1561.75
          ],
          [
            -103.407112,
            20.482881,
            1562.25
          ],
          [
            -103.407164,
            20.48256,
            1562.5
          ],
          [
            -103.407189,
            20.482266,
            1563
          ],
          [
            -103.407146,
            20.481733,
            1564
          ],
          [
            -103.406863,
            20.480037,
            1568.5
          ],
          [
            -103.406819,
            20.479612,
            1568.75
          ],
          [
            -103.406818,
            20.479109,
            1569.75
          ],
          [
            -103.406874,
            20.478431,
            1571.75
          ],
          [
            -103.407391,
            20.473936,
            1576
          ],
          [
            -103.40749,
            20.473414,
            1578.5
          ],
          [
            -103.407576,
            20.473154,
            1578.75
          ],
          [
            -103.407683,
            20.472931,
            1578.5
          ],
          [
            -103.407802,
            20.472721,
            1578.5
          ],
          [
            -103.407976,
            20.472479,
            1578.5
          ],
          [
            -103.408165,
            20.472276,
            1578.25
          ],
          [
            -103.408348,
            20.472113,
            1578
          ],
          [
            -103.408562,
            20.471954,
            1577
          ],
          [
            -103.408913,
            20.471749,
            1575.75
          ],
          [
            -103.413503,
            20.469855,
            1579
          ],
          [
            -103.414141,
            20.469616,
            1583
          ],
          [
            -103.414608,
            20.469426,
            1584.5
          ],
          [
            -103.415013,
            20.469261,
            1584.75
          ],
          [
            -103.415341,
            20.469096,
            1584.25
          ],
          [
            -103.416805,
            20.468503,
            1581
          ],
          [
            -103.419526,
            20.467399,
            1582.25
          ],
          [
            -103.42003,
            20.467196,
            1582.5
          ],
          [
            -103.421544,
            20.466587,
            1583.25
          ],
          [
            -103.424464,
            20.465406,
            1583.25
          ],
          [
            -103.424803,
            20.465315,
            1582.75
          ],
          [
            -103.425148,
            20.465252,
            1582
          ],
          [
            -103.425543,
            20.465213,
            1581.75
          ],
          [
            -103.425967,
            20.465231,
            1581.75
          ],
          [
            -103.426308,
            20.465288,
            1583
          ],
          [
            -103.42664,
            20.465365,
            1584.25
          ],
          [
            -103.426944,
            20.465461,
            1584.5
          ],
          [
            -103.427229,
            20.465581,
            1584.75
          ],
          [
            -103.427684,
            20.465859,
            1584
          ],
          [
            -103.428099,
            20.466159,
            1581.5
          ],
          [
            -103.430501,
            20.468046,
            1581
          ],
          [
            -103.430793,
            20.468266,
            1579.75
          ],
          [
            -103.431058,
            20.468428,
            1579.75
          ],
          [
            -103.431331,
            20.468567,
            1579.25
          ],
          [
            -103.431595,
            20.468692,
            1578.5
          ],
          [
            -103.432195,
            20.468908,
            1579
          ],
          [
            -103.432654,
            20.46908,
            1578.75
          ],
          [
            -103.433127,
            20.469221,
            1577.75
          ],
          [
            -103.433524,
            20.469306,
            1576.75
          ],
          [
            -103.433896,
            20.469318,
            1576
          ],
          [
            -103.434303,
            20.469273,
            1575
          ],
          [
            -103.434658,
            20.469199,
            1574.25
          ],
          [
            -103.435856,
            20.468803,
            1574.25
          ],
          [
            -103.436545,
            20.468583,
            1574
          ],
          [
            -103.437085,
            20.4684,
            1573
          ],
          [
            -103.436545,
            20.468583,
            1574
          ],
          [
            -103.435856,
            20.468803,
            1574.25
          ],
          [
            -103.435117,
            20.468969,
            1573.75
          ],
          [
            -103.434622,
            20.469132,
            1574.25
          ],
          [
            -103.434306,
            20.469201,
            1574.75
          ],
          [
            -103.434249,
            20.469207,
            1575.75
          ],
          [
            -103.433907,
            20.469245,
            1575.75
          ],
          [
            -103.433549,
            20.469242,
            1576.5
          ],
          [
            -103.433132,
            20.469171,
            1577.5
          ],
          [
            -103.432659,
            20.469025,
            1578.5
          ],
          [
            -103.431729,
            20.46869,
            1577.75
          ],
          [
            -103.4314,
            20.468554,
            1578.5
          ],
          [
            -103.431106,
            20.468407,
            1579
          ],
          [
            -103.430807,
            20.468237,
            1579.5
          ],
          [
            -103.428135,
            20.466127,
            1581
          ],
          [
            -103.427706,
            20.465809,
            1583.5
          ],
          [
            -103.427241,
            20.465534,
            1584.25
          ],
          [
            -103.426949,
            20.465405,
            1584
          ],
          [
            -103.426638,
            20.465311,
            1583.75
          ],
          [
            -103.426313,
            20.465239,
            1582.5
          ],
          [
            -103.425967,
            20.465186,
            1581.5
          ],
          [
            -103.425538,
            20.465171,
            1581.5
          ],
          [
            -103.425143,
            20.465203,
            1582
          ],
          [
            -103.424781,
            20.465265,
            1582.75
          ],
          [
            -103.42445,
            20.465358,
            1583.25
          ],
          [
            -103.421494,
            20.466563,
            1581.75
          ],
          [
            -103.419976,
            20.467172,
            1581
          ],
          [
            -103.419522,
            20.467355,
            1581
          ],
          [
            -103.416787,
            20.468461,
            1581
          ],
          [
            -103.415326,
            20.469059,
            1584
          ],
          [
            -103.414994,
            20.469184,
            1584.75
          ],
          [
            -103.414573,
            20.469353,
            1584.5
          ],
          [
            -103.414124,
            20.469533,
            1583.25
          ],
          [
            -103.413491,
            20.469811,
            1579
          ],
          [
            -103.409086,
            20.471618,
            1575
          ],
          [
            -103.408814,
            20.47174,
            1576
          ],
          [
            -103.408548,
            20.471907,
            1577
          ],
          [
            -103.408315,
            20.472072,
            1577.75
          ],
          [
            -103.40814,
            20.472232,
            1578.25
          ],
          [
            -103.407935,
            20.472453,
            1578.25
          ],
          [
            -103.40776,
            20.472695,
            1578.5
          ],
          [
            -103.407634,
            20.472915,
            1578.5
          ],
          [
            -103.40753,
            20.473154,
            1578.75
          ],
          [
            -103.407439,
            20.473404,
            1578.5
          ],
          [
            -103.407392,
            20.473618,
            1577.5
          ],
          [
            -103.407341,
            20.473968,
            1576
          ],
          [
            -103.406822,
            20.478445,
            1571.25
          ],
          [
            -103.406769,
            20.479109,
            1569.25
          ],
          [
            -103.40678,
            20.479616,
            1568.5
          ],
          [
            -103.406811,
            20.480059,
            1568
          ],
          [
            -103.4071,
            20.48176,
            1563.75
          ],
          [
            -103.407127,
            20.482265,
            1562.75
          ],
          [
            -103.40711,
            20.482563,
            1562.25
          ],
          [
            -103.407065,
            20.482867,
            1562
          ],
          [
            -103.406975,
            20.483189,
            1561.75
          ],
          [
            -103.406834,
            20.483539,
            1561.25
          ],
          [
            -103.406661,
            20.483881,
            1560.25
          ],
          [
            -103.406516,
            20.484105,
            1559.75
          ],
          [
            -103.406303,
            20.484374,
            1560.25
          ],
          [
            -103.40564,
            20.485112,
            1560.75
          ],
          [
            -103.404146,
            20.486745,
            1561.5
          ],
          [
            -103.403602,
            20.487349,
            1558.25
          ],
          [
            -103.403543,
            20.487411,
            1557.75
          ],
          [
            -103.403321,
            20.487641,
            1556.75
          ],
          [
            -103.400866,
            20.490356,
            1554.25
          ],
          [
            -103.400296,
            20.491067,
            1554
          ],
          [
            -103.400016,
            20.491484,
            1553.75
          ],
          [
            -103.399667,
            20.492052,
            1551.75
          ],
          [
            -103.399391,
            20.492556,
            1550.75
          ],
          [
            -103.399101,
            20.493186,
            1549.75
          ],
          [
            -103.394467,
            20.504923,
            1546.25
          ],
          [
            -103.39398,
            20.506116,
            1549.25
          ],
          [
            -103.393688,
            20.506855,
            1550.5
          ],
          [
            -103.393473,
            20.507419,
            1552
          ],
          [
            -103.392871,
            20.509046,
            1553
          ],
          [
            -103.392746,
            20.509486,
            1552.75
          ],
          [
            -103.392597,
            20.510137,
            1551.75
          ],
          [
            -103.392512,
            20.510676,
            1551.75
          ],
          [
            -103.392321,
            20.511767,
            1553.25
          ],
          [
            -103.392143,
            20.513093,
            1553.25
          ],
          [
            -103.391514,
            20.517156,
            1552.5
          ],
          [
            -103.390966,
            20.520418,
            1551.25
          ],
          [
            -103.390843,
            20.521036,
            1550.25
          ],
          [
            -103.390619,
            20.521555,
            1549.5
          ],
          [
            -103.390461,
            20.521889,
            1548.75
          ],
          [
            -103.390112,
            20.522418,
            1547.75
          ],
          [
            -103.389743,
            20.522852,
            1547.25
          ],
          [
            -103.389399,
            20.523178,
            1547.25
          ],
          [
            -103.386271,
            20.525637,
            1542.25
          ],
          [
            -103.385964,
            20.52589,
            1541.75
          ],
          [
            -103.385579,
            20.526271,
            1542.5
          ],
          [
            -103.385376,
            20.526499,
            1542.75
          ],
          [
            -103.385084,
            20.526895,
            1543
          ],
          [
            -103.384305,
            20.528146,
            1541.5
          ],
          [
            -103.383919,
            20.528789,
            1539.25
          ],
          [
            -103.383338,
            20.529766,
            1537.75
          ],
          [
            -103.382768,
            20.530786,
            1536.25
          ],
          [
            -103.382642,
            20.530993,
            1536.25
          ],
          [
            -103.37911,
            20.536791,
            1537
          ],
          [
            -103.37907,
            20.53686,
            1537
          ],
          [
            -103.37771,
            20.539121,
            1536.5
          ],
          [
            -103.377657,
            20.539209,
            1536.75
          ],
          [
            -103.377643,
            20.539232,
            1536.75
          ],
          [
            -103.369332,
            20.553096,
            1537.5
          ],
          [
            -103.36843,
            20.554577,
            1536.75
          ],
          [
            -103.36784,
            20.555562,
            1538.75
          ],
          [
            -103.367361,
            20.55634,
            1540.5
          ],
          [
            -103.366001,
            20.558611,
            1539
          ],
          [
            -103.365884,
            20.558822,
            1538.75
          ],
          [
            -103.365702,
            20.559105,
            1537.25
          ],
          [
            -103.365478,
            20.559476,
            1537
          ],
          [
            -103.365257,
            20.559842,
            1538.5
          ],
          [
            -103.364918,
            20.560434,
            1541
          ],
          [
            -103.364348,
            20.561394,
            1540.5
          ],
          [
            -103.363505,
            20.562779,
            1540.75
          ],
          [
            -103.36335,
            20.563036,
            1540.5
          ],
          [
            -103.361069,
            20.56684,
            1540.75
          ],
          [
            -103.357361,
            20.572889,
            1545.25
          ],
          [
            -103.356546,
            20.574082,
            1547.5
          ],
          [
            -103.355896,
            20.574988,
            1547
          ],
          [
            -103.355257,
            20.575885,
            1550.5
          ],
          [
            -103.354722,
            20.576664,
            1552.25
          ],
          [
            -103.352955,
            20.579179,
            1554.5
          ],
          [
            -103.351053,
            20.581856,
            1558.25
          ],
          [
            -103.350973,
            20.581964,
            1558.5
          ],
          [
            -103.348428,
            20.585546,
            1559.75
          ],
          [
            -103.346779,
            20.587855,
            1557.5
          ],
          [
            -103.346493,
            20.588267,
            1557.5
          ],
          [
            -103.346158,
            20.588729,
            1559.25
          ],
          [
            -103.345887,
            20.589143,
            1561.75
          ],
          [
            -103.345264,
            20.590011,
            1565.5
          ],
          [
            -103.345016,
            20.590403,
            1565.5
          ],
          [
            -103.344836,
            20.590725,
            1565.75
          ],
          [
            -103.34469,
            20.591035,
            1565.75
          ],
          [
            -103.344595,
            20.591252,
            1566
          ],
          [
            -103.344469,
            20.59156,
            1566.25
          ],
          [
            -103.34437,
            20.591837,
            1566.5
          ],
          [
            -103.344264,
            20.592185,
            1566.25
          ],
          [
            -103.344167,
            20.592573,
            1566.25
          ],
          [
            -103.344105,
            20.592868,
            1567
          ],
          [
            -103.343781,
            20.594562,
            1570.25
          ],
          [
            -103.343012,
            20.59844,
            1575
          ],
          [
            -103.342876,
            20.59908,
            1575.75
          ],
          [
            -103.342805,
            20.599447,
            1576.75
          ],
          [
            -103.342325,
            20.601357,
            1577.25
          ],
          [
            -103.341468,
            20.604874,
            1579.75
          ],
          [
            -103.341081,
            20.606462,
            1579.75
          ],
          [
            -103.34083,
            20.607513,
            1581
          ],
          [
            -103.340643,
            20.608267,
            1583.25
          ]
        ]
      }
    }
  ]
}