{
  "type": "FeatureCollection",
  "features": [
    {
      "type": "Feature",
      "properties": {
        "creator": "BRouter-1.7.9",
        "name": "[SITEUR] L1",
        "track-length": "32019",
        "filtered ascend": "145",
        "plain-ascend": "5",
        "total-time": "2562",
        "total-energy": "1432699",
        "cost": "32019",
        "messages": [
          [
            "Longitude",
            "Latitude",
            "Elevation",
            "Distance",
            "CostPerKm",
            "ElevCost",
            "TurnCost",
            "NodeCost",
            "InitialCost",
            "WayTags",
            "NodeTags",
            "Time",
            "Energy"
          ],
          [
            "-103350815",
            "20735336",
            "-8192",
            "61",
            "1000",
            "0",
            "0",
            "0",
            "0",
            "railway=light_rail",
            "railway=halt",
            "4",
            "2683"
          ],
          [
            "-103352305",
            "20730805",
            "-8192",
            "528",
            "1000",
            "0",
            "0",
            "0",
            "0",
            "railway=light_rail",
            "railway=halt",
            "47",
            "25907"
          ],
          [
            "-103352716",
            "20729876",
            "1518",
            "112",
            "1000",
            "0",
            "0",
            "0",
            "0",
            "railway=light_rail",
            "railway=switch",
            "56",
            "30833"
          ],
          [
            "-103352850",
            "20729543",
            "1517",
            "39",
            "1000",
            "0",
            "0",
            "0",
            "0",
            "railway=light_rail",
            "railway=switch",
            "59",
            "32406"
          ],
          [
            "-103353035",
            "20729129",
            "1516",
            "50",
            "1000",
            "0",
            "0",
            "0",
            "0",
            "railway=light_rail",
            "",
            "63",
            "34134"
          ],
          [
            "-103353150",
            "20722657",
            "1523",
            "719",
            "1000",
            "0",
            "0",
            "0",
            "0",
            "railway=light_rail",
            "railway=level_crossing",
            "57",
            "34826"
          ],
          [
            "-103353285",
            "20721437",
            "1521",
            "137",
            "1000",
            "0",
            "0",
            "0",
            "0",
            "railway=light_rail",
            "railway=crossing",
            "68",
            "42029"
          ],
          [
            "-103353392",
            "20720834",
            "1522",
            "68",
            "1000",
            "0",
            "0",
            "0",
            "0",
            "railway=light_rail",
            "railway=halt",
            "73",
            "45256"
          ],
          [
            "-103353628",
            "20719823",
            "1521",
            "114",
            "1000",
            "0",
            "0",
            "0",
            "0",
            "railway=light_rail",
            "railway=level_crossing",
            "83",
            "49883"
          ],
          [
            "-103353750",
            "20719256",
            "1521",
            "64",
            "1000",
            "0",
            "0",
            "0",
            "0",
            "railway=light_rail",
            "railway=level_crossing",
            "88",
            "52683"
          ],
          [
            "-103354392",
            "20716256",
            "1511",
            "339",
            "1000",
            "0",
            "0",
            "0",
            "0",
            "railway=light_rail",
            "railway=halt",
            "115",
            "62031"
          ],
          [
            "-103354531",
            "20715620",
            "1512",
            "72",
            "1000",
            "0",
            "0",
            "0",
            "0",
            "railway=light_rail",
            "railway=crossing",
            "121",
            "63852"
          ],
          [
            "-103354553",
            "20715519",
            "1512",
            "11",
            "1000",
            "0",
            "0",
            "0",
            "0",
            "railway=light_rail",
            "railway=level_crossing",
            "121",
            "64203"
          ],
          [
            "-103354555",
            "20715335",
            "1512",
            "20",
            "1000",
            "0",
            "0",
            "0",
            "0",
            "railway=light_rail",
            "railway=level_crossing",
            "123",
            "64876"
          ],
          [
            "-103355634",
            "20707967",
            "1516",
            "857",
            "1000",
            "0",
            "0",
            "0",
            "0",
            "railway=light_rail",
            "railway=halt",
            "192",
            "103841"
          ],
          [
            "-103355012",
            "20698417",
            "1524",
            "1076",
            "1000",
            "0",
            "0",
            "0",
            "0",
            "railway=light_rail",
            "railway=halt",
            "278",
            "151170"
          ],
          [
            "-103353949",
            "20691468",
            "1530",
            "788",
            "1000",
            "0",
            "0",
            "0",
            "0",
            "railway=light_rail",
            "railway=halt",
            "341",
            "185831"
          ],
          [
            "-103354104",
            "20682365",
            "1537",
            "1009",
            "1000",
            "0",
            "0",
            "0",
            "0",
            "railway=light_rail",
            "railway=halt",
            "421",
            "230212"
          ],
          [
            "-103354761",
            "20674964",
            "1543",
            "831",
            "1000",
            "0",
            "0",
            "0",
            "0",
            "railway=light_rail",
            "railway=halt",
            "488",
            "266764"
          ],
          [
            "-103355410",
            "20666906",
            "1549",
            "899",
            "1000",
            "0",
            "0",
            "0",
            "0",
            "railway=light_rail",
            "railway=halt",
            "560",
            "306306"
          ],
          [
            "-103357443",
            "20661096",
            "1554",
            "678",
            "1000",
            "0",
            "0",
            "0",
            "0",
            "railway=light_rail",
            "railway=halt",
            "614",
            "336128"
          ],
          [
            "-103362435",
            "20655894",
            "1562",
            "793",
            "1000",
            "0",
            "0",
            "0",
            "0",
            "railway=light_rail",
            "railway=switch",
            "678",
            "409642"
          ],
          [
            "-103362563",
            "20655737",
            "1562",
            "22",
            "1000",
            "0",
            "0",
            "0",
            "0",
            "railway=light_rail",
            "railway=switch",
            "679",
            "410826"
          ],
          [
            "-103363342",
            "20654759",
            "1564",
            "135",
            "1000",
            "0",
            "0",
            "0",
            "0",
            "railway=light_rail",
            "railway=level_crossing",
            "690",
            "418561"
          ],
          [
            "-103363369",
            "20654728",
            "1564",
            "4",
            "1000",
            "0",
            "0",
            "0",
            "0",
            "railway=light_rail",
            "railway=crossing",
            "690",
            "418762"
          ],
          [
            "-103363633",
            "20654397",
            "1565",
            "46",
            "1000",
            "0",
            "0",
            "0",
            "0",
            "railway=light_rail",
            "railway=halt",
            "694",
            "421333"
          ],
          [
            "-103363993",
            "20653955",
            "1566",
            "62",
            "1000",
            "0",
            "0",
            "0",
            "0",
            "railway=light_rail",
            "railway=level_crossing",
            "699",
            "425004"
          ],
          [
            "-103367459",
            "20649632",
            "1568",
            "599",
            "1000",
            "0",
            "0",
            "0",
            "0",
            "railway=light_rail",
            "",
            "747",
            "456050"
          ],
          [
            "-103369308",
            "20647232",
            "1568",
            "328",
            "1000",
            "0",
            "0",
            "0",
            "0",
            "reversedirection=yes railway=light_rail",
            "railway=halt",
            "773",
            "471481"
          ],
          [
            "-103369680",
            "20646753",
            "1569",
            "66",
            "1000",
            "0",
            "0",
            "0",
            "0",
            "reversedirection=yes railway=light_rail",
            "railway=crossing",
            "778",
            "474612"
          ],
          [
            "-103372752",
            "20643171",
            "1574",
            "510",
            "1000",
            "0",
            "0",
            "0",
            "0",
            "reversedirection=yes railway=light_rail",
            "railway=halt",
            "819",
            "499249"
          ],
          [
            "-103373140",
            "20642762",
            "1575",
            "61",
            "1000",
            "0",
            "0",
            "0",
            "0",
            "reversedirection=yes railway=light_rail",
            "railway=crossing",
            "824",
            "502347"
          ],
          [
            "-103373206",
            "20642692",
            "1575",
            "10",
            "1000",
            "0",
            "0",
            "0",
            "0",
            "reversedirection=yes railway=light_rail",
            "railway=level_crossing",
            "825",
            "502834"
          ],
          [
            "-103373327",
            "20642550",
            "1575",
            "20",
            "1000",
            "0",
            "0",
            "0",
            "0",
            "reversedirection=yes railway=light_rail",
            "railway=level_crossing",
            "827",
            "503715"
          ],
          [
            "-103376529",
            "20638815",
            "1575",
            "532",
            "1000",
            "0",
            "0",
            "0",
            "0",
            "reversedirection=yes railway=light_rail",
            "railway=level_crossing",
            "869",
            "527120"
          ],
          [
            "-103376600",
            "20638729",
            "1575",
            "12",
            "1000",
            "0",
            "0",
            "0",
            "0",
            "reversedirection=yes railway=light_rail",
            "railway=level_crossing",
            "870",
            "527673"
          ],
          [
            "-103376714",
            "20638587",
            "1575",
            "20",
            "1000",
            "0",
            "0",
            "0",
            "0",
            "reversedirection=yes railway=light_rail",
            "railway=crossing",
            "872",
            "528668"
          ],
          [
            "-103377014",
            "20638114",
            "1576",
            "61",
            "1000",
            "0",
            "0",
            "0",
            "0",
            "reversedirection=yes railway=light_rail",
            "railway=halt",
            "877",
            "531866"
          ],
          [
            "-103380710",
            "20632687",
            "1575",
            "715",
            "1000",
            "0",
            "0",
            "0",
            "0",
            "reversedirection=yes railway=light_rail",
            "railway=halt",
            "934",
            "565525"
          ],
          [
            "-103381067",
            "20632204",
            "1575",
            "65",
            "1000",
            "0",
            "0",
            "0",
            "0",
            "reversedirection=yes railway=light_rail",
            "railway=crossing",
            "939",
            "568598"
          ],
          [
            "-103381111",
            "20632147",
            "1575",
            "8",
            "1000",
            "0",
            "0",
            "0",
            "0",
            "reversedirection=yes railway=light_rail",
            "railway=level_crossing",
            "940",
            "568967"
          ],
          [
            "-103381189",
            "20632041",
            "1576",
            "14",
            "1000",
            "0",
            "0",
            "0",
            "0",
            "reversedirection=yes railway=light_rail",
            "railway=level_crossing",
            "941",
            "569640"
          ],
          [
            "-103385150",
            "20626672",
            "1586",
            "724",
            "1000",
            "0",
            "0",
            "0",
            "0",
            "reversedirection=yes railway=light_rail",
            "railway=halt",
            "999",
            "607670"
          ],
          [
            "-103389282",
            "20621607",
            "1597",
            "707",
            "1000",
            "0",
            "0",
            "0",
            "0",
            "reversedirection=yes railway=light_rail",
            "railway=halt",
            "1055",
            "648916"
          ],
          [
            "-103389730",
            "20621064",
            "1597",
            "76",
            "1000",
            "0",
            "0",
            "0",
            "0",
            "reversedirection=yes railway=light_rail",
            "railway=crossing",
            "1061",
            "652461"
          ],
          [
            "-103389867",
            "20620892",
            "1597",
            "24",
            "1000",
            "0",
            "0",
            "0",
            "0",
            "reversedirection=yes railway=light_rail",
            "railway=level_crossing",
            "1063",
            "654072"
          ],
          [
            "-103389967",
            "20620770",
            "1597",
            "17",
            "1000",
            "0",
            "0",
            "0",
            "0",
            "reversedirection=yes railway=light_rail",
            "railway=level_crossing",
            "1065",
            "655106"
          ],
          [
            "-103395627",
            "20613829",
            "1624",
            "969",
            "1000",
            "0",
            "0",
            "0",
            "0",
            "reversedirection=yes railway=light_rail",
            "railway=halt",
            "1142",
            "721121"
          ],
          [
            "-103396113",
            "20613241",
            "1627",
            "82",
            "1000",
            "0",
            "0",
            "0",
            "0",
            "reversedirection=yes railway=light_rail",
            "railway=crossing",
            "1149",
            "725840"
          ],
          [
            "-103396209",
            "20613125",
            "1626",
            "16",
            "1000",
            "0",
            "0",
            "0",
            "0",
            "reversedirection=yes railway=light_rail",
            "railway=level_crossing",
            "1150",
            "726608"
          ],
          [
            "-103396299",
            "20613018",
            "1626",
            "15",
            "1000",
            "0",
            "0",
            "0",
            "0",
            "reversedirection=yes railway=light_rail",
            "railway=level_crossing",
            "1151",
            "727627"
          ],
          [
            "-103397940",
            "20611007",
            "1609",
            "281",
            "1000",
            "0",
            "0",
            "0",
            "0",
            "reversedirection=yes railway=light_rail",
            "",
            "1174",
            "738981"
          ],
          [
            "-103400406",
            "20607978",
            "1609",
            "422",
            "1000",
            "0",
            "0",
            "0",
            "0",
            "reversedirection=yes railway=light_rail",
            "railway=switch",
            "33",
            "12689"
          ],
          [
            "-103400877",
            "20607393",
            "1609",
            "81",
            "1000",
            "0",
            "0",
            "0",
            "0",
            "railway=light_rail",
            "railway=halt",
            "40",
            "15958"
          ],
          [
            "-103401115",
            "20607088",
            "1609",
            "42",
            "1000",
            "0",
            "0",
            "0",
            "0",
            "reversedirection=yes railway=light_rail",
            "",
            "43",
            "17725"
          ],
          [
            "-103400877",
            "20607393",
            "1609",
            "42",
            "1000",
            "0",
            "0",
            "0",
            "0",
            "railway=light_rail",
            "railway=halt",
            "3",
            "1847"
          ],
          [
            "-103400406",
            "20607978",
            "1609",
            "81",
            "1000",
            "0",
            "0",
            "0",
            "0",
            "reversedirection=yes railway=light_rail",
            "railway=switch",
            "9",
            "5655"
          ],
          [
            "-103400061",
            "20608346",
            "1609",
            "54",
            "1000",
            "0",
            "0",
            "0",
            "0",
            "reversedirection=yes railway=light_rail",
            "railway=switch",
            "14",
            "8020"
          ],
          [
            "-103399948",
            "20608487",
            "1609",
            "20",
            "1000",
            "0",
            "0",
            "0",
            "0",
            "railway=light_rail",
            "railway=switch",
            "15",
            "8897"
          ],
          [
            "-103398694",
            "20610018",
            "1616",
            "214",
            "1000",
            "0",
            "0",
            "0",
            "0",
            "railway=light_rail",
            "railway=switch",
            "32",
            "21221"
          ],
          [
            "-103397830",
            "20611081",
            "1625",
            "148",
            "1000",
            "0",
            "0",
            "0",
            "0",
            "railway=light_rail",
            "",
            "44",
            "30247"
          ],
          [
            "-103396270",
            "20612997",
            "1626",
            "267",
            "1000",
            "0",
            "0",
            "0",
            "0",
            "railway=light_rail",
            "railway=level_crossing",
            "21",
            "14460"
          ],
          [
            "-103396181",
            "20613106",
            "1626",
            "15",
            "1000",
            "0",
            "0",
            "0",
            "0",
            "railway=light_rail",
            "railway=level_crossing",
            "22",
            "15264"
          ],
          [
            "-103396087",
            "20613219",
            "1626",
            "16",
            "1000",
            "0",
            "0",
            "0",
            "0",
            "railway=light_rail",
            "railway=crossing",
            "23",
            "16132"
          ],
          [
            "-103395596",
            "20613808",
            "1624",
            "83",
            "1000",
            "0",
            "0",
            "0",
            "0",
            "railway=light_rail",
            "railway=halt",
            "30",
            "20816"
          ],
          [
            "-103389935",
            "20620751",
            "1597",
            "969",
            "1000",
            "0",
            "0",
            "0",
            "0",
            "railway=light_rail",
            "railway=level_crossing",
            "108",
            "43036"
          ],
          [
            "-103389837",
            "20620874",
            "1597",
            "17",
            "1000",
            "0",
            "0",
            "0",
            "0",
            "railway=light_rail",
            "railway=level_crossing",
            "109",
            "43717"
          ],
          [
            "-103389702",
            "20621044",
            "1597",
            "23",
            "1000",
            "0",
            "0",
            "0",
            "0",
            "railway=light_rail",
            "railway=crossing",
            "111",
            "44699"
          ],
          [
            "-103389250",
            "20621588",
            "1597",
            "76",
            "1000",
            "0",
            "0",
            "0",
            "0",
            "railway=light_rail",
            "railway=halt",
            "117",
            "47863"
          ],
          [
            "-103385124",
            "20626658",
            "1586",
            "707",
            "1000",
            "0",
            "0",
            "0",
            "0",
            "railway=light_rail",
            "railway=halt",
            "173",
            "67718"
          ],
          [
            "-103381161",
            "20632019",
            "1576",
            "723",
            "1000",
            "0",
            "0",
            "0",
            "0",
            "railway=light_rail",
            "railway=level_crossing",
            "231",
            "92195"
          ],
          [
            "-103381083",
            "20632125",
            "1576",
            "14",
            "1000",
            "0",
            "0",
            "0",
            "0",
            "railway=light_rail",
            "railway=level_crossing",
            "232",
            "92765"
          ],
          [
            "-103381038",
            "20632186",
            "1575",
            "8",
            "1000",
            "0",
            "0",
            "0",
            "0",
            "railway=light_rail",
            "railway=crossing",
            "233",
            "93076"
          ],
          [
            "-103380676",
            "20632670",
            "1575",
            "66",
            "1000",
            "0",
            "0",
            "0",
            "0",
            "railway=light_rail",
            "railway=halt",
            "238",
            "95531"
          ],
          [
            "-103376993",
            "20638105",
            "1576",
            "715",
            "1000",
            "0",
            "0",
            "0",
            "0",
            "railway=light_rail",
            "railway=halt",
            "295",
            "125276"
          ],
          [
            "-103376685",
            "20638568",
            "1575",
            "60",
            "1000",
            "0",
            "0",
            "0",
            "0",
            "railway=light_rail",
            "railway=crossing",
            "300",
            "127473"
          ],
          [
            "-103376560",
            "20638716",
            "1575",
            "21",
            "1000",
            "0",
            "0",
            "0",
            "0",
            "railway=light_rail",
            "railway=level_crossing",
            "302",
            "128211"
          ],
          [
            "-103376489",
            "20638803",
            "1575",
            "12",
            "1000",
            "0",
            "0",
            "0",
            "0",
            "railway=light_rail",
            "railway=level_crossing",
            "303",
            "128624"
          ],
          [
            "-103373272",
            "20642533",
            "1575",
            "532",
            "1000",
            "0",
            "0",
            "0",
            "0",
            "railway=light_rail",
            "railway=level_crossing",
            "345",
            "151125"
          ],
          [
            "-103373174",
            "20642646",
            "1575",
            "16",
            "1000",
            "0",
            "0",
            "0",
            "0",
            "railway=light_rail",
            "railway=level_crossing",
            "347",
            "151894"
          ],
          [
            "-103373099",
            "20642730",
            "1575",
            "12",
            "1000",
            "0",
            "0",
            "0",
            "0",
            "railway=light_rail",
            "railway=crossing",
            "348",
            "152464"
          ],
          [
            "-103372720",
            "20643150",
            "1574",
            "61",
            "1000",
            "0",
            "0",
            "0",
            "0",
            "railway=light_rail",
            "railway=halt",
            "353",
            "154896"
          ],
          [
            "-103369654",
            "20646735",
            "1569",
            "510",
            "1000",
            "0",
            "0",
            "0",
            "0",
            "railway=light_rail",
            "railway=crossing",
            "393",
            "175509"
          ],
          [
            "-103369280",
            "20647215",
            "1568",
            "66",
            "1000",
            "0",
            "0",
            "0",
            "0",
            "railway=light_rail",
            "railway=halt",
            "399",
            "177760"
          ],
          [
            "-103363951",
            "20653936",
            "1566",
            "928",
            "1000",
            "0",
            "0",
            "0",
            "0",
            "railway=light_rail",
            "railway=level_crossing",
            "473",
            "213742"
          ],
          [
            "-103363605",
            "20654384",
            "1565",
            "61",
            "1000",
            "0",
            "0",
            "0",
            "0",
            "railway=light_rail",
            "railway=halt",
            "478",
            "215896"
          ],
          [
            "-103363340",
            "20654712",
            "1564",
            "46",
            "1000",
            "0",
            "0",
            "0",
            "0",
            "railway=light_rail",
            "railway=crossing",
            "481",
            "217362"
          ],
          [
            "-103363313",
            "20654747",
            "1564",
            "5",
            "1000",
            "0",
            "0",
            "0",
            "0",
            "railway=light_rail",
            "railway=level_crossing",
            "482",
            "217535"
          ],
          [
            "-103362802",
            "20655383",
            "1564",
            "88",
            "1000",
            "0",
            "0",
            "0",
            "0",
            "railway=light_rail",
            "railway=switch",
            "489",
            "220745"
          ],
          [
            "-103362563",
            "20655737",
            "1562",
            "46",
            "1000",
            "0",
            "0",
            "0",
            "0",
            "railway=light_rail",
            "railway=switch",
            "493",
            "222108"
          ],
          [
            "-103362435",
            "20655894",
            "1562",
            "22",
            "1000",
            "0",
            "0",
            "0",
            "0",
            "reversedirection=yes railway=light_rail",
            "railway=switch",
            "494",
            "222765"
          ],
          [
            "-103362134",
            "20656209",
            "1561",
            "47",
            "1000",
            "0",
            "0",
            "0",
            "0",
            "railway=light_rail",
            "railway=switch",
            "498",
            "224276"
          ],
          [
            "-103357400",
            "20661084",
            "1554",
            "749",
            "1000",
            "0",
            "0",
            "0",
            "0",
            "railway=light_rail",
            "railway=halt",
            "558",
            "254335"
          ],
          [
            "-103355362",
            "20666898",
            "1549",
            "679",
            "1000",
            "0",
            "0",
            "0",
            "0",
            "railway=light_rail",
            "railway=halt",
            "612",
            "284173"
          ],
          [
            "-103354725",
            "20674962",
            "1543",
            "901",
            "1000",
            "0",
            "0",
            "0",
            "0",
            "railway=light_rail",
            "railway=halt",
            "684",
            "322243"
          ],
          [
            "-103354045",
            "20682363",
            "1537",
            "829",
            "1000",
            "0",
            "0",
            "0",
            "0",
            "railway=light_rail",
            "railway=halt",
            "751",
            "357619"
          ],
          [
            "-103353892",
            "20691468",
            "1529",
            "1008",
            "1000",
            "0",
            "0",
            "0",
            "0",
            "railway=light_rail",
            "railway=halt",
            "831",
            "401956"
          ],
          [
            "-103354943",
            "20698414",
            "1524",
            "788",
            "1000",
            "0",
            "0",
            "0",
            "0",
            "railway=light_rail",
            "railway=halt",
            "894",
            "436617"
          ],
          [
            "-103355601",
            "20707982",
            "1516",
            "1080",
            "1000",
            "0",
            "0",
            "0",
            "0",
            "railway=light_rail",
            "railway=halt",
            "981",
            "484121"
          ],
          [
            "-103354511",
            "20715326",
            "1512",
            "849",
            "1000",
            "0",
            "0",
            "0",
            "0",
            "railway=light_rail",
            "railway=level_crossing",
            "1049",
            "505402"
          ],
          [
            "-103354507",
            "20715510",
            "1512",
            "20",
            "1000",
            "0",
            "0",
            "0",
            "0",
            "railway=light_rail",
            "railway=level_crossing",
            "1050",
            "506202"
          ],
          [
            "-103354485",
            "20715610",
            "1512",
            "11",
            "1000",
            "0",
            "0",
            "0",
            "0",
            "railway=light_rail",
            "railway=crossing",
            "1051",
            "506648"
          ],
          [
            "-103354345",
            "20716246",
            "1511",
            "72",
            "1000",
            "0",
            "0",
            "0",
            "0",
            "railway=light_rail",
            "railway=halt",
            "1057",
            "509535"
          ],
          [
            "-103353699",
            "20719245",
            "1521",
            "339",
            "1000",
            "0",
            "0",
            "0",
            "0",
            "railway=light_rail",
            "railway=level_crossing",
            "1084",
            "527389"
          ],
          [
            "-103353581",
            "20719807",
            "1521",
            "63",
            "1000",
            "0",
            "0",
            "0",
            "0",
            "railway=light_rail",
            "railway=level_crossing",
            "1089",
            "531239"
          ],
          [
            "-103353361",
            "20720829",
            "1521",
            "116",
            "1000",
            "0",
            "0",
            "0",
            "0",
            "railway=light_rail",
            "railway=halt",
            "1098",
            "537519"
          ],
          [
            "-103353250",
            "20721430",
            "1521",
            "68",
            "1000",
            "0",
            "0",
            "0",
            "0",
            "railway=light_rail",
            "railway=crossing",
            "1104",
            "540863"
          ],
          [
            "-103353094",
            "20722658",
            "1524",
            "137",
            "1000",
            "0",
            "0",
            "0",
            "0",
            "railway=light_rail",
            "railway=level_crossing",
            "1115",
            "548298"
          ],
          [
            "-103353006",
            "20729107",
            "1516",
            "716",
            "1000",
            "0",
            "0",
            "0",
            "0",
            "railway=light_rail",
            "",
            "1172",
            "574425"
          ],
          [
            "-103352818",
            "20729531",
            "1517",
            "51",
            "1000",
            "0",
            "0",
            "0",
            "0",
            "railway=light_rail",
            "railway=switch",
            "4",
            "2662"
          ],
          [
            "-103352749",
            "20729708",
            "1518",
            "21",
            "1000",
            "0",
            "0",
            "0",
            "0",
            "railway=light_rail",
            "railway=switch",
            "5",
            "3757"
          ],
          [
            "-103352716",
            "20729876",
            "1518",
            "19",
            "1000",
            "0",
            "0",
            "0",
            "0",
            "reversedirection=yes railway=light_rail",
            "railway=switch",
            "7",
            "4758"
          ],
          [
            "-103352305",
            "20730805",
            "1519",
            "112",
            "1000",
            "0",
            "0",
            "0",
            "0",
            "reversedirection=yes railway=light_rail",
            "railway=halt",
            "16",
            "10216"
          ],
          [
            "-103350815",
            "20735336",
            "1523",
            "528",
            "1000",
            "0",
            "0",
            "0",
            "0",
            "reversedirection=yes railway=light_rail",
            "railway=halt",
            "58",
            "33696"
          ],
          [
            "-103350600",
            "20735852",
            "1523",
            "61",
            "1000",
            "0",
            "0",
            "0",
            "0",
            "reversedirection=yes railway=light_rail",
            "",
            "63",
            "37187"
          ]
        ],
        "times": [
          0,
          4.88,
          11.52,
          12.72,
          14.16,
          28.8,
          32.16,
          34.88,
          39.36,
          47.12,
          48.96,
          55.6,
          56.08,
          59.2,
          62.96,
          63.2,
          64.4,
          65.76,
          68,
          70.32,
          73.52,
          76.08,
          80.64,
          86.8,
          97.52,
          100,
          113.12,
          120.72,
          122.72,
          126.16,
          130,
          131.68,
          137.12,
          141.36,
          146.24,
          151.36,
          178.48,
          184.24,
          185.12,
          186.72,
          195.36,
          197.6,
          204.08,
          226.08,
          226.72,
          227.92,
          239.44,
          240.56,
          243.04,
          244,
          245.76,
          246.72,
          255.28,
          268.16,
          270.56,
          273.44,
          277.36,
          294.72,
          307.36,
          324.4,
          341.36,
          355.12,
          358.32,
          361.52,
          364.08,
          366.88,
          384.88,
          387.28,
          389.52,
          404.4,
          419.84,
          428.88,
          443.6,
          447.36,
          459.68,
          472.72,
          481.68,
          485.12,
          489.2,
          505.04,
          511.68,
          518.16,
          519.84,
          521.68,
          526.64,
          529.12,
          531.36,
          545.44,
          551.6,
          558.72,
          597.36,
          602.8,
          606.16,
          623.52,
          645.84,
          677.76,
          683.36,
          685.04,
          687.04,
          689.12,
          690.64,
          701.6,
          703.28,
          705.2,
          706.72,
          719.52,
          727.44,
          741.2,
          742.96,
          753.76,
          754.08,
          757.76,
          762.72,
          775.68,
          781.36,
          796.88,
          810.64,
          828,
          836.88,
          842.16,
          852.32,
          882.96,
          887.84,
          888.64,
          890.24,
          922.48,
          932.8,
          933.76,
          935.36,
          935.92,
          940.24,
          944.56,
          961.12,
          997.44,
          1002.64,
          1003.28,
          1004.4,
          1033.28,
          1043.52,
          1047.6,
          1057.2,
          1062.32,
          1067.52,
          1070.48,
          1078.4,
          1085.12,
          1087.52,
          1118.88,
          1124.96,
          1126.88,
          1128.24,
          1205.76,
          1212.32,
          1213.6,
          1214.8,
          1215.68,
          1237.28,
          1271.04,
          1277.52,
          1280.88,
          1284.24,
          1290.72,
          1295.04,
          1296.64,
          1313.76,
          1325.6,
          1346.08,
          1346.96,
          1348.16,
          1349.44,
          1356.08,
          1420.08,
          1433.6,
          1434.96,
          1436.8,
          1442.88,
          1474.16,
          1476.64,
          1491.36,
          1494.16,
          1499.44,
          1510.56,
          1514,
          1518.96,
          1528.48,
          1557.28,
          1558.4,
          1559.04,
          1564.32,
          1600.56,
          1617.12,
          1621.52,
          1626.32,
          1628,
          1628.96,
          1638.72,
          1671.52,
          1672.8,
          1673.76,
          1678.64,
          1683.2,
          1709.04,
          1719.44,
          1724.72,
          1733.6,
          1750.96,
          1764.64,
          1780.16,
          1786,
          1798.96,
          1803.84,
          1807.52,
          1807.92,
          1814.96,
          1818.64,
          1820.4,
          1824.16,
          1825.36,
          1842.08,
          1855.04,
          1856.56,
          1858.4,
          1860.08,
          1871.28,
          1872.88,
          1874.72,
          1878.4,
          1884.08,
          1916,
          1938.4,
          1955.76,
          1958.88,
          1964.48,
          2003.36,
          2010.48,
          2029.68,
          2030.96,
          2032.88,
          2036.08,
          2040.16,
          2041.68,
          2043.84,
          2056.88,
          2065.04,
          2076.8,
          2089.2,
          2095.68,
          2114.48,
          2118.32,
          2125.44,
          2132.96,
          2142,
          2143.44,
          2157.44,
          2172.24,
          2174.72,
          2176.96,
          2187.76,
          2195.12,
          2198.16,
          2201.36,
          2204.64,
          2208.32,
          2220.48,
          2237.52,
          2255.04,
          2264.16,
          2272.32,
          2288.56,
          2291.2,
          2293.28,
          2306.88,
          2315.2,
          2317.12,
          2318.32,
          2319.2,
          2320.4,
          2321.36,
          2333.6,
          2335.6,
          2357.6,
          2363.6,
          2366.24,
          2374.8,
          2376.4,
          2377.28,
          2383.04,
          2410.16,
          2415.2,
          2420.24,
          2424.48,
          2429.92,
          2431.6,
          2435.6,
          2440.88,
          2448.48,
          2461.52,
          2464,
          2474.8,
          2485.52,
          2488.08,
          2491.2,
          2493.52,
          2495.76,
          2498.16,
          2498.48,
          2502.24,
          2503.92,
          2505.44,
          2505.92,
          2512.56,
          2514.4,
          2522.16,
          2526.64,
          2529.36,
          2532.72,
          2547.36,
          2548.8,
          2550,
          2556.64,
          2561.52
        ]
      },
      "geometry": {
        "type": "LineString",
        "coordinates": [
          [
            -103.350599,
            20.735852,
            1518.25
          ],
          [
            -103.350815,
            20.735336,
            1518.25
          ],
          [
            -103.351125,
            20.734643,
            1518.25
          ],
          [
            -103.35117,
            20.734517,
            1518.25
          ],
          [
            -103.351214,
            20.734364,
            1518.25
          ],
          [
            -103.351546,
            20.732742,
            1518.25
          ],
          [
            -103.351672,
            20.732378,
            1518.25
          ],
          [
            -103.351808,
            20.732102,
            1518.25
          ],
          [
            -103.352015,
            20.731635,
            1518.25
          ],
          [
            -103.352305,
            20.730805,
            1518.25
          ],
          [
            -103.352379,
            20.730614,
            1518.25
          ],
          [
            -103.352695,
            20.729926,
            1518.25
          ],
          [
            -103.352716,
            20.729876,
            1518.25
          ],
          [
            -103.35285,
            20.729543,
            1517.75
          ],
          [
            -103.353024,
            20.729154,
            1516.75
          ],
          [
            -103.353035,
            20.729129,
            1516.5
          ],
          [
            -103.353085,
            20.729006,
            1516.5
          ],
          [
            -103.353134,
            20.728857,
            1516
          ],
          [
            -103.353192,
            20.728611,
            1515.5
          ],
          [
            -103.353237,
            20.728349,
            1514.75
          ],
          [
            -103.353266,
            20.727988,
            1514.75
          ],
          [
            -103.35328,
            20.727699,
            1514.75
          ],
          [
            -103.353255,
            20.727182,
            1515.25
          ],
          [
            -103.353234,
            20.726487,
            1515.25
          ],
          [
            -103.353197,
            20.72528,
            1519
          ],
          [
            -103.353192,
            20.725,
            1521.75
          ],
          [
            -103.353165,
            20.723516,
            1522.75
          ],
          [
            -103.35315,
            20.722657,
            1523.75
          ],
          [
            -103.353146,
            20.722431,
            1524
          ],
          [
            -103.353182,
            20.722047,
            1522.75
          ],
          [
            -103.353244,
            20.721619,
            1521.75
          ],
          [
            -103.353285,
            20.721437,
            1521.75
          ],
          [
            -103.353392,
            20.720834,
            1522
          ],
          [
            -103.353494,
            20.720361,
            1521.25
          ],
          [
            -103.353628,
            20.719823,
            1521
          ],
          [
            -103.35375,
            20.719256,
            1521.25
          ],
          [
            -103.354392,
            20.716256,
            1511.75
          ],
          [
            -103.354531,
            20.71562,
            1512
          ],
          [
            -103.354553,
            20.715519,
            1512
          ],
          [
            -103.354555,
            20.715335,
            1512
          ],
          [
            -103.354578,
            20.714363,
            1511.5
          ],
          [
            -103.354621,
            20.714116,
            1511.5
          ],
          [
            -103.354879,
            20.71343,
            1512
          ],
          [
            -103.355819,
            20.711113,
            1514
          ],
          [
            -103.355847,
            20.711044,
            1514
          ],
          [
            -103.355886,
            20.710914,
            1514
          ],
          [
            -103.356155,
            20.70964,
            1515.25
          ],
          [
            -103.356175,
            20.709517,
            1515.25
          ],
          [
            -103.356182,
            20.709239,
            1515.5
          ],
          [
            -103.356171,
            20.709135,
            1515.5
          ],
          [
            -103.356118,
            20.708943,
            1515.75
          ],
          [
            -103.35608,
            20.708836,
            1515.75
          ],
          [
            -103.355634,
            20.707967,
            1516.5
          ],
          [
            -103.35496,
            20.706657,
            1517.75
          ],
          [
            -103.354856,
            20.706409,
            1518
          ],
          [
            -103.354795,
            20.706091,
            1518.25
          ],
          [
            -103.354796,
            20.70565,
            1518.5
          ],
          [
            -103.354767,
            20.703686,
            1520
          ],
          [
            -103.354812,
            20.702256,
            1521.25
          ],
          [
            -103.354935,
            20.700334,
            1522.75
          ],
          [
            -103.355012,
            20.698417,
            1524.25
          ],
          [
            -103.355077,
            20.696862,
            1525.5
          ],
          [
            -103.355072,
            20.6965,
            1525.75
          ],
          [
            -103.355024,
            20.696146,
            1526
          ],
          [
            -103.354963,
            20.69586,
            1526.25
          ],
          [
            -103.354868,
            20.695556,
            1526.5
          ],
          [
            -103.354102,
            20.693659,
            1528.25
          ],
          [
            -103.354043,
            20.693396,
            1528.5
          ],
          [
            -103.354011,
            20.693145,
            1528.5
          ],
          [
            -103.353949,
            20.691468,
            1530
          ],
          [
            -103.353884,
            20.68973,
            1531.25
          ],
          [
            -103.35392,
            20.68871,
            1532
          ],
          [
            -103.353964,
            20.687049,
            1533.5
          ],
          [
            -103.353987,
            20.686622,
            1533.75
          ],
          [
            -103.354025,
            20.685228,
            1534.75
          ],
          [
            -103.354088,
            20.683761,
            1536
          ],
          [
            -103.354093,
            20.682751,
            1536.75
          ],
          [
            -103.354104,
            20.682365,
            1537.25
          ],
          [
            -103.35412,
            20.681903,
            1537.5
          ],
          [
            -103.354206,
            20.68012,
            1539
          ],
          [
            -103.354221,
            20.679374,
            1539.5
          ],
          [
            -103.354247,
            20.678643,
            1540
          ],
          [
            -103.354296,
            20.678457,
            1540.25
          ],
          [
            -103.354364,
            20.678258,
            1540.5
          ],
          [
            -103.354636,
            20.677763,
            1540.75
          ],
          [
            -103.354719,
            20.677498,
            1541
          ],
          [
            -103.35476,
            20.677252,
            1541.25
          ],
          [
            -103.354766,
            20.675659,
            1542.5
          ],
          [
            -103.354761,
            20.674964,
            1543
          ],
          [
            -103.354786,
            20.674158,
            1543.75
          ],
          [
            -103.354837,
            20.669796,
            1547.25
          ],
          [
            -103.354826,
            20.66918,
            1547.75
          ],
          [
            -103.354888,
            20.668803,
            1548
          ],
          [
            -103.35541,
            20.666906,
            1549.5
          ],
          [
            -103.356084,
            20.664464,
            1551.5
          ],
          [
            -103.357443,
            20.661096,
            1554.5
          ],
          [
            -103.357682,
            20.660507,
            1555
          ],
          [
            -103.35777,
            20.660337,
            1555
          ],
          [
            -103.357885,
            20.66014,
            1555.25
          ],
          [
            -103.358051,
            20.659969,
            1555.5
          ],
          [
            -103.358191,
            20.659854,
            1555.5
          ],
          [
            -103.359354,
            20.659277,
            1556.5
          ],
          [
            -103.359527,
            20.659178,
            1556.75
          ],
          [
            -103.359705,
            20.65904,
            1557
          ],
          [
            -103.359835,
            20.658924,
            1557
          ],
          [
            -103.360817,
            20.657808,
            1559.5
          ],
          [
            -103.361423,
            20.65712,
            1560.25
          ],
          [
            -103.362435,
            20.655894,
            1562
          ],
          [
            -103.362563,
            20.655737,
            1562.5
          ],
          [
            -103.363342,
            20.654759,
            1564.25
          ],
          [
            -103.363369,
            20.654728,
            1564.25
          ],
          [
            -103.363633,
            20.654397,
            1565.25
          ],
          [
            -103.363993,
            20.653955,
            1566.5
          ],
          [
            -103.364924,
            20.652778,
            1566.75
          ],
          [
            -103.365338,
            20.652266,
            1566.5
          ],
          [
            -103.366467,
            20.650872,
            1566
          ],
          [
            -103.367459,
            20.649632,
            1568
          ],
          [
            -103.368685,
            20.648043,
            1570.5
          ],
          [
            -103.369308,
            20.647232,
            1568
          ],
          [
            -103.36968,
            20.646753,
            1569.25
          ],
          [
            -103.370412,
            20.645836,
            1570.5
          ],
          [
            -103.372752,
            20.643171,
            1574.5
          ],
          [
            -103.37314,
            20.642762,
            1575.5
          ],
          [
            -103.373206,
            20.642692,
            1575.5
          ],
          [
            -103.373327,
            20.64255,
            1575
          ],
          [
            -103.375783,
            20.63974,
            1575
          ],
          [
            -103.376529,
            20.638815,
            1575
          ],
          [
            -103.3766,
            20.638729,
            1575.25
          ],
          [
            -103.376714,
            20.638587,
            1575.75
          ],
          [
            -103.376756,
            20.638532,
            1575.75
          ],
          [
            -103.377014,
            20.638114,
            1576.5
          ],
          [
            -103.377284,
            20.637698,
            1577.25
          ],
          [
            -103.378237,
            20.636058,
            1575
          ],
          [
            -103.38071,
            20.632687,
            1575.25
          ],
          [
            -103.381067,
            20.632204,
            1575.75
          ],
          [
            -103.381111,
            20.632147,
            1575.75
          ],
          [
            -103.381189,
            20.632041,
            1576
          ],
          [
            -103.383095,
            20.629321,
            1581.25
          ],
          [
            -103.383811,
            20.628377,
            1582
          ],
          [
            -103.384079,
            20.627993,
            1583
          ],
          [
            -103.384767,
            20.627127,
            1585.5
          ],
          [
            -103.38515,
            20.626672,
            1586.75
          ],
          [
            -103.385542,
            20.626215,
            1585.5
          ],
          [
            -103.385743,
            20.625941,
            1585
          ],
          [
            -103.386306,
            20.625219,
            1587.5
          ],
          [
            -103.386811,
            20.624629,
            1588.5
          ],
          [
            -103.386993,
            20.624416,
            1588.75
          ],
          [
            -103.389282,
            20.621607,
            1597.25
          ],
          [
            -103.38973,
            20.621064,
            1597.5
          ],
          [
            -103.389867,
            20.620892,
            1597.25
          ],
          [
            -103.389967,
            20.62077,
            1597
          ],
          [
            -103.395627,
            20.613829,
            1624.75
          ],
          [
            -103.396113,
            20.613241,
            1627
          ],
          [
            -103.396209,
            20.613125,
            1626.5
          ],
          [
            -103.396299,
            20.613018,
            1626
          ],
          [
            -103.396366,
            20.612939,
            1625.75
          ],
          [
            -103.39794,
            20.611007,
            1609.5
          ],
          [
            -103.400406,
            20.607978,
            1609.5
          ],
          [
            -103.400877,
            20.607393,
            1609
          ],
          [
            -103.401115,
            20.607088,
            1609
          ],
          [
            -103.400877,
            20.607393,
            1609
          ],
          [
            -103.400406,
            20.607978,
            1609.5
          ],
          [
            -103.400061,
            20.608346,
            1609.25
          ],
          [
            -103.399948,
            20.608487,
            1609.25
          ],
          [
            -103.398694,
            20.610018,
            1616
          ],
          [
            -103.39783,
            20.611081,
            1625.5
          ],
          [
            -103.396335,
            20.612917,
            1625.5
          ],
          [
            -103.39627,
            20.612997,
            1626
          ],
          [
            -103.396181,
            20.613106,
            1626.5
          ],
          [
            -103.396087,
            20.613219,
            1626.75
          ],
          [
            -103.395596,
            20.613808,
            1624.75
          ],
          [
            -103.390917,
            20.619537,
            1601
          ],
          [
            -103.389935,
            20.620751,
            1597
          ],
          [
            -103.389837,
            20.620874,
            1597.25
          ],
          [
            -103.389702,
            20.621044,
            1597.5
          ],
          [
            -103.38925,
            20.621588,
            1597.25
          ],
          [
            -103.386955,
            20.624387,
            1588.75
          ],
          [
            -103.386776,
            20.624609,
            1588.5
          ],
          [
            -103.385709,
            20.625934,
            1585
          ],
          [
            -103.385516,
            20.626191,
            1585.5
          ],
          [
            -103.385124,
            20.626658,
            1586.75
          ],
          [
            -103.384291,
            20.62764,
            1584.5
          ],
          [
            -103.384043,
            20.627954,
            1583
          ],
          [
            -103.383722,
            20.628423,
            1582
          ],
          [
            -103.383058,
            20.629297,
            1581
          ],
          [
            -103.381161,
            20.632019,
            1576.25
          ],
          [
            -103.381083,
            20.632125,
            1576
          ],
          [
            -103.381038,
            20.632186,
            1575.75
          ],
          [
            -103.380676,
            20.63267,
            1575.25
          ],
          [
            -103.378205,
            20.636032,
            1575
          ],
          [
            -103.377263,
            20.637683,
            1577
          ],
          [
            -103.376993,
            20.638105,
            1576.5
          ],
          [
            -103.376685,
            20.638568,
            1575.75
          ],
          [
            -103.37656,
            20.638716,
            1575.25
          ],
          [
            -103.376489,
            20.638803,
            1575
          ],
          [
            -103.375777,
            20.639679,
            1574.75
          ],
          [
            -103.373272,
            20.642533,
            1575
          ],
          [
            -103.373174,
            20.642646,
            1575.5
          ],
          [
            -103.373099,
            20.64273,
            1575.5
          ],
          [
            -103.37272,
            20.64315,
            1574.5
          ],
          [
            -103.372381,
            20.64355,
            1573
          ],
          [
            -103.370391,
            20.645791,
            1570.5
          ],
          [
            -103.369654,
            20.646735,
            1569.5
          ],
          [
            -103.36928,
            20.647215,
            1568.25
          ],
          [
            -103.368651,
            20.648026,
            1570.5
          ],
          [
            -103.367424,
            20.649611,
            1568
          ],
          [
            -103.366435,
            20.650849,
            1565.75
          ],
          [
            -103.365303,
            20.652243,
            1566.5
          ],
          [
            -103.364878,
            20.652766,
            1566.75
          ],
          [
            -103.363951,
            20.653936,
            1566.5
          ],
          [
            -103.363605,
            20.654384,
            1565.25
          ],
          [
            -103.36334,
            20.654712,
            1564.25
          ],
          [
            -103.363313,
            20.654747,
            1564.25
          ],
          [
            -103.362802,
            20.655383,
            1564
          ],
          [
            -103.362563,
            20.655737,
            1562.5
          ],
          [
            -103.362435,
            20.655894,
            1562
          ],
          [
            -103.362134,
            20.656209,
            1561.75
          ],
          [
            -103.362044,
            20.65632,
            1561.5
          ],
          [
            -103.360782,
            20.657782,
            1559.5
          ],
          [
            -103.359791,
            20.658904,
            1557.25
          ],
          [
            -103.359663,
            20.659022,
            1557
          ],
          [
            -103.359493,
            20.659152,
            1556.75
          ],
          [
            -103.359322,
            20.659248,
            1556.75
          ],
          [
            -103.358134,
            20.659836,
            1555.75
          ],
          [
            -103.357991,
            20.659959,
            1555.5
          ],
          [
            -103.357847,
            20.660112,
            1555.25
          ],
          [
            -103.357645,
            20.660481,
            1555
          ],
          [
            -103.3574,
            20.661084,
            1554.5
          ],
          [
            -103.356039,
            20.664451,
            1551.5
          ],
          [
            -103.355362,
            20.666898,
            1549.5
          ],
          [
            -103.35484,
            20.668795,
            1548
          ],
          [
            -103.354781,
            20.669144,
            1547.75
          ],
          [
            -103.354757,
            20.669774,
            1547.25
          ],
          [
            -103.354737,
            20.67416,
            1543.75
          ],
          [
            -103.354725,
            20.674962,
            1543
          ],
          [
            -103.354701,
            20.677127,
            1541.25
          ],
          [
            -103.354689,
            20.677268,
            1541.25
          ],
          [
            -103.354655,
            20.677484,
            1541
          ],
          [
            -103.354535,
            20.677828,
            1540.75
          ],
          [
            -103.354314,
            20.678235,
            1540.25
          ],
          [
            -103.354257,
            20.678401,
            1540.25
          ],
          [
            -103.354198,
            20.678642,
            1540
          ],
          [
            -103.354156,
            20.680117,
            1538.75
          ],
          [
            -103.354097,
            20.681038,
            1538
          ],
          [
            -103.354045,
            20.682363,
            1537
          ],
          [
            -103.354,
            20.683763,
            1536
          ],
          [
            -103.353966,
            20.684494,
            1535.25
          ],
          [
            -103.3539,
            20.686617,
            1533.75
          ],
          [
            -103.353878,
            20.687051,
            1533.25
          ],
          [
            -103.353856,
            20.687859,
            1532.75
          ],
          [
            -103.353831,
            20.688707,
            1532
          ],
          [
            -103.353811,
            20.689729,
            1531.25
          ],
          [
            -103.353826,
            20.689887,
            1531
          ],
          [
            -103.353892,
            20.691468,
            1529.75
          ],
          [
            -103.353963,
            20.693139,
            1528.5
          ],
          [
            -103.354,
            20.69342,
            1528.25
          ],
          [
            -103.354051,
            20.693665,
            1528
          ],
          [
            -103.354502,
            20.694805,
            1527
          ],
          [
            -103.354826,
            20.69558,
            1526.25
          ],
          [
            -103.354928,
            20.695911,
            1526
          ],
          [
            -103.354998,
            20.696265,
            1525.75
          ],
          [
            -103.355025,
            20.696634,
            1525.5
          ],
          [
            -103.355014,
            20.697045,
            1525.25
          ],
          [
            -103.354943,
            20.698414,
            1524
          ],
          [
            -103.354872,
            20.700336,
            1522.5
          ],
          [
            -103.354754,
            20.702309,
            1521
          ],
          [
            -103.354722,
            20.703336,
            1520
          ],
          [
            -103.354722,
            20.704254,
            1519.25
          ],
          [
            -103.354749,
            20.706085,
            1518
          ],
          [
            -103.354797,
            20.706384,
            1517.75
          ],
          [
            -103.354877,
            20.706602,
            1517.5
          ],
          [
            -103.355601,
            20.707982,
            1516.25
          ],
          [
            -103.356036,
            20.70883,
            1515.5
          ],
          [
            -103.356103,
            20.709041,
            1515.25
          ],
          [
            -103.356135,
            20.709176,
            1515.25
          ],
          [
            -103.356146,
            20.709274,
            1515
          ],
          [
            -103.356143,
            20.709407,
            1515
          ],
          [
            -103.356133,
            20.709515,
            1515
          ],
          [
            -103.355846,
            20.710872,
            1513.75
          ],
          [
            -103.355778,
            20.711093,
            1513.5
          ],
          [
            -103.354854,
            20.713423,
            1511.5
          ],
          [
            -103.354612,
            20.714063,
            1511.75
          ],
          [
            -103.354556,
            20.714357,
            1511.5
          ],
          [
            -103.354511,
            20.715326,
            1512
          ],
          [
            -103.354507,
            20.71551,
            1512
          ],
          [
            -103.354485,
            20.71561,
            1512
          ],
          [
            -103.354345,
            20.716246,
            1511.75
          ],
          [
            -103.353699,
            20.719245,
            1521.5
          ],
          [
            -103.353581,
            20.719807,
            1521
          ],
          [
            -103.353456,
            20.72036,
            1521.25
          ],
          [
            -103.353361,
            20.720829,
            1521.75
          ],
          [
            -103.35325,
            20.72143,
            1521.75
          ],
          [
            -103.353207,
            20.721615,
            1521.75
          ],
          [
            -103.353131,
            20.722064,
            1522.75
          ],
          [
            -103.353094,
            20.722658,
            1524
          ],
          [
            -103.353121,
            20.723518,
            1522.5
          ],
          [
            -103.353153,
            20.724989,
            1521.5
          ],
          [
            -103.353161,
            20.725272,
            1519
          ],
          [
            -103.353194,
            20.726487,
            1515.25
          ],
          [
            -103.353229,
            20.727699,
            1514.75
          ],
          [
            -103.353225,
            20.727991,
            1514.75
          ],
          [
            -103.353205,
            20.728342,
            1514.75
          ],
          [
            -103.353162,
            20.728602,
            1515.5
          ],
          [
            -103.3531,
            20.72885,
            1516
          ],
          [
            -103.353006,
            20.729107,
            1516.75
          ],
          [
            -103.352994,
            20.729139,
            1516.75
          ],
          [
            -103.352818,
            20.729531,
            1517.75
          ],
          [
            -103.352749,
            20.729708,
            1518
          ],
          [
            -103.352716,
            20.729876,
            1518.25
          ],
          [
            -103.352695,
            20.729926,
            1518.25
          ],
          [
            -103.352379,
            20.730614,
            1518.75
          ],
          [
            -103.352305,
            20.730805,
            1519
          ],
          [
            -103.352015,
            20.731635,
            1519.75
          ],
          [
            -103.351808,
            20.732102,
            1520
          ],
          [
            -103.351672,
            20.732378,
            1520.25
          ],
          [
            -103.351546,
            20.732742,
            1520.75
          ],
          [
            -103.351214,
            20.734364,
            1522
          ],
          [
            -103.35117,
            20.734517,
            1522.25
          ],
          [
            -103.351125,
            20.734643,
            1522.25
          ],
          [
            -103.350815,
            20.735336,
            1523
          ],
          [
            -103.3506,
            20.735852,
            1523.25
          ]
        ]
      }
    }
  ]
}