{
  "type": "FeatureCollection",
  "features": [
    {
      "type": "Feature",
      "properties": {
        "creator": "BRouter-1.7.9",
        "name": "[SMS] Seattle Center Monorail",
        "track-length": "3038",
        "filtered ascend": "5",
        "plain-ascend": "1",
        "total-time": "244",
        "total-energy": "135556",
        "cost": "3038",
        "messages": [
          [
            "Longitude",
            "Latitude",
            "Elevation",
            "Distance",
            "CostPerKm",
            "ElevCost",
            "TurnCost",
            "NodeCost",
            "InitialCost",
            "WayTags",
            "NodeTags",
            "Time",
            "Energy"
          ],
          [
            "-122336941",
            "47612023",
            "-8192",
            "14",
            "1000",
            "0",
            "0",
            "0",
            "0",
            "reversedirection=yes railway=monorail",
            "railway=halt",
            "1",
            "615"
          ],
          [
            "-122348647",
            "47621267",
            "43",
            "1411",
            "1000",
            "0",
            "0",
            "0",
            "0",
            "reversedirection=yes railway=monorail",
            "",
            "113",
            "63026"
          ],
          [
            "-122349604",
            "47621215",
            "41",
            "71",
            "1000",
            "0",
            "0",
            "0",
            "0",
            "railway=monorail",
            "railway=halt",
            "119",
            "65581"
          ],
          [
            "-122349906",
            "47621194",
            "40",
            "23",
            "1000",
            "0",
            "0",
            "0",
            "0",
            "railway=monorail",
            "",
            "121",
            "66094"
          ],
          [
            "-122349604",
            "47621215",
            "41",
            "23",
            "1000",
            "0",
            "0",
            "0",
            "0",
            "reversedirection=yes railway=monorail",
            "railway=halt",
            "1",
            "1238"
          ],
          [
            "-122348647",
            "47621267",
            "44",
            "71",
            "1000",
            "0",
            "0",
            "0",
            "0",
            "reversedirection=yes railway=monorail",
            "",
            "7",
            "5233"
          ],
          [
            "-122336941",
            "47612023",
            "-8192",
            "1411",
            "1000",
            "0",
            "0",
            "0",
            "0",
            "railway=monorail",
            "railway=halt",
            "120",
            "68846"
          ],
          [
            "-122336842",
            "47611913",
            "-8192",
            "14",
            "1000",
            "0",
            "0",
            "0",
            "0",
            "railway=monorail",
            "",
            "121",
            "69462"
          ]
        ],
        "times": [
          0,
          1.12,
          6.88,
          8.96,
          10.08,
          49.52,
          82.64,
          84.24,
          85.92,
          87.6,
          89.44,
          90.88,
          92.72,
          94.56,
          96.4,
          104.4,
          106,
          106.96,
          108,
          109.04,
          109.84,
          110.72,
          111.84,
          112.96,
          114,
          114.48,
          115.44,
          118.48,
          119.68,
          121.52,
          123.36,
          124.56,
          127.6,
          128.56,
          129.04,
          130.08,
          131.2,
          132.32,
          133.2,
          134,
          135.04,
          136.08,
          137.04,
          138.64,
          146.64,
          148.48,
          150.32,
          152.16,
          153.6,
          155.44,
          157.12,
          158.8,
          160.4,
          193.52,
          232.96,
          234.08,
          236.16,
          241.92,
          243.04
        ]
      },
      "geometry": {
        "type": "LineString",
        "coordinates": [
          [
            -122.336842,
            47.611913,
            43
          ],
          [
            -122.336941,
            47.612023,
            43
          ],
          [
            -122.337444,
            47.612574,
            43
          ],
          [
            -122.33765,
            47.612761,
            43
          ],
          [
            -122.337775,
            47.61285,
            43
          ],
          [
            -122.342709,
            47.615771,
            43
          ],
          [
            -122.346857,
            47.618228,
            43
          ],
          [
            -122.347044,
            47.618352,
            43
          ],
          [
            -122.347228,
            47.618494,
            43
          ],
          [
            -122.347388,
            47.618651,
            43
          ],
          [
            -122.34753,
            47.618837,
            43
          ],
          [
            -122.347615,
            47.618985,
            43
          ],
          [
            -122.347694,
            47.619188,
            43
          ],
          [
            -122.347732,
            47.619395,
            43
          ],
          [
            -122.347742,
            47.619601,
            43
          ],
          [
            -122.347737,
            47.6205,
            43
          ],
          [
            -122.347756,
            47.620682,
            43
          ],
          [
            -122.347794,
            47.620788,
            43
          ],
          [
            -122.347857,
            47.620894,
            43
          ],
          [
            -122.347948,
            47.620994,
            43
          ],
          [
            -122.348034,
            47.621062,
            43
          ],
          [
            -122.348139,
            47.621127,
            43.5
          ],
          [
            -122.348297,
            47.621195,
            44.25
          ],
          [
            -122.348472,
            47.621242,
            44.25
          ],
          [
            -122.348647,
            47.621267,
            43.5
          ],
          [
            -122.348731,
            47.621271,
            43.25
          ],
          [
            -122.348897,
            47.621265,
            42.75
          ],
          [
            -122.349402,
            47.621228,
            41.25
          ],
          [
            -122.349604,
            47.621215,
            41.25
          ],
          [
            -122.349906,
            47.621194,
            40
          ],
          [
            -122.349604,
            47.621215,
            41.25
          ],
          [
            -122.349402,
            47.621228,
            41.75
          ],
          [
            -122.348897,
            47.621265,
            43.25
          ],
          [
            -122.348731,
            47.621271,
            43.75
          ],
          [
            -122.348647,
            47.621267,
            44.25
          ],
          [
            -122.348472,
            47.621242,
            44.25
          ],
          [
            -122.348297,
            47.621195,
            44.25
          ],
          [
            -122.348139,
            47.621127,
            43.5
          ],
          [
            -122.348034,
            47.621062,
            43
          ],
          [
            -122.347948,
            47.620994
          ],
          [
            -122.347857,
            47.620894
          ],
          [
            -122.347794,
            47.620788
          ],
          [
            -122.347756,
            47.620682
          ],
          [
            -122.347737,
            47.6205
          ],
          [
            -122.347742,
            47.619601
          ],
          [
            -122.347732,
            47.619395
          ],
          [
            -122.347694,
            47.619188
          ],
          [
            -122.347615,
            47.618985
          ],
          [
            -122.34753,
            47.618837
          ],
          [
            -122.347388,
            47.618651
          ],
          [
            -122.347228,
            47.618494
          ],
          [
            -122.347044,
            47.618352
          ],
          [
            -122.346857,
            47.618228
          ],
          [
            -122.342709,
            47.615771
          ],
          [
            -122.337775,
            47.61285
          ],
          [
            -122.33765,
            47.612761
          ],
          [
            -122.337444,
            47.612574
          ],
          [
            -122.336941,
            47.612023
          ],
          [
            -122.336842,
            47.611913
          ]
        ]
      }
    }
  ]
}