{
  "type": "FeatureCollection",
  "features": [
    {
      "type": "Feature",
      "properties": {
        "creator": "BRouter-1.7.9",
        "name": "[STC] Línea 6",
        "track-length": "23500",
        "filtered ascend": "18",
        "plain-ascend": "1",
        "total-time": "1880",
        "total-energy": "1033838",
        "cost": "47000",
        "messages": [
          [
            "Longitude",
            "Latitude",
            "Elevation",
            "Distance",
            "CostPerKm",
            "ElevCost",
            "TurnCost",
            "NodeCost",
            "InitialCost",
            "WayTags",
            "NodeTags",
            "Time",
            "Energy"
          ],
          [
            "-99200018",
            "19504186",
            "2254",
            "113",
            "2000",
            "0",
            "0",
            "0",
            "0",
            "railway=subway",
            "railway=halt",
            "9",
            "6315"
          ],
          [
            "-99200287",
            "19503152",
            "2251",
            "118",
            "2000",
            "0",
            "0",
            "0",
            "0",
            "railway=subway",
            "railway=switch",
            "18",
            "10257"
          ],
          [
            "-99196030",
            "19494938",
            "2249",
            "1229",
            "2000",
            "0",
            "0",
            "0",
            "0",
            "reversedirection=yes railway=subway",
            "railway=station",
            "116",
            "66425"
          ],
          [
            "-99186289",
            "19490897",
            "2246",
            "1132",
            "2000",
            "0",
            "0",
            "0",
            "0",
            "reversedirection=yes railway=subway",
            "railway=station",
            "207",
            "116217"
          ],
          [
            "-99173913",
            "19490678",
            "2244",
            "1334",
            "2000",
            "0",
            "0",
            "0",
            "0",
            "reversedirection=yes railway=subway",
            "wheelchair=no railway=station",
            "314",
            "169154"
          ],
          [
            "-99162987",
            "19488646",
            "2242",
            "1193",
            "2000",
            "0",
            "0",
            "0",
            "0",
            "reversedirection=yes railway=subway",
            "railway=station",
            "409",
            "218983"
          ],
          [
            "-99156124",
            "19489776",
            "2241",
            "822",
            "2000",
            "0",
            "0",
            "0",
            "0",
            "reversedirection=yes railway=subway",
            "railway=station",
            "475",
            "255136"
          ],
          [
            "-99148121",
            "19491014",
            "2240",
            "916",
            "2000",
            "0",
            "0",
            "0",
            "0",
            "reversedirection=yes railway=subway",
            "railway=halt",
            "548",
            "295426"
          ],
          [
            "-99135072",
            "19488062",
            "2238",
            "1414",
            "2000",
            "0",
            "0",
            "0",
            "0",
            "reversedirection=yes railway=subway",
            "wheelchair=yes railway=station",
            "661",
            "354689"
          ],
          [
            "-99124950",
            "19483397",
            "2238",
            "1206",
            "2000",
            "0",
            "0",
            "0",
            "0",
            "reversedirection=yes railway=subway",
            "railway=halt",
            "758",
            "406694"
          ],
          [
            "-99118447",
            "19481604",
            "2238",
            "715",
            "2000",
            "0",
            "0",
            "0",
            "0",
            "reversedirection=yes railway=subway",
            "railway=station",
            "815",
            "435823"
          ],
          [
            "-99105851",
            "19482320",
            "-8192",
            "1442",
            "2000",
            "0",
            "0",
            "0",
            "0",
            "reversedirection=yes railway=subway",
            "railway=halt",
            "930",
            "499363"
          ],
          [
            "-99104849",
            "19481870",
            "-8192",
            "116",
            "2000",
            "0",
            "0",
            "0",
            "0",
            "reversedirection=yes railway=subway",
            "",
            "940",
            "504466"
          ],
          [
            "-99105851",
            "19482320",
            "-8192",
            "116",
            "2000",
            "0",
            "0",
            "0",
            "0",
            "railway=subway",
            "railway=halt",
            "9",
            "5102"
          ],
          [
            "-99118447",
            "19481604",
            "2238",
            "1442",
            "2000",
            "0",
            "0",
            "0",
            "0",
            "railway=subway",
            "railway=station",
            "124",
            "68970"
          ],
          [
            "-99124950",
            "19483397",
            "2238",
            "715",
            "2000",
            "0",
            "0",
            "0",
            "0",
            "railway=subway",
            "railway=halt",
            "181",
            "100419"
          ],
          [
            "-99135072",
            "19488062",
            "2238",
            "1206",
            "2000",
            "0",
            "0",
            "0",
            "0",
            "railway=subway",
            "wheelchair=yes railway=station",
            "278",
            "152987"
          ],
          [
            "-99148121",
            "19491014",
            "2240",
            "1414",
            "2000",
            "0",
            "0",
            "0",
            "0",
            "railway=subway",
            "railway=halt",
            "391",
            "214778"
          ],
          [
            "-99156124",
            "19489776",
            "2241",
            "916",
            "2000",
            "0",
            "0",
            "0",
            "0",
            "railway=subway",
            "railway=station",
            "464",
            "255068"
          ],
          [
            "-99162987",
            "19488646",
            "2242",
            "822",
            "2000",
            "0",
            "0",
            "0",
            "0",
            "railway=subway",
            "railway=station",
            "530",
            "291224"
          ],
          [
            "-99173913",
            "19490678",
            "2244",
            "1193",
            "2000",
            "0",
            "0",
            "0",
            "0",
            "railway=subway",
            "wheelchair=no railway=station",
            "625",
            "343699"
          ],
          [
            "-99186289",
            "19490897",
            "2246",
            "1334",
            "2000",
            "0",
            "0",
            "0",
            "0",
            "railway=subway",
            "railway=station",
            "732",
            "406331"
          ],
          [
            "-99196030",
            "19494938",
            "2249",
            "1132",
            "2000",
            "0",
            "0",
            "0",
            "0",
            "railway=subway",
            "railway=station",
            "823",
            "456139"
          ],
          [
            "-99200287",
            "19503152",
            "2251",
            "1229",
            "2000",
            "0",
            "0",
            "0",
            "0",
            "railway=subway",
            "railway=switch",
            "921",
            "518233"
          ],
          [
            "-99200018",
            "19504186",
            "2254",
            "118",
            "2000",
            "0",
            "0",
            "0",
            "0",
            "reversedirection=yes railway=subway",
            "railway=halt",
            "930",
            "524789"
          ],
          [
            "-99199697",
            "19505157",
            "2252",
            "113",
            "2000",
            "0",
            "0",
            "0",
            "0",
            "reversedirection=yes railway=subway",
            "",
            "940",
            "529372"
          ]
        ],
        "times": [
          0,
          9.04,
          12.48,
          16.88,
          18.48,
          35.76,
          47.28,
          51.04,
          53.12,
          55.36,
          60.24,
          62.88,
          65.6,
          77.04,
          90.48,
          92.08,
          94,
          96,
          116.8,
          126,
          135.36,
          140.32,
          153.44,
          164.96,
          167.04,
          168.4,
          169.76,
          180.64,
          182.16,
          183.84,
          207.36,
          249.52,
          250.8,
          252.48,
          254.08,
          255.68,
          285.04,
          308,
          314.08,
          323.04,
          328.64,
          331.36,
          334.24,
          339.2,
          349.04,
          355.76,
          362,
          372.32,
          374.96,
          377.36,
          394,
          398.88,
          404.08,
          409.52,
          424.64,
          426.96,
          429.12,
          432.32,
          434.72,
          436.48,
          439.12,
          442.56,
          445.36,
          464.72,
          475.28,
          492.72,
          504.8,
          506.16,
          507.12,
          510.08,
          512.24,
          518.72,
          526.96,
          548.56,
          566,
          579.92,
          627.76,
          646.96,
          648.8,
          650.96,
          661.68,
          667.92,
          670.32,
          672.88,
          692.08,
          699.6,
          701.2,
          702.4,
          740.48,
          747.04,
          749.44,
          752.08,
          754.16,
          758.16,
          762.48,
          771.76,
          775.28,
          782.24,
          798.64,
          809.12,
          812.08,
          815.36,
          831.36,
          841.12,
          846.96,
          860.88,
          863.36,
          866.32,
          867.92,
          869.84,
          871.04,
          872.08,
          872.72,
          874.88,
          877.68,
          878.56,
          879.68,
          882.08,
          889.92,
          894,
          897.76,
          898.96,
          900.32,
          901.44,
          905.04,
          908.48,
          920.16,
          930.72,
          940,
          949.28,
          959.84,
          971.52,
          974.96,
          978.56,
          979.68,
          981.04,
          982.24,
          986,
          990.08,
          997.92,
          1000.32,
          1001.44,
          1002.32,
          1005.12,
          1007.28,
          1007.92,
          1008.96,
          1010.16,
          1012.08,
          1013.68,
          1016.64,
          1019.12,
          1033.04,
          1038.88,
          1048.64,
          1064.64,
          1067.92,
          1070.88,
          1081.36,
          1097.76,
          1104.72,
          1108.24,
          1117.52,
          1121.84,
          1125.84,
          1127.92,
          1130.56,
          1132.96,
          1139.52,
          1177.6,
          1178.8,
          1180.4,
          1187.92,
          1207.12,
          1209.68,
          1212.08,
          1218.32,
          1229.04,
          1231.2,
          1233.04,
          1252.24,
          1300.08,
          1314,
          1331.44,
          1353.04,
          1361.28,
          1367.76,
          1369.92,
          1372.88,
          1373.84,
          1375.2,
          1387.28,
          1404.72,
          1415.28,
          1434.64,
          1437.44,
          1440.88,
          1443.52,
          1445.28,
          1447.68,
          1450.88,
          1453.04,
          1455.36,
          1470.48,
          1475.92,
          1481.12,
          1486,
          1502.64,
          1505.04,
          1507.68,
          1518,
          1524.24,
          1530.96,
          1540.8,
          1545.76,
          1548.64,
          1551.36,
          1556.96,
          1565.92,
          1572,
          1594.96,
          1624.32,
          1625.92,
          1627.52,
          1629.2,
          1630.48,
          1672.64,
          1696.16,
          1697.84,
          1699.36,
          1710.24,
          1711.6,
          1712.96,
          1715.04,
          1726.56,
          1739.68,
          1744.64,
          1754,
          1763.2,
          1784,
          1786,
          1787.92,
          1789.52,
          1802.96,
          1814.4,
          1817.12,
          1819.76,
          1824.64,
          1826.88,
          1828.96,
          1832.72,
          1844.24,
          1861.52,
          1863.12,
          1867.52,
          1870.96,
          1880
        ]
      },
      "geometry": {
        "type": "LineString",
        "coordinates": [
          [
            -99.199697,
            19.505157,
            2252.5
          ],
          [
            -99.200018,
            19.504186,
            2254.75
          ],
          [
            -99.200139,
            19.503814,
            2253.25
          ],
          [
            -99.200255,
            19.503333,
            2251.5
          ],
          [
            -99.200287,
            19.503152,
            2251.75
          ],
          [
            -99.200885,
            19.501289,
            2251.25
          ],
          [
            -99.201254,
            19.500037,
            2250.75
          ],
          [
            -99.201367,
            19.499628,
            2250.75
          ],
          [
            -99.2014,
            19.499398,
            2250.75
          ],
          [
            -99.201396,
            19.499146,
            2250.75
          ],
          [
            -99.20126,
            19.498606,
            2250.5
          ],
          [
            -99.201115,
            19.498341,
            2250.5
          ],
          [
            -99.200892,
            19.498124,
            2250.25
          ],
          [
            -99.199922,
            19.497223,
            2250
          ],
          [
            -99.198912,
            19.496044,
            2249.75
          ],
          [
            -99.198785,
            19.495906,
            2249.75
          ],
          [
            -99.198596,
            19.495781,
            2249.5
          ],
          [
            -99.19838,
            19.495688,
            2249.5
          ],
          [
            -99.19603,
            19.494938,
            2249
          ],
          [
            -99.194996,
            19.494599,
            2248.75
          ],
          [
            -99.193959,
            19.494221,
            2248.5
          ],
          [
            -99.193408,
            19.494009,
            2248.25
          ],
          [
            -99.191985,
            19.493392,
            2248
          ],
          [
            -99.190683,
            19.492974,
            2247.75
          ],
          [
            -99.190463,
            19.492875,
            2247.5
          ],
          [
            -99.190326,
            19.492791,
            2247.5
          ],
          [
            -99.190217,
            19.492677,
            2247.5
          ],
          [
            -99.189309,
            19.491802,
            2247.25
          ],
          [
            -99.189158,
            19.491715,
            2247.25
          ],
          [
            -99.188969,
            19.491663,
            2247.25
          ],
          [
            -99.186289,
            19.490897,
            2246.5
          ],
          [
            -99.181476,
            19.489544,
            2245.5
          ],
          [
            -99.18133,
            19.489503,
            2245.5
          ],
          [
            -99.181134,
            19.489477,
            2245.5
          ],
          [
            -99.180946,
            19.489473,
            2245.5
          ],
          [
            -99.180753,
            19.489494,
            2245.5
          ],
          [
            -99.177307,
            19.490031,
            2245
          ],
          [
            -99.174631,
            19.490561,
            2244.5
          ],
          [
            -99.173913,
            19.490678,
            2244.5
          ],
          [
            -99.172872,
            19.490881,
            2244.25
          ],
          [
            -99.172207,
            19.490936,
            2244
          ],
          [
            -99.171885,
            19.490925,
            2244
          ],
          [
            -99.171551,
            19.490857,
            2244
          ],
          [
            -99.170975,
            19.490721,
            2244
          ],
          [
            -99.169828,
            19.490516,
            2243.75
          ],
          [
            -99.16904,
            19.490392,
            2243.5
          ],
          [
            -99.168304,
            19.490292,
            2243.5
          ],
          [
            -99.167081,
            19.490176,
            2243.25
          ],
          [
            -99.166776,
            19.49012,
            2243.25
          ],
          [
            -99.166499,
            19.490056,
            2243.25
          ],
          [
            -99.164636,
            19.489423,
            2243
          ],
          [
            -99.164096,
            19.489222,
            2242.75
          ],
          [
            -99.16355,
            19.488944,
            2242.75
          ],
          [
            -99.162987,
            19.488646,
            2242.5
          ],
          [
            -99.161413,
            19.48781,
            2242.25
          ],
          [
            -99.161156,
            19.487711,
            2242.25
          ],
          [
            -99.160911,
            19.48763,
            2242.25
          ],
          [
            -99.160537,
            19.487562,
            2242.25
          ],
          [
            -99.160257,
            19.487537,
            2242
          ],
          [
            -99.160051,
            19.487556,
            2242
          ],
          [
            -99.159739,
            19.487613,
            2242
          ],
          [
            -99.159338,
            19.48771,
            2242
          ],
          [
            -99.159037,
            19.487843,
            2242
          ],
          [
            -99.157129,
            19.489063,
            2241.5
          ],
          [
            -99.156124,
            19.489776,
            2241.25
          ],
          [
            -99.154404,
            19.49088,
            2241
          ],
          [
            -99.15323,
            19.491675,
            2240.75
          ],
          [
            -99.153081,
            19.491741,
            2240.75
          ],
          [
            -99.152972,
            19.491775,
            2240.75
          ],
          [
            -99.152619,
            19.491808,
            2240.75
          ],
          [
            -99.152366,
            19.491789,
            2240.75
          ],
          [
            -99.151602,
            19.491686,
            2240.5
          ],
          [
            -99.150638,
            19.491533,
            2240.5
          ],
          [
            -99.148121,
            19.491014,
            2240
          ],
          [
            -99.146098,
            19.490591,
            2239.75
          ],
          [
            -99.144491,
            19.490195,
            2239.5
          ],
          [
            -99.13893,
            19.489014,
            2238.5
          ],
          [
            -99.136657,
            19.48876,
            2238.25
          ],
          [
            -99.136441,
            19.488707,
            2238
          ],
          [
            -99.136204,
            19.488619,
            2238
          ],
          [
            -99.135072,
            19.488062,
            2238
          ],
          [
            -99.134389,
            19.487778,
            2238
          ],
          [
            -99.134118,
            19.487697,
            2238
          ],
          [
            -99.133827,
            19.487627,
            2238
          ],
          [
            -99.131598,
            19.487146,
            2238
          ],
          [
            -99.13073,
            19.486929,
            2238
          ],
          [
            -99.130548,
            19.486876,
            2238
          ],
          [
            -99.130431,
            19.486803,
            2238
          ],
          [
            -99.12685,
            19.48417,
            2238.25
          ],
          [
            -99.126227,
            19.483726,
            2238.25
          ],
          [
            -99.125967,
            19.483606,
            2238.25
          ],
          [
            -99.125658,
            19.483533,
            2238.25
          ],
          [
            -99.125414,
            19.483486,
            2238.25
          ],
          [
            -99.12495,
            19.483397,
            2238.25
          ],
          [
            -99.124443,
            19.483302,
            2238.25
          ],
          [
            -99.123368,
            19.483065,
            2238.5
          ],
          [
            -99.122986,
            19.482912,
            2238.5
          ],
          [
            -99.122213,
            19.482631,
            2238.5
          ],
          [
            -99.120373,
            19.482012,
            2238.5
          ],
          [
            -99.119192,
            19.481624,
            2238.5
          ],
          [
            -99.118842,
            19.481596,
            2238.5
          ],
          [
            -99.118447,
            19.481604,
            2238.5
          ],
          [
            -99.116541,
            19.481556,
            2238.75
          ],
          [
            -99.115388,
            19.481426,
            2238.75
          ],
          [
            -99.114706,
            19.481316,
            2238.75
          ],
          [
            -99.113088,
            19.480998,
            2238.75
          ],
          [
            -99.112793,
            19.480953,
            2238.75
          ],
          [
            -99.112442,
            19.48098,
            2238.75
          ],
          [
            -99.112249,
            19.481003,
            2238.75
          ],
          [
            -99.112029,
            19.481047,
            2238.75
          ],
          [
            -99.111894,
            19.48108,
            2238.75
          ],
          [
            -99.111772,
            19.481118,
            2238.75
          ],
          [
            -99.111708,
            19.481152,
            2238.75
          ],
          [
            -99.111491,
            19.48129,
            2238.75
          ],
          [
            -99.111231,
            19.481484,
            2238.5
          ],
          [
            -99.111152,
            19.481552,
            2238.5
          ],
          [
            -99.111066,
            19.48165,
            2238.5
          ],
          [
            -99.110874,
            19.481853
          ],
          [
            -99.110295,
            19.482545
          ],
          [
            -99.109978,
            19.482897
          ],
          [
            -99.109599,
            19.483118
          ],
          [
            -99.109472,
            19.483181
          ],
          [
            -99.109317,
            19.48323
          ],
          [
            -99.109188,
            19.483242
          ],
          [
            -99.10877,
            19.483146
          ],
          [
            -99.108371,
            19.483072
          ],
          [
            -99.10701,
            19.482789
          ],
          [
            -99.105851,
            19.48232
          ],
          [
            -99.104849,
            19.48187,
            2238.5
          ],
          [
            -99.105851,
            19.48232,
            2238.5
          ],
          [
            -99.10701,
            19.482789,
            2238.5
          ],
          [
            -99.108371,
            19.483072,
            2238.5
          ],
          [
            -99.10877,
            19.483146,
            2238.5
          ],
          [
            -99.109188,
            19.483242,
            2238.5
          ],
          [
            -99.109317,
            19.48323,
            2238.5
          ],
          [
            -99.109472,
            19.483181,
            2238.5
          ],
          [
            -99.109599,
            19.483118,
            2238.5
          ],
          [
            -99.109978,
            19.482897,
            2238.5
          ],
          [
            -99.110295,
            19.482545,
            2238.5
          ],
          [
            -99.110874,
            19.481853,
            2238.5
          ],
          [
            -99.111066,
            19.48165,
            2238.75
          ],
          [
            -99.111152,
            19.481552,
            2238.75
          ],
          [
            -99.111231,
            19.481484,
            2238.5
          ],
          [
            -99.111491,
            19.48129,
            2238.5
          ],
          [
            -99.111708,
            19.481152,
            2238.5
          ],
          [
            -99.111772,
            19.481118,
            2238.5
          ],
          [
            -99.111894,
            19.48108,
            2238.5
          ],
          [
            -99.112029,
            19.481047,
            2238.5
          ],
          [
            -99.112249,
            19.481003,
            2238.5
          ],
          [
            -99.112442,
            19.48098,
            2238.5
          ],
          [
            -99.112793,
            19.480953,
            2238.5
          ],
          [
            -99.113088,
            19.480998,
            2238.5
          ],
          [
            -99.114706,
            19.481316,
            2238.5
          ],
          [
            -99.115388,
            19.481426,
            2238.5
          ],
          [
            -99.116541,
            19.481556,
            2238.5
          ],
          [
            -99.118447,
            19.481604,
            2238.5
          ],
          [
            -99.118842,
            19.481596,
            2238.5
          ],
          [
            -99.119192,
            19.481624,
            2238.5
          ],
          [
            -99.120373,
            19.482012,
            2238.25
          ],
          [
            -99.122213,
            19.482631,
            2238.25
          ],
          [
            -99.122986,
            19.482912,
            2238.25
          ],
          [
            -99.123368,
            19.483065,
            2238.25
          ],
          [
            -99.124443,
            19.483302,
            2238.25
          ],
          [
            -99.12495,
            19.483397,
            2238.25
          ],
          [
            -99.125414,
            19.483486,
            2238.25
          ],
          [
            -99.125658,
            19.483533,
            2238.25
          ],
          [
            -99.125967,
            19.483606,
            2238.25
          ],
          [
            -99.126227,
            19.483726,
            2238.25
          ],
          [
            -99.12685,
            19.48417,
            2238.25
          ],
          [
            -99.130431,
            19.486803,
            2238
          ],
          [
            -99.130548,
            19.486876,
            2238
          ],
          [
            -99.13073,
            19.486929,
            2238
          ],
          [
            -99.131598,
            19.487146,
            2238
          ],
          [
            -99.133827,
            19.487627,
            2238
          ],
          [
            -99.134118,
            19.487697,
            2238
          ],
          [
            -99.134389,
            19.487778,
            2238
          ],
          [
            -99.135072,
            19.488062,
            2238
          ],
          [
            -99.136204,
            19.488619,
            2238.25
          ],
          [
            -99.136441,
            19.488707,
            2238.25
          ],
          [
            -99.136657,
            19.48876,
            2238.25
          ],
          [
            -99.13893,
            19.489014,
            2238.5
          ],
          [
            -99.144491,
            19.490195,
            2239.5
          ],
          [
            -99.146098,
            19.490591,
            2239.75
          ],
          [
            -99.148121,
            19.491014,
            2240
          ],
          [
            -99.150638,
            19.491533,
            2240.5
          ],
          [
            -99.151602,
            19.491686,
            2240.5
          ],
          [
            -99.152366,
            19.491789,
            2240.75
          ],
          [
            -99.152619,
            19.491808,
            2240.75
          ],
          [
            -99.152972,
            19.491775,
            2240.75
          ],
          [
            -99.153081,
            19.491741,
            2240.75
          ],
          [
            -99.15323,
            19.491675,
            2240.75
          ],
          [
            -99.154404,
            19.49088,
            2241
          ],
          [
            -99.156124,
            19.489776,
            2241.25
          ],
          [
            -99.157129,
            19.489063,
            2241.5
          ],
          [
            -99.159037,
            19.487843,
            2241.75
          ],
          [
            -99.159338,
            19.48771,
            2242
          ],
          [
            -99.159739,
            19.487613,
            2242
          ],
          [
            -99.160051,
            19.487556,
            2242
          ],
          [
            -99.160257,
            19.487537,
            2242
          ],
          [
            -99.160537,
            19.487562,
            2242
          ],
          [
            -99.160911,
            19.48763,
            2242.25
          ],
          [
            -99.161156,
            19.487711,
            2242.25
          ],
          [
            -99.161413,
            19.48781,
            2242.25
          ],
          [
            -99.162987,
            19.488646,
            2242.5
          ],
          [
            -99.16355,
            19.488944,
            2242.5
          ],
          [
            -99.164096,
            19.489222,
            2242.75
          ],
          [
            -99.164636,
            19.489423,
            2242.75
          ],
          [
            -99.166499,
            19.490056,
            2243
          ],
          [
            -99.166776,
            19.49012,
            2243.25
          ],
          [
            -99.167081,
            19.490176,
            2243.25
          ],
          [
            -99.168304,
            19.490292,
            2243.25
          ],
          [
            -99.16904,
            19.490392,
            2243.5
          ],
          [
            -99.169828,
            19.490516,
            2243.5
          ],
          [
            -99.170975,
            19.490721,
            2243.75
          ],
          [
            -99.171551,
            19.490857,
            2243.75
          ],
          [
            -99.171885,
            19.490925,
            2244
          ],
          [
            -99.172207,
            19.490936,
            2244
          ],
          [
            -99.172872,
            19.490881,
            2244
          ],
          [
            -99.173913,
            19.490678,
            2244.25
          ],
          [
            -99.174631,
            19.490561,
            2244.25
          ],
          [
            -99.177307,
            19.490031,
            2244.75
          ],
          [
            -99.180753,
            19.489494,
            2245.25
          ],
          [
            -99.180946,
            19.489473,
            2245.25
          ],
          [
            -99.181134,
            19.489477,
            2245.25
          ],
          [
            -99.18133,
            19.489503,
            2245.25
          ],
          [
            -99.181476,
            19.489544,
            2245.25
          ],
          [
            -99.186289,
            19.490897,
            2246.5
          ],
          [
            -99.188969,
            19.491663,
            2247.25
          ],
          [
            -99.189158,
            19.491715,
            2247.25
          ],
          [
            -99.189309,
            19.491802,
            2247.25
          ],
          [
            -99.190217,
            19.492677,
            2247.5
          ],
          [
            -99.190326,
            19.492791,
            2247.5
          ],
          [
            -99.190463,
            19.492875,
            2247.75
          ],
          [
            -99.190683,
            19.492974,
            2247.75
          ],
          [
            -99.191985,
            19.493392,
            2248
          ],
          [
            -99.193408,
            19.494009,
            2248.5
          ],
          [
            -99.193959,
            19.494221,
            2248.5
          ],
          [
            -99.194996,
            19.494599,
            2249
          ],
          [
            -99.19603,
            19.494938,
            2249.25
          ],
          [
            -99.19838,
            19.495688,
            2249.75
          ],
          [
            -99.198596,
            19.495781,
            2249.75
          ],
          [
            -99.198785,
            19.495906,
            2250
          ],
          [
            -99.198912,
            19.496044,
            2250
          ],
          [
            -99.199922,
            19.497223,
            2250.5
          ],
          [
            -99.200892,
            19.498124,
            2250.75
          ],
          [
            -99.201115,
            19.498341,
            2250.75
          ],
          [
            -99.20126,
            19.498606,
            2251
          ],
          [
            -99.201396,
            19.499146,
            2251
          ],
          [
            -99.2014,
            19.499398,
            2251
          ],
          [
            -99.201367,
            19.499628,
            2251.25
          ],
          [
            -99.201254,
            19.500037,
            2251.25
          ],
          [
            -99.200885,
            19.501289,
            2251.75
          ],
          [
            -99.200287,
            19.503152,
            2251.75
          ],
          [
            -99.200255,
            19.503333,
            2251.5
          ],
          [
            -99.200139,
            19.503814,
            2253.25
          ],
          [
            -99.200018,
            19.504186,
            2254.75
          ],
          [
            -99.199697,
            19.505157,
            2252
          ]
        ]
      }
    }
  ]
}