{
  "type": "FeatureCollection",
  "features": [
    {
      "type": "Feature",
      "properties": {
        "creator": "BRouter-1.7.9",
        "name": "[STC] Línea 1",
        "track-length": "33715",
        "filtered ascend": "63",
        "plain-ascend": "1",
        "total-time": "2698",
        "total-energy": "1512444",
        "cost": "67430",
        "messages": [
          [
            "Longitude",
            "Latitude",
            "Elevation",
            "Distance",
            "CostPerKm",
            "ElevCost",
            "TurnCost",
            "NodeCost",
            "InitialCost",
            "WayTags",
            "NodeTags",
            "Time",
            "Energy"
          ],
          [
            "-99200430",
            "19398260",
            "2300",
            "71",
            "2000",
            "0",
            "0",
            "0",
            "0",
            "railway=subway",
            "railway=halt",
            "5",
            "3122"
          ],
          [
            "-99187767",
            "19402536",
            "2291",
            "1437",
            "2000",
            "0",
            "0",
            "0",
            "0",
            "railway=subway",
            "railway=halt",
            "120",
            "67874"
          ],
          [
            "-99181965",
            "19412972",
            "2282",
            "1321",
            "2000",
            "0",
            "0",
            "0",
            "0",
            "railway=subway",
            "railway=halt",
            "226",
            "125979"
          ],
          [
            "-99176822",
            "19420687",
            "2274",
            "1080",
            "2000",
            "0",
            "0",
            "0",
            "0",
            "railway=subway",
            "railway=halt",
            "312",
            "173483"
          ],
          [
            "-99170757",
            "19421905",
            "2270",
            "651",
            "2000",
            "0",
            "0",
            "0",
            "0",
            "railway=subway",
            "railway=halt",
            "364",
            "202117"
          ],
          [
            "-99162958",
            "19423752",
            "2264",
            "844",
            "2000",
            "0",
            "0",
            "0",
            "0",
            "railway=subway",
            "railway=halt",
            "432",
            "239241"
          ],
          [
            "-99154577",
            "19425652",
            "2258",
            "905",
            "2000",
            "0",
            "0",
            "0",
            "0",
            "railway=subway",
            "railway=halt",
            "504",
            "279048"
          ],
          [
            "-99148889",
            "19427129",
            "2254",
            "619",
            "2000",
            "0",
            "0",
            "0",
            "0",
            "railway=subway",
            "railway=halt",
            "554",
            "306274"
          ],
          [
            "-99143386",
            "19426921",
            "2250",
            "581",
            "2000",
            "0",
            "0",
            "0",
            "0",
            "railway=subway",
            "railway=halt",
            "600",
            "331830"
          ],
          [
            "-99137883",
            "19426354",
            "2246",
            "586",
            "2000",
            "0",
            "0",
            "0",
            "0",
            "railway=subway",
            "railway=halt",
            "647",
            "357605"
          ],
          [
            "-99133000",
            "19425918",
            "2242",
            "515",
            "2000",
            "0",
            "0",
            "0",
            "0",
            "railway=subway",
            "wheelchair=yes railway=station",
            "688",
            "380258"
          ],
          [
            "-99132948",
            "19425913",
            "2242",
            "5",
            "2000",
            "0",
            "0",
            "0",
            "0",
            "railway=subway",
            "railway=halt",
            "689",
            "380478"
          ],
          [
            "-99125505",
            "19425541",
            "2240",
            "800",
            "2000",
            "0",
            "0",
            "0",
            "0",
            "railway=subway",
            "railway=station",
            "753",
            "394289"
          ],
          [
            "-99120905",
            "19429577",
            "2239",
            "912",
            "2000",
            "0",
            "0",
            "0",
            "0",
            "railway=subway",
            "railway=station",
            "826",
            "433979"
          ],
          [
            "-99114231",
            "19429944",
            "2237",
            "1069",
            "2000",
            "0",
            "0",
            "0",
            "0",
            "railway=subway",
            "railway=halt",
            "911",
            "478601"
          ],
          [
            "-99110412",
            "19427110",
            "2237",
            "527",
            "2000",
            "0",
            "0",
            "0",
            "0",
            "railway=subway",
            "railway=halt",
            "953",
            "501752"
          ],
          [
            "-99102401",
            "19423119",
            "2237",
            "950",
            "2000",
            "0",
            "0",
            "0",
            "0",
            "railway=subway",
            "railway=halt",
            "1029",
            "543538"
          ],
          [
            "-99096278",
            "19419902",
            "2237",
            "735",
            "2000",
            "0",
            "0",
            "0",
            "0",
            "railway=subway",
            "railway=halt",
            "1088",
            "575867"
          ],
          [
            "-99090318",
            "19416364",
            "2237",
            "738",
            "2000",
            "0",
            "0",
            "0",
            "0",
            "railway=subway",
            "railway=halt",
            "1147",
            "608328"
          ],
          [
            "-99082619",
            "19411960",
            "2237",
            "944",
            "2000",
            "0",
            "0",
            "0",
            "0",
            "railway=subway",
            "railway=halt",
            "1223",
            "649850"
          ],
          [
            "-99074703",
            "19416387",
            "2237",
            "1505",
            "2000",
            "0",
            "0",
            "0",
            "0",
            "railway=subway",
            "railway=halt",
            "1343",
            "716047"
          ],
          [
            "-99074637",
            "19416945",
            "2237",
            "63",
            "2000",
            "0",
            "0",
            "0",
            "0",
            "railway=subway",
            "",
            "1348",
            "718761"
          ],
          [
            "-99074703",
            "19416387",
            "-8192",
            "63",
            "2000",
            "0",
            "0",
            "0",
            "0",
            "reversedirection=yes railway=subway",
            "railway=halt",
            "5",
            "2771"
          ],
          [
            "-99082619",
            "19411960",
            "-8192",
            "1505",
            "2000",
            "0",
            "0",
            "0",
            "0",
            "reversedirection=yes railway=subway",
            "railway=halt",
            "125",
            "68968"
          ],
          [
            "-99090318",
            "19416364",
            "-8192",
            "944",
            "2000",
            "0",
            "0",
            "0",
            "0",
            "reversedirection=yes railway=subway",
            "railway=halt",
            "200",
            "110490"
          ],
          [
            "-99096278",
            "19419902",
            "-8192",
            "738",
            "2000",
            "0",
            "0",
            "0",
            "0",
            "reversedirection=yes railway=subway",
            "railway=halt",
            "259",
            "142952"
          ],
          [
            "-99102401",
            "19423119",
            "-8192",
            "735",
            "2000",
            "0",
            "0",
            "0",
            "0",
            "reversedirection=yes railway=subway",
            "railway=halt",
            "318",
            "175281"
          ],
          [
            "-99110412",
            "19427110",
            "-8192",
            "950",
            "2000",
            "0",
            "0",
            "0",
            "0",
            "reversedirection=yes railway=subway",
            "railway=halt",
            "394",
            "217067"
          ],
          [
            "-99114231",
            "19429944",
            "2237",
            "527",
            "2000",
            "0",
            "0",
            "0",
            "0",
            "reversedirection=yes railway=subway",
            "railway=halt",
            "436",
            "240247"
          ],
          [
            "-99120905",
            "19429577",
            "2237",
            "1069",
            "2000",
            "0",
            "0",
            "0",
            "0",
            "reversedirection=yes railway=subway",
            "railway=station",
            "522",
            "287267"
          ],
          [
            "-99125505",
            "19425541",
            "2239",
            "912",
            "2000",
            "0",
            "0",
            "0",
            "0",
            "reversedirection=yes railway=subway",
            "railway=station",
            "595",
            "327169"
          ],
          [
            "-99132948",
            "19425913",
            "2244",
            "800",
            "2000",
            "0",
            "0",
            "0",
            "0",
            "reversedirection=yes railway=subway",
            "railway=halt",
            "659",
            "362349"
          ],
          [
            "-99133000",
            "19425918",
            "2244",
            "5",
            "2000",
            "0",
            "0",
            "0",
            "0",
            "reversedirection=yes railway=subway",
            "wheelchair=yes railway=station",
            "659",
            "362569"
          ],
          [
            "-99137883",
            "19426354",
            "2248",
            "515",
            "2000",
            "0",
            "0",
            "0",
            "0",
            "reversedirection=yes railway=subway",
            "railway=halt",
            "701",
            "385222"
          ],
          [
            "-99141212",
            "19426650",
            "2250",
            "351",
            "2000",
            "0",
            "0",
            "0",
            "0",
            "reversedirection=yes railway=subway",
            "",
            "729",
            "400660"
          ],
          [
            "-99143380",
            "19426964",
            "2252",
            "233",
            "2000",
            "0",
            "0",
            "0",
            "0",
            "railway=subway",
            "railway=halt",
            "747",
            "410909"
          ],
          [
            "-99148898",
            "19427166",
            "2256",
            "583",
            "2000",
            "0",
            "0",
            "0",
            "0",
            "railway=subway",
            "railway=halt",
            "794",
            "436552"
          ],
          [
            "-99154587",
            "19425689",
            "2260",
            "619",
            "2000",
            "0",
            "0",
            "0",
            "0",
            "railway=subway",
            "railway=halt",
            "843",
            "463779"
          ],
          [
            "-99162971",
            "19423791",
            "2266",
            "905",
            "2000",
            "0",
            "0",
            "0",
            "0",
            "railway=subway",
            "railway=halt",
            "916",
            "503586"
          ],
          [
            "-99170765",
            "19421941",
            "2271",
            "844",
            "2000",
            "0",
            "0",
            "0",
            "0",
            "railway=subway",
            "railway=halt",
            "983",
            "540710"
          ],
          [
            "-99176834",
            "19420732",
            "2276",
            "651",
            "2000",
            "0",
            "0",
            "0",
            "0",
            "railway=subway",
            "railway=halt",
            "1035",
            "569344"
          ],
          [
            "-99182006",
            "19412984",
            "2283",
            "1086",
            "2000",
            "0",
            "0",
            "0",
            "0",
            "railway=subway",
            "railway=halt",
            "1122",
            "617112"
          ],
          [
            "-99187792",
            "19402563",
            "2292",
            "1319",
            "2000",
            "0",
            "0",
            "0",
            "0",
            "railway=subway",
            "railway=halt",
            "1228",
            "675128"
          ],
          [
            "-99200438",
            "19398292",
            "2300",
            "1432",
            "2000",
            "0",
            "0",
            "0",
            "0",
            "railway=subway",
            "railway=halt",
            "1342",
            "789785"
          ],
          [
            "-99201091",
            "19398133",
            "2300",
            "71",
            "2000",
            "0",
            "0",
            "0",
            "0",
            "railway=subway",
            "",
            "1348",
            "793683"
          ]
        ],
        "times": [
          0,
          5.68,
          14.8,
          32.08,
          36,
          55.12,
          62.64,
          68.8,
          73.12,
          75.84,
          81.28,
          82,
          83.12,
          84.08,
          90.16,
          101.52,
          103.76,
          105.68,
          107.2,
          110.56,
          112.32,
          114.64,
          120.64,
          125.44,
          129.84,
          132.48,
          148.72,
          170.88,
          185.28,
          199.28,
          216,
          226.32,
          234.48,
          242.88,
          251.04,
          258.08,
          272.16,
          288.96,
          293.2,
          296,
          298.96,
          301.6,
          312.72,
          332.96,
          364.8,
          432.32,
          504.72,
          515.28,
          535.52,
          554.24,
          555.68,
          558.16,
          560.64,
          577.44,
          589.6,
          600.72,
          606.08,
          607.76,
          609.2,
          611.04,
          613.44,
          615.52,
          617.12,
          618.56,
          619.52,
          647.6,
          671.12,
          688.8,
          689.2,
          696.4,
          701.76,
          705.52,
          711.36,
          714.32,
          753.2,
          779.36,
          780.24,
          782.48,
          784.24,
          786.16,
          787.6,
          789.44,
          791.2,
          792.64,
          794.08,
          795.6,
          797.52,
          813.76,
          826.16,
          834.16,
          840.24,
          844.48,
          849.92,
          855.04,
          857.84,
          868.88,
          888.72,
          890.48,
          893.12,
          895.36,
          898,
          906.88,
          911.68,
          913.12,
          919.04,
          921.76,
          924.32,
          926.96,
          953.84,
          991.52,
          1029.84,
          1069.76,
          1074.88,
          1088.64,
          1147.68,
          1223.2,
          1243.6,
          1260.96,
          1262.96,
          1264.16,
          1265.36,
          1266.56,
          1267.76,
          1268.96,
          1270.16,
          1271.36,
          1272.56,
          1274.88,
          1276.08,
          1277.28,
          1278.479,
          1279.679,
          1280.879,
          1282.079,
          1283.279,
          1284.479,
          1285.839,
          1299.199,
          1302.639,
          1343.599,
          1347.519,
          1348.639,
          1349.759,
          1353.679,
          1394.639,
          1398.079,
          1411.439,
          1412.799,
          1413.999,
          1415.199,
          1416.399,
          1417.599,
          1418.799,
          1419.999,
          1421.199,
          1422.399,
          1424.719,
          1425.919,
          1427.119,
          1428.319,
          1429.519,
          1430.719,
          1431.919,
          1433.119,
          1434.319,
          1436.319,
          1453.679,
          1474.079,
          1549.599,
          1608.639,
          1622.399,
          1627.519,
          1667.439,
          1705.759,
          1743.439,
          1770.319,
          1772.959,
          1775.519,
          1778.239,
          1784.159,
          1785.599,
          1790.399,
          1799.279,
          1801.919,
          1804.159,
          1806.799,
          1808.559,
          1828.399,
          1839.439,
          1842.239,
          1847.359,
          1852.799,
          1857.039,
          1863.119,
          1871.119,
          1883.519,
          1899.759,
          1901.679,
          1903.199,
          1904.639,
          1906.079,
          1907.839,
          1909.679,
          1911.119,
          1913.039,
          1914.799,
          1917.039,
          1917.919,
          1944.079,
          1982.959,
          1985.919,
          1991.759,
          1995.519,
          2000.879,
          2008.079,
          2008.479,
          2026.159,
          2049.679,
          2077.759,
          2079.359,
          2081.039,
          2082.719,
          2084.319,
          2086.319,
          2088.159,
          2089.919,
          2091.039,
          2096.399,
          2107.519,
          2119.679,
          2136.479,
          2139.039,
          2141.599,
          2143.039,
          2181.999,
          2192.559,
          2264.959,
          2294.079,
          2332.479,
          2364.239,
          2384.559,
          2395.599,
          2398.319,
          2401.359,
          2404.319,
          2408.559,
          2439.519,
          2446.559,
          2454.719,
          2463.199,
          2471.439,
          2481.759,
          2498.479,
          2512.479,
          2526.879,
          2549.039,
          2565.279,
          2567.839,
          2576.959,
          2582.959,
          2585.199,
          2586.959,
          2590.079,
          2591.599,
          2593.439,
          2595.599,
          2606.959,
          2611.999,
          2614.079,
          2615.199,
          2616.959,
          2621.519,
          2624.239,
          2628.479,
          2634.719,
          2642.239,
          2661.199,
          2665.119,
          2682.399,
          2691.519,
          2697.199
        ]
      },
      "geometry": {
        "type": "LineString",
        "coordinates": [
          [
            -99.201083,
            19.3981,
            2300.75
          ],
          [
            -99.20043,
            19.39826,
            2300.75
          ],
          [
            -99.199374,
            19.398503,
            2299.75
          ],
          [
            -99.197367,
            19.398944,
            2298.5
          ],
          [
            -99.196925,
            19.399076,
            2298
          ],
          [
            -99.19486,
            19.399988,
            2296.5
          ],
          [
            -99.194099,
            19.400429,
            2295.75
          ],
          [
            -99.193454,
            19.400766,
            2295.25
          ],
          [
            -99.192998,
            19.400983,
            2295
          ],
          [
            -99.192704,
            19.401109,
            2294.75
          ],
          [
            -99.192121,
            19.401385,
            2294.25
          ],
          [
            -99.19204,
            19.401416,
            2294.25
          ],
          [
            -99.191909,
            19.401454,
            2294
          ],
          [
            -99.191796,
            19.401474,
            2294
          ],
          [
            -99.191077,
            19.401558,
            2293.5
          ],
          [
            -99.189726,
            19.401568,
            2292.5
          ],
          [
            -99.189463,
            19.401603,
            2292.25
          ],
          [
            -99.189244,
            19.401647,
            2292.25
          ],
          [
            -99.189075,
            19.401705,
            2292
          ],
          [
            -99.188713,
            19.401859,
            2291.75
          ],
          [
            -99.18853,
            19.401951,
            2291.5
          ],
          [
            -99.188302,
            19.402091,
            2291.5
          ],
          [
            -99.187767,
            19.402536,
            2291
          ],
          [
            -99.18732,
            19.402868,
            2290.5
          ],
          [
            -99.186909,
            19.403173,
            2290
          ],
          [
            -99.18671,
            19.403409,
            2290
          ],
          [
            -99.185813,
            19.405035,
            2288.5
          ],
          [
            -99.184618,
            19.407265,
            2286.75
          ],
          [
            -99.183772,
            19.408677,
            2285.5
          ],
          [
            -99.183009,
            19.41008,
            2284.25
          ],
          [
            -99.182408,
            19.411881,
            2282.75
          ],
          [
            -99.181965,
            19.412972,
            2282
          ],
          [
            -99.181621,
            19.413838,
            2281.25
          ],
          [
            -99.181307,
            19.414743,
            2280.5
          ],
          [
            -99.180965,
            19.415603,
            2279.75
          ],
          [
            -99.180636,
            19.416333,
            2279.25
          ],
          [
            -99.179988,
            19.417804,
            2278
          ],
          [
            -99.179252,
            19.41957,
            2276.75
          ],
          [
            -99.178948,
            19.419955,
            2276.25
          ],
          [
            -99.178715,
            19.420187,
            2276
          ],
          [
            -99.17841,
            19.420348,
            2275.75
          ],
          [
            -99.178121,
            19.420464,
            2275.5
          ],
          [
            -99.176822,
            19.420687,
            2274.75
          ],
          [
            -99.174452,
            19.421118,
            2273
          ],
          [
            -99.170757,
            19.421905,
            2270.25
          ],
          [
            -99.162958,
            19.423752,
            2264.5
          ],
          [
            -99.154577,
            19.425652,
            2258.5
          ],
          [
            -99.153361,
            19.42595,
            2257.5
          ],
          [
            -99.151037,
            19.426558,
            2255.75
          ],
          [
            -99.148889,
            19.427129,
            2254.25
          ],
          [
            -99.148723,
            19.427171,
            2254
          ],
          [
            -99.148433,
            19.42723,
            2254
          ],
          [
            -99.148137,
            19.427258,
            2253.75
          ],
          [
            -99.14614,
            19.427164,
            2252.25
          ],
          [
            -99.144697,
            19.427064,
            2251.25
          ],
          [
            -99.143386,
            19.426921,
            2250.25
          ],
          [
            -99.142752,
            19.426851,
            2249.75
          ],
          [
            -99.142565,
            19.426786,
            2249.75
          ],
          [
            -99.14241,
            19.426709,
            2249.5
          ],
          [
            -99.142206,
            19.426644,
            2249.5
          ],
          [
            -99.141926,
            19.426604,
            2249.25
          ],
          [
            -99.141679,
            19.426594,
            2249
          ],
          [
            -99.141491,
            19.426632,
            2249
          ],
          [
            -99.141325,
            19.426652,
            2248.75
          ],
          [
            -99.141212,
            19.42665,
            2248.75
          ],
          [
            -99.137883,
            19.426354,
            2246.25
          ],
          [
            -99.135098,
            19.426101,
            2244.25
          ],
          [
            -99.133,
            19.425918,
            2242.75
          ],
          [
            -99.132948,
            19.425913,
            2242.75
          ],
          [
            -99.13209,
            19.425843,
            2242.25
          ],
          [
            -99.131457,
            19.425791,
            2241.75
          ],
          [
            -99.131016,
            19.42586,
            2241.5
          ],
          [
            -99.130415,
            19.426185,
            2241
          ],
          [
            -99.130067,
            19.426259,
            2240.75
          ],
          [
            -99.125505,
            19.425541,
            2240
          ],
          [
            -99.122429,
            19.425096,
            2239.75
          ],
          [
            -99.122324,
            19.425091,
            2239.5
          ],
          [
            -99.122057,
            19.425117,
            2239.5
          ],
          [
            -99.121863,
            19.42519,
            2239.5
          ],
          [
            -99.121662,
            19.425284,
            2239.5
          ],
          [
            -99.121529,
            19.425382,
            2239.5
          ],
          [
            -99.121368,
            19.425525,
            2239.5
          ],
          [
            -99.121246,
            19.425681,
            2239.5
          ],
          [
            -99.121157,
            19.425823,
            2239.5
          ],
          [
            -99.121082,
            19.425973,
            2239.5
          ],
          [
            -99.121026,
            19.426134,
            2239.5
          ],
          [
            -99.120984,
            19.426351,
            2239.25
          ],
          [
            -99.120968,
            19.428182,
            2239
          ],
          [
            -99.120905,
            19.429577,
            2239
          ],
          [
            -99.120864,
            19.430479,
            2238.75
          ],
          [
            -99.120852,
            19.431161,
            2238.75
          ],
          [
            -99.120662,
            19.431602,
            2238.75
          ],
          [
            -99.120224,
            19.432049,
            2238.5
          ],
          [
            -99.119658,
            19.432266,
            2238.5
          ],
          [
            -99.11933,
            19.432232,
            2238.5
          ],
          [
            -99.118039,
            19.432022,
            2238.25
          ],
          [
            -99.115682,
            19.431978,
            2238
          ],
          [
            -99.11547,
            19.431956,
            2238
          ],
          [
            -99.115196,
            19.431817,
            2238
          ],
          [
            -99.115007,
            19.431637,
            2237.75
          ],
          [
            -99.114837,
            19.431383,
            2237.75
          ],
          [
            -99.114425,
            19.430458,
            2237.75
          ],
          [
            -99.114231,
            19.429944,
            2237.75
          ],
          [
            -99.114159,
            19.429799,
            2237.75
          ],
          [
            -99.113876,
            19.429183,
            2237.75
          ],
          [
            -99.113698,
            19.428925,
            2237.75
          ],
          [
            -99.113483,
            19.428724,
            2237.75
          ],
          [
            -99.113236,
            19.428542,
            2237.75
          ],
          [
            -99.110412,
            19.42711,
            2237.75
          ],
          [
            -99.106443,
            19.425126,
            2237.75
          ],
          [
            -99.102401,
            19.423119,
            2237.75
          ],
          [
            -99.098202,
            19.420999,
            2237.75
          ],
          [
            -99.097678,
            19.420706,
            2237.75
          ],
          [
            -99.096278,
            19.419902,
            2237.75
          ],
          [
            -99.090318,
            19.416364,
            2237.75
          ],
          [
            -99.082619,
            19.41196,
            2237.75
          ],
          [
            -99.080638,
            19.410626,
            2237.75
          ],
          [
            -99.078819,
            19.409687,
            2237.75
          ],
          [
            -99.078602,
            19.409586,
            2237.75
          ],
          [
            -99.078472,
            19.409538,
            2237.75
          ],
          [
            -99.078339,
            19.409498,
            2237.75
          ],
          [
            -99.078204,
            19.409466,
            2237.75
          ],
          [
            -99.078066,
            19.409442,
            2237.75
          ],
          [
            -99.077928,
            19.409426,
            2237.75
          ],
          [
            -99.077788,
            19.409419,
            2237.75
          ],
          [
            -99.077648,
            19.40942,
            2237.75
          ],
          [
            -99.077509,
            19.409429,
            2237.75
          ],
          [
            -99.077234,
            19.409472,
            2237.75
          ],
          [
            -99.077099,
            19.409506,
            2237.75
          ],
          [
            -99.076961,
            19.40955,
            2237.75
          ],
          [
            -99.076826,
            19.409602,
            2237.75
          ],
          [
            -99.076696,
            19.409663,
            2237.75
          ],
          [
            -99.076569,
            19.409731,
            2237.75
          ],
          [
            -99.076448,
            19.409807,
            2237.75
          ],
          [
            -99.076333,
            19.40989,
            2237.75
          ],
          [
            -99.076232,
            19.409991,
            2237.75
          ],
          [
            -99.07614,
            19.410115,
            2237.75
          ],
          [
            -99.07534,
            19.411415,
            2237.75
          ],
          [
            -99.075219,
            19.411787,
            2237.75
          ],
          [
            -99.074703,
            19.416387,
            2237.75
          ],
          [
            -99.074648,
            19.416823,
            2237.75
          ],
          [
            -99.074637,
            19.416945,
            2237.75
          ],
          [
            -99.074648,
            19.416823,
            2237.75
          ],
          [
            -99.074703,
            19.416387,
            2237.75
          ],
          [
            -99.075219,
            19.411787,
            2237.75
          ],
          [
            -99.07534,
            19.411415,
            2237.75
          ],
          [
            -99.07614,
            19.410115,
            2237.75
          ],
          [
            -99.076232,
            19.409991,
            2237.75
          ],
          [
            -99.076333,
            19.40989,
            2237.75
          ],
          [
            -99.076448,
            19.409807,
            2237.75
          ],
          [
            -99.076569,
            19.409731,
            2237.75
          ],
          [
            -99.076696,
            19.409663,
            2237.75
          ],
          [
            -99.076826,
            19.409602,
            2237.75
          ],
          [
            -99.076961,
            19.40955,
            2237.75
          ],
          [
            -99.077099,
            19.409506,
            2237.75
          ],
          [
            -99.077234,
            19.409472,
            2237.75
          ],
          [
            -99.077509,
            19.409429,
            2237.75
          ],
          [
            -99.077648,
            19.40942,
            2237.75
          ],
          [
            -99.077788,
            19.409419,
            2237.75
          ],
          [
            -99.077928,
            19.409426,
            2237.75
          ],
          [
            -99.078066,
            19.409442,
            2237.75
          ],
          [
            -99.078204,
            19.409466,
            2237.75
          ],
          [
            -99.078339,
            19.409498,
            2237.75
          ],
          [
            -99.078472,
            19.409538,
            2237.75
          ],
          [
            -99.078602,
            19.409586,
            2237.75
          ],
          [
            -99.078819,
            19.409687,
            2237.75
          ],
          [
            -99.080638,
            19.410626,
            2237.75
          ],
          [
            -99.082619,
            19.41196,
            2237.75
          ],
          [
            -99.090318,
            19.416364,
            2237.75
          ],
          [
            -99.096278,
            19.419902,
            2237.75
          ],
          [
            -99.097678,
            19.420706,
            2237.75
          ],
          [
            -99.098202,
            19.420999,
            2237.75
          ],
          [
            -99.102401,
            19.423119,
            2237.75
          ],
          [
            -99.106443,
            19.425126,
            2237.75
          ],
          [
            -99.110412,
            19.42711,
            2237.75
          ],
          [
            -99.113236,
            19.428542,
            2237.75
          ],
          [
            -99.113483,
            19.428724,
            2237.75
          ],
          [
            -99.113698,
            19.428925,
            2237.75
          ],
          [
            -99.113876,
            19.429183,
            2237.75
          ],
          [
            -99.114159,
            19.429799,
            2237.75
          ],
          [
            -99.114231,
            19.429944,
            2237.5
          ],
          [
            -99.114425,
            19.430458,
            2237.5
          ],
          [
            -99.114837,
            19.431383,
            2237.5
          ],
          [
            -99.115007,
            19.431637,
            2237.5
          ],
          [
            -99.115196,
            19.431817,
            2237.5
          ],
          [
            -99.11547,
            19.431956,
            2237.5
          ],
          [
            -99.115682,
            19.431978,
            2237.5
          ],
          [
            -99.118039,
            19.432022,
            2237.5
          ],
          [
            -99.11933,
            19.432232,
            2237.5
          ],
          [
            -99.119658,
            19.432266,
            2237.5
          ],
          [
            -99.120224,
            19.432049,
            2237.5
          ],
          [
            -99.120662,
            19.431602,
            2237.5
          ],
          [
            -99.120852,
            19.431161,
            2237.5
          ],
          [
            -99.120864,
            19.430479,
            2237.5
          ],
          [
            -99.120905,
            19.429577,
            2237.5
          ],
          [
            -99.120968,
            19.428182,
            2237.5
          ],
          [
            -99.120984,
            19.426351,
            2237.5
          ],
          [
            -99.121026,
            19.426134,
            2237.5
          ],
          [
            -99.121082,
            19.425973,
            2237.5
          ],
          [
            -99.121157,
            19.425823,
            2237.5
          ],
          [
            -99.121246,
            19.425681,
            2237.5
          ],
          [
            -99.121368,
            19.425525,
            2237.5
          ],
          [
            -99.121529,
            19.425382,
            2237.5
          ],
          [
            -99.121662,
            19.425284,
            2237.5
          ],
          [
            -99.121863,
            19.42519,
            2237.5
          ],
          [
            -99.122057,
            19.425117,
            2237.5
          ],
          [
            -99.122324,
            19.425091,
            2237.5
          ],
          [
            -99.122429,
            19.425096,
            2237.5
          ],
          [
            -99.125505,
            19.425541,
            2239.5
          ],
          [
            -99.130067,
            19.426259,
            2242.75
          ],
          [
            -99.130415,
            19.426185,
            2243
          ],
          [
            -99.131016,
            19.42586,
            2243.5
          ],
          [
            -99.131457,
            19.425791,
            2243.75
          ],
          [
            -99.13209,
            19.425843,
            2244.25
          ],
          [
            -99.132948,
            19.425913,
            2244.75
          ],
          [
            -99.133,
            19.425918,
            2244.75
          ],
          [
            -99.135098,
            19.426101,
            2246.25
          ],
          [
            -99.137883,
            19.426354,
            2248.25
          ],
          [
            -99.141212,
            19.42665,
            2250.5
          ],
          [
            -99.141398,
            19.426685,
            2250.75
          ],
          [
            -99.141582,
            19.426761,
            2250.75
          ],
          [
            -99.141773,
            19.426814,
            2251
          ],
          [
            -99.141962,
            19.426846,
            2251.25
          ],
          [
            -99.142196,
            19.426873,
            2251.25
          ],
          [
            -99.142414,
            19.426877,
            2251.5
          ],
          [
            -99.14262,
            19.426861,
            2251.5
          ],
          [
            -99.14275,
            19.426878,
            2251.75
          ],
          [
            -99.14338,
            19.426964,
            2252.25
          ],
          [
            -99.144693,
            19.427104,
            2253
          ],
          [
            -99.146136,
            19.427203,
            2254
          ],
          [
            -99.148135,
            19.427298,
            2255.5
          ],
          [
            -99.148437,
            19.42727,
            2255.75
          ],
          [
            -99.148733,
            19.42721,
            2256
          ],
          [
            -99.148898,
            19.427166,
            2256
          ],
          [
            -99.153368,
            19.425985,
            2259.25
          ],
          [
            -99.154587,
            19.425689,
            2260
          ],
          [
            -99.162971,
            19.423791,
            2266
          ],
          [
            -99.166333,
            19.422988,
            2268.5
          ],
          [
            -99.170765,
            19.421941,
            2271.75
          ],
          [
            -99.174457,
            19.421152,
            2274.25
          ],
          [
            -99.176834,
            19.420732,
            2276
          ],
          [
            -99.17813,
            19.420506,
            2277
          ],
          [
            -99.17843,
            19.420385,
            2277
          ],
          [
            -99.178741,
            19.420217,
            2277.25
          ],
          [
            -99.178984,
            19.419974,
            2277.5
          ],
          [
            -99.179292,
            19.419592,
            2278
          ],
          [
            -99.180678,
            19.416351,
            2280.5
          ],
          [
            -99.181004,
            19.415621,
            2281
          ],
          [
            -99.18135,
            19.414758,
            2281.75
          ],
          [
            -99.181662,
            19.413851,
            2282.5
          ],
          [
            -99.182006,
            19.412984,
            2283.25
          ],
          [
            -99.182447,
            19.411895,
            2284
          ],
          [
            -99.183047,
            19.410097,
            2285.5
          ],
          [
            -99.183811,
            19.408696,
            2286.5
          ],
          [
            -99.184654,
            19.407282,
            2287.75
          ],
          [
            -99.185848,
            19.405051,
            2289.5
          ],
          [
            -99.186752,
            19.403432,
            2291
          ],
          [
            -99.186939,
            19.403207,
            2291.25
          ],
          [
            -99.187792,
            19.402563,
            2292
          ],
          [
            -99.188323,
            19.402116,
            2292.5
          ],
          [
            -99.188552,
            19.401978,
            2292.5
          ],
          [
            -99.188741,
            19.401887,
            2292.75
          ],
          [
            -99.189083,
            19.401739,
            2293
          ],
          [
            -99.189258,
            19.401682,
            2293
          ],
          [
            -99.189471,
            19.40164,
            2293.25
          ],
          [
            -99.189727,
            19.401606,
            2293.5
          ],
          [
            -99.191081,
            19.401591,
            2294.5
          ],
          [
            -99.191679,
            19.401526,
            2294.75
          ],
          [
            -99.191923,
            19.401484,
            2295
          ],
          [
            -99.19205,
            19.40145,
            2295
          ],
          [
            -99.19224,
            19.401373,
            2295.25
          ],
          [
            -99.192722,
            19.401141,
            2295.5
          ],
          [
            -99.193013,
            19.401014,
            2295.75
          ],
          [
            -99.193467,
            19.400796,
            2296.25
          ],
          [
            -99.19412,
            19.400457,
            2296.75
          ],
          [
            -99.194886,
            19.400016,
            2297.25
          ],
          [
            -99.196937,
            19.399117,
            2298.75
          ],
          [
            -99.197382,
            19.398985,
            2299.25
          ],
          [
            -99.199384,
            19.398536,
            2300.75
          ],
          [
            -99.200438,
            19.398292,
            2300.75
          ],
          [
            -99.201091,
            19.398133,
            2300.75
          ]
        ]
      }
    }
  ]
}