{
  "type": "FeatureCollection",
  "features": [
    {
      "type": "Feature",
      "properties": {
        "creator": "BRouter-1.7.9",
        "name": "[STC] Línea 7",
        "track-length": "34530",
        "filtered ascend": "34",
        "plain-ascend": "0",
        "total-time": "2762",
        "total-energy": "1516418",
        "cost": "69060",
        "messages": [
          [
            "Longitude",
            "Latitude",
            "Elevation",
            "Distance",
            "CostPerKm",
            "ElevCost",
            "TurnCost",
            "NodeCost",
            "InitialCost",
            "WayTags",
            "NodeTags",
            "Time",
            "Energy"
          ],
          [
            "-99200132",
            "19504684",
            "2254",
            "63",
            "2000",
            "0",
            "0",
            "0",
            "0",
            "reversedirection=yes railway=subway",
            "railway=halt",
            "5",
            "3390"
          ],
          [
            "-99200422",
            "19503781",
            "2252",
            "104",
            "2000",
            "0",
            "0",
            "0",
            "0",
            "reversedirection=yes railway=subway",
            "railway=switch",
            "13",
            "7278"
          ],
          [
            "-99200633",
            "19503268",
            "2251",
            "61",
            "2000",
            "0",
            "0",
            "0",
            "0",
            "railway=subway",
            "railway=switch",
            "18",
            "9311"
          ],
          [
            "-99195315",
            "19490680",
            "2251",
            "1645",
            "2000",
            "0",
            "0",
            "0",
            "0",
            "reversedirection=yes railway=subway",
            "railway=station",
            "149",
            "81501"
          ],
          [
            "-99190026",
            "19479104",
            "2252",
            "1533",
            "2000",
            "0",
            "0",
            "0",
            "0",
            "reversedirection=yes railway=subway",
            "railway=station",
            "272",
            "148930"
          ],
          [
            "-99190463",
            "19469603",
            "2255",
            "1052",
            "2000",
            "0",
            "0",
            "0",
            "0",
            "reversedirection=yes railway=subway",
            "railway=station",
            "356",
            "195203"
          ],
          [
            "-99187208",
            "19458116",
            "2259",
            "1492",
            "2000",
            "0",
            "0",
            "0",
            "0",
            "reversedirection=yes railway=subway",
            "railway=halt",
            "476",
            "260829"
          ],
          [
            "-99189612",
            "19454741",
            "2260",
            "480",
            "2000",
            "0",
            "0",
            "0",
            "0",
            "reversedirection=yes railway=subway",
            "highway=crossing crossing=traffic_signals",
            "514",
            "281942"
          ],
          [
            "-99191795",
            "19444974",
            "2263",
            "1106",
            "2000",
            "0",
            "0",
            "0",
            "0",
            "reversedirection=yes railway=subway",
            "railway=station",
            "602",
            "330589"
          ],
          [
            "-99190915",
            "19433530",
            "2266",
            "1322",
            "2000",
            "0",
            "0",
            "0",
            "0",
            "reversedirection=yes railway=subway",
            "railway=station",
            "708",
            "388738"
          ],
          [
            "-99192257",
            "19424985",
            "2269",
            "957",
            "2000",
            "0",
            "0",
            "0",
            "0",
            "reversedirection=yes railway=subway",
            "railway=station",
            "785",
            "430832"
          ],
          [
            "-99191384",
            "19411750",
            "2272",
            "1488",
            "2000",
            "0",
            "0",
            "0",
            "0",
            "reversedirection=yes railway=subway",
            "railway=station",
            "904",
            "496282"
          ],
          [
            "-99186746",
            "19402166",
            "2275",
            "1169",
            "2000",
            "0",
            "0",
            "0",
            "0",
            "reversedirection=yes railway=subway",
            "railway=halt",
            "997",
            "547701"
          ],
          [
            "-99185530",
            "19391507",
            "2279",
            "1231",
            "2000",
            "0",
            "0",
            "0",
            "0",
            "reversedirection=yes railway=subway",
            "railway=station",
            "1096",
            "601846"
          ],
          [
            "-99186633",
            "19384508",
            "2281",
            "783",
            "2000",
            "0",
            "0",
            "0",
            "0",
            "reversedirection=yes railway=subway",
            "railway=station",
            "1158",
            "636287"
          ],
          [
            "-99187612",
            "19376238",
            "2283",
            "921",
            "2000",
            "0",
            "0",
            "0",
            "0",
            "reversedirection=yes railway=subway",
            "railway=halt",
            "1232",
            "676797"
          ],
          [
            "-99189257",
            "19361553",
            "-8192",
            "1636",
            "2000",
            "0",
            "0",
            "0",
            "0",
            "reversedirection=yes railway=subway",
            "railway=station",
            "1363",
            "777153"
          ],
          [
            "-99189491",
            "19359555",
            "-8192",
            "222",
            "2000",
            "0",
            "0",
            "0",
            "0",
            "reversedirection=yes railway=subway",
            "",
            "1381",
            "786987"
          ],
          [
            "-99189257",
            "19361553",
            "-8192",
            "222",
            "2000",
            "0",
            "0",
            "0",
            "0",
            "railway=subway",
            "railway=station",
            "17",
            "9764"
          ],
          [
            "-99187612",
            "19376238",
            "2283",
            "1636",
            "2000",
            "0",
            "0",
            "0",
            "0",
            "railway=subway",
            "railway=halt",
            "148",
            "81724"
          ],
          [
            "-99186633",
            "19384508",
            "2280",
            "921",
            "2000",
            "0",
            "0",
            "0",
            "0",
            "railway=subway",
            "railway=station",
            "222",
            "122235"
          ],
          [
            "-99185530",
            "19391507",
            "2278",
            "783",
            "2000",
            "0",
            "0",
            "0",
            "0",
            "railway=subway",
            "railway=station",
            "284",
            "156675"
          ],
          [
            "-99186746",
            "19402166",
            "2275",
            "1231",
            "2000",
            "0",
            "0",
            "0",
            "0",
            "railway=subway",
            "railway=halt",
            "383",
            "210821"
          ],
          [
            "-99191384",
            "19411750",
            "2272",
            "1169",
            "2000",
            "0",
            "0",
            "0",
            "0",
            "railway=subway",
            "railway=station",
            "476",
            "262240"
          ],
          [
            "-99192257",
            "19424985",
            "2268",
            "1488",
            "2000",
            "0",
            "0",
            "0",
            "0",
            "railway=subway",
            "railway=station",
            "596",
            "327690"
          ],
          [
            "-99190915",
            "19433530",
            "2266",
            "957",
            "2000",
            "0",
            "0",
            "0",
            "0",
            "railway=subway",
            "railway=station",
            "672",
            "369783"
          ],
          [
            "-99191795",
            "19444974",
            "2262",
            "1322",
            "2000",
            "0",
            "0",
            "0",
            "0",
            "railway=subway",
            "railway=station",
            "778",
            "427932"
          ],
          [
            "-99189612",
            "19454741",
            "2259",
            "1106",
            "2000",
            "0",
            "0",
            "0",
            "0",
            "railway=subway",
            "highway=crossing crossing=traffic_signals",
            "866",
            "476580"
          ],
          [
            "-99187208",
            "19458116",
            "2258",
            "480",
            "2000",
            "0",
            "0",
            "0",
            "0",
            "railway=subway",
            "railway=halt",
            "905",
            "497693"
          ],
          [
            "-99190463",
            "19469603",
            "2254",
            "1492",
            "2000",
            "0",
            "0",
            "0",
            "0",
            "railway=subway",
            "railway=station",
            "1024",
            "563318"
          ],
          [
            "-99190026",
            "19479104",
            "2253",
            "1052",
            "2000",
            "0",
            "0",
            "0",
            "0",
            "railway=subway",
            "railway=station",
            "1108",
            "581152"
          ],
          [
            "-99195315",
            "19490680",
            "2252",
            "1533",
            "2000",
            "0",
            "0",
            "0",
            "0",
            "railway=subway",
            "railway=station",
            "1231",
            "646422"
          ],
          [
            "-99200633",
            "19503268",
            "2251",
            "1645",
            "2000",
            "0",
            "0",
            "0",
            "0",
            "railway=subway",
            "railway=switch",
            "1362",
            "717810"
          ],
          [
            "-99200422",
            "19503781",
            "2252",
            "61",
            "2000",
            "0",
            "0",
            "0",
            "0",
            "reversedirection=yes railway=subway",
            "railway=switch",
            "1367",
            "720807"
          ],
          [
            "-99200132",
            "19504684",
            "2254",
            "104",
            "2000",
            "0",
            "0",
            "0",
            "0",
            "railway=subway",
            "railway=halt",
            "1376",
            "726893"
          ],
          [
            "-99199953",
            "19505230",
            "2252",
            "63",
            "2000",
            "0",
            "0",
            "0",
            "0",
            "railway=subway",
            "",
            "1381",
            "729431"
          ]
        ],
        "times": [
          0,
          5.04,
          13.36,
          13.76,
          18.24,
          27.12,
          51.2,
          53.52,
          56.16,
          58.88,
          61.44,
          79.92,
          83.92,
          88.4,
          93.04,
          98.24,
          114.32,
          130.64,
          149.84,
          158.48,
          162.8,
          188.8,
          211.76,
          213.6,
          215.52,
          217.28,
          218.96,
          233.12,
          247.76,
          272.48,
          326.24,
          356.64,
          372.96,
          401.44,
          405.44,
          410.64,
          418.08,
          421.44,
          424.88,
          427.52,
          429.44,
          431.68,
          433.84,
          435.92,
          439.36,
          451.6,
          454.48,
          456.64,
          458.8,
          460.8,
          463.6,
          466.08,
          476,
          484.24,
          486.32,
          488.56,
          490.56,
          497.52,
          500.08,
          503.12,
          505.12,
          508.4,
          512.64,
          514.4,
          520.88,
          528.8,
          549.6,
          561.36,
          571.2,
          579.12,
          588.8,
          602.88,
          619.92,
          622,
          624.16,
          626.32,
          642.88,
          647.76,
          651.92,
          668.16,
          708.64,
          760.08,
          785.2,
          798.64,
          810.48,
          817.44,
          828.72,
          833.76,
          837.44,
          843.52,
          857.04,
          870.24,
          890.88,
          895.04,
          904.24,
          920.24,
          940.96,
          975.36,
          984.8,
          997.76,
          1006.16,
          1014.4,
          1017.44,
          1021.28,
          1023.92,
          1026.72,
          1029.6,
          1033.2,
          1057.2,
          1096.24,
          1158.88,
          1232.56,
          1237.84,
          1267.84,
          1281.12,
          1293.28,
          1316.16,
          1350.72,
          1361.76,
          1363.44,
          1373.6,
          1381.2,
          1388.8,
          1398.96,
          1400.64,
          1411.68,
          1446.24,
          1469.12,
          1481.28,
          1494.56,
          1524.56,
          1529.84,
          1603.52,
          1666.16,
          1705.2,
          1729.2,
          1732.8,
          1735.68,
          1738.48,
          1741.12,
          1744.96,
          1748,
          1756.24,
          1764.64,
          1777.6,
          1787.04,
          1821.44,
          1842.16,
          1858.16,
          1867.36,
          1871.52,
          1892.16,
          1905.36,
          1918.88,
          1924.96,
          1928.64,
          1933.68,
          1944.96,
          1951.92,
          1963.76,
          1977.2,
          2002.32,
          2053.76,
          2094.24,
          2110.48,
          2114.64,
          2119.52,
          2136.08,
          2138.24,
          2140.4,
          2142.48,
          2159.52,
          2173.6,
          2183.28,
          2191.2,
          2201.04,
          2212.8,
          2233.6,
          2241.52,
          2248,
          2249.76,
          2254,
          2257.28,
          2259.28,
          2262.32,
          2264.88,
          2271.84,
          2273.84,
          2276.08,
          2278.16,
          2286.4,
          2296.32,
          2298.8,
          2301.6,
          2303.6,
          2305.76,
          2307.92,
          2310.8,
          2323.04,
          2326.48,
          2328.56,
          2330.72,
          2332.96,
          2334.88,
          2337.52,
          2340.96,
          2344.32,
          2351.76,
          2356.96,
          2360.96,
          2389.44,
          2405.76,
          2436.16,
          2489.92,
          2514.64,
          2529.28,
          2543.44,
          2545.12,
          2546.88,
          2548.8,
          2550.64,
          2573.6,
          2599.6,
          2603.92,
          2612.56,
          2631.76,
          2648.08,
          2664.16,
          2669.36,
          2674,
          2678.48,
          2682.48,
          2700.96,
          2703.52,
          2706.24,
          2708.88,
          2711.2,
          2735.28,
          2744.16,
          2748.64,
          2749.04,
          2757.36,
          2762.4
        ]
      },
      "geometry": {
        "type": "LineString",
        "coordinates": [
          [
            -99.199953,
            19.505229,
            2253
          ],
          [
            -99.200132,
            19.504684,
            2254.5
          ],
          [
            -99.200422,
            19.503781,
            2252.5
          ],
          [
            -99.200444,
            19.50374,
            2252.25
          ],
          [
            -99.200633,
            19.503268,
            2251.25
          ],
          [
            -99.200941,
            19.502305,
            2251.25
          ],
          [
            -99.201819,
            19.499717,
            2251.25
          ],
          [
            -99.201876,
            19.49946,
            2251.25
          ],
          [
            -99.201879,
            19.499164,
            2251.25
          ],
          [
            -99.201786,
            19.498869,
            2251.25
          ],
          [
            -99.201612,
            19.498636,
            2251.25
          ],
          [
            -99.200061,
            19.497157,
            2251.25
          ],
          [
            -99.199736,
            19.496821,
            2251.25
          ],
          [
            -99.199402,
            19.496423,
            2251.25
          ],
          [
            -99.199077,
            19.496,
            2251.25
          ],
          [
            -99.198769,
            19.495495,
            2251.25
          ],
          [
            -99.197786,
            19.49394,
            2251.5
          ],
          [
            -99.196678,
            19.492422,
            2251.5
          ],
          [
            -99.195315,
            19.49068,
            2251.5
          ],
          [
            -99.194683,
            19.489915,
            2251.5
          ],
          [
            -99.194325,
            19.48957,
            2251.5
          ],
          [
            -99.192017,
            19.487612,
            2251.75
          ],
          [
            -99.189994,
            19.485875,
            2251.75
          ],
          [
            -99.189863,
            19.485714,
            2251.75
          ],
          [
            -99.189758,
            19.485525,
            2251.75
          ],
          [
            -99.189703,
            19.48533,
            2251.75
          ],
          [
            -99.189675,
            19.485142,
            2251.75
          ],
          [
            -99.189777,
            19.483544,
            2251.75
          ],
          [
            -99.189905,
            19.481894,
            2251.75
          ],
          [
            -99.190026,
            19.479104,
            2252.5
          ],
          [
            -99.190313,
            19.473035,
            2254.25
          ],
          [
            -99.190463,
            19.469603,
            2255.25
          ],
          [
            -99.190569,
            19.467766,
            2255.75
          ],
          [
            -99.190709,
            19.464555,
            2256.5
          ],
          [
            -99.190677,
            19.464106,
            2256.75
          ],
          [
            -99.190582,
            19.463522,
            2256.75
          ],
          [
            -99.190429,
            19.462693,
            2257
          ],
          [
            -99.190326,
            19.46233,
            2257.25
          ],
          [
            -99.190208,
            19.461958,
            2257.25
          ],
          [
            -99.190074,
            19.461686,
            2257.5
          ],
          [
            -99.189937,
            19.461515,
            2257.5
          ],
          [
            -99.189771,
            19.461321,
            2257.5
          ],
          [
            -99.189565,
            19.461169,
            2257.5
          ],
          [
            -99.189342,
            19.461069,
            2257.75
          ],
          [
            -99.188958,
            19.460947,
            2257.75
          ],
          [
            -99.187556,
            19.460575,
            2258.25
          ],
          [
            -99.187257,
            19.460415,
            2258.25
          ],
          [
            -99.187076,
            19.460244,
            2258.25
          ],
          [
            -99.18695,
            19.460028,
            2258.5
          ],
          [
            -99.186906,
            19.459804,
            2258.5
          ],
          [
            -99.186905,
            19.459484,
            2258.5
          ],
          [
            -99.186943,
            19.459207,
            2258.75
          ],
          [
            -99.187208,
            19.458116,
            2259
          ],
          [
            -99.187421,
            19.45721,
            2259.25
          ],
          [
            -99.187517,
            19.456994,
            2259.25
          ],
          [
            -99.1877,
            19.456812,
            2259.5
          ],
          [
            -99.187893,
            19.456685,
            2259.5
          ],
          [
            -99.188638,
            19.456341,
            2259.75
          ],
          [
            -99.188886,
            19.456169,
            2259.75
          ],
          [
            -99.189149,
            19.455934,
            2259.75
          ],
          [
            -99.18927,
            19.455736,
            2260
          ],
          [
            -99.189434,
            19.455396,
            2260
          ],
          [
            -99.189563,
            19.454934,
            2260.25
          ],
          [
            -99.189612,
            19.454741,
            2260.25
          ],
          [
            -99.189794,
            19.454026,
            2260.5
          ],
          [
            -99.190067,
            19.453172,
            2260.75
          ],
          [
            -99.190656,
            19.450892,
            2261.25
          ],
          [
            -99.190974,
            19.449602,
            2261.75
          ],
          [
            -99.191197,
            19.448511,
            2262
          ],
          [
            -99.191362,
            19.447629,
            2262.25
          ],
          [
            -99.191555,
            19.44655,
            2262.5
          ],
          [
            -99.191795,
            19.444974,
            2263
          ],
          [
            -99.19205,
            19.443064,
            2263.5
          ],
          [
            -99.19205,
            19.442828,
            2263.75
          ],
          [
            -99.192001,
            19.442584,
            2263.75
          ],
          [
            -99.191867,
            19.442372,
            2263.75
          ],
          [
            -99.190706,
            19.440859,
            2264.25
          ],
          [
            -99.190408,
            19.440381,
            2264.5
          ],
          [
            -99.190356,
            19.439914,
            2264.75
          ],
          [
            -99.190483,
            19.438083,
            2265.25
          ],
          [
            -99.190915,
            19.43353,
            2266.5
          ],
          [
            -99.19173,
            19.427775,
            2268
          ],
          [
            -99.192257,
            19.424985,
            2269
          ],
          [
            -99.192511,
            19.423484,
            2269.25
          ],
          [
            -99.192665,
            19.422155,
            2269.75
          ],
          [
            -99.192743,
            19.421372,
            2270
          ],
          [
            -99.192914,
            19.420108,
            2270.25
          ],
          [
            -99.192961,
            19.419544,
            2270.5
          ],
          [
            -99.192952,
            19.41913,
            2270.5
          ],
          [
            -99.192893,
            19.41845,
            2270.75
          ],
          [
            -99.192612,
            19.416945,
            2271.25
          ],
          [
            -99.192327,
            19.415482,
            2271.75
          ],
          [
            -99.191832,
            19.413195,
            2272.25
          ],
          [
            -99.19172,
            19.412739,
            2272.5
          ],
          [
            -99.191384,
            19.41175,
            2272.75
          ],
          [
            -99.190698,
            19.410067,
            2273.25
          ],
          [
            -99.189694,
            19.40793,
            2274
          ],
          [
            -99.187987,
            19.404401,
            2275
          ],
          [
            -99.187511,
            19.403437,
            2275.25
          ],
          [
            -99.186746,
            19.402166,
            2275.75
          ],
          [
            -99.186273,
            19.401333,
            2276
          ],
          [
            -99.185829,
            19.400501,
            2276.25
          ],
          [
            -99.185626,
            19.40022,
            2276.5
          ],
          [
            -99.185341,
            19.399876,
            2276.5
          ],
          [
            -99.185172,
            19.39962,
            2276.5
          ],
          [
            -99.185032,
            19.39933,
            2276.75
          ],
          [
            -99.184967,
            19.399008,
            2276.75
          ],
          [
            -99.185005,
            19.3986,
            2277
          ],
          [
            -99.185309,
            19.395909,
            2277.75
          ],
          [
            -99.18553,
            19.391507,
            2279
          ],
          [
            -99.186633,
            19.384508,
            2281
          ],
          [
            -99.187612,
            19.376238,
            2283.25
          ],
          [
            -99.187693,
            19.37565,
            2283.5
          ],
          [
            -99.188001,
            19.372277,
            2284.5
          ],
          [
            -99.188201,
            19.370785,
            2285
          ],
          [
            -99.188355,
            19.369416,
            2285.25
          ],
          [
            -99.18869,
            19.366853,
            2286
          ],
          [
            -99.189112,
            19.362975,
            2287.25
          ],
          [
            -99.189247,
            19.361739
          ],
          [
            -99.189257,
            19.361553
          ],
          [
            -99.189366,
            19.360409
          ],
          [
            -99.189491,
            19.359555,
            2287.25
          ],
          [
            -99.189366,
            19.360409,
            2287.25
          ],
          [
            -99.189257,
            19.361553,
            2287.25
          ],
          [
            -99.189247,
            19.361739,
            2287.25
          ],
          [
            -99.189112,
            19.362975,
            2286.75
          ],
          [
            -99.18869,
            19.366853,
            2285.75
          ],
          [
            -99.188355,
            19.369416,
            2285
          ],
          [
            -99.188201,
            19.370785,
            2284.5
          ],
          [
            -99.188001,
            19.372277,
            2284
          ],
          [
            -99.187693,
            19.37565,
            2283
          ],
          [
            -99.187612,
            19.376238,
            2283
          ],
          [
            -99.186633,
            19.384508,
            2280.5
          ],
          [
            -99.18553,
            19.391507,
            2278.5
          ],
          [
            -99.185309,
            19.395909,
            2277.25
          ],
          [
            -99.185005,
            19.3986,
            2276.5
          ],
          [
            -99.184967,
            19.399008,
            2276.5
          ],
          [
            -99.185032,
            19.39933,
            2276.25
          ],
          [
            -99.185172,
            19.39962,
            2276.25
          ],
          [
            -99.185341,
            19.399876,
            2276
          ],
          [
            -99.185626,
            19.40022,
            2276
          ],
          [
            -99.185829,
            19.400501,
            2276
          ],
          [
            -99.186273,
            19.401333,
            2275.5
          ],
          [
            -99.186746,
            19.402166,
            2275.25
          ],
          [
            -99.187511,
            19.403437,
            2275
          ],
          [
            -99.187987,
            19.404401,
            2274.5
          ],
          [
            -99.189694,
            19.40793,
            2273.5
          ],
          [
            -99.190698,
            19.410067,
            2272.75
          ],
          [
            -99.191384,
            19.41175,
            2272.25
          ],
          [
            -99.19172,
            19.412739,
            2272
          ],
          [
            -99.191832,
            19.413195,
            2272
          ],
          [
            -99.192327,
            19.415482,
            2271.25
          ],
          [
            -99.192612,
            19.416945,
            2270.75
          ],
          [
            -99.192893,
            19.41845,
            2270.25
          ],
          [
            -99.192952,
            19.41913,
            2270.25
          ],
          [
            -99.192961,
            19.419544,
            2270
          ],
          [
            -99.192914,
            19.420108,
            2270
          ],
          [
            -99.192743,
            19.421372,
            2269.5
          ],
          [
            -99.192665,
            19.422155,
            2269.25
          ],
          [
            -99.192511,
            19.423484,
            2269
          ],
          [
            -99.192257,
            19.424985,
            2268.5
          ],
          [
            -99.19173,
            19.427775,
            2267.75
          ],
          [
            -99.190915,
            19.43353,
            2266
          ],
          [
            -99.190483,
            19.438083,
            2264.75
          ],
          [
            -99.190356,
            19.439914,
            2264.25
          ],
          [
            -99.190408,
            19.440381,
            2264
          ],
          [
            -99.190706,
            19.440859,
            2263.75
          ],
          [
            -99.191867,
            19.442372,
            2263.25
          ],
          [
            -99.192001,
            19.442584,
            2263.25
          ],
          [
            -99.19205,
            19.442828,
            2263.25
          ],
          [
            -99.19205,
            19.443064,
            2263
          ],
          [
            -99.191795,
            19.444974,
            2262.5
          ],
          [
            -99.191555,
            19.44655,
            2262
          ],
          [
            -99.191362,
            19.447629,
            2261.75
          ],
          [
            -99.191197,
            19.448511,
            2261.5
          ],
          [
            -99.190974,
            19.449602,
            2261.25
          ],
          [
            -99.190656,
            19.450892,
            2260.75
          ],
          [
            -99.190067,
            19.453172,
            2260.25
          ],
          [
            -99.189794,
            19.454026,
            2260
          ],
          [
            -99.189612,
            19.454741,
            2259.75
          ],
          [
            -99.189563,
            19.454934,
            2259.75
          ],
          [
            -99.189434,
            19.455396,
            2259.5
          ],
          [
            -99.18927,
            19.455736,
            2259.5
          ],
          [
            -99.189149,
            19.455934,
            2259.25
          ],
          [
            -99.188886,
            19.456169,
            2259.25
          ],
          [
            -99.188638,
            19.456341,
            2259.25
          ],
          [
            -99.187893,
            19.456685,
            2259
          ],
          [
            -99.1877,
            19.456812,
            2258.75
          ],
          [
            -99.187517,
            19.456994,
            2258.75
          ],
          [
            -99.187421,
            19.45721,
            2258.75
          ],
          [
            -99.187208,
            19.458116,
            2258.5
          ],
          [
            -99.186943,
            19.459207,
            2258.25
          ],
          [
            -99.186905,
            19.459484,
            2258
          ],
          [
            -99.186906,
            19.459804,
            2258
          ],
          [
            -99.18695,
            19.460028,
            2258
          ],
          [
            -99.187076,
            19.460244,
            2257.75
          ],
          [
            -99.187257,
            19.460415,
            2257.75
          ],
          [
            -99.187556,
            19.460575,
            2257.75
          ],
          [
            -99.188958,
            19.460947,
            2257.25
          ],
          [
            -99.189342,
            19.461069,
            2257.25
          ],
          [
            -99.189565,
            19.461169,
            2257
          ],
          [
            -99.189771,
            19.461321,
            2257
          ],
          [
            -99.189937,
            19.461515,
            2257
          ],
          [
            -99.190074,
            19.461686,
            2257
          ],
          [
            -99.190208,
            19.461958,
            2256.75
          ],
          [
            -99.190326,
            19.46233,
            2256.75
          ],
          [
            -99.190429,
            19.462693,
            2256.5
          ],
          [
            -99.190582,
            19.463522,
            2256.25
          ],
          [
            -99.190677,
            19.464106,
            2256.25
          ],
          [
            -99.190709,
            19.464555,
            2256
          ],
          [
            -99.190569,
            19.467766,
            2255.25
          ],
          [
            -99.190463,
            19.469603,
            2254.5
          ],
          [
            -99.190313,
            19.473035,
            2253.5
          ],
          [
            -99.190026,
            19.479104,
            2253
          ],
          [
            -99.189905,
            19.481894,
            2252.75
          ],
          [
            -99.189777,
            19.483544,
            2252.75
          ],
          [
            -99.189675,
            19.485142,
            2252.5
          ],
          [
            -99.189703,
            19.48533,
            2252.5
          ],
          [
            -99.189758,
            19.485525,
            2252.5
          ],
          [
            -99.189863,
            19.485714,
            2252.5
          ],
          [
            -99.189994,
            19.485875,
            2252.5
          ],
          [
            -99.192017,
            19.487612,
            2252.25
          ],
          [
            -99.194325,
            19.48957,
            2252.25
          ],
          [
            -99.194683,
            19.489915,
            2252
          ],
          [
            -99.195315,
            19.49068,
            2252
          ],
          [
            -99.196678,
            19.492422,
            2252
          ],
          [
            -99.197786,
            19.49394,
            2251.75
          ],
          [
            -99.198769,
            19.495495,
            2251.75
          ],
          [
            -99.199077,
            19.496,
            2251.5
          ],
          [
            -99.199402,
            19.496423,
            2251.5
          ],
          [
            -99.199736,
            19.496821,
            2251.5
          ],
          [
            -99.200061,
            19.497157,
            2251.5
          ],
          [
            -99.201612,
            19.498636,
            2251.5
          ],
          [
            -99.201786,
            19.498869,
            2251.25
          ],
          [
            -99.201879,
            19.499164,
            2251.25
          ],
          [
            -99.201876,
            19.49946,
            2251.25
          ],
          [
            -99.201819,
            19.499717,
            2251.25
          ],
          [
            -99.200941,
            19.502305,
            2251
          ],
          [
            -99.200633,
            19.503268,
            2251.25
          ],
          [
            -99.200444,
            19.50374,
            2252.25
          ],
          [
            -99.200422,
            19.503781,
            2252.5
          ],
          [
            -99.200132,
            19.504684,
            2254.5
          ],
          [
            -99.199953,
            19.50523,
            2252
          ]
        ]
      }
    }
  ]
}