{
  "type": "FeatureCollection",
  "features": [
    {
      "type": "Feature",
      "properties": {
        "creator": "BRouter-1.7.9",
        "name": "[STC] Línea 5",
        "track-length": "29278",
        "filtered ascend": "21",
        "plain-ascend": "-13",
        "total-time": "2342",
        "total-energy": "1277764",
        "cost": "58556",
        "messages": [
          [
            "Longitude",
            "Latitude",
            "Elevation",
            "Distance",
            "CostPerKm",
            "ElevCost",
            "TurnCost",
            "NodeCost",
            "InitialCost",
            "WayTags",
            "NodeTags",
            "Time",
            "Energy"
          ],
          [
            "-99149046",
            "19500168",
            "2241",
            "126",
            "2000",
            "0",
            "0",
            "0",
            "0",
            "railway=subway",
            "wheelchair=yes railway=halt",
            "10",
            "5700"
          ],
          [
            "-99144536",
            "19488850",
            "2241",
            "1339",
            "2000",
            "0",
            "0",
            "0",
            "0",
            "railway=subway",
            "railway=halt",
            "117",
            "63756"
          ],
          [
            "-99140414",
            "19478408",
            "2240",
            "1235",
            "2000",
            "0",
            "0",
            "0",
            "0",
            "railway=subway",
            "wheelchair=yes railway=halt",
            "216",
            "118063"
          ],
          [
            "-99139136",
            "19475323",
            "2239",
            "366",
            "2000",
            "0",
            "0",
            "0",
            "0",
            "railway=subway",
            "railway=switch",
            "245",
            "133852"
          ],
          [
            "-99138176",
            "19472894",
            "2238",
            "287",
            "2000",
            "0",
            "0",
            "0",
            "0",
            "railway=subway",
            "railway=switch",
            "268",
            "144718"
          ],
          [
            "-99138147",
            "19472823",
            "2238",
            "8",
            "2000",
            "0",
            "0",
            "0",
            "0",
            "railway=subway",
            "railway=switch",
            "268",
            "145079"
          ],
          [
            "-99136200",
            "19469153",
            "2238",
            "458",
            "2000",
            "0",
            "0",
            "0",
            "0",
            "railway=subway",
            "railway=halt",
            "305",
            "165256"
          ],
          [
            "-99129917",
            "19462848",
            "2237",
            "976",
            "2000",
            "0",
            "0",
            "0",
            "0",
            "railway=subway",
            "railway=halt",
            "383",
            "207599"
          ],
          [
            "-99119401",
            "19458831",
            "2235",
            "1195",
            "2000",
            "0",
            "0",
            "0",
            "0",
            "railway=subway",
            "railway=halt",
            "479",
            "260160"
          ],
          [
            "-99119265",
            "19458788",
            "2235",
            "15",
            "2000",
            "0",
            "0",
            "0",
            "0",
            "railway=subway",
            "railway=switch",
            "480",
            "260820"
          ],
          [
            "-99118185",
            "19458404",
            "2235",
            "121",
            "2000",
            "0",
            "0",
            "0",
            "0",
            "reversedirection=yes railway=subway",
            "railway=switch",
            "490",
            "264807"
          ],
          [
            "-99116297",
            "19457351",
            "2234",
            "232",
            "2000",
            "0",
            "0",
            "0",
            "0",
            "reversedirection=yes railway=subway",
            "railway=switch",
            "508",
            "274239"
          ],
          [
            "-99116003",
            "19457171",
            "2234",
            "37",
            "2000",
            "0",
            "0",
            "0",
            "0",
            "railway=subway",
            "railway=switch",
            "511",
            "275494"
          ],
          [
            "-99113115",
            "19454769",
            "2237",
            "403",
            "2000",
            "0",
            "0",
            "0",
            "0",
            "railway=subway",
            "railway=halt",
            "543",
            "295004"
          ],
          [
            "-99104774",
            "19451155",
            "2236",
            "969",
            "2000",
            "0",
            "0",
            "0",
            "0",
            "railway=subway",
            "railway=halt",
            "621",
            "337253"
          ],
          [
            "-99095632",
            "19451424",
            "2235",
            "1015",
            "2000",
            "0",
            "0",
            "0",
            "0",
            "railway=subway",
            "railway=halt",
            "702",
            "380492"
          ],
          [
            "-99086508",
            "19444160",
            "2235",
            "1360",
            "2000",
            "0",
            "0",
            "0",
            "0",
            "railway=subway",
            "railway=halt",
            "811",
            "440386"
          ],
          [
            "-99088558",
            "19433644",
            "2245",
            "1271",
            "2000",
            "0",
            "0",
            "0",
            "0",
            "railway=subway",
            "railway=halt",
            "913",
            "507089"
          ],
          [
            "-99087633",
            "19424052",
            "2239",
            "1396",
            "2000",
            "0",
            "0",
            "0",
            "0",
            "railway=subway",
            "railway=halt",
            "1024",
            "568483"
          ],
          [
            "-99075734",
            "19415905",
            "2235",
            "1556",
            "2000",
            "0",
            "0",
            "0",
            "0",
            "railway=subway",
            "railway=switch",
            "1149",
            "628869"
          ],
          [
            "-99074983",
            "19415470",
            "2233",
            "92",
            "2000",
            "0",
            "0",
            "0",
            "0",
            "railway=subway",
            "",
            "1156",
            "631369"
          ],
          [
            "-99074223",
            "19415026",
            "2233",
            "94",
            "2000",
            "0",
            "0",
            "0",
            "0",
            "reversedirection=yes railway=subway",
            "railway=halt",
            "1164",
            "634880"
          ],
          [
            "-99073546",
            "19414641",
            "2235",
            "83",
            "2000",
            "0",
            "0",
            "0",
            "0",
            "reversedirection=yes railway=subway",
            "",
            "1170",
            "639052"
          ],
          [
            "-99074223",
            "19415026",
            "2233",
            "83",
            "2000",
            "0",
            "0",
            "0",
            "0",
            "railway=subway",
            "railway=halt",
            "6",
            "2971"
          ],
          [
            "-99075711",
            "19415948",
            "2235",
            "187",
            "2000",
            "0",
            "0",
            "0",
            "0",
            "railway=subway",
            "railway=switch",
            "21",
            "11495"
          ],
          [
            "-99078422",
            "19417536",
            "-8192",
            "335",
            "2000",
            "0",
            "0",
            "0",
            "0",
            "railway=subway",
            "",
            "48",
            "24637"
          ],
          [
            "-99088349",
            "19424534",
            "-8192",
            "1312",
            "2000",
            "0",
            "0",
            "0",
            "0",
            "railway=subway",
            "railway=halt",
            "104",
            "57708"
          ],
          [
            "-99087961",
            "19434260",
            "-8192",
            "1388",
            "2000",
            "0",
            "0",
            "0",
            "0",
            "railway=subway",
            "railway=halt",
            "216",
            "118760"
          ],
          [
            "-99086873",
            "19445176",
            "2234",
            "1301",
            "2000",
            "0",
            "0",
            "0",
            "0",
            "railway=subway",
            "railway=halt",
            "320",
            "169069"
          ],
          [
            "-99089214",
            "19448049",
            "2237",
            "407",
            "2000",
            "0",
            "0",
            "0",
            "0",
            "railway=subway",
            "railway=switch",
            "352",
            "186287"
          ],
          [
            "-99096924",
            "19451028",
            "2236",
            "989",
            "2000",
            "0",
            "0",
            "0",
            "0",
            "railway=subway",
            "railway=halt",
            "431",
            "228877"
          ],
          [
            "-99105849",
            "19451635",
            "2235",
            "1000",
            "2000",
            "0",
            "0",
            "0",
            "0",
            "railway=subway",
            "railway=halt",
            "511",
            "272764"
          ],
          [
            "-99114004",
            "19455529",
            "2236",
            "969",
            "2000",
            "0",
            "0",
            "0",
            "0",
            "railway=subway",
            "railway=halt",
            "589",
            "316409"
          ],
          [
            "-99120720",
            "19459290",
            "2236",
            "833",
            "2000",
            "0",
            "0",
            "0",
            "0",
            "railway=subway",
            "railway=halt",
            "655",
            "352228"
          ],
          [
            "-99130979",
            "19463572",
            "2238",
            "1183",
            "2000",
            "0",
            "0",
            "0",
            "0",
            "railway=subway",
            "railway=halt",
            "750",
            "404269"
          ],
          [
            "-99136837",
            "19470160",
            "2237",
            "965",
            "2000",
            "0",
            "0",
            "0",
            "0",
            "railway=subway",
            "railway=halt",
            "827",
            "447673"
          ],
          [
            "-99138009",
            "19472562",
            "2239",
            "294",
            "2000",
            "0",
            "0",
            "0",
            "0",
            "railway=subway",
            "railway=switch",
            "851",
            "462381"
          ],
          [
            "-99140838",
            "19479612",
            "2242",
            "835",
            "2000",
            "0",
            "0",
            "0",
            "0",
            "railway=subway",
            "wheelchair=yes railway=halt",
            "918",
            "501794"
          ],
          [
            "-99144851",
            "19489786",
            "2240",
            "1204",
            "2000",
            "0",
            "0",
            "0",
            "0",
            "railway=subway",
            "railway=halt",
            "1014",
            "553142"
          ],
          [
            "-99146575",
            "19494341",
            "2240",
            "536",
            "2000",
            "0",
            "0",
            "0",
            "0",
            "railway=subway",
            "railway=switch",
            "1057",
            "576412"
          ],
          [
            "-99149328",
            "19501098",
            "2241",
            "803",
            "2000",
            "0",
            "0",
            "0",
            "0",
            "railway=subway",
            "wheelchair=yes railway=halt",
            "1121",
            "613220"
          ],
          [
            "-99149394",
            "19501263",
            "2241",
            "20",
            "2000",
            "0",
            "0",
            "0",
            "0",
            "railway=subway",
            "",
            "1123",
            "614075"
          ]
        ],
        "times": [
          0,
          10.08,
          11.92,
          22.96,
          27.84,
          33.84,
          36.32,
          57.04,
          70.48,
          77.2,
          84.16,
          106.72,
          117.2,
          118.88,
          127.68,
          131.6,
          135.04,
          138.72,
          143.04,
          164,
          192,
          199.76,
          203.12,
          216,
          217.28,
          219.04,
          229.76,
          234.16,
          243.12,
          245.28,
          268.24,
          268.88,
          278,
          286.48,
          289.28,
          293.28,
          305.52,
          307.12,
          313.52,
          326.8,
          335.92,
          350.24,
          353.76,
          358,
          383.6,
          403.28,
          405.92,
          408.48,
          439.2,
          456.8,
          479.2,
          480.4,
          482.16,
          483.68,
          490.08,
          494.96,
          497.92,
          500.16,
          502.8,
          508.64,
          511.6,
          521.68,
          533.28,
          543.84,
          545.36,
          553.76,
          556.08,
          557.92,
          559.76,
          561.92,
          578.64,
          587.84,
          600.24,
          602.4,
          607.92,
          609.52,
          621.36,
          623.36,
          625.92,
          630.32,
          646.48,
          648.96,
          650.48,
          652.96,
          654.56,
          656.64,
          657.76,
          659.84,
          661.92,
          663.2,
          665.04,
          667.6,
          679.76,
          686.08,
          690.32,
          702.56,
          704,
          708.56,
          711.2,
          712.32,
          714.4,
          715.6,
          717.52,
          719.2,
          720.96,
          722,
          723.76,
          724.8,
          726.4,
          727.6,
          729.28,
          730.72,
          781.84,
          786.48,
          788.48,
          790.32,
          792,
          794.48,
          811.36,
          815.6,
          818,
          821.2,
          831.6,
          833.68,
          835.68,
          836.88,
          838.4,
          840.16,
          841.84,
          843.36,
          844.72,
          846.32,
          847.52,
          857.04,
          861.52,
          866,
          871.28,
          878.32,
          887.92,
          890.48,
          893.76,
          909.52,
          913.04,
          916.8,
          974,
          976.56,
          978.72,
          980.8,
          983.76,
          986.64,
          1024.72,
          1062.88,
          1082,
          1086.48,
          1090.16,
          1093.76,
          1100.32,
          1104,
          1107.28,
          1113.6,
          1124.96,
          1139.92,
          1149.2,
          1156.56,
          1164.08,
          1169.84,
          1170.72,
          1171.6,
          1177.36,
          1184.88,
          1187.76,
          1188.88,
          1192.32,
          1201.6,
          1216.56,
          1219.12,
          1234.16,
          1237.36,
          1240.96,
          1247.44,
          1250.96,
          1254.72,
          1259.44,
          1324.08,
          1354.72,
          1357.44,
          1360.4,
          1362.4,
          1364.56,
          1366.8,
          1424,
          1424.64,
          1431.44,
          1435.12,
          1446.96,
          1450.4,
          1453.04,
          1457.44,
          1462.56,
          1469.6,
          1474.88,
          1479.36,
          1481.68,
          1484.08,
          1494.64,
          1496.16,
          1497.52,
          1498.88,
          1500.72,
          1502.56,
          1504,
          1506.16,
          1507.28,
          1509.44,
          1519.84,
          1525.44,
          1528.16,
          1539.2,
          1546.56,
          1548.08,
          1549.12,
          1550.4,
          1552.72,
          1554.88,
          1571.76,
          1596.88,
          1610.56,
          1611.92,
          1614.16,
          1614.88,
          1615.6,
          1617.28,
          1618.32,
          1619.52,
          1622.08,
          1622.88,
          1624.88,
          1626.48,
          1628.24,
          1629.44,
          1630.72,
          1633.12,
          1634.08,
          1638,
          1650.88,
          1651.76,
          1656.08,
          1662.32,
          1674.4,
          1677.2,
          1678.88,
          1680.16,
          1682.24,
          1684.32,
          1685.52,
          1687.68,
          1689.2,
          1691.68,
          1693.2,
          1695.68,
          1702.64,
          1713.2,
          1716.32,
          1718.88,
          1730.88,
          1732.72,
          1735.44,
          1742,
          1754.48,
          1763.68,
          1780.4,
          1782.48,
          1784.32,
          1784.96,
          1787.36,
          1790.4,
          1796.8,
          1808.4,
          1808.96,
          1820.48,
          1833.04,
          1839.44,
          1842,
          1843.44,
          1845.92,
          1847.36,
          1858.8,
          1875.04,
          1903.28,
          1933.92,
          1936.4,
          1938.88,
          1952.08,
          1963.84,
          1969.68,
          1984.4,
          1988.48,
          1991.84,
          2006.16,
          2015.28,
          2028.56,
          2034.88,
          2046.88,
          2048.72,
          2052.72,
          2055.44,
          2070.4,
          2098.8,
          2107.76,
          2112.16,
          2122.8,
          2124.64,
          2137.2,
          2138.88,
          2142.24,
          2149.92,
          2178,
          2198.96,
          2203.28,
          2207.04,
          2210.48,
          2214.4,
          2223.12,
          2233.52,
          2235.28,
          2257.84,
          2264.8,
          2271.52,
          2276.4,
          2285.04,
          2305.84,
          2308.4,
          2314.32,
          2319.28,
          2330.24,
          2340.64,
          2342.24
        ]
      },
      "geometry": {
        "type": "LineString",
        "coordinates": [
          [
            -99.149471,
            19.501236,
            2241.5
          ],
          [
            -99.149046,
            19.500168,
            2241.75
          ],
          [
            -99.14897,
            19.499975,
            2242.25
          ],
          [
            -99.148511,
            19.498809,
            2243
          ],
          [
            -99.148278,
            19.498302,
            2241.75
          ],
          [
            -99.14796,
            19.497693,
            2240
          ],
          [
            -99.147841,
            19.497432,
            2239.5
          ],
          [
            -99.146983,
            19.495238,
            2241.25
          ],
          [
            -99.146434,
            19.493808,
            2240
          ],
          [
            -99.146157,
            19.493092,
            2241
          ],
          [
            -99.145908,
            19.492341,
            2239.25
          ],
          [
            -99.144982,
            19.489952,
            2240
          ],
          [
            -99.144536,
            19.48885,
            2241
          ],
          [
            -99.144465,
            19.488668,
            2240
          ],
          [
            -99.144082,
            19.487746,
            2237
          ],
          [
            -99.143884,
            19.487345,
            2237.75
          ],
          [
            -99.143691,
            19.487001,
            2238.25
          ],
          [
            -99.143514,
            19.486621,
            2238.25
          ],
          [
            -99.143338,
            19.486159,
            2239.75
          ],
          [
            -99.142554,
            19.483915,
            2240.5
          ],
          [
            -99.141461,
            19.480932,
            2241.25
          ],
          [
            -99.141104,
            19.480121,
            2243
          ],
          [
            -99.140965,
            19.479769,
            2243
          ],
          [
            -99.140414,
            19.478408,
            2240.25
          ],
          [
            -99.140361,
            19.478272,
            2240.5
          ],
          [
            -99.140287,
            19.478082,
            2240.75
          ],
          [
            -99.139843,
            19.476951,
            2241.5
          ],
          [
            -99.139651,
            19.476485,
            2241
          ],
          [
            -99.139225,
            19.475555,
            2240.25
          ],
          [
            -99.139136,
            19.475323,
            2239.75
          ],
          [
            -99.138176,
            19.472894,
            2238.25
          ],
          [
            -99.138147,
            19.472823,
            2238.5
          ],
          [
            -99.137774,
            19.471858,
            2240
          ],
          [
            -99.137404,
            19.47097,
            2236.75
          ],
          [
            -99.13725,
            19.470691,
            2236.5
          ],
          [
            -99.136996,
            19.470308,
            2237
          ],
          [
            -99.1362,
            19.469153,
            2238.75
          ],
          [
            -99.136091,
            19.469004,
            2238
          ],
          [
            -99.135659,
            19.468414,
            2236.25
          ],
          [
            -99.134731,
            19.467196,
            2239
          ],
          [
            -99.134097,
            19.46636,
            2238.75
          ],
          [
            -99.133145,
            19.465019,
            2238.25
          ],
          [
            -99.132865,
            19.464724,
            2238.25
          ],
          [
            -99.132477,
            19.464424,
            2238.25
          ],
          [
            -99.129917,
            19.462848,
            2237.5
          ],
          [
            -99.127914,
            19.461691,
            2237
          ],
          [
            -99.127634,
            19.461551,
            2237
          ],
          [
            -99.127351,
            19.461448,
            2237
          ],
          [
            -99.123902,
            19.460299,
            2236.25
          ],
          [
            -99.121929,
            19.459641,
            2235.75
          ],
          [
            -99.119401,
            19.458831,
            2235.25
          ],
          [
            -99.119265,
            19.458788,
            2235.25
          ],
          [
            -99.119074,
            19.458703,
            2235.25
          ],
          [
            -99.118906,
            19.458645,
            2235.25
          ],
          [
            -99.118185,
            19.458404,
            2235.25
          ],
          [
            -99.117633,
            19.458221,
            2235.75
          ],
          [
            -99.117308,
            19.458083,
            2236.25
          ],
          [
            -99.117077,
            19.457952,
            2236.25
          ],
          [
            -99.116827,
            19.457778,
            2235.75
          ],
          [
            -99.116297,
            19.457351,
            2234.75
          ],
          [
            -99.116003,
            19.457171,
            2234
          ],
          [
            -99.115096,
            19.45643,
            2234
          ],
          [
            -99.114075,
            19.455544,
            2236.75
          ],
          [
            -99.113115,
            19.454769,
            2237.25
          ],
          [
            -99.112977,
            19.454658,
            2237.5
          ],
          [
            -99.112202,
            19.454055,
            2238
          ],
          [
            -99.111981,
            19.453902,
            2237.25
          ],
          [
            -99.111799,
            19.45379,
            2236.75
          ],
          [
            -99.111601,
            19.453695,
            2236.5
          ],
          [
            -99.111365,
            19.4536,
            2236.75
          ],
          [
            -99.109509,
            19.452914,
            2237
          ],
          [
            -99.108483,
            19.452544,
            2236.75
          ],
          [
            -99.107102,
            19.452042,
            2237
          ],
          [
            -99.106862,
            19.451951,
            2237.25
          ],
          [
            -99.106264,
            19.451703,
            2236.5
          ],
          [
            -99.106085,
            19.451636,
            2236.25
          ],
          [
            -99.104774,
            19.451155,
            2236.5
          ],
          [
            -99.104551,
            19.451073,
            2236.25
          ],
          [
            -99.104263,
            19.450971,
            2236
          ],
          [
            -99.103761,
            19.450819,
            2235.5
          ],
          [
            -99.101965,
            19.450161,
            2235.25
          ],
          [
            -99.101689,
            19.45006,
            2235
          ],
          [
            -99.101521,
            19.450003,
            2235
          ],
          [
            -99.101241,
            19.449922,
            2235.5
          ],
          [
            -99.101052,
            19.449885,
            2235.75
          ],
          [
            -99.100808,
            19.449854,
            2236
          ],
          [
            -99.100675,
            19.449842,
            2236
          ],
          [
            -99.100426,
            19.449841,
            2235.75
          ],
          [
            -99.10018,
            19.44986,
            2235.5
          ],
          [
            -99.100027,
            19.449883,
            2235.25
          ],
          [
            -99.099816,
            19.449924,
            2235.25
          ],
          [
            -99.099519,
            19.450006,
            2235.5
          ],
          [
            -99.098168,
            19.4505,
            2235
          ],
          [
            -99.097456,
            19.450741,
            2233.5
          ],
          [
            -99.096986,
            19.450917,
            2235.5
          ],
          [
            -99.095632,
            19.451424,
            2235
          ],
          [
            -99.095469,
            19.451486,
            2235.25
          ],
          [
            -99.094964,
            19.451673,
            2235.75
          ],
          [
            -99.094662,
            19.451749,
            2235.25
          ],
          [
            -99.094528,
            19.451771,
            2235
          ],
          [
            -99.094277,
            19.451791,
            2234.5
          ],
          [
            -99.094133,
            19.451789,
            2234.25
          ],
          [
            -99.093904,
            19.451771,
            2234.5
          ],
          [
            -99.093711,
            19.451738,
            2234.5
          ],
          [
            -99.093513,
            19.451687,
            2234.75
          ],
          [
            -99.093395,
            19.451647,
            2234.75
          ],
          [
            -99.0932,
            19.451568,
            2235.5
          ],
          [
            -99.093087,
            19.451511,
            2235.75
          ],
          [
            -99.092918,
            19.451419,
            2236
          ],
          [
            -99.092801,
            19.451346,
            2236
          ],
          [
            -99.092644,
            19.451225,
            2236
          ],
          [
            -99.092518,
            19.451115,
            2235.5
          ],
          [
            -99.088188,
            19.447055,
            2234.75
          ],
          [
            -99.087798,
            19.446683,
            2232.75
          ],
          [
            -99.087642,
            19.446507,
            2232.5
          ],
          [
            -99.087516,
            19.446334,
            2232.75
          ],
          [
            -99.087416,
            19.446165,
            2233
          ],
          [
            -99.087298,
            19.445908,
            2233.75
          ],
          [
            -99.086508,
            19.44416,
            2235.25
          ],
          [
            -99.086311,
            19.443716,
            2234.25
          ],
          [
            -99.086189,
            19.443467,
            2234
          ],
          [
            -99.086018,
            19.443146,
            2234
          ],
          [
            -99.085538,
            19.442062,
            2240.75
          ],
          [
            -99.085462,
            19.441834,
            2243.75
          ],
          [
            -99.085411,
            19.441613,
            2246.5
          ],
          [
            -99.085389,
            19.441479,
            2248.25
          ],
          [
            -99.085376,
            19.441311,
            2250.25
          ],
          [
            -99.085376,
            19.441109,
            2252.25
          ],
          [
            -99.085396,
            19.440916,
            2254.25
          ],
          [
            -99.085422,
            19.440745,
            2254.5
          ],
          [
            -99.085457,
            19.440596,
            2253.75
          ],
          [
            -99.085507,
            19.440421,
            2252.75
          ],
          [
            -99.085552,
            19.440291,
            2252.25
          ],
          [
            -99.085936,
            19.439283,
            2250.25
          ],
          [
            -99.086096,
            19.438799,
            2250.5
          ],
          [
            -99.086206,
            19.438305,
            2250.75
          ],
          [
            -99.086313,
            19.437715,
            2248
          ],
          [
            -99.086461,
            19.436936,
            2247.5
          ],
          [
            -99.086753,
            19.435889,
            2247
          ],
          [
            -99.086873,
            19.435627,
            2246.75
          ],
          [
            -99.08707,
            19.435303,
            2246.75
          ],
          [
            -99.088308,
            19.433963,
            2245.75
          ],
          [
            -99.088558,
            19.433644,
            2245.5
          ],
          [
            -99.088814,
            19.433294,
            2245.5
          ],
          [
            -99.091996,
            19.42758,
            2242.25
          ],
          [
            -99.092038,
            19.427296,
            2242.25
          ],
          [
            -99.092004,
            19.427053,
            2242
          ],
          [
            -99.09191,
            19.426835,
            2242
          ],
          [
            -99.091731,
            19.426552,
            2241.75
          ],
          [
            -99.091489,
            19.426317,
            2241.5
          ],
          [
            -99.087633,
            19.424052,
            2239.5
          ],
          [
            -99.08376,
            19.421806,
            2237.5
          ],
          [
            -99.081825,
            19.420675,
            2236.5
          ],
          [
            -99.081404,
            19.420359,
            2236.25
          ],
          [
            -99.081104,
            19.420052,
            2236
          ],
          [
            -99.080844,
            19.419728,
            2235.75
          ],
          [
            -99.080455,
            19.419089,
            2235.5
          ],
          [
            -99.080178,
            19.418763,
            2235.25
          ],
          [
            -99.079881,
            19.418519,
            2235
          ],
          [
            -99.079279,
            19.418097,
            2234.75
          ],
          [
            -99.078197,
            19.417334,
            2234
          ],
          [
            -99.076678,
            19.416457,
            2234.25
          ],
          [
            -99.075734,
            19.415905,
            2235.25
          ],
          [
            -99.074983,
            19.41547,
            2233
          ],
          [
            -99.074223,
            19.415026,
            2233
          ],
          [
            -99.073638,
            19.414694,
            2234.5
          ],
          [
            -99.073546,
            19.414641,
            2235
          ],
          [
            -99.073638,
            19.414694,
            2234.5
          ],
          [
            -99.074223,
            19.415026,
            2233
          ],
          [
            -99.074983,
            19.41547,
            2233
          ],
          [
            -99.075251,
            19.415671,
            2233.5
          ],
          [
            -99.075361,
            19.415745,
            2234
          ],
          [
            -99.075711,
            19.415948,
            2235.25
          ],
          [
            -99.076655,
            19.416488,
            2234.5
          ],
          [
            -99.07818,
            19.417364,
            2232
          ],
          [
            -99.078422,
            19.417536,
            2232
          ],
          [
            -99.079853,
            19.418558,
            2247.25
          ],
          [
            -99.080139,
            19.418798,
            2247.25
          ],
          [
            -99.080411,
            19.419112,
            2247.25
          ],
          [
            -99.080792,
            19.419747,
            2247.25
          ],
          [
            -99.081052,
            19.420064,
            2247.25
          ],
          [
            -99.081355,
            19.420378,
            2247.25
          ],
          [
            -99.081794,
            19.420705,
            2247.25
          ],
          [
            -99.088349,
            19.424534,
            2247.25
          ],
          [
            -99.091446,
            19.426354,
            2247.25
          ],
          [
            -99.091673,
            19.426574,
            2247.25
          ],
          [
            -99.091854,
            19.42686,
            2247.25
          ],
          [
            -99.091944,
            19.427066,
            2247.25
          ],
          [
            -99.091966,
            19.427311,
            2247.25
          ],
          [
            -99.091931,
            19.427559,
            2247.25
          ],
          [
            -99.088766,
            19.433275,
            2247.25
          ],
          [
            -99.088727,
            19.433335,
            2247.25
          ],
          [
            -99.088241,
            19.433945,
            2247.25
          ],
          [
            -99.087961,
            19.43426,
            2247.25
          ],
          [
            -99.087036,
            19.435274,
            2247.25
          ],
          [
            -99.086829,
            19.435607,
            2247.25
          ],
          [
            -99.086703,
            19.435883,
            2247.25
          ],
          [
            -99.086572,
            19.436368,
            2247.25
          ],
          [
            -99.086436,
            19.436932,
            2247.25
          ],
          [
            -99.086288,
            19.437711,
            2248
          ],
          [
            -99.086173,
            19.438301,
            2251
          ],
          [
            -99.086063,
            19.438793,
            2250.75
          ],
          [
            -99.085984,
            19.439047,
            2250.5
          ],
          [
            -99.085894,
            19.439304,
            2250.5
          ],
          [
            -99.08547,
            19.44043,
            2253
          ],
          [
            -99.085426,
            19.440598,
            2254
          ],
          [
            -99.08539,
            19.440751,
            2254.75
          ],
          [
            -99.085366,
            19.440906,
            2254.75
          ],
          [
            -99.085347,
            19.44111,
            2252.75
          ],
          [
            -99.085349,
            19.441317,
            2250.25
          ],
          [
            -99.085362,
            19.441477,
            2248.5
          ],
          [
            -99.085406,
            19.441716,
            2245.5
          ],
          [
            -99.085433,
            19.441838,
            2244
          ],
          [
            -99.085509,
            19.442071,
            2240.75
          ],
          [
            -99.085993,
            19.443155,
            2234
          ],
          [
            -99.086232,
            19.443745,
            2234
          ],
          [
            -99.086355,
            19.444029,
            2234.5
          ],
          [
            -99.086873,
            19.445176,
            2234.5
          ],
          [
            -99.087218,
            19.445941,
            2233.75
          ],
          [
            -99.087297,
            19.4461,
            2233.25
          ],
          [
            -99.087355,
            19.446202,
            2233
          ],
          [
            -99.08744,
            19.446325,
            2232.75
          ],
          [
            -99.087614,
            19.44653,
            2232.5
          ],
          [
            -99.087783,
            19.44671,
            2232.75
          ],
          [
            -99.089214,
            19.448049,
            2237
          ],
          [
            -99.091336,
            19.450045,
            2234.25
          ],
          [
            -99.092489,
            19.45114,
            2235.5
          ],
          [
            -99.092605,
            19.451243,
            2236
          ],
          [
            -99.092807,
            19.451405,
            2236
          ],
          [
            -99.092874,
            19.451452,
            2236
          ],
          [
            -99.092947,
            19.451499,
            2236
          ],
          [
            -99.093119,
            19.451593,
            2235.5
          ],
          [
            -99.093233,
            19.451649,
            2235.25
          ],
          [
            -99.093368,
            19.451705,
            2235
          ],
          [
            -99.093656,
            19.451792,
            2234.75
          ],
          [
            -99.093753,
            19.451813,
            2234.75
          ],
          [
            -99.09399,
            19.45185,
            2234.75
          ],
          [
            -99.094179,
            19.451863,
            2234.5
          ],
          [
            -99.094392,
            19.451858,
            2235
          ],
          [
            -99.094531,
            19.451844,
            2235.5
          ],
          [
            -99.094684,
            19.451821,
            2235.75
          ],
          [
            -99.094962,
            19.451757,
            2236
          ],
          [
            -99.095069,
            19.451726,
            2236
          ],
          [
            -99.0955,
            19.451566,
            2235.25
          ],
          [
            -99.096924,
            19.451028,
            2236
          ],
          [
            -99.097017,
            19.450992,
            2235.5
          ],
          [
            -99.097493,
            19.450816,
            2233
          ],
          [
            -99.098173,
            19.450532,
            2235
          ],
          [
            -99.099508,
            19.450034,
            2235.5
          ],
          [
            -99.099825,
            19.449948,
            2235.25
          ],
          [
            -99.100024,
            19.449907,
            2235.25
          ],
          [
            -99.100176,
            19.449884,
            2235.25
          ],
          [
            -99.100422,
            19.449866,
            2235.5
          ],
          [
            -99.100669,
            19.449865,
            2235.75
          ],
          [
            -99.100807,
            19.449876,
            2236
          ],
          [
            -99.101058,
            19.44991,
            2235.75
          ],
          [
            -99.101235,
            19.449942,
            2235.5
          ],
          [
            -99.101514,
            19.450021,
            2235
          ],
          [
            -99.101681,
            19.450081,
            2235
          ],
          [
            -99.101957,
            19.450181,
            2235.25
          ],
          [
            -99.10273,
            19.450459,
            2235.5
          ],
          [
            -99.103897,
            19.450902,
            2235.5
          ],
          [
            -99.104236,
            19.451043,
            2236
          ],
          [
            -99.104521,
            19.451145,
            2236.25
          ],
          [
            -99.105849,
            19.451635,
            2235.75
          ],
          [
            -99.106054,
            19.45171,
            2236.25
          ],
          [
            -99.106354,
            19.451819,
            2236.75
          ],
          [
            -99.107087,
            19.452062,
            2237
          ],
          [
            -99.108473,
            19.452568,
            2236.75
          ],
          [
            -99.109499,
            19.452941,
            2237
          ],
          [
            -99.111357,
            19.453627,
            2236.75
          ],
          [
            -99.111586,
            19.453722,
            2236.5
          ],
          [
            -99.111784,
            19.453816,
            2236.75
          ],
          [
            -99.111846,
            19.453851,
            2237
          ],
          [
            -99.112079,
            19.454009,
            2237.75
          ],
          [
            -99.112365,
            19.454221,
            2238.5
          ],
          [
            -99.112953,
            19.454685,
            2237.5
          ],
          [
            -99.114004,
            19.455529,
            2236.75
          ],
          [
            -99.114053,
            19.455568,
            2236.75
          ],
          [
            -99.115068,
            19.456449,
            2233.75
          ],
          [
            -99.116199,
            19.457371,
            2234.5
          ],
          [
            -99.116787,
            19.457837,
            2235.75
          ],
          [
            -99.11703,
            19.458006,
            2236.25
          ],
          [
            -99.11718,
            19.458091,
            2236.25
          ],
          [
            -99.117447,
            19.458213,
            2236
          ],
          [
            -99.117605,
            19.45827,
            2235.75
          ],
          [
            -99.118885,
            19.458701,
            2235.75
          ],
          [
            -99.12072,
            19.45929,
            2236.25
          ],
          [
            -99.123885,
            19.460352,
            2236.75
          ],
          [
            -99.127328,
            19.461499,
            2237.25
          ],
          [
            -99.127603,
            19.461603,
            2237.25
          ],
          [
            -99.127865,
            19.461728,
            2237.25
          ],
          [
            -99.129207,
            19.462511,
            2237.5
          ],
          [
            -99.130392,
            19.463216,
            2237.75
          ],
          [
            -99.130979,
            19.463572,
            2238
          ],
          [
            -99.132449,
            19.464475,
            2238.25
          ],
          [
            -99.132829,
            19.464765,
            2238.25
          ],
          [
            -99.133092,
            19.465056,
            2238.25
          ],
          [
            -99.134063,
            19.46638,
            2238.5
          ],
          [
            -99.134696,
            19.46722,
            2238.75
          ],
          [
            -99.13562,
            19.468442,
            2236.25
          ],
          [
            -99.136048,
            19.469031,
            2238
          ],
          [
            -99.136837,
            19.47016,
            2237
          ],
          [
            -99.136957,
            19.470332,
            2237
          ],
          [
            -99.137207,
            19.470716,
            2236.5
          ],
          [
            -99.137357,
            19.470993,
            2237
          ],
          [
            -99.138009,
            19.472562,
            2239.5
          ],
          [
            -99.139191,
            19.47557,
            2240.25
          ],
          [
            -99.139604,
            19.476502,
            2241
          ],
          [
            -99.139802,
            19.476965,
            2241.5
          ],
          [
            -99.140239,
            19.478097,
            2240.75
          ],
          [
            -99.140312,
            19.478289,
            2240.5
          ],
          [
            -99.140838,
            19.479612,
            2242.5
          ],
          [
            -99.140908,
            19.479789,
            2243
          ],
          [
            -99.141049,
            19.480142,
            2243
          ],
          [
            -99.141411,
            19.480937,
            2241.25
          ],
          [
            -99.142509,
            19.483928,
            2240.5
          ],
          [
            -99.143287,
            19.486174,
            2239.75
          ],
          [
            -99.143461,
            19.486637,
            2238.25
          ],
          [
            -99.143645,
            19.487022,
            2238.25
          ],
          [
            -99.143837,
            19.487367,
            2237.75
          ],
          [
            -99.144035,
            19.487772,
            2237.25
          ],
          [
            -99.144408,
            19.488688,
            2239.75
          ],
          [
            -99.144851,
            19.489786,
            2240.75
          ],
          [
            -99.144926,
            19.489972,
            2240.25
          ],
          [
            -99.145842,
            19.492365,
            2239
          ],
          [
            -99.146096,
            19.493113,
            2241
          ],
          [
            -99.146374,
            19.493827,
            2239.75
          ],
          [
            -99.146575,
            19.494341,
            2240
          ],
          [
            -99.146925,
            19.495255,
            2241.5
          ],
          [
            -99.147782,
            19.497458,
            2239.25
          ],
          [
            -99.147904,
            19.497719,
            2240
          ],
          [
            -99.148212,
            19.49832,
            2241.75
          ],
          [
            -99.148449,
            19.498835,
            2242.5
          ],
          [
            -99.148896,
            19.500001,
            2242.25
          ],
          [
            -99.149328,
            19.501098,
            2241.5
          ],
          [
            -99.149394,
            19.501263,
            2241.5
          ]
        ]
      }
    }
  ]
}