{
  "type": "FeatureCollection",
  "features": [
    {
      "type": "Feature",
      "properties": {
        "creator": "BRouter-1.7.9",
        "name": "[STC] Línea A",
        "track-length": "30151",
        "filtered ascend": "23",
        "plain-ascend": "5",
        "total-time": "2411",
        "total-energy": "1329039",
        "cost": "60302",
        "messages": [
          [
            "Longitude",
            "Latitude",
            "Elevation",
            "Distance",
            "CostPerKm",
            "ElevCost",
            "TurnCost",
            "NodeCost",
            "InitialCost",
            "WayTags",
            "NodeTags",
            "Time",
            "Energy"
          ],
          [
            "-99072259",
            "19414807",
            "-8192",
            "145",
            "2000",
            "0",
            "0",
            "0",
            "0",
            "railway=subway",
            "railway=halt",
            "11",
            "6377"
          ],
          [
            "-99071590",
            "19405754",
            "2234",
            "1261",
            "2000",
            "0",
            "0",
            "0",
            "0",
            "railway=subway",
            "railway=switch",
            "112",
            "64103"
          ],
          [
            "-99068980",
            "19404212",
            "2237",
            "323",
            "2000",
            "0",
            "0",
            "0",
            "0",
            "railway=subway",
            "railway=halt",
            "138",
            "81303"
          ],
          [
            "-99058877",
            "19398389",
            "2235",
            "1241",
            "2000",
            "0",
            "0",
            "0",
            "0",
            "railway=subway",
            "railway=halt",
            "237",
            "134633"
          ],
          [
            "-99058610",
            "19398237",
            "2234",
            "33",
            "2000",
            "0",
            "0",
            "0",
            "0",
            "railway=subway",
            "",
            "240",
            "135891"
          ],
          [
            "-99057179",
            "19397419",
            "2234",
            "176",
            "2000",
            "0",
            "0",
            "0",
            "0",
            "railway=subway",
            "railway=switch",
            "14",
            "7139"
          ],
          [
            "-99045826",
            "19390924",
            "2236",
            "1392",
            "2000",
            "0",
            "0",
            "0",
            "0",
            "railway=subway",
            "railway=halt",
            "125",
            "70360"
          ],
          [
            "-99035136",
            "19384791",
            "2236",
            "1314",
            "2000",
            "0",
            "0",
            "0",
            "0",
            "railway=subway",
            "railway=halt",
            "230",
            "127751"
          ],
          [
            "-99034831",
            "19384621",
            "2235",
            "37",
            "2000",
            "0",
            "0",
            "0",
            "0",
            "railway=subway",
            "railway=switch",
            "233",
            "129210"
          ],
          [
            "-99032577",
            "19383345",
            "2234",
            "276",
            "2000",
            "0",
            "0",
            "0",
            "0",
            "railway=subway",
            "railway=switch",
            "255",
            "140479"
          ],
          [
            "-99016554",
            "19372875",
            "2240",
            "2047",
            "2000",
            "0",
            "0",
            "0",
            "0",
            "railway=subway",
            "railway=halt",
            "419",
            "235279"
          ],
          [
            "-99005206",
            "19364270",
            "2241",
            "1526",
            "2000",
            "0",
            "0",
            "0",
            "0",
            "railway=subway",
            "railway=halt",
            "541",
            "304301"
          ],
          [
            "-99003406",
            "19362850",
            "2242",
            "246",
            "2000",
            "0",
            "0",
            "0",
            "0",
            "railway=subway",
            "",
            "561",
            "314729"
          ],
          [
            "-99002740",
            "19362347",
            "2242",
            "89",
            "2000",
            "0",
            "0",
            "0",
            "0",
            "reversedirection=yes railway=subway",
            "",
            "568",
            "318746"
          ],
          [
            "-98994463",
            "19360156",
            "2244",
            "918",
            "2000",
            "0",
            "0",
            "0",
            "0",
            "railway=subway",
            "railway=halt",
            "641",
            "361261"
          ],
          [
            "-98976193",
            "19359085",
            "2245",
            "1932",
            "2000",
            "0",
            "0",
            "0",
            "0",
            "railway=subway",
            "railway=halt",
            "796",
            "446701"
          ],
          [
            "-98961473",
            "19351667",
            "2247",
            "1894",
            "2000",
            "0",
            "0",
            "0",
            "0",
            "railway=subway",
            "railway=switch",
            "947",
            "531860"
          ],
          [
            "-98961362",
            "19351502",
            "2247",
            "22",
            "2000",
            "0",
            "0",
            "0",
            "0",
            "railway=subway",
            "railway=switch",
            "949",
            "532881"
          ],
          [
            "-98961234",
            "19351226",
            "2248",
            "33",
            "2000",
            "0",
            "0",
            "0",
            "0",
            "reversedirection=yes railway=subway",
            "railway=halt",
            "952",
            "534579"
          ],
          [
            "-98960586",
            "19349785",
            "2250",
            "173",
            "2000",
            "0",
            "0",
            "0",
            "0",
            "reversedirection=yes railway=subway",
            "",
            "966",
            "544342"
          ],
          [
            "-98961234",
            "19351226",
            "2248",
            "173",
            "2000",
            "0",
            "0",
            "0",
            "0",
            "railway=subway",
            "railway=halt",
            "13",
            "5975"
          ],
          [
            "-98961362",
            "19351502",
            "2247",
            "33",
            "2000",
            "0",
            "0",
            "0",
            "0",
            "railway=subway",
            "railway=switch",
            "16",
            "7141"
          ],
          [
            "-98961684",
            "19352203",
            "2246",
            "85",
            "2000",
            "0",
            "0",
            "0",
            "0",
            "railway=subway",
            "",
            "23",
            "10083"
          ],
          [
            "-98977589",
            "19358947",
            "2243",
            "1986",
            "2000",
            "0",
            "0",
            "0",
            "0",
            "railway=subway",
            "railway=halt",
            "158",
            "84977"
          ],
          [
            "-98995841",
            "19360397",
            "2244",
            "1927",
            "2000",
            "0",
            "0",
            "0",
            "0",
            "railway=subway",
            "railway=halt",
            "313",
            "167201"
          ],
          [
            "-99006158",
            "19365153",
            "2244",
            "1245",
            "2000",
            "0",
            "0",
            "0",
            "0",
            "railway=subway",
            "railway=halt",
            "412",
            "221959"
          ],
          [
            "-99017575",
            "19373726",
            "2239",
            "1529",
            "2000",
            "0",
            "0",
            "0",
            "0",
            "railway=subway",
            "railway=halt",
            "534",
            "288320"
          ],
          [
            "-99032450",
            "19383341",
            "2234",
            "1893",
            "2000",
            "0",
            "0",
            "0",
            "0",
            "railway=subway",
            "railway=switch",
            "686",
            "365880"
          ],
          [
            "-99036207",
            "19385517",
            "2236",
            "462",
            "2000",
            "0",
            "0",
            "0",
            "0",
            "railway=subway",
            "railway=halt",
            "723",
            "388677"
          ],
          [
            "-99046863",
            "19391631",
            "2236",
            "1308",
            "2000",
            "0",
            "0",
            "0",
            "0",
            "railway=subway",
            "railway=halt",
            "828",
            "443980"
          ],
          [
            "-99057849",
            "19397900",
            "2233",
            "1348",
            "2000",
            "0",
            "0",
            "0",
            "0",
            "railway=subway",
            "railway=switch",
            "935",
            "505604"
          ],
          [
            "-99059985",
            "19399124",
            "2236",
            "262",
            "2000",
            "0",
            "0",
            "0",
            "0",
            "railway=subway",
            "railway=halt",
            "956",
            "517228"
          ],
          [
            "-99070101",
            "19404964",
            "2236",
            "1243",
            "2000",
            "0",
            "0",
            "0",
            "0",
            "railway=subway",
            "railway=halt",
            "1056",
            "572247"
          ],
          [
            "-99074904",
            "19410878",
            "-8192",
            "915",
            "2000",
            "0",
            "0",
            "0",
            "0",
            "railway=subway",
            "",
            "1129",
            "609517"
          ],
          [
            "-99072312",
            "19414726",
            "-8192",
            "508",
            "2000",
            "0",
            "0",
            "0",
            "0",
            "railway=subway",
            "",
            "40",
            "22344"
          ],
          [
            "-99072259",
            "19414807",
            "-8192",
            "11",
            "2000",
            "0",
            "0",
            "0",
            "0",
            "reversedirection=yes railway=subway",
            "railway=halt",
            "41",
            "22828"
          ],
          [
            "-99071543",
            "19415930",
            "-8192",
            "145",
            "2000",
            "0",
            "0",
            "0",
            "0",
            "reversedirection=yes railway=subway",
            "",
            "53",
            "29206"
          ]
        ],
        "times": [
          0,
          11.6,
          12.48,
          14.56,
          15.36,
          18.72,
          21.04,
          27.2,
          44.64,
          48.8,
          51.28,
          52.32,
          54.32,
          55.36,
          57.36,
          62.32,
          69.92,
          73.12,
          76.64,
          78.08,
          79.2,
          80.96,
          82.24,
          83.68,
          87.44,
          90.08,
          96.72,
          108.56,
          112.48,
          118.08,
          122.56,
          125.92,
          138.32,
          144.16,
          148.08,
          155.6,
          169.04,
          187.12,
          205.76,
          212.4,
          214.64,
          216.48,
          220,
          224.8,
          237.6,
          240.24,
          241.2,
          248.24,
          254.32,
          257.84,
          272,
          291.12,
          303.6,
          321.6,
          332,
          337.04,
          344.08,
          347.68,
          353.44,
          365.68,
          367.52,
          387.52,
          420.96,
          445.04,
          449.76,
          458.56,
          470.8,
          473.76,
          481.04,
          486.64,
          495.84,
          498.32,
          501.6,
          505.04,
          509.6,
          515.04,
          518.88,
          536.88,
          540.96,
          545.2,
          563.6,
          576.08,
          578.24,
          581.28,
          582.88,
          585.6,
          600.48,
          606.4,
          616.16,
          620.8,
          629.76,
          647.68,
          659.6,
          662.8,
          668.88,
          675.36,
          692.8,
          699.28,
          716.96,
          721.2,
          739.52,
          743.84,
          760.48,
          763.52,
          770.08,
          781.68,
          786.56,
          792.4,
          801.36,
          804.64,
          806.32,
          808.48,
          824.88,
          831.04,
          837.12,
          842.88,
          848.64,
          854.32,
          858.48,
          860.56,
          863.84,
          869.28,
          881.92,
          884.96,
          890.24,
          899.36,
          902.56,
          905.84,
          913.04,
          916.64,
          924.48,
          936.24,
          949.84,
          954,
          958.4,
          962.64,
          971.52,
          975.68,
          984.48,
          992.48,
          1006.56,
          1010.08,
          1012.88,
          1015.68,
          1017.12,
          1023.04,
          1036.48,
          1040.16,
          1051.28,
          1054.16,
          1056.96,
          1060,
          1062.8,
          1070.64,
          1075.2,
          1079.2,
          1081.6,
          1087.6,
          1093.2,
          1098.24,
          1100.96,
          1105.12,
          1108.96,
          1116.56,
          1127.36,
          1131.6,
          1137.6,
          1140.16,
          1150.4,
          1154.08,
          1156.72,
          1158.72,
          1160.8,
          1163.04,
          1166.16,
          1166.72,
          1168.96,
          1178.8,
          1188,
          1189.76,
          1192.4,
          1206.24,
          1220.08,
          1222.72,
          1229.52,
          1233.68,
          1240.8,
          1243.6,
          1245.68,
          1249.36,
          1251.76,
          1253.76,
          1255.76,
          1258.48,
          1262.16,
          1272.8,
          1278.72,
          1280.4,
          1285.28,
          1288.32,
          1296.16,
          1307.6,
          1311.28,
          1312.8,
          1316.56,
          1319.68,
          1325.2,
          1330,
          1333.44,
          1335.28,
          1342.32,
          1348.4,
          1350.24,
          1351.76,
          1353.2,
          1356.08,
          1358.96,
          1360.08,
          1365.04,
          1368.96,
          1372.88,
          1376,
          1388.4,
          1390.08,
          1392.96,
          1395.92,
          1398.72,
          1399.92,
          1401.6,
          1404.56,
          1406.32,
          1441.44,
          1454,
          1472,
          1475.76,
          1483.76,
          1497.36,
          1508.48,
          1510.24,
          1513.52,
          1517.28,
          1530.08,
          1542.56,
          1552.16,
          1564.08,
          1569.84,
          1575.52,
          1581.6,
          1587.76,
          1604.16,
          1608.08,
          1611.2,
          1622.64,
          1626,
          1630.24,
          1642.16,
          1656.64,
          1664.4,
          1673.12,
          1691.28,
          1719.04,
          1728,
          1737.2,
          1743.68,
          1745.44,
          1748.48,
          1764.48,
          1769.2,
          1778.64,
          1783.28,
          1791.52,
          1797.44,
          1828.4,
          1833.36,
          1835.6,
          1843.68,
          1859.68,
          1867.44,
          1871.52,
          1903.28,
          1911.2,
          1915.92,
          1925.68,
          1939.2,
          1952.88,
          1957.04,
          1962.56,
          1977.6,
          2010.56,
          2022.8,
          2057.52,
          2084.24,
          2108.96,
          2132.56,
          2148.88,
          2165.36,
          2173.6,
          2186.32,
          2198.96,
          2229.84,
          2244.24,
          2256.88,
          2265.52,
          2270.64,
          2279.04,
          2285.76,
          2304.08,
          2315.84,
          2322.56,
          2323.68,
          2325.04,
          2327.76,
          2328.8,
          2331.44,
          2333.2,
          2335.76,
          2339.2,
          2347.36,
          2354.88,
          2356.88,
          2357.92,
          2358.96,
          2360,
          2361.04,
          2363.36,
          2385.04,
          2391.04,
          2393.36,
          2396.8,
          2397.6,
          2398.88,
          2399.6,
          2400.48,
          2412.08
        ]
      },
      "geometry": {
        "type": "LineString",
        "coordinates": [
          [
            -99.071543,
            19.415931,
            2231
          ],
          [
            -99.072259,
            19.414807,
            2231
          ],
          [
            -99.072312,
            19.414726,
            2231
          ],
          [
            -99.072452,
            19.414533,
            2231
          ],
          [
            -99.072518,
            19.414463,
            2231
          ],
          [
            -99.072805,
            19.414194,
            2231
          ],
          [
            -99.072986,
            19.413999,
            2231
          ],
          [
            -99.073405,
            19.413433,
            2231
          ],
          [
            -99.074498,
            19.411758,
            2231
          ],
          [
            -99.074766,
            19.411361,
            2231
          ],
          [
            -99.074878,
            19.411105,
            2231
          ],
          [
            -99.074913,
            19.410995,
            2231
          ],
          [
            -99.074958,
            19.41077,
            2231
          ],
          [
            -99.074975,
            19.410653,
            2231
          ],
          [
            -99.074986,
            19.410424,
            2231
          ],
          [
            -99.074925,
            19.409869,
            2231
          ],
          [
            -99.074852,
            19.409015,
            2231
          ],
          [
            -99.074832,
            19.408656,
            2231
          ],
          [
            -99.0748,
            19.408261,
            2231
          ],
          [
            -99.074756,
            19.408106,
            2231
          ],
          [
            -99.074706,
            19.407992,
            2231
          ],
          [
            -99.0746,
            19.407818,
            2231
          ],
          [
            -99.074514,
            19.407699,
            2231
          ],
          [
            -99.074413,
            19.407573,
            2231
          ],
          [
            -99.07411,
            19.407258,
            2231
          ],
          [
            -99.073856,
            19.407087,
            2231
          ],
          [
            -99.073192,
            19.406681,
            2231
          ],
          [
            -99.071991,
            19.405989,
            2233.75
          ],
          [
            -99.07159,
            19.405754,
            2234.25
          ],
          [
            -99.071023,
            19.405422,
            2236.25
          ],
          [
            -99.07058,
            19.405143,
            2236.25
          ],
          [
            -99.070244,
            19.404942,
            2236.5
          ],
          [
            -99.06898,
            19.404212,
            2237.25
          ],
          [
            -99.068382,
            19.403871,
            2237
          ],
          [
            -99.06799,
            19.403634,
            2237
          ],
          [
            -99.067228,
            19.403187,
            2236.25
          ],
          [
            -99.065862,
            19.4024,
            2235
          ],
          [
            -99.064008,
            19.40136,
            2235.75
          ],
          [
            -99.062108,
            19.400267,
            2232.25
          ],
          [
            -99.061431,
            19.399881,
            2232.75
          ],
          [
            -99.061205,
            19.399746,
            2232.75
          ],
          [
            -99.061028,
            19.399628,
            2232.75
          ],
          [
            -99.060677,
            19.39941,
            2233.75
          ],
          [
            -99.060189,
            19.399127,
            2236
          ],
          [
            -99.058877,
            19.398389,
            2235.75
          ],
          [
            -99.05861,
            19.398237,
            2234.5
          ],
          [
            -99.058514,
            19.398184,
            2234.5
          ],
          [
            -99.057803,
            19.397768,
            2233.25
          ],
          [
            -99.057179,
            19.397419,
            2234.25
          ],
          [
            -99.056818,
            19.39721,
            2236.5
          ],
          [
            -99.055372,
            19.396383,
            2236.75
          ],
          [
            -99.053428,
            19.39526,
            2239.5
          ],
          [
            -99.052162,
            19.394521,
            2235.75
          ],
          [
            -99.050328,
            19.393478,
            2235.5
          ],
          [
            -99.049259,
            19.392883,
            2235
          ],
          [
            -99.048737,
            19.392605,
            2234.5
          ],
          [
            -99.048013,
            19.392208,
            2233.75
          ],
          [
            -99.047653,
            19.391996,
            2235.25
          ],
          [
            -99.047076,
            19.391639,
            2236.75
          ],
          [
            -99.045826,
            19.390924,
            2236.5
          ],
          [
            -99.045643,
            19.390816,
            2236.5
          ],
          [
            -99.043578,
            19.389703,
            2233
          ],
          [
            -99.04017,
            19.387753,
            2236
          ],
          [
            -99.037739,
            19.386321,
            2234.5
          ],
          [
            -99.03726,
            19.386049,
            2234.75
          ],
          [
            -99.036382,
            19.385513,
            2235.75
          ],
          [
            -99.035136,
            19.384791,
            2236
          ],
          [
            -99.034831,
            19.384621,
            2235.25
          ],
          [
            -99.034085,
            19.384211,
            2234.75
          ],
          [
            -99.033517,
            19.383879,
            2234
          ],
          [
            -99.032577,
            19.383345,
            2234.75
          ],
          [
            -99.032326,
            19.383203,
            2233.75
          ],
          [
            -99.031986,
            19.383025,
            2231.75
          ],
          [
            -99.031628,
            19.382829,
            2230.25
          ],
          [
            -99.031159,
            19.382567,
            2229.75
          ],
          [
            -99.030601,
            19.382255,
            2230.75
          ],
          [
            -99.030207,
            19.382027,
            2231.5
          ],
          [
            -99.028352,
            19.38101,
            2239
          ],
          [
            -99.027937,
            19.380773,
            2239.5
          ],
          [
            -99.027512,
            19.380518,
            2241
          ],
          [
            -99.025679,
            19.379385,
            2245.75
          ],
          [
            -99.024423,
            19.378635,
            2243.5
          ],
          [
            -99.02421,
            19.378501,
            2243
          ],
          [
            -99.023914,
            19.378298,
            2243
          ],
          [
            -99.023762,
            19.378182,
            2242.25
          ],
          [
            -99.023502,
            19.377998,
            2241.25
          ],
          [
            -99.022108,
            19.376956,
            2239.5
          ],
          [
            -99.021563,
            19.376538,
            2239.75
          ],
          [
            -99.020649,
            19.375854,
            2236.5
          ],
          [
            -99.02021,
            19.375538,
            2237.25
          ],
          [
            -99.019381,
            19.374908,
            2237
          ],
          [
            -99.017686,
            19.373684,
            2239.75
          ],
          [
            -99.016554,
            19.372875,
            2240.25
          ],
          [
            -99.01625,
            19.372654,
            2240.5
          ],
          [
            -99.015653,
            19.372264,
            2241.25
          ],
          [
            -99.015036,
            19.371826,
            2241
          ],
          [
            -99.013362,
            19.370662,
            2242.5
          ],
          [
            -99.012762,
            19.370199,
            2244.5
          ],
          [
            -99.011109,
            19.368958,
            2245.25
          ],
          [
            -99.010722,
            19.368655,
            2245.75
          ],
          [
            -99.00901,
            19.367375,
            2245.25
          ],
          [
            -99.008616,
            19.367065,
            2243.75
          ],
          [
            -99.007114,
            19.365845,
            2240.75
          ],
          [
            -99.006847,
            19.365607,
            2242
          ],
          [
            -99.006261,
            19.365111,
            2244.25
          ],
          [
            -99.005206,
            19.36427,
            2241.75
          ],
          [
            -99.004765,
            19.363916,
            2240
          ],
          [
            -99.00422,
            19.363509,
            2240.5
          ],
          [
            -99.003406,
            19.36285,
            2242.25
          ],
          [
            -99.003111,
            19.362612,
            2242.25
          ],
          [
            -99.002951,
            19.362492,
            2242
          ],
          [
            -99.00274,
            19.362347,
            2242
          ],
          [
            -99.001088,
            19.361355,
            2242
          ],
          [
            -99.000428,
            19.36105,
            2242
          ],
          [
            -98.999745,
            19.360814,
            2242
          ],
          [
            -98.999071,
            19.360678,
            2242
          ],
          [
            -98.998393,
            19.360584,
            2242.25
          ],
          [
            -98.997723,
            19.360529,
            2242.25
          ],
          [
            -98.997232,
            19.360481,
            2242.5
          ],
          [
            -98.996988,
            19.360444,
            2243
          ],
          [
            -98.996607,
            19.360375,
            2244
          ],
          [
            -98.995962,
            19.360294,
            2244.25
          ],
          [
            -98.994463,
            19.360156,
            2244.5
          ],
          [
            -98.9941,
            19.360126,
            2243.5
          ],
          [
            -98.993474,
            19.360109,
            2242.25
          ],
          [
            -98.992395,
            19.360052,
            2240.5
          ],
          [
            -98.992019,
            19.360024,
            2240.25
          ],
          [
            -98.991637,
            19.359968,
            2240
          ],
          [
            -98.990794,
            19.359832,
            2239.25
          ],
          [
            -98.990366,
            19.35977,
            2239.5
          ],
          [
            -98.989434,
            19.359683,
            2241.75
          ],
          [
            -98.988044,
            19.359541,
            2240.5
          ],
          [
            -98.986432,
            19.359392,
            2240.75
          ],
          [
            -98.98594,
            19.359356,
            2240.25
          ],
          [
            -98.985416,
            19.359307,
            2240.75
          ],
          [
            -98.984918,
            19.359252,
            2241.25
          ],
          [
            -98.983871,
            19.359156,
            2242.5
          ],
          [
            -98.983375,
            19.359117,
            2243.75
          ],
          [
            -98.98233,
            19.359018,
            2242
          ],
          [
            -98.981388,
            19.358918,
            2243.75
          ],
          [
            -98.979717,
            19.358763,
            2245.25
          ],
          [
            -98.979302,
            19.358731,
            2244.75
          ],
          [
            -98.97897,
            19.358717,
            2244.25
          ],
          [
            -98.97864,
            19.358726,
            2244
          ],
          [
            -98.978467,
            19.358743,
            2244
          ],
          [
            -98.977766,
            19.358834,
            2244
          ],
          [
            -98.976193,
            19.359085,
            2245
          ],
          [
            -98.975765,
            19.359156,
            2244
          ],
          [
            -98.974467,
            19.359386,
            2243.5
          ],
          [
            -98.974128,
            19.359427,
            2243.25
          ],
          [
            -98.973799,
            19.359445,
            2243.25
          ],
          [
            -98.973441,
            19.359443,
            2243.5
          ],
          [
            -98.973107,
            19.359422,
            2243.25
          ],
          [
            -98.972184,
            19.359273,
            2243.5
          ],
          [
            -98.971647,
            19.359179,
            2245
          ],
          [
            -98.971178,
            19.359081,
            2246.25
          ],
          [
            -98.970898,
            19.359011,
            2247
          ],
          [
            -98.970218,
            19.358808,
            2246.5
          ],
          [
            -98.96959,
            19.358598,
            2245.5
          ],
          [
            -98.969034,
            19.358395,
            2244.5
          ],
          [
            -98.968743,
            19.358269,
            2244.5
          ],
          [
            -98.968301,
            19.358054,
            2244.75
          ],
          [
            -98.967896,
            19.357847,
            2246.5
          ],
          [
            -98.967113,
            19.357422,
            2248.75
          ],
          [
            -98.966021,
            19.356772,
            2248
          ],
          [
            -98.9656,
            19.356515,
            2248
          ],
          [
            -98.96502,
            19.356119,
            2248.5
          ],
          [
            -98.964781,
            19.355939,
            2249.5
          ],
          [
            -98.963864,
            19.355171,
            2248.75
          ],
          [
            -98.963542,
            19.354894,
            2248.25
          ],
          [
            -98.963305,
            19.354704,
            2248.25
          ],
          [
            -98.963132,
            19.354552,
            2248
          ],
          [
            -98.962966,
            19.354375,
            2248
          ],
          [
            -98.962791,
            19.354185,
            2248
          ],
          [
            -98.962574,
            19.353901,
            2247.25
          ],
          [
            -98.962538,
            19.353852,
            2247.25
          ],
          [
            -98.962401,
            19.353631,
            2247.25
          ],
          [
            -98.961902,
            19.352622,
            2246.25
          ],
          [
            -98.961473,
            19.351667,
            2247
          ],
          [
            -98.961362,
            19.351502,
            2247.25
          ],
          [
            -98.961234,
            19.351226,
            2248
          ],
          [
            -98.960586,
            19.349785,
            2250.5
          ],
          [
            -98.961234,
            19.351226,
            2248
          ],
          [
            -98.961362,
            19.351502,
            2247.25
          ],
          [
            -98.961684,
            19.352203,
            2246.25
          ],
          [
            -98.96188,
            19.352631,
            2246.25
          ],
          [
            -98.962231,
            19.35336,
            2247.25
          ],
          [
            -98.962376,
            19.353648,
            2247.25
          ],
          [
            -98.962503,
            19.353852,
            2247.25
          ],
          [
            -98.962758,
            19.35419,
            2247.75
          ],
          [
            -98.962944,
            19.354397,
            2248
          ],
          [
            -98.963103,
            19.354559,
            2248.25
          ],
          [
            -98.963278,
            19.354714,
            2248.5
          ],
          [
            -98.963523,
            19.354914,
            2248.75
          ],
          [
            -98.963844,
            19.355191,
            2249.25
          ],
          [
            -98.964783,
            19.355992,
            2249.25
          ],
          [
            -98.965345,
            19.356398,
            2248
          ],
          [
            -98.965509,
            19.356506,
            2248
          ],
          [
            -98.965996,
            19.356806,
            2248
          ],
          [
            -98.9663,
            19.356994,
            2248
          ],
          [
            -98.967095,
            19.357461,
            2248.75
          ],
          [
            -98.968278,
            19.358091,
            2244.75
          ],
          [
            -98.968667,
            19.358279,
            2244.5
          ],
          [
            -98.968829,
            19.358351,
            2244.5
          ],
          [
            -98.969242,
            19.35852,
            2244.75
          ],
          [
            -98.969588,
            19.358642,
            2245.5
          ],
          [
            -98.970204,
            19.358846,
            2246.25
          ],
          [
            -98.97075,
            19.359013,
            2247
          ],
          [
            -98.971142,
            19.359114,
            2246.25
          ],
          [
            -98.971354,
            19.359166,
            2245.75
          ],
          [
            -98.972174,
            19.359314,
            2243.5
          ],
          [
            -98.972886,
            19.359431,
            2243
          ],
          [
            -98.973102,
            19.359461,
            2243.25
          ],
          [
            -98.973282,
            19.359476,
            2243.5
          ],
          [
            -98.973452,
            19.359486,
            2243.5
          ],
          [
            -98.97379,
            19.359487,
            2243.5
          ],
          [
            -98.974128,
            19.35947,
            2243.25
          ],
          [
            -98.974264,
            19.359456,
            2243.25
          ],
          [
            -98.974849,
            19.359363,
            2244
          ],
          [
            -98.975311,
            19.359295,
            2244
          ],
          [
            -98.975775,
            19.359238,
            2243.75
          ],
          [
            -98.976139,
            19.359183,
            2244.5
          ],
          [
            -98.977589,
            19.358947,
            2243.75
          ],
          [
            -98.977789,
            19.358911,
            2243.75
          ],
          [
            -98.97813,
            19.358861,
            2243.75
          ],
          [
            -98.978478,
            19.35882,
            2243.75
          ],
          [
            -98.978811,
            19.358795,
            2244
          ],
          [
            -98.97895,
            19.358787,
            2244.25
          ],
          [
            -98.979154,
            19.358785,
            2244.25
          ],
          [
            -98.979507,
            19.358797,
            2245
          ],
          [
            -98.979714,
            19.358813,
            2245.25
          ],
          [
            -98.983873,
            19.359197,
            2242.5
          ],
          [
            -98.985363,
            19.359345,
            2240.75
          ],
          [
            -98.987491,
            19.359532,
            2240.75
          ],
          [
            -98.987938,
            19.359569,
            2240.5
          ],
          [
            -98.988887,
            19.359671,
            2241.75
          ],
          [
            -98.990499,
            19.359829,
            2239.25
          ],
          [
            -98.991803,
            19.360026,
            2240
          ],
          [
            -98.992012,
            19.360053,
            2240.25
          ],
          [
            -98.992399,
            19.360083,
            2240.5
          ],
          [
            -98.992845,
            19.360108,
            2241
          ],
          [
            -98.99436,
            19.36026,
            2243.75
          ],
          [
            -98.995841,
            19.360397,
            2244
          ],
          [
            -98.996982,
            19.360487,
            2243
          ],
          [
            -98.99839,
            19.360621,
            2242.75
          ],
          [
            -98.999068,
            19.360718,
            2242.5
          ],
          [
            -98.999735,
            19.360845,
            2242.5
          ],
          [
            -99.000411,
            19.361093,
            2242.25
          ],
          [
            -99.001071,
            19.361391,
            2242.25
          ],
          [
            -99.002721,
            19.362376,
            2242
          ],
          [
            -99.003094,
            19.362649,
            2242
          ],
          [
            -99.003379,
            19.362879,
            2242.25
          ],
          [
            -99.004412,
            19.363718,
            2240
          ],
          [
            -99.004704,
            19.363971,
            2240
          ],
          [
            -99.00508,
            19.364284,
            2241.25
          ],
          [
            -99.006158,
            19.365153,
            2244
          ],
          [
            -99.007482,
            19.366197,
            2240
          ],
          [
            -99.008183,
            19.366769,
            2241.5
          ],
          [
            -99.008982,
            19.367404,
            2245.25
          ],
          [
            -99.010678,
            19.368673,
            2245.75
          ],
          [
            -99.013259,
            19.370626,
            2242.75
          ],
          [
            -99.014117,
            19.371231,
            2239
          ],
          [
            -99.015005,
            19.371846,
            2241
          ],
          [
            -99.015621,
            19.372293,
            2241.25
          ],
          [
            -99.015782,
            19.372425,
            2241
          ],
          [
            -99.016064,
            19.372634,
            2240.5
          ],
          [
            -99.017575,
            19.373726,
            2239.75
          ],
          [
            -99.018021,
            19.374052,
            2238
          ],
          [
            -99.018942,
            19.374656,
            2237
          ],
          [
            -99.019382,
            19.374967,
            2237
          ],
          [
            -99.020151,
            19.375539,
            2237.25
          ],
          [
            -99.020711,
            19.375951,
            2237
          ],
          [
            -99.023599,
            19.378117,
            2241.75
          ],
          [
            -99.02407,
            19.378456,
            2242.75
          ],
          [
            -99.024292,
            19.378598,
            2243
          ],
          [
            -99.025105,
            19.379086,
            2244.25
          ],
          [
            -99.026711,
            19.380063,
            2244.5
          ],
          [
            -99.027484,
            19.380546,
            2240.75
          ],
          [
            -99.027893,
            19.380789,
            2239.25
          ],
          [
            -99.031153,
            19.382606,
            2230
          ],
          [
            -99.031965,
            19.383068,
            2232
          ],
          [
            -99.03245,
            19.383341,
            2234.75
          ],
          [
            -99.03344,
            19.383921,
            2234
          ],
          [
            -99.034822,
            19.384708,
            2235.5
          ],
          [
            -99.036207,
            19.385517,
            2236.5
          ],
          [
            -99.036633,
            19.385764,
            2234.25
          ],
          [
            -99.037205,
            19.386072,
            2234.5
          ],
          [
            -99.038732,
            19.386953,
            2235.25
          ],
          [
            -99.042074,
            19.388896,
            2234.5
          ],
          [
            -99.043326,
            19.3896,
            2232.5
          ],
          [
            -99.046863,
            19.391631,
            2236.75
          ],
          [
            -99.049616,
            19.393134,
            2235.5
          ],
          [
            -99.052145,
            19.394552,
            2235.75
          ],
          [
            -99.054532,
            19.395948,
            2237.5
          ],
          [
            -99.056196,
            19.396901,
            2237.25
          ],
          [
            -99.057849,
            19.3979,
            2233.25
          ],
          [
            -99.058694,
            19.398372,
            2235
          ],
          [
            -99.059985,
            19.399124,
            2236.75
          ],
          [
            -99.061278,
            19.399854,
            2232.5
          ],
          [
            -99.064424,
            19.401649,
            2234.5
          ],
          [
            -99.065904,
            19.40247,
            2235.25
          ],
          [
            -99.067198,
            19.403207,
            2236.25
          ],
          [
            -99.06806,
            19.403744,
            2237
          ],
          [
            -99.068564,
            19.404066,
            2236.75
          ],
          [
            -99.069415,
            19.404571,
            2237.25
          ],
          [
            -99.070101,
            19.404964,
            2236.75
          ],
          [
            -99.071973,
            19.40602,
            2233.75
          ],
          [
            -99.073167,
            19.406716,
            2233.5
          ],
          [
            -99.073842,
            19.407117,
            2233.5
          ],
          [
            -99.073956,
            19.40719,
            2233.5
          ],
          [
            -99.074084,
            19.407281,
            2233.5
          ],
          [
            -99.074301,
            19.407503,
            2233.5
          ],
          [
            -99.074384,
            19.40759
          ],
          [
            -99.074572,
            19.407828
          ],
          [
            -99.074676,
            19.407999
          ],
          [
            -99.074765,
            19.408279
          ],
          [
            -99.074798,
            19.408664
          ],
          [
            -99.074862,
            19.409584
          ],
          [
            -99.074956,
            19.410425
          ],
          [
            -99.074945,
            19.410651
          ],
          [
            -99.074929,
            19.410765
          ],
          [
            -99.074904,
            19.410878,
            2236.5
          ],
          [
            -99.074879,
            19.410992,
            2236.5
          ],
          [
            -99.074843,
            19.411107,
            2236.5
          ],
          [
            -99.074733,
            19.411352
          ],
          [
            -99.073366,
            19.413429
          ],
          [
            -99.072953,
            19.413981
          ],
          [
            -99.072773,
            19.41418
          ],
          [
            -99.072481,
            19.414454
          ],
          [
            -99.072419,
            19.414519
          ],
          [
            -99.072356,
            19.414655
          ],
          [
            -99.072312,
            19.414726
          ],
          [
            -99.072259,
            19.414807
          ],
          [
            -99.071543,
            19.41593
          ]
        ]
      }
    }
  ]
}