{
  "type": "FeatureCollection",
  "features": [
    {
      "type": "Feature",
      "properties": {
        "creator": "BRouter-1.7.9",
        "name": "[STC] Línea 8",
        "track-length": "35950",
        "filtered ascend": "21",
        "plain-ascend": "1",
        "total-time": "2876",
        "total-energy": "1583964",
        "cost": "71900",
        "messages": [
          [
            "Longitude",
            "Latitude",
            "Elevation",
            "Distance",
            "CostPerKm",
            "ElevCost",
            "TurnCost",
            "NodeCost",
            "InitialCost",
            "WayTags",
            "NodeTags",
            "Time",
            "Energy"
          ],
          [
            "-99138715",
            "19443933",
            "-8192",
            "134",
            "2000",
            "0",
            "0",
            "0",
            "0",
            "reversedirection=yes railway=subway",
            "railway=halt",
            "10",
            "5894"
          ],
          [
            "-99140408",
            "19436903",
            "-8192",
            "808",
            "2000",
            "0",
            "0",
            "0",
            "0",
            "reversedirection=yes railway=subway",
            "railway=halt",
            "75",
            "41434"
          ],
          [
            "-99141293",
            "19431505",
            "-8192",
            "605",
            "2000",
            "0",
            "0",
            "0",
            "0",
            "reversedirection=yes railway=subway",
            "railway=halt",
            "123",
            "68045"
          ],
          [
            "-99141329",
            "19431286",
            "-8192",
            "25",
            "2000",
            "0",
            "0",
            "0",
            "0",
            "reversedirection=yes railway=subway",
            "railway=station",
            "125",
            "69144"
          ],
          [
            "-99141986",
            "19427220",
            "-8192",
            "455",
            "2000",
            "0",
            "0",
            "0",
            "0",
            "reversedirection=yes railway=subway",
            "railway=halt",
            "162",
            "89158"
          ],
          [
            "-99143220",
            "19421442",
            "-8192",
            "654",
            "2000",
            "0",
            "0",
            "0",
            "0",
            "reversedirection=yes railway=subway",
            "railway=station",
            "214",
            "117924"
          ],
          [
            "-99144049",
            "19413200",
            "-8192",
            "916",
            "2000",
            "0",
            "0",
            "0",
            "0",
            "reversedirection=yes railway=subway",
            "railway=station",
            "287",
            "158214"
          ],
          [
            "-99133789",
            "19410217",
            "-8192",
            "1293",
            "2000",
            "0",
            "0",
            "0",
            "0",
            "reversedirection=yes railway=subway",
            "railway=halt",
            "391",
            "215087"
          ],
          [
            "-99126260",
            "19406664",
            "-8192",
            "977",
            "2000",
            "0",
            "0",
            "0",
            "0",
            "reversedirection=yes railway=subway",
            "railway=station",
            "469",
            "258061"
          ],
          [
            "-99120685",
            "19404146",
            "-8192",
            "772",
            "2000",
            "0",
            "0",
            "0",
            "0",
            "reversedirection=yes railway=subway",
            "railway=halt",
            "531",
            "292018"
          ],
          [
            "-99112040",
            "19388091",
            "2237",
            "2345",
            "2000",
            "0",
            "0",
            "0",
            "0",
            "reversedirection=yes railway=subway",
            "wheelchair=yes railway=station",
            "718",
            "396297"
          ],
          [
            "-99109508",
            "19379153",
            "2238",
            "1027",
            "2000",
            "0",
            "0",
            "0",
            "0",
            "reversedirection=yes railway=subway",
            "railway=station",
            "800",
            "442797"
          ],
          [
            "-99107665",
            "19373313",
            "2239",
            "678",
            "2000",
            "0",
            "0",
            "0",
            "0",
            "reversedirection=yes railway=subway",
            "railway=station",
            "855",
            "472822"
          ],
          [
            "-99109547",
            "19364905",
            "2239",
            "955",
            "2000",
            "0",
            "0",
            "0",
            "0",
            "reversedirection=yes railway=subway",
            "railway=station",
            "931",
            "513268"
          ],
          [
            "-99101326",
            "19355963",
            "2246",
            "1905",
            "2000",
            "0",
            "0",
            "0",
            "0",
            "reversedirection=yes railway=subway",
            "railway=halt",
            "1083",
            "597059"
          ],
          [
            "-99093558",
            "19357745",
            "2248",
            "842",
            "2000",
            "0",
            "0",
            "0",
            "0",
            "reversedirection=yes railway=subway",
            "railway=station",
            "1151",
            "634095"
          ],
          [
            "-99085688",
            "19355990",
            "2248",
            "926",
            "2000",
            "0",
            "0",
            "0",
            "0",
            "reversedirection=yes railway=subway",
            "railway=station",
            "1225",
            "682991"
          ],
          [
            "-99079327",
            "19353062",
            "2247",
            "743",
            "2000",
            "0",
            "0",
            "0",
            "0",
            "reversedirection=yes railway=subway",
            "estimated_crossing_class=4",
            "1284",
            "717217"
          ],
          [
            "-99074798",
            "19351000",
            "2247",
            "528",
            "2000",
            "0",
            "0",
            "0",
            "0",
            "reversedirection=yes railway=subway",
            "railway=station",
            "1327",
            "740109"
          ],
          [
            "-99068437",
            "19348131",
            "2246",
            "739",
            "2000",
            "0",
            "0",
            "0",
            "0",
            "reversedirection=yes railway=subway",
            "",
            "1386",
            "772138"
          ],
          [
            "-99065443",
            "19346800",
            "2241",
            "347",
            "2000",
            "0",
            "0",
            "0",
            "0",
            "railway=subway",
            "railway=switch",
            "1413",
            "785406"
          ],
          [
            "-99062860",
            "19345618",
            "2240",
            "301",
            "2000",
            "0",
            "0",
            "0",
            "0",
            "railway=subway",
            "",
            "1438",
            "797744"
          ],
          [
            "-99065443",
            "19346800",
            "2241",
            "301",
            "2000",
            "0",
            "0",
            "0",
            "0",
            "reversedirection=yes railway=subway",
            "railway=switch",
            "24",
            "13449"
          ],
          [
            "-99068437",
            "19348131",
            "2246",
            "347",
            "2000",
            "0",
            "0",
            "0",
            "0",
            "reversedirection=yes railway=subway",
            "",
            "51",
            "30709"
          ],
          [
            "-99074798",
            "19351000",
            "2247",
            "739",
            "2000",
            "0",
            "0",
            "0",
            "0",
            "railway=subway",
            "railway=station",
            "110",
            "64049"
          ],
          [
            "-99079327",
            "19353062",
            "2247",
            "528",
            "2000",
            "0",
            "0",
            "0",
            "0",
            "railway=subway",
            "estimated_crossing_class=4",
            "153",
            "87973"
          ],
          [
            "-99085688",
            "19355990",
            "2248",
            "743",
            "2000",
            "0",
            "0",
            "0",
            "0",
            "railway=subway",
            "railway=station",
            "212",
            "120665"
          ],
          [
            "-99093558",
            "19357745",
            "2247",
            "926",
            "2000",
            "0",
            "0",
            "0",
            "0",
            "railway=subway",
            "railway=station",
            "286",
            "162464"
          ],
          [
            "-99101326",
            "19355963",
            "2245",
            "842",
            "2000",
            "0",
            "0",
            "0",
            "0",
            "railway=subway",
            "railway=halt",
            "354",
            "199534"
          ],
          [
            "-99109547",
            "19364905",
            "2239",
            "1905",
            "2000",
            "0",
            "0",
            "0",
            "0",
            "railway=subway",
            "railway=station",
            "506",
            "285975"
          ],
          [
            "-99107665",
            "19373313",
            "2239",
            "955",
            "2000",
            "0",
            "0",
            "0",
            "0",
            "railway=subway",
            "railway=station",
            "582",
            "319009"
          ],
          [
            "-99109508",
            "19379153",
            "2238",
            "678",
            "2000",
            "0",
            "0",
            "0",
            "0",
            "railway=subway",
            "railway=station",
            "637",
            "348497"
          ],
          [
            "-99112040",
            "19388091",
            "2237",
            "1027",
            "2000",
            "0",
            "0",
            "0",
            "0",
            "railway=subway",
            "wheelchair=yes railway=station",
            "719",
            "392201"
          ],
          [
            "-99120685",
            "19404146",
            "-8192",
            "2345",
            "2000",
            "0",
            "0",
            "0",
            "0",
            "railway=subway",
            "railway=halt",
            "906",
            "494202"
          ],
          [
            "-99126260",
            "19406664",
            "-8192",
            "772",
            "2000",
            "0",
            "0",
            "0",
            "0",
            "railway=subway",
            "railway=station",
            "968",
            "528158"
          ],
          [
            "-99133789",
            "19410217",
            "-8192",
            "977",
            "2000",
            "0",
            "0",
            "0",
            "0",
            "railway=subway",
            "railway=halt",
            "1046",
            "571132"
          ],
          [
            "-99144049",
            "19413200",
            "-8192",
            "1293",
            "2000",
            "0",
            "0",
            "0",
            "0",
            "railway=subway",
            "railway=station",
            "1150",
            "628005"
          ],
          [
            "-99143220",
            "19421442",
            "-8192",
            "916",
            "2000",
            "0",
            "0",
            "0",
            "0",
            "railway=subway",
            "railway=station",
            "1223",
            "668295"
          ],
          [
            "-99141986",
            "19427220",
            "-8192",
            "654",
            "2000",
            "0",
            "0",
            "0",
            "0",
            "railway=subway",
            "railway=halt",
            "1275",
            "697062"
          ],
          [
            "-99141329",
            "19431286",
            "-8192",
            "455",
            "2000",
            "0",
            "0",
            "0",
            "0",
            "railway=subway",
            "railway=station",
            "1312",
            "717075"
          ],
          [
            "-99141293",
            "19431505",
            "-8192",
            "25",
            "2000",
            "0",
            "0",
            "0",
            "0",
            "railway=subway",
            "railway=halt",
            "1314",
            "718175"
          ],
          [
            "-99140408",
            "19436903",
            "-8192",
            "605",
            "2000",
            "0",
            "0",
            "0",
            "0",
            "railway=subway",
            "railway=halt",
            "1362",
            "744786"
          ],
          [
            "-99138715",
            "19443933",
            "-8192",
            "808",
            "2000",
            "0",
            "0",
            "0",
            "0",
            "railway=subway",
            "railway=halt",
            "1427",
            "780326"
          ],
          [
            "-99138051",
            "19444963",
            "-8192",
            "134",
            "2000",
            "0",
            "0",
            "0",
            "0",
            "railway=subway",
            "",
            "1438",
            "786220"
          ]
        ],
        "times": [
          0,
          10.72,
          21.28,
          22.56,
          38.4,
          47.84,
          75.36,
          123.76,
          125.76,
          162.16,
          166,
          195.28,
          202.72,
          214.48,
          287.76,
          295.6,
          297.36,
          298.88,
          300.88,
          302.56,
          304.4,
          306.32,
          308.4,
          311.28,
          313.84,
          320.56,
          345.84,
          358.88,
          383.84,
          387.28,
          391.2,
          400.08,
          406.16,
          411.44,
          415.36,
          423.2,
          424.48,
          425.52,
          426.96,
          439.04,
          451.36,
          453.04,
          454.8,
          456.48,
          457.84,
          459.28,
          462.88,
          469.36,
          481.44,
          484.8,
          487.44,
          489.68,
          492.4,
          495.28,
          498.88,
          513.52,
          515.84,
          518,
          521.6,
          527.52,
          531.12,
          541.2,
          542.88,
          544.64,
          554.08,
          559.28,
          562.16,
          564.72,
          566.48,
          568.16,
          588.08,
          589.76,
          591.44,
          593.2,
          594.72,
          596.08,
          597.12,
          599.52,
          600.96,
          602.72,
          606.24,
          616.16,
          633.6,
          647.76,
          651.04,
          655.2,
          658,
          668.8,
          671.84,
          674.4,
          676.72,
          680,
          700.8,
          704.72,
          718.72,
          748.96,
          768,
          777.52,
          782.88,
          783.2,
          800.88,
          819.2,
          823.6,
          829.92,
          835.04,
          840.48,
          845.12,
          847.92,
          855.12,
          864,
          866.08,
          868,
          873.84,
          879.36,
          898.96,
          931.52,
          993.84,
          997.44,
          1003.28,
          1007.04,
          1010.56,
          1070.72,
          1076.48,
          1083.92,
          1098.48,
          1111.2,
          1151.28,
          1162.08,
          1178.88,
          1181.76,
          1185.6,
          1188.88,
          1192.48,
          1198,
          1205.04,
          1225.36,
          1229.76,
          1284.8,
          1315.76,
          1327.04,
          1336.56,
          1373.28,
          1381.84,
          1386.16,
          1394.72,
          1408.32,
          1413.92,
          1438,
          1462.08,
          1467.68,
          1481.28,
          1489.84,
          1494.16,
          1502.72,
          1539.44,
          1548.96,
          1560.24,
          1591.2,
          1646.24,
          1650.64,
          1670.96,
          1678,
          1683.52,
          1687.12,
          1690.4,
          1694.24,
          1697.12,
          1713.92,
          1724.72,
          1764.8,
          1777.52,
          1792.08,
          1799.52,
          1805.28,
          1865.44,
          1868.96,
          1872.72,
          1878.56,
          1882.16,
          1944.48,
          1977.04,
          1996.64,
          2002.16,
          2008,
          2009.92,
          2012,
          2020.88,
          2028.08,
          2030.88,
          2035.52,
          2040.96,
          2046.08,
          2052.4,
          2056.8,
          2075.12,
          2092.8,
          2093.12,
          2098.48,
          2108,
          2127.04,
          2157.28,
          2171.28,
          2175.2,
          2196,
          2199.28,
          2201.6,
          2204.16,
          2207.2,
          2218,
          2220.8,
          2224.96,
          2228.24,
          2242.4,
          2259.84,
          2269.76,
          2273.28,
          2275.04,
          2276.48,
          2278.88,
          2279.92,
          2281.28,
          2282.8,
          2284.56,
          2286.24,
          2287.92,
          2307.84,
          2309.52,
          2311.28,
          2313.84,
          2316.72,
          2321.92,
          2331.36,
          2333.12,
          2334.8,
          2344.88,
          2348.48,
          2354.4,
          2358,
          2360.16,
          2362.48,
          2377.12,
          2380.72,
          2383.6,
          2386.32,
          2388.56,
          2391.2,
          2394.56,
          2406.64,
          2413.12,
          2416.72,
          2418.16,
          2419.52,
          2421.2,
          2422.96,
          2424.64,
          2436.96,
          2449.04,
          2450.48,
          2451.52,
          2452.8,
          2460.64,
          2464.56,
          2469.84,
          2475.92,
          2484.8,
          2488.72,
          2492.16,
          2517.12,
          2530.16,
          2555.44,
          2562.16,
          2564.72,
          2567.6,
          2569.68,
          2571.6,
          2573.44,
          2575.12,
          2577.12,
          2578.64,
          2580.4,
          2588.24,
          2661.52,
          2673.28,
          2680.72,
          2710,
          2713.84,
          2750.24,
          2752.24,
          2800.64,
          2828.16,
          2837.6,
          2853.44,
          2854.72,
          2865.28,
          2876
        ]
      },
      "geometry": {
        "type": "LineString",
        "coordinates": [
          [
            -99.13805,
            19.444964,
            2235.75
          ],
          [
            -99.138715,
            19.443933,
            2235.75
          ],
          [
            -99.139366,
            19.442918,
            2235.75
          ],
          [
            -99.139417,
            19.442782,
            2235.75
          ],
          [
            -99.139708,
            19.441018,
            2235.75
          ],
          [
            -99.139931,
            19.439975,
            2235.75
          ],
          [
            -99.140408,
            19.436903,
            2235.75
          ],
          [
            -99.141293,
            19.431505,
            2235.75
          ],
          [
            -99.141329,
            19.431286,
            2235.75
          ],
          [
            -99.141986,
            19.42722,
            2235.75
          ],
          [
            -99.14206,
            19.42679,
            2235.75
          ],
          [
            -99.142858,
            19.42357,
            2235.75
          ],
          [
            -99.143071,
            19.422759,
            2235.75
          ],
          [
            -99.14322,
            19.421442,
            2235.75
          ],
          [
            -99.144049,
            19.4132,
            2235.75
          ],
          [
            -99.144144,
            19.412318,
            2235.75
          ],
          [
            -99.144146,
            19.412119,
            2235.75
          ],
          [
            -99.14414,
            19.411943,
            2235.75
          ],
          [
            -99.144083,
            19.411721,
            2235.75
          ],
          [
            -99.144009,
            19.41154,
            2235.75
          ],
          [
            -99.143893,
            19.411367,
            2235.75
          ],
          [
            -99.143739,
            19.411211,
            2235.75
          ],
          [
            -99.143559,
            19.411045,
            2235.75
          ],
          [
            -99.143274,
            19.410862,
            2235.75
          ],
          [
            -99.142984,
            19.410778,
            2235.75
          ],
          [
            -99.142184,
            19.410722,
            2235.75
          ],
          [
            -99.139181,
            19.41056,
            2235.75
          ],
          [
            -99.137638,
            19.410433,
            2235.75
          ],
          [
            -99.134668,
            19.410269,
            2235.75
          ],
          [
            -99.134256,
            19.410253,
            2235.75
          ],
          [
            -99.133789,
            19.410217,
            2235.75
          ],
          [
            -99.132736,
            19.410141,
            2235.75
          ],
          [
            -99.13202,
            19.410075,
            2235.75
          ],
          [
            -99.131389,
            19.410032,
            2235.75
          ],
          [
            -99.130921,
            19.410014,
            2235.75
          ],
          [
            -99.129988,
            19.410046,
            2235.75
          ],
          [
            -99.129833,
            19.410028,
            2235.75
          ],
          [
            -99.129709,
            19.410005,
            2235.75
          ],
          [
            -99.129546,
            19.409949,
            2235.75
          ],
          [
            -99.128331,
            19.409216,
            2235.75
          ],
          [
            -99.127094,
            19.40847,
            2235.75
          ],
          [
            -99.126929,
            19.408362,
            2235.75
          ],
          [
            -99.126782,
            19.40822,
            2235.75
          ],
          [
            -99.126674,
            19.40806,
            2235.75
          ],
          [
            -99.126601,
            19.407919,
            2235.75
          ],
          [
            -99.126533,
            19.407765,
            2235.75
          ],
          [
            -99.126424,
            19.407375,
            2235.75
          ],
          [
            -99.12626,
            19.406664,
            2235.75
          ],
          [
            -99.125974,
            19.405328,
            2235.75
          ],
          [
            -99.125852,
            19.404964,
            2235.75
          ],
          [
            -99.125684,
            19.404715,
            2235.75
          ],
          [
            -99.125479,
            19.40455,
            2235.75
          ],
          [
            -99.125171,
            19.404458,
            2235.75
          ],
          [
            -99.124836,
            19.4044,
            2235.75
          ],
          [
            -99.124409,
            19.404398,
            2235.75
          ],
          [
            -99.122688,
            19.404682,
            2235.75
          ],
          [
            -99.122411,
            19.404698,
            2235.75
          ],
          [
            -99.122155,
            19.404656,
            2235.75
          ],
          [
            -99.121752,
            19.404531,
            2235.75
          ],
          [
            -99.121096,
            19.404276,
            2235.75
          ],
          [
            -99.120685,
            19.404146,
            2235.75
          ],
          [
            -99.119547,
            19.403778,
            2235.75
          ],
          [
            -99.11936,
            19.403722,
            2235.75
          ],
          [
            -99.119184,
            19.403614,
            2235.75
          ],
          [
            -99.118444,
            19.402811,
            2235.75
          ],
          [
            -99.118049,
            19.402358,
            2235.75
          ],
          [
            -99.11779,
            19.402148,
            2235.75
          ],
          [
            -99.117525,
            19.402009,
            2235.75
          ],
          [
            -99.117325,
            19.401955,
            2235.75
          ],
          [
            -99.117126,
            19.401944,
            2235.75
          ],
          [
            -99.114753,
            19.401913,
            2235.75
          ],
          [
            -99.114554,
            19.401869,
            2235.75
          ],
          [
            -99.114365,
            19.401804,
            2235.75
          ],
          [
            -99.114186,
            19.401702,
            2235.75
          ],
          [
            -99.114035,
            19.401604,
            2235.75
          ],
          [
            -99.11392,
            19.4015,
            2235.75
          ],
          [
            -99.113838,
            19.401408,
            2235.75
          ],
          [
            -99.113698,
            19.401173,
            2235.75
          ],
          [
            -99.113648,
            19.401018,
            2235.75
          ],
          [
            -99.113607,
            19.400824,
            2235.75
          ],
          [
            -99.113582,
            19.400423,
            2235.75
          ],
          [
            -99.113492,
            19.399304,
            2236
          ],
          [
            -99.113398,
            19.397337,
            2237.75
          ],
          [
            -99.113327,
            19.395742,
            2236.25
          ],
          [
            -99.113344,
            19.39537,
            2237.5
          ],
          [
            -99.113409,
            19.394906,
            2238.25
          ],
          [
            -99.113462,
            19.394598,
            2237
          ],
          [
            -99.113705,
            19.393402,
            2237.25
          ],
          [
            -99.113761,
            19.39306,
            2237.25
          ],
          [
            -99.113768,
            19.39277,
            2237
          ],
          [
            -99.113739,
            19.392512,
            2236.75
          ],
          [
            -99.11361,
            19.392164,
            2237
          ],
          [
            -99.112531,
            19.390049,
            2237
          ],
          [
            -99.112374,
            19.389636,
            2237.5
          ],
          [
            -99.11204,
            19.388091,
            2237
          ],
          [
            -99.11131,
            19.384747,
            2239.25
          ],
          [
            -99.11082,
            19.382647,
            2236.75
          ],
          [
            -99.110532,
            19.381605,
            2237.25
          ],
          [
            -99.110296,
            19.38104,
            2236.5
          ],
          [
            -99.110301,
            19.381005,
            2236.25
          ],
          [
            -99.109508,
            19.379153,
            2238.75
          ],
          [
            -99.108743,
            19.377211,
            2238.5
          ],
          [
            -99.108578,
            19.37674,
            2238
          ],
          [
            -99.108371,
            19.376051,
            2239.25
          ],
          [
            -99.108214,
            19.375497,
            2238.5
          ],
          [
            -99.107997,
            19.374923,
            2237
          ],
          [
            -99.107794,
            19.374433,
            2237
          ],
          [
            -99.107733,
            19.374122,
            2237
          ],
          [
            -99.107665,
            19.373313,
            2239.75
          ],
          [
            -99.107664,
            19.372309,
            2238.25
          ],
          [
            -99.107679,
            19.372078,
            2237.75
          ],
          [
            -99.10771,
            19.371863,
            2237.5
          ],
          [
            -99.107904,
            19.371229,
            2237.25
          ],
          [
            -99.1081,
            19.370631,
            2237.75
          ],
          [
            -99.108577,
            19.368465,
            2238.5
          ],
          [
            -99.109547,
            19.364905,
            2239.75
          ],
          [
            -99.11103,
            19.358009,
            2242.25
          ],
          [
            -99.110924,
            19.357614,
            2242.5
          ],
          [
            -99.110658,
            19.357007,
            2242.75
          ],
          [
            -99.110374,
            19.356674,
            2242.75
          ],
          [
            -99.110014,
            19.356464,
            2243
          ],
          [
            -99.102889,
            19.355827,
            2245.5
          ],
          [
            -99.1022,
            19.355832,
            2245.75
          ],
          [
            -99.101326,
            19.355963,
            2246
          ],
          [
            -99.099615,
            19.356233,
            2246.5
          ],
          [
            -99.098121,
            19.356444,
            2247
          ],
          [
            -99.093558,
            19.357745,
            2248.75
          ],
          [
            -99.092306,
            19.358035,
            2248.5
          ],
          [
            -99.090371,
            19.358493,
            2248.5
          ],
          [
            -99.090033,
            19.358548,
            2248.5
          ],
          [
            -99.08958,
            19.35851,
            2248.5
          ],
          [
            -99.089204,
            19.358396,
            2248.5
          ],
          [
            -99.088827,
            19.358195,
            2248.5
          ],
          [
            -99.088299,
            19.357832,
            2248.25
          ],
          [
            -99.087637,
            19.357344,
            2248.25
          ],
          [
            -99.085688,
            19.35599,
            2248.25
          ],
          [
            -99.08524,
            19.355736,
            2248.25
          ],
          [
            -99.079327,
            19.353062,
            2247.75
          ],
          [
            -99.076015,
            19.351542,
            2247.5
          ],
          [
            -99.074798,
            19.351,
            2247.25
          ],
          [
            -99.07379,
            19.350505,
            2247
          ],
          [
            -99.06984,
            19.348732,
            2246.25
          ],
          [
            -99.068907,
            19.348338,
            2246
          ],
          [
            -99.068437,
            19.348131,
            2246
          ],
          [
            -99.067519,
            19.347716,
            2246
          ],
          [
            -99.066049,
            19.347067,
            2242.5
          ],
          [
            -99.065443,
            19.3468,
            2241
          ],
          [
            -99.06286,
            19.345618,
            2240.75
          ],
          [
            -99.065443,
            19.3468,
            2241
          ],
          [
            -99.066049,
            19.347067,
            2242.5
          ],
          [
            -99.067519,
            19.347716,
            2246
          ],
          [
            -99.068437,
            19.348131,
            2246
          ],
          [
            -99.068907,
            19.348338,
            2246.25
          ],
          [
            -99.06984,
            19.348732,
            2246.25
          ],
          [
            -99.07379,
            19.350505,
            2247.25
          ],
          [
            -99.074798,
            19.351,
            2247.25
          ],
          [
            -99.076015,
            19.351542,
            2247.5
          ],
          [
            -99.079327,
            19.353062,
            2247.75
          ],
          [
            -99.08524,
            19.355736,
            2248.25
          ],
          [
            -99.085688,
            19.35599,
            2248.5
          ],
          [
            -99.087637,
            19.357344,
            2248.75
          ],
          [
            -99.088299,
            19.357832,
            2248.75
          ],
          [
            -99.088827,
            19.358195,
            2248.75
          ],
          [
            -99.089204,
            19.358396,
            2248.75
          ],
          [
            -99.08958,
            19.35851,
            2248.75
          ],
          [
            -99.090033,
            19.358548,
            2249
          ],
          [
            -99.090371,
            19.358493,
            2249
          ],
          [
            -99.092306,
            19.358035,
            2248.25
          ],
          [
            -99.093558,
            19.357745,
            2247.75
          ],
          [
            -99.098121,
            19.356444,
            2246.25
          ],
          [
            -99.099615,
            19.356233,
            2245.75
          ],
          [
            -99.101326,
            19.355963,
            2245
          ],
          [
            -99.1022,
            19.355832,
            2244.75
          ],
          [
            -99.102889,
            19.355827,
            2244.5
          ],
          [
            -99.110014,
            19.356464,
            2242
          ],
          [
            -99.110374,
            19.356674,
            2242
          ],
          [
            -99.110658,
            19.357007,
            2241.75
          ],
          [
            -99.110924,
            19.357614,
            2241.5
          ],
          [
            -99.11103,
            19.358009,
            2241.5
          ],
          [
            -99.109547,
            19.364905,
            2239
          ],
          [
            -99.108577,
            19.368465,
            2237.75
          ],
          [
            -99.1081,
            19.370631,
            2237.75
          ],
          [
            -99.107904,
            19.371229,
            2237.25
          ],
          [
            -99.10771,
            19.371863,
            2237.5
          ],
          [
            -99.107679,
            19.372078,
            2237.75
          ],
          [
            -99.107664,
            19.372309,
            2238.25
          ],
          [
            -99.107665,
            19.373313,
            2239.75
          ],
          [
            -99.107733,
            19.374122,
            2237
          ],
          [
            -99.107794,
            19.374433,
            2237
          ],
          [
            -99.107997,
            19.374923,
            2237
          ],
          [
            -99.108214,
            19.375497,
            2238.5
          ],
          [
            -99.108371,
            19.376051,
            2239.25
          ],
          [
            -99.108578,
            19.37674,
            2238
          ],
          [
            -99.108743,
            19.377211,
            2238.5
          ],
          [
            -99.109508,
            19.379153,
            2238.75
          ],
          [
            -99.110301,
            19.381005,
            2236.25
          ],
          [
            -99.110296,
            19.38104,
            2236.5
          ],
          [
            -99.110532,
            19.381605,
            2237.25
          ],
          [
            -99.11082,
            19.382647,
            2236.75
          ],
          [
            -99.11131,
            19.384747,
            2239.25
          ],
          [
            -99.11204,
            19.388091,
            2237
          ],
          [
            -99.112374,
            19.389636,
            2237.5
          ],
          [
            -99.112531,
            19.390049,
            2237
          ],
          [
            -99.11361,
            19.392164,
            2237
          ],
          [
            -99.113739,
            19.392512,
            2236.75
          ],
          [
            -99.113768,
            19.39277,
            2237
          ],
          [
            -99.113761,
            19.39306,
            2237.25
          ],
          [
            -99.113705,
            19.393402,
            2237.25
          ],
          [
            -99.113462,
            19.394598,
            2237
          ],
          [
            -99.113409,
            19.394906,
            2238.25
          ],
          [
            -99.113344,
            19.39537,
            2237.5
          ],
          [
            -99.113327,
            19.395742,
            2236.25
          ],
          [
            -99.113398,
            19.397337,
            2237.75
          ],
          [
            -99.113492,
            19.399304,
            2236
          ],
          [
            -99.113582,
            19.400423,
            2235.75
          ],
          [
            -99.113607,
            19.400824
          ],
          [
            -99.113648,
            19.401018
          ],
          [
            -99.113698,
            19.401173
          ],
          [
            -99.113838,
            19.401408
          ],
          [
            -99.11392,
            19.4015
          ],
          [
            -99.114035,
            19.401604
          ],
          [
            -99.114186,
            19.401702
          ],
          [
            -99.114365,
            19.401804
          ],
          [
            -99.114554,
            19.401869
          ],
          [
            -99.114753,
            19.401913
          ],
          [
            -99.117126,
            19.401944
          ],
          [
            -99.117325,
            19.401955
          ],
          [
            -99.117525,
            19.402009
          ],
          [
            -99.11779,
            19.402148
          ],
          [
            -99.118049,
            19.402358
          ],
          [
            -99.118444,
            19.402811
          ],
          [
            -99.119184,
            19.403614
          ],
          [
            -99.11936,
            19.403722
          ],
          [
            -99.119547,
            19.403778
          ],
          [
            -99.120685,
            19.404146
          ],
          [
            -99.121096,
            19.404276
          ],
          [
            -99.121752,
            19.404531
          ],
          [
            -99.122155,
            19.404656
          ],
          [
            -99.122411,
            19.404698
          ],
          [
            -99.122688,
            19.404682
          ],
          [
            -99.124409,
            19.404398
          ],
          [
            -99.124836,
            19.4044
          ],
          [
            -99.125171,
            19.404458
          ],
          [
            -99.125479,
            19.40455
          ],
          [
            -99.125684,
            19.404715
          ],
          [
            -99.125852,
            19.404964
          ],
          [
            -99.125974,
            19.405328
          ],
          [
            -99.12626,
            19.406664
          ],
          [
            -99.126424,
            19.407375
          ],
          [
            -99.126533,
            19.407765
          ],
          [
            -99.126601,
            19.407919
          ],
          [
            -99.126674,
            19.40806
          ],
          [
            -99.126782,
            19.40822
          ],
          [
            -99.126929,
            19.408362
          ],
          [
            -99.127094,
            19.40847
          ],
          [
            -99.128331,
            19.409216
          ],
          [
            -99.129546,
            19.409949
          ],
          [
            -99.129709,
            19.410005
          ],
          [
            -99.129833,
            19.410028
          ],
          [
            -99.129988,
            19.410046
          ],
          [
            -99.130921,
            19.410014
          ],
          [
            -99.131389,
            19.410032
          ],
          [
            -99.13202,
            19.410075
          ],
          [
            -99.132736,
            19.410141
          ],
          [
            -99.133789,
            19.410217
          ],
          [
            -99.134256,
            19.410253
          ],
          [
            -99.134668,
            19.410269
          ],
          [
            -99.137638,
            19.410433
          ],
          [
            -99.139181,
            19.41056
          ],
          [
            -99.142184,
            19.410722
          ],
          [
            -99.142984,
            19.410778
          ],
          [
            -99.143274,
            19.410862
          ],
          [
            -99.143559,
            19.411045
          ],
          [
            -99.143739,
            19.411211
          ],
          [
            -99.143893,
            19.411367
          ],
          [
            -99.144009,
            19.41154
          ],
          [
            -99.144083,
            19.411721
          ],
          [
            -99.14414,
            19.411943
          ],
          [
            -99.144146,
            19.412119
          ],
          [
            -99.144144,
            19.412318
          ],
          [
            -99.144049,
            19.4132
          ],
          [
            -99.14322,
            19.421442
          ],
          [
            -99.143071,
            19.422759
          ],
          [
            -99.142858,
            19.42357
          ],
          [
            -99.14206,
            19.42679
          ],
          [
            -99.141986,
            19.42722
          ],
          [
            -99.141329,
            19.431286
          ],
          [
            -99.141293,
            19.431505
          ],
          [
            -99.140408,
            19.436903
          ],
          [
            -99.139931,
            19.439975
          ],
          [
            -99.139708,
            19.441018
          ],
          [
            -99.139417,
            19.442782
          ],
          [
            -99.139366,
            19.442918
          ],
          [
            -99.138715,
            19.443933
          ],
          [
            -99.138051,
            19.444963
          ]
        ]
      }
    }
  ]
}