{
  "type": "FeatureCollection",
  "features": [
    {
      "type": "Feature",
      "properties": {
        "creator": "BRouter-1.7.9",
        "name": "[STC] Línea 2",
        "track-length": "42267",
        "filtered ascend": "10",
        "plain-ascend": "1",
        "total-time": "3381",
        "total-energy": "1859164",
        "cost": "84534",
        "messages": [
          [
            "Longitude",
            "Latitude",
            "Elevation",
            "Distance",
            "CostPerKm",
            "ElevCost",
            "TurnCost",
            "NodeCost",
            "InitialCost",
            "WayTags",
            "NodeTags",
            "Time",
            "Energy"
          ],
          [
            "-99215979",
            "19459569",
            "-8192",
            "118",
            "2000",
            "0",
            "0",
            "0",
            "0",
            "railway=subway",
            "railway=halt",
            "9",
            "5190"
          ],
          [
            "-99203043",
            "19458681",
            "-8192",
            "1775",
            "2000",
            "0",
            "0",
            "0",
            "0",
            "railway=subway",
            "railway=halt",
            "151",
            "83264"
          ],
          [
            "-99188255",
            "19459423",
            "-8192",
            "1587",
            "2000",
            "0",
            "0",
            "0",
            "0",
            "railway=subway",
            "railway=halt",
            "278",
            "153068"
          ],
          [
            "-99181494",
            "19457228",
            "-8192",
            "760",
            "2000",
            "0",
            "0",
            "0",
            "0",
            "railway=subway",
            "railway=halt",
            "339",
            "186497"
          ],
          [
            "-99175497",
            "19452884",
            "-8192",
            "796",
            "2000",
            "0",
            "0",
            "0",
            "0",
            "railway=subway",
            "railway=halt",
            "402",
            "221509"
          ],
          [
            "-99175462",
            "19452860",
            "-8192",
            "5",
            "2000",
            "0",
            "0",
            "0",
            "0",
            "railway=subway",
            "railway=station",
            "403",
            "221729"
          ],
          [
            "-99171810",
            "19449233",
            "-8192",
            "564",
            "2000",
            "0",
            "0",
            "0",
            "0",
            "railway=subway",
            "railway=halt",
            "448",
            "246537"
          ],
          [
            "-99167361",
            "19444550",
            "-8192",
            "713",
            "2000",
            "0",
            "0",
            "0",
            "0",
            "railway=subway",
            "railway=halt",
            "505",
            "277898"
          ],
          [
            "-99160703",
            "19441905",
            "-8192",
            "765",
            "2000",
            "0",
            "0",
            "0",
            "0",
            "railway=subway",
            "railway=halt",
            "566",
            "311547"
          ],
          [
            "-99153899",
            "19439057",
            "-8192",
            "781",
            "2000",
            "0",
            "0",
            "0",
            "0",
            "railway=subway",
            "railway=halt",
            "629",
            "345899"
          ],
          [
            "-99147135",
            "19437504",
            "-8192",
            "732",
            "2000",
            "0",
            "0",
            "0",
            "0",
            "railway=subway",
            "railway=halt",
            "687",
            "378097"
          ],
          [
            "-99141122",
            "19436167",
            "-8192",
            "649",
            "2000",
            "0",
            "0",
            "0",
            "0",
            "railway=subway",
            "railway=halt",
            "739",
            "406643"
          ],
          [
            "-99136884",
            "19435528",
            "-8192",
            "451",
            "2000",
            "0",
            "0",
            "0",
            "0",
            "railway=subway",
            "railway=halt",
            "775",
            "426480"
          ],
          [
            "-99132245",
            "19432500",
            "-8192",
            "729",
            "2000",
            "0",
            "0",
            "0",
            "0",
            "railway=subway",
            "wheelchair=limited railway=station",
            "833",
            "458546"
          ],
          [
            "-99132968",
            "19426486",
            "2238",
            "670",
            "2000",
            "0",
            "0",
            "0",
            "0",
            "railway=subway",
            "estimated_crossing_class=0",
            "887",
            "488016"
          ],
          [
            "-99132913",
            "19424670",
            "2237",
            "201",
            "2000",
            "0",
            "0",
            "0",
            "0",
            "railway=subway",
            "railway=halt",
            "903",
            "496857"
          ],
          [
            "-99134522",
            "19416037",
            "2240",
            "1004",
            "2000",
            "0",
            "0",
            "0",
            "0",
            "railway=subway",
            "railway=halt",
            "983",
            "542206"
          ],
          [
            "-99135588",
            "19409189",
            "2238",
            "767",
            "2000",
            "0",
            "0",
            "0",
            "0",
            "railway=subway",
            "railway=halt",
            "1045",
            "574722"
          ],
          [
            "-99141560",
            "19369769",
            "2241",
            "4408",
            "2000",
            "0",
            "0",
            "0",
            "0",
            "railway=subway",
            "railway=halt",
            "1397",
            "770587"
          ],
          [
            "-99142871",
            "19361942",
            "2243",
            "877",
            "2000",
            "0",
            "0",
            "0",
            "0",
            "railway=subway",
            "railway=halt",
            "1468",
            "811243"
          ],
          [
            "-99141828",
            "19343886",
            "2242",
            "2252",
            "2000",
            "0",
            "0",
            "0",
            "0",
            "railway=subway",
            "railway=buffer_stop",
            "1648",
            "909568"
          ],
          [
            "-99140864",
            "19343837",
            "2241",
            "101",
            "2000",
            "0",
            "0",
            "0",
            "0",
            "reversedirection=yes railway=subway",
            "railway=switch",
            "1656",
            "913458"
          ],
          [
            "-99139949",
            "19343789",
            "2241",
            "96",
            "2000",
            "0",
            "0",
            "0",
            "0",
            "reversedirection=yes railway=subway",
            "",
            "1664",
            "917622"
          ],
          [
            "-99140864",
            "19343837",
            "2241",
            "96",
            "2000",
            "0",
            "0",
            "0",
            "0",
            "railway=subway",
            "railway=switch",
            "7",
            "4170"
          ],
          [
            "-99141224",
            "19343825",
            "2242",
            "38",
            "2000",
            "0",
            "0",
            "0",
            "0",
            "reversedirection=yes railway=subway",
            "railway=switch",
            "10",
            "5997"
          ],
          [
            "-99143972",
            "19344199",
            "2243",
            "295",
            "2000",
            "0",
            "0",
            "0",
            "0",
            "reversedirection=yes railway=subway",
            "",
            "34",
            "20198"
          ],
          [
            "-99141224",
            "19343825",
            "2242",
            "295",
            "2000",
            "0",
            "0",
            "0",
            "0",
            "railway=subway",
            "railway=switch",
            "23",
            "12310"
          ],
          [
            "-99140864",
            "19343837",
            "2241",
            "38",
            "2000",
            "0",
            "0",
            "0",
            "0",
            "railway=subway",
            "railway=switch",
            "26",
            "13703"
          ],
          [
            "-99141828",
            "19343886",
            "2242",
            "101",
            "2000",
            "0",
            "0",
            "0",
            "0",
            "railway=subway",
            "railway=buffer_stop",
            "34",
            "18184"
          ],
          [
            "-99142871",
            "19361942",
            "2243",
            "2252",
            "2000",
            "0",
            "0",
            "0",
            "0",
            "reversedirection=yes railway=subway",
            "railway=halt",
            "214",
            "118059"
          ],
          [
            "-99141560",
            "19369769",
            "2241",
            "877",
            "2000",
            "0",
            "0",
            "0",
            "0",
            "reversedirection=yes railway=subway",
            "railway=halt",
            "285",
            "155380"
          ],
          [
            "-99135588",
            "19409189",
            "2238",
            "4408",
            "2000",
            "0",
            "0",
            "0",
            "0",
            "reversedirection=yes railway=subway",
            "railway=halt",
            "637",
            "346228"
          ],
          [
            "-99134522",
            "19416037",
            "2240",
            "767",
            "2000",
            "0",
            "0",
            "0",
            "0",
            "reversedirection=yes railway=subway",
            "railway=halt",
            "699",
            "381012"
          ],
          [
            "-99132913",
            "19424670",
            "2238",
            "1004",
            "2000",
            "0",
            "0",
            "0",
            "0",
            "reversedirection=yes railway=subway",
            "railway=halt",
            "779",
            "423015"
          ],
          [
            "-99132968",
            "19426486",
            "2238",
            "201",
            "2000",
            "0",
            "0",
            "0",
            "0",
            "reversedirection=yes railway=subway",
            "estimated_crossing_class=0",
            "795",
            "432184"
          ],
          [
            "-99132245",
            "19432500",
            "-8192",
            "670",
            "2000",
            "0",
            "0",
            "0",
            "0",
            "reversedirection=yes railway=subway",
            "wheelchair=limited railway=station",
            "849",
            "462840"
          ],
          [
            "-99136884",
            "19435528",
            "-8192",
            "729",
            "2000",
            "0",
            "0",
            "0",
            "0",
            "reversedirection=yes railway=subway",
            "railway=halt",
            "907",
            "494907"
          ],
          [
            "-99141122",
            "19436167",
            "-8192",
            "451",
            "2000",
            "0",
            "0",
            "0",
            "0",
            "reversedirection=yes railway=subway",
            "railway=halt",
            "943",
            "514745"
          ],
          [
            "-99147135",
            "19437504",
            "-8192",
            "649",
            "2000",
            "0",
            "0",
            "0",
            "0",
            "reversedirection=yes railway=subway",
            "railway=halt",
            "995",
            "543291"
          ],
          [
            "-99153899",
            "19439057",
            "-8192",
            "732",
            "2000",
            "0",
            "0",
            "0",
            "0",
            "reversedirection=yes railway=subway",
            "railway=halt",
            "1053",
            "575488"
          ],
          [
            "-99160703",
            "19441905",
            "-8192",
            "781",
            "2000",
            "0",
            "0",
            "0",
            "0",
            "reversedirection=yes railway=subway",
            "railway=halt",
            "1116",
            "609841"
          ],
          [
            "-99167361",
            "19444550",
            "-8192",
            "765",
            "2000",
            "0",
            "0",
            "0",
            "0",
            "reversedirection=yes railway=subway",
            "railway=halt",
            "1177",
            "643489"
          ],
          [
            "-99171810",
            "19449233",
            "-8192",
            "713",
            "2000",
            "0",
            "0",
            "0",
            "0",
            "reversedirection=yes railway=subway",
            "railway=halt",
            "1234",
            "674851"
          ],
          [
            "-99175462",
            "19452860",
            "-8192",
            "564",
            "2000",
            "0",
            "0",
            "0",
            "0",
            "reversedirection=yes railway=subway",
            "railway=station",
            "1279",
            "699659"
          ],
          [
            "-99175497",
            "19452884",
            "-8192",
            "5",
            "2000",
            "0",
            "0",
            "0",
            "0",
            "reversedirection=yes railway=subway",
            "railway=halt",
            "1280",
            "699878"
          ],
          [
            "-99181494",
            "19457228",
            "-8192",
            "796",
            "2000",
            "0",
            "0",
            "0",
            "0",
            "reversedirection=yes railway=subway",
            "railway=halt",
            "1343",
            "734891"
          ],
          [
            "-99188255",
            "19459423",
            "-8192",
            "760",
            "2000",
            "0",
            "0",
            "0",
            "0",
            "reversedirection=yes railway=subway",
            "railway=halt",
            "1404",
            "768320"
          ],
          [
            "-99203043",
            "19458681",
            "-8192",
            "1587",
            "2000",
            "0",
            "0",
            "0",
            "0",
            "reversedirection=yes railway=subway",
            "railway=halt",
            "1531",
            "838124"
          ],
          [
            "-99210613",
            "19460919",
            "-8192",
            "833",
            "2000",
            "0",
            "0",
            "0",
            "0",
            "reversedirection=yes railway=subway",
            "",
            "1598",
            "874764"
          ],
          [
            "-99215979",
            "19459569",
            "-8192",
            "942",
            "2000",
            "0",
            "0",
            "0",
            "0",
            "reversedirection=yes railway=subway",
            "railway=halt",
            "75",
            "41434"
          ],
          [
            "-99215965",
            "19458512",
            "-8192",
            "117",
            "2000",
            "0",
            "0",
            "0",
            "0",
            "reversedirection=yes railway=subway",
            "",
            "84",
            "46580"
          ]
        ],
        "times": [
          0,
          9.44,
          15.04,
          16.64,
          17.76,
          20,
          21.92,
          23.76,
          36.8,
          38.08,
          39.68,
          41.12,
          42.56,
          43.6,
          44.72,
          46,
          47.28,
          48.32,
          49.84,
          51.28,
          58.48,
          59.28,
          61.84,
          63.36,
          64.24,
          66.72,
          76.8,
          78.24,
          79.92,
          81.6,
          83.2,
          85.36,
          88.64,
          92.08,
          108.56,
          143.6,
          151.44,
          161.52,
          165.12,
          166.88,
          169.28,
          171.12,
          187.36,
          197.2,
          202.48,
          215.68,
          220.96,
          229.04,
          234.48,
          237.6,
          245.04,
          249.84,
          254.4,
          257.68,
          260.24,
          263.2,
          278.4,
          323.12,
          325.84,
          328.24,
          329.92,
          339.2,
          351.2,
          364.08,
          381.92,
          402.88,
          403.28,
          425.76,
          448.4,
          486.08,
          505.44,
          528.8,
          549.84,
          554.08,
          558.32,
          566.64,
          629.12,
          635.92,
          674.32,
          687.68,
          711.36,
          724,
          739.6,
          749.68,
          761.2,
          775.68,
          785.52,
          794.24,
          809.04,
          809.76,
          810.48,
          811.2,
          811.92,
          812.64,
          813.36,
          814.08,
          814.8,
          815.52,
          816.24,
          817.68,
          818.4,
          821.6,
          828.56,
          834,
          838.64,
          840.08,
          848.08,
          849.68,
          864.56,
          876.24,
          887.6,
          889.68,
          891.6,
          893.6,
          903.68,
          920.24,
          925.12,
          934.32,
          935.52,
          936.56,
          937.68,
          938.88,
          946.8,
          948,
          949.2,
          950.72,
          952.16,
          954.64,
          968,
          973.92,
          984,
          991.6,
          1031.6,
          1036.48,
          1045.36,
          1052.24,
          1074.96,
          1096.08,
          1098.16,
          1109.04,
          1112.16,
          1126.56,
          1141.44,
          1153.04,
          1163.84,
          1177.76,
          1180.48,
          1224.56,
          1228,
          1231.599,
          1245.52,
          1250.4,
          1267.92,
          1282.64,
          1300.719,
          1303.52,
          1317.44,
          1324.96,
          1334.72,
          1343.84,
          1353.28,
          1384.64,
          1389.359,
          1398,
          1403.28,
          1408.32,
          1414.64,
          1422.64,
          1448.88,
          1461.04,
          1468.16,
          1486.8,
          1491.36,
          1508.48,
          1512.8,
          1520.96,
          1528.96,
          1536.24,
          1540.16,
          1553.84,
          1556.56,
          1558.8,
          1560.56,
          1564.24,
          1568.32,
          1570.64,
          1573.44,
          1576.64,
          1579.12,
          1581.36,
          1584.56,
          1587.6,
          1614.88,
          1620.56,
          1622.16,
          1623.04,
          1624.48,
          1625.6,
          1627.12,
          1628.4,
          1629.52,
          1630.4,
          1631.2,
          1632.4,
          1633.44,
          1634.64,
          1635.76,
          1636.88,
          1645.28,
          1648.32,
          1656.4,
          1658.56,
          1664.08,
          1669.6,
          1671.76,
          1674.8,
          1679.84,
          1691.36,
          1692.48,
          1693.6,
          1694.8,
          1695.84,
          1697.12,
          1698,
          1698.4,
          1698.8,
          1699.68,
          1700.96,
          1702,
          1703.2,
          1704.32,
          1705.44,
          1716.96,
          1722,
          1725.04,
          1733.12,
          1736.16,
          1744.56,
          1745.68,
          1746.8,
          1748,
          1749.04,
          1750.24,
          1751.04,
          1751.92,
          1753.04,
          1754.32,
          1755.84,
          1756.96,
          1758.4,
          1759.28,
          1760.88,
          1766.56,
          1793.84,
          1796.88,
          1800.08,
          1802.32,
          1804.8,
          1808,
          1810.8,
          1813.12,
          1817.2,
          1820.88,
          1822.64,
          1824.88,
          1827.6,
          1841.28,
          1845.2,
          1852.48,
          1860.48,
          1868.64,
          1872.96,
          1890.08,
          1894.64,
          1913.28,
          1920.4,
          1932.56,
          1958.8,
          1966.8,
          1973.12,
          1978.16,
          1983.44,
          1992.08,
          1996.8,
          2028.16,
          2037.6,
          2046.72,
          2056.48,
          2064,
          2077.92,
          2080.72,
          2098.8,
          2113.52,
          2131.04,
          2135.92,
          2149.84,
          2153.44,
          2156.88,
          2200.96,
          2203.68,
          2217.6,
          2228.4,
          2240,
          2254.88,
          2269.28,
          2272.4,
          2283.28,
          2285.36,
          2306.48,
          2329.2,
          2336.08,
          2344.96,
          2349.84,
          2389.84,
          2397.44,
          2407.52,
          2413.44,
          2426.8,
          2429.28,
          2430.72,
          2432.24,
          2433.44,
          2434.64,
          2442.56,
          2443.76,
          2444.88,
          2445.92,
          2447.12,
          2456.32,
          2461.2,
          2477.76,
          2487.84,
          2489.84,
          2491.76,
          2493.84,
          2505.2,
          2516.88,
          2531.76,
          2533.36,
          2541.36,
          2542.8,
          2547.44,
          2552.88,
          2559.84,
          2563.04,
          2563.76,
          2565.2,
          2565.92,
          2566.64,
          2567.36,
          2568.08,
          2568.8,
          2569.52,
          2570.24,
          2570.96,
          2571.68,
          2572.4,
          2587.2,
          2595.92,
          2605.76,
          2620.24,
          2631.76,
          2641.84,
          2657.44,
          2670.08,
          2693.76,
          2707.12,
          2745.52,
          2752.32,
          2814.8,
          2823.12,
          2827.36,
          2831.6,
          2852.64,
          2876,
          2895.36,
          2933.04,
          2955.68,
          2978.16,
          2978.56,
          2999.52,
          3017.36,
          3030.24,
          3042.24,
          3051.52,
          3053.2,
          3055.6,
          3058.32,
          3103.04,
          3118.24,
          3121.2,
          3123.76,
          3127.04,
          3131.6,
          3136.4,
          3143.84,
          3146.96,
          3152.4,
          3160.48,
          3165.76,
          3178.96,
          3184.24,
          3194.08,
          3210.32,
          3212.16,
          3214.56,
          3216.32,
          3219.92,
          3229.999,
          3237.839,
          3272.879,
          3289.359,
          3292.799,
          3296.079,
          3296.64,
          3298.24,
          3299.84,
          3301.52,
          3303.2,
          3304.64,
          3314.72,
          3317.2,
          3318.08,
          3319.6,
          3322.16,
          3322.96,
          3330.16,
          3331.6,
          3333.12,
          3334.16,
          3335.44,
          3336.72,
          3337.84,
          3338.88,
          3340.32,
          3341.76,
          3343.36,
          3344.64,
          3357.68,
          3359.52,
          3361.44,
          3363.68,
          3364.8,
          3366.4,
          3372,
          3381.36
        ]
      },
      "geometry": {
        "type": "LineString",
        "coordinates": [
          [
            -99.215965,
            19.458502,
            2238.5
          ],
          [
            -99.215979,
            19.459569,
            2238.5
          ],
          [
            -99.215983,
            19.460202,
            2238.5
          ],
          [
            -99.215965,
            19.460383,
            2238.5
          ],
          [
            -99.215941,
            19.460505,
            2238.5
          ],
          [
            -99.21587,
            19.460745,
            2238.5
          ],
          [
            -99.215801,
            19.460948,
            2238.5
          ],
          [
            -99.215724,
            19.461143,
            2238.5
          ],
          [
            -99.215229,
            19.46254,
            2238.5
          ],
          [
            -99.215159,
            19.462671,
            2238.5
          ],
          [
            -99.21505,
            19.462821,
            2238.5
          ],
          [
            -99.214925,
            19.462935,
            2238.5
          ],
          [
            -99.214784,
            19.463028,
            2238.5
          ],
          [
            -99.214675,
            19.463092,
            2238.5
          ],
          [
            -99.21455,
            19.463138,
            2238.5
          ],
          [
            -99.214406,
            19.463171,
            2238.5
          ],
          [
            -99.214257,
            19.463184,
            2238.5
          ],
          [
            -99.214133,
            19.463166,
            2238.5
          ],
          [
            -99.213957,
            19.463124,
            2238.5
          ],
          [
            -99.213796,
            19.463067,
            2238.5
          ],
          [
            -99.213018,
            19.462728,
            2238.5
          ],
          [
            -99.212932,
            19.462695,
            2238.5
          ],
          [
            -99.212645,
            19.462605,
            2238.5
          ],
          [
            -99.21249,
            19.462523,
            2238.5
          ],
          [
            -99.212416,
            19.462456,
            2238.5
          ],
          [
            -99.212219,
            19.462253,
            2238.5
          ],
          [
            -99.211373,
            19.461451,
            2238.5
          ],
          [
            -99.211247,
            19.461338,
            2238.5
          ],
          [
            -99.211095,
            19.461219,
            2238.5
          ],
          [
            -99.210937,
            19.461107,
            2238.5
          ],
          [
            -99.210776,
            19.461009,
            2238.5
          ],
          [
            -99.210553,
            19.460886,
            2238.5
          ],
          [
            -99.210199,
            19.460729,
            2238.5
          ],
          [
            -99.209813,
            19.460604,
            2238.5
          ],
          [
            -99.207931,
            19.460068,
            2238.5
          ],
          [
            -99.20393,
            19.458957,
            2238.5
          ],
          [
            -99.203043,
            19.458681,
            2238.5
          ],
          [
            -99.201904,
            19.458314,
            2238.5
          ],
          [
            -99.201486,
            19.45821,
            2238.5
          ],
          [
            -99.201275,
            19.458177,
            2238.5
          ],
          [
            -99.200988,
            19.458164,
            2238.5
          ],
          [
            -99.200765,
            19.45817,
            2238.5
          ],
          [
            -99.198872,
            19.45854,
            2238.5
          ],
          [
            -99.19773,
            19.458772,
            2238.5
          ],
          [
            -99.197116,
            19.458896,
            2238.5
          ],
          [
            -99.195579,
            19.459221,
            2238.5
          ],
          [
            -99.194969,
            19.459365,
            2238.5
          ],
          [
            -99.194038,
            19.459604,
            2238.5
          ],
          [
            -99.193395,
            19.459694,
            2238.5
          ],
          [
            -99.193026,
            19.459693,
            2238.5
          ],
          [
            -99.192142,
            19.459666,
            2238.5
          ],
          [
            -99.191574,
            19.459737,
            2238.5
          ],
          [
            -99.19105,
            19.459885,
            2238.5
          ],
          [
            -99.190662,
            19.459915,
            2238.5
          ],
          [
            -99.190355,
            19.459889,
            2238.5
          ],
          [
            -99.190009,
            19.459827,
            2238.5
          ],
          [
            -99.188255,
            19.459423,
            2238.5
          ],
          [
            -99.183104,
            19.458164,
            2238.5
          ],
          [
            -99.182789,
            19.458092,
            2238.5
          ],
          [
            -99.182525,
            19.457985,
            2238.5
          ],
          [
            -99.182348,
            19.457893,
            2238.5
          ],
          [
            -99.181494,
            19.457228,
            2238.5
          ],
          [
            -99.180399,
            19.456363,
            2238.5
          ],
          [
            -99.179058,
            19.45566,
            2238.5
          ],
          [
            -99.177516,
            19.45428,
            2238.5
          ],
          [
            -99.175497,
            19.452884,
            2238.5
          ],
          [
            -99.175462,
            19.45286,
            2238.5
          ],
          [
            -99.173301,
            19.451368,
            2238.5
          ],
          [
            -99.17181,
            19.449233,
            2238.5
          ],
          [
            -99.169333,
            19.445686,
            2238.5
          ],
          [
            -99.167361,
            19.44455,
            2238.5
          ],
          [
            -99.164997,
            19.443153,
            2238.5
          ],
          [
            -99.162564,
            19.442597,
            2238.5
          ],
          [
            -99.162081,
            19.442454,
            2238.5
          ],
          [
            -99.161606,
            19.44228,
            2238.5
          ],
          [
            -99.160703,
            19.441905,
            2238.5
          ],
          [
            -99.153899,
            19.439057,
            2238.5
          ],
          [
            -99.153147,
            19.438775,
            2238.5
          ],
          [
            -99.148689,
            19.437812,
            2238.5
          ],
          [
            -99.147135,
            19.437504,
            2238.5
          ],
          [
            -99.144401,
            19.436871,
            2238.5
          ],
          [
            -99.142919,
            19.436606,
            2238.5
          ],
          [
            -99.141122,
            19.436167,
            2238.5
          ],
          [
            -99.139936,
            19.435983,
            2238.5
          ],
          [
            -99.13859,
            19.43575,
            2238.5
          ],
          [
            -99.136884,
            19.435528,
            2238.5
          ],
          [
            -99.135723,
            19.435353,
            2238.5
          ],
          [
            -99.13469,
            19.435255,
            2238.5
          ],
          [
            -99.132948,
            19.435009,
            2238.5
          ],
          [
            -99.132863,
            19.434989,
            2238.5
          ],
          [
            -99.13278,
            19.434962,
            2238.5
          ],
          [
            -99.132701,
            19.434926,
            2238.5
          ],
          [
            -99.132625,
            19.434883,
            2238.5
          ],
          [
            -99.132554,
            19.434832,
            2238.5
          ],
          [
            -99.132488,
            19.434775,
            2238.5
          ],
          [
            -99.132428,
            19.434712,
            2238.5
          ],
          [
            -99.132377,
            19.434647,
            2238.5
          ],
          [
            -99.132332,
            19.434577,
            2238.5
          ],
          [
            -99.132294,
            19.434504,
            2238.5
          ],
          [
            -99.132238,
            19.434348,
            2238.5
          ],
          [
            -99.132222,
            19.434267,
            2238.5
          ],
          [
            -99.132184,
            19.433905,
            2238.5
          ],
          [
            -99.132178,
            19.433115,
            2238.5
          ],
          [
            -99.132245,
            19.4325,
            2238.5
          ],
          [
            -99.132306,
            19.431978,
            2238.5
          ],
          [
            -99.13232,
            19.431812,
            2238.5
          ],
          [
            -99.132316,
            19.430911,
            2238.5
          ],
          [
            -99.132322,
            19.430728,
            2238.5
          ],
          [
            -99.132554,
            19.429059,
            2238.5
          ],
          [
            -99.132768,
            19.427756,
            2238.5
          ],
          [
            -99.132968,
            19.426486,
            2238
          ],
          [
            -99.132974,
            19.426251,
            2238
          ],
          [
            -99.132967,
            19.426032,
            2237.75
          ],
          [
            -99.132952,
            19.425809,
            2237.75
          ],
          [
            -99.132913,
            19.42467,
            2237.5
          ],
          [
            -99.132828,
            19.422805,
            2236.75
          ],
          [
            -99.132829,
            19.422257,
            2237
          ],
          [
            -99.132832,
            19.421221,
            2237.75
          ],
          [
            -99.132842,
            19.421085,
            2237.75
          ],
          [
            -99.132874,
            19.420975,
            2237.75
          ],
          [
            -99.13293,
            19.420864,
            2238
          ],
          [
            -99.133012,
            19.420756,
            2238
          ],
          [
            -99.13368,
            19.420127,
            2238.5
          ],
          [
            -99.133772,
            19.42002,
            2238.75
          ],
          [
            -99.13385,
            19.419906,
            2238.75
          ],
          [
            -99.133913,
            19.419748,
            2238.75
          ],
          [
            -99.133955,
            19.419595,
            2239
          ],
          [
            -99.134003,
            19.419323,
            2239
          ],
          [
            -99.134241,
            19.417827,
            2239.25
          ],
          [
            -99.13433,
            19.417165,
            2240
          ],
          [
            -99.134522,
            19.416037,
            2240
          ],
          [
            -99.134646,
            19.415184,
            2238
          ],
          [
            -99.135343,
            19.410719,
            2238.5
          ],
          [
            -99.135417,
            19.410175,
            2238.25
          ],
          [
            -99.135588,
            19.409189,
            2238.5
          ],
          [
            -99.135698,
            19.40842,
            2237.25
          ],
          [
            -99.136095,
            19.405881,
            2240.25
          ],
          [
            -99.136461,
            19.403517,
            2238.75
          ],
          [
            -99.136496,
            19.403284,
            2238.25
          ],
          [
            -99.136684,
            19.402069,
            2237
          ],
          [
            -99.136721,
            19.401722,
            2237
          ],
          [
            -99.136971,
            19.400116,
            2238.25
          ],
          [
            -99.137252,
            19.398458,
            2240.25
          ],
          [
            -99.137462,
            19.397166,
            2238.5
          ],
          [
            -99.137646,
            19.395957,
            2238.5
          ],
          [
            -99.1379,
            19.394402,
            2237.25
          ],
          [
            -99.137955,
            19.394098,
            2237
          ],
          [
            -99.138695,
            19.389174,
            2238
          ],
          [
            -99.138748,
            19.388791,
            2238
          ],
          [
            -99.138794,
            19.388391,
            2237.75
          ],
          [
            -99.139033,
            19.386836,
            2238
          ],
          [
            -99.139127,
            19.386289,
            2238
          ],
          [
            -99.139428,
            19.384333,
            2238.25
          ],
          [
            -99.139669,
            19.382685,
            2238.25
          ],
          [
            -99.139977,
            19.380665,
            2242.75
          ],
          [
            -99.140019,
            19.380347,
            2241
          ],
          [
            -99.140262,
            19.378793,
            2237.5
          ],
          [
            -99.140407,
            19.377956,
            2238.5
          ],
          [
            -99.140554,
            19.376862,
            2238.75
          ],
          [
            -99.140677,
            19.375838,
            2240.75
          ],
          [
            -99.140813,
            19.374779,
            2242.75
          ],
          [
            -99.141339,
            19.37127,
            2239.5
          ],
          [
            -99.141411,
            19.370738,
            2239.75
          ],
          [
            -99.14156,
            19.369769,
            2241.25
          ],
          [
            -99.14165,
            19.369177,
            2240.75
          ],
          [
            -99.141757,
            19.368619,
            2243
          ],
          [
            -99.141863,
            19.367913,
            2242.5
          ],
          [
            -99.14201,
            19.367017,
            2241
          ],
          [
            -99.142509,
            19.364089,
            2243.75
          ],
          [
            -99.142727,
            19.362736,
            2243
          ],
          [
            -99.142871,
            19.361942,
            2243
          ],
          [
            -99.143251,
            19.359869,
            2241.75
          ],
          [
            -99.14337,
            19.359365,
            2242
          ],
          [
            -99.143798,
            19.357471,
            2244
          ],
          [
            -99.143912,
            19.356998,
            2243.5
          ],
          [
            -99.144123,
            19.356095,
            2243.75
          ],
          [
            -99.144372,
            19.355219,
            2243.75
          ],
          [
            -99.144612,
            19.354429,
            2244.5
          ],
          [
            -99.144733,
            19.354,
            2244.75
          ],
          [
            -99.145191,
            19.352518,
            2243.75
          ],
          [
            -99.145288,
            19.352225,
            2244.5
          ],
          [
            -99.145357,
            19.351979,
            2245
          ],
          [
            -99.145401,
            19.351784,
            2245.25
          ],
          [
            -99.14548,
            19.351374,
            2244.5
          ],
          [
            -99.145539,
            19.350919,
            2242.75
          ],
          [
            -99.145559,
            19.35066,
            2242.5
          ],
          [
            -99.145569,
            19.350345,
            2242.5
          ],
          [
            -99.145558,
            19.349987,
            2242.5
          ],
          [
            -99.145538,
            19.349704,
            2242.75
          ],
          [
            -99.14551,
            19.349449,
            2243
          ],
          [
            -99.145453,
            19.349088,
            2243
          ],
          [
            -99.14538,
            19.348748,
            2242.5
          ],
          [
            -99.144653,
            19.345743,
            2245.25
          ],
          [
            -99.144494,
            19.345121,
            2244.5
          ],
          [
            -99.144445,
            19.344949,
            2244.25
          ],
          [
            -99.144412,
            19.344857,
            2244
          ],
          [
            -99.144347,
            19.344707,
            2244
          ],
          [
            -99.144286,
            19.344592,
            2243.75
          ],
          [
            -99.144179,
            19.344451,
            2243.25
          ],
          [
            -99.14408,
            19.344345,
            2243
          ],
          [
            -99.143986,
            19.344259,
            2243
          ],
          [
            -99.143899,
            19.344198,
            2243
          ],
          [
            -99.143816,
            19.344147,
            2243
          ],
          [
            -99.143693,
            19.344082,
            2243
          ],
          [
            -99.143579,
            19.344037,
            2243.25
          ],
          [
            -99.143444,
            19.343998,
            2243.25
          ],
          [
            -99.143315,
            19.343974,
            2243.25
          ],
          [
            -99.143184,
            19.343958,
            2243
          ],
          [
            -99.142191,
            19.343901,
            2241.75
          ],
          [
            -99.141828,
            19.343886,
            2242
          ],
          [
            -99.140864,
            19.343837,
            2241.25
          ],
          [
            -99.140605,
            19.343824,
            2241.5
          ],
          [
            -99.139949,
            19.343789,
            2241.75
          ],
          [
            -99.140605,
            19.343824,
            2241.5
          ],
          [
            -99.140864,
            19.343837,
            2241.25
          ],
          [
            -99.141224,
            19.343825,
            2242
          ],
          [
            -99.141827,
            19.343858,
            2242.25
          ],
          [
            -99.143191,
            19.343928,
            2243
          ],
          [
            -99.143324,
            19.343945,
            2243.5
          ],
          [
            -99.143456,
            19.343972,
            2243.5
          ],
          [
            -99.143594,
            19.344009,
            2243.25
          ],
          [
            -99.143707,
            19.34405,
            2243.25
          ],
          [
            -99.143843,
            19.344113,
            2243
          ],
          [
            -99.143933,
            19.344171,
            2243
          ],
          [
            -99.143972,
            19.344199,
            2243
          ],
          [
            -99.143933,
            19.344171,
            2243
          ],
          [
            -99.143843,
            19.344113,
            2243
          ],
          [
            -99.143707,
            19.34405,
            2243.25
          ],
          [
            -99.143594,
            19.344009,
            2243.25
          ],
          [
            -99.143456,
            19.343972,
            2243.5
          ],
          [
            -99.143324,
            19.343945,
            2243.5
          ],
          [
            -99.143191,
            19.343928,
            2243
          ],
          [
            -99.141827,
            19.343858,
            2242.25
          ],
          [
            -99.141224,
            19.343825,
            2242
          ],
          [
            -99.140864,
            19.343837,
            2241.25
          ],
          [
            -99.141828,
            19.343886,
            2242
          ],
          [
            -99.142191,
            19.343901,
            2241.75
          ],
          [
            -99.143184,
            19.343958,
            2243
          ],
          [
            -99.143315,
            19.343974,
            2243.25
          ],
          [
            -99.143444,
            19.343998,
            2243.25
          ],
          [
            -99.143579,
            19.344037,
            2243.25
          ],
          [
            -99.143693,
            19.344082,
            2243
          ],
          [
            -99.143816,
            19.344147,
            2243
          ],
          [
            -99.143899,
            19.344198,
            2243
          ],
          [
            -99.143986,
            19.344259,
            2243
          ],
          [
            -99.14408,
            19.344345,
            2243
          ],
          [
            -99.144179,
            19.344451,
            2243.25
          ],
          [
            -99.144286,
            19.344592,
            2243.75
          ],
          [
            -99.144347,
            19.344707,
            2244
          ],
          [
            -99.144412,
            19.344857,
            2244
          ],
          [
            -99.144445,
            19.344949,
            2244.25
          ],
          [
            -99.144494,
            19.345121,
            2244.5
          ],
          [
            -99.144653,
            19.345743,
            2245.25
          ],
          [
            -99.14538,
            19.348748,
            2242.5
          ],
          [
            -99.145453,
            19.349088,
            2243
          ],
          [
            -99.14551,
            19.349449,
            2243
          ],
          [
            -99.145538,
            19.349704,
            2242.75
          ],
          [
            -99.145558,
            19.349987,
            2242.5
          ],
          [
            -99.145569,
            19.350345,
            2242.5
          ],
          [
            -99.145559,
            19.35066,
            2242.5
          ],
          [
            -99.145539,
            19.350919,
            2242.75
          ],
          [
            -99.14548,
            19.351374,
            2244.5
          ],
          [
            -99.145401,
            19.351784,
            2245.25
          ],
          [
            -99.145357,
            19.351979,
            2245
          ],
          [
            -99.145288,
            19.352225,
            2244.5
          ],
          [
            -99.145191,
            19.352518,
            2243.75
          ],
          [
            -99.144733,
            19.354,
            2244.75
          ],
          [
            -99.144612,
            19.354429,
            2244.5
          ],
          [
            -99.144372,
            19.355219,
            2243.75
          ],
          [
            -99.144123,
            19.356095,
            2243.75
          ],
          [
            -99.143912,
            19.356998,
            2243.5
          ],
          [
            -99.143798,
            19.357471,
            2244
          ],
          [
            -99.14337,
            19.359365,
            2242
          ],
          [
            -99.143251,
            19.359869,
            2241.75
          ],
          [
            -99.142871,
            19.361942,
            2243
          ],
          [
            -99.142727,
            19.362736,
            2243
          ],
          [
            -99.142509,
            19.364089,
            2243.75
          ],
          [
            -99.14201,
            19.367017,
            2241
          ],
          [
            -99.141863,
            19.367913,
            2242.5
          ],
          [
            -99.141757,
            19.368619,
            2243
          ],
          [
            -99.14165,
            19.369177,
            2240.75
          ],
          [
            -99.14156,
            19.369769,
            2241.25
          ],
          [
            -99.141411,
            19.370738,
            2239.75
          ],
          [
            -99.141339,
            19.37127,
            2239.5
          ],
          [
            -99.140813,
            19.374779,
            2242.75
          ],
          [
            -99.140677,
            19.375838,
            2240.75
          ],
          [
            -99.140554,
            19.376862,
            2238.75
          ],
          [
            -99.140407,
            19.377956,
            2238.5
          ],
          [
            -99.140262,
            19.378793,
            2237.5
          ],
          [
            -99.140019,
            19.380347,
            2241
          ],
          [
            -99.139977,
            19.380665,
            2242.75
          ],
          [
            -99.139669,
            19.382685,
            2238.25
          ],
          [
            -99.139428,
            19.384333,
            2238.25
          ],
          [
            -99.139127,
            19.386289,
            2238
          ],
          [
            -99.139033,
            19.386836,
            2238
          ],
          [
            -99.138794,
            19.388391,
            2237.75
          ],
          [
            -99.138748,
            19.388791,
            2238
          ],
          [
            -99.138695,
            19.389174,
            2238
          ],
          [
            -99.137955,
            19.394098,
            2237
          ],
          [
            -99.1379,
            19.394402,
            2237.25
          ],
          [
            -99.137646,
            19.395957,
            2238.5
          ],
          [
            -99.137462,
            19.397166,
            2238.5
          ],
          [
            -99.137252,
            19.398458,
            2240.25
          ],
          [
            -99.136971,
            19.400116,
            2238.25
          ],
          [
            -99.136721,
            19.401722,
            2237
          ],
          [
            -99.136684,
            19.402069,
            2237
          ],
          [
            -99.136496,
            19.403284,
            2238.25
          ],
          [
            -99.136461,
            19.403517,
            2238.75
          ],
          [
            -99.136095,
            19.405881,
            2240.25
          ],
          [
            -99.135698,
            19.40842,
            2237.25
          ],
          [
            -99.135588,
            19.409189,
            2238.5
          ],
          [
            -99.135417,
            19.410175,
            2238.25
          ],
          [
            -99.135343,
            19.410719,
            2238.5
          ],
          [
            -99.134646,
            19.415184,
            2238
          ],
          [
            -99.134522,
            19.416037,
            2240
          ],
          [
            -99.13433,
            19.417165,
            2240
          ],
          [
            -99.134241,
            19.417827,
            2239.25
          ],
          [
            -99.134003,
            19.419323,
            2238.25
          ],
          [
            -99.133955,
            19.419595,
            2238.25
          ],
          [
            -99.133913,
            19.419748,
            2238
          ],
          [
            -99.13385,
            19.419906,
            2238
          ],
          [
            -99.133772,
            19.42002,
            2238
          ],
          [
            -99.13368,
            19.420127,
            2238
          ],
          [
            -99.133012,
            19.420756,
            2237.5
          ],
          [
            -99.13293,
            19.420864,
            2237.25
          ],
          [
            -99.132874,
            19.420975,
            2237.25
          ],
          [
            -99.132842,
            19.421085,
            2237.25
          ],
          [
            -99.132832,
            19.421221,
            2237.25
          ],
          [
            -99.132829,
            19.422257,
            2237.25
          ],
          [
            -99.132828,
            19.422805,
            2237.5
          ],
          [
            -99.132913,
            19.42467,
            2238
          ],
          [
            -99.132952,
            19.425809,
            2238.25
          ],
          [
            -99.132967,
            19.426032,
            2238.25
          ],
          [
            -99.132974,
            19.426251,
            2238.25
          ],
          [
            -99.132968,
            19.426486,
            2238.5
          ],
          [
            -99.132768,
            19.427756
          ],
          [
            -99.132554,
            19.429059
          ],
          [
            -99.132322,
            19.430728
          ],
          [
            -99.132316,
            19.430911
          ],
          [
            -99.13232,
            19.431812
          ],
          [
            -99.132306,
            19.431978
          ],
          [
            -99.132245,
            19.4325
          ],
          [
            -99.132178,
            19.433115
          ],
          [
            -99.132184,
            19.433905
          ],
          [
            -99.132222,
            19.434267
          ],
          [
            -99.132238,
            19.434348
          ],
          [
            -99.132294,
            19.434504
          ],
          [
            -99.132332,
            19.434577
          ],
          [
            -99.132377,
            19.434647
          ],
          [
            -99.132428,
            19.434712
          ],
          [
            -99.132488,
            19.434775
          ],
          [
            -99.132554,
            19.434832
          ],
          [
            -99.132625,
            19.434883
          ],
          [
            -99.132701,
            19.434926
          ],
          [
            -99.13278,
            19.434962
          ],
          [
            -99.132863,
            19.434989
          ],
          [
            -99.132948,
            19.435009
          ],
          [
            -99.13469,
            19.435255
          ],
          [
            -99.135723,
            19.435353
          ],
          [
            -99.136884,
            19.435528
          ],
          [
            -99.13859,
            19.43575
          ],
          [
            -99.139936,
            19.435983
          ],
          [
            -99.141122,
            19.436167
          ],
          [
            -99.142919,
            19.436606
          ],
          [
            -99.144401,
            19.436871
          ],
          [
            -99.147135,
            19.437504
          ],
          [
            -99.148689,
            19.437812
          ],
          [
            -99.153147,
            19.438775
          ],
          [
            -99.153899,
            19.439057
          ],
          [
            -99.160703,
            19.441905
          ],
          [
            -99.161606,
            19.44228
          ],
          [
            -99.162081,
            19.442454
          ],
          [
            -99.162564,
            19.442597
          ],
          [
            -99.164997,
            19.443153
          ],
          [
            -99.167361,
            19.44455
          ],
          [
            -99.169333,
            19.445686
          ],
          [
            -99.17181,
            19.449233
          ],
          [
            -99.173301,
            19.451368
          ],
          [
            -99.175462,
            19.45286
          ],
          [
            -99.175497,
            19.452884
          ],
          [
            -99.177516,
            19.45428
          ],
          [
            -99.179058,
            19.45566
          ],
          [
            -99.180399,
            19.456363
          ],
          [
            -99.181494,
            19.457228
          ],
          [
            -99.182348,
            19.457893
          ],
          [
            -99.182525,
            19.457985
          ],
          [
            -99.182789,
            19.458092
          ],
          [
            -99.183104,
            19.458164
          ],
          [
            -99.188255,
            19.459423
          ],
          [
            -99.190009,
            19.459827
          ],
          [
            -99.190355,
            19.459889
          ],
          [
            -99.190662,
            19.459915
          ],
          [
            -99.19105,
            19.459885
          ],
          [
            -99.191574,
            19.459737
          ],
          [
            -99.192142,
            19.459666
          ],
          [
            -99.193026,
            19.459693
          ],
          [
            -99.193395,
            19.459694
          ],
          [
            -99.194038,
            19.459604
          ],
          [
            -99.194969,
            19.459365
          ],
          [
            -99.195579,
            19.459221
          ],
          [
            -99.197116,
            19.458896
          ],
          [
            -99.19773,
            19.458772
          ],
          [
            -99.198872,
            19.45854
          ],
          [
            -99.200765,
            19.45817
          ],
          [
            -99.200988,
            19.458164
          ],
          [
            -99.201275,
            19.458177
          ],
          [
            -99.201486,
            19.45821
          ],
          [
            -99.201904,
            19.458314
          ],
          [
            -99.203043,
            19.458681
          ],
          [
            -99.20393,
            19.458957
          ],
          [
            -99.207931,
            19.460068
          ],
          [
            -99.209813,
            19.460604
          ],
          [
            -99.210199,
            19.460729
          ],
          [
            -99.210553,
            19.460886
          ],
          [
            -99.210613,
            19.460919
          ],
          [
            -99.210776,
            19.461009
          ],
          [
            -99.210937,
            19.461107
          ],
          [
            -99.211095,
            19.461219
          ],
          [
            -99.211247,
            19.461338
          ],
          [
            -99.211373,
            19.461451
          ],
          [
            -99.212219,
            19.462253
          ],
          [
            -99.212416,
            19.462456
          ],
          [
            -99.21249,
            19.462523
          ],
          [
            -99.212645,
            19.462605
          ],
          [
            -99.212932,
            19.462695
          ],
          [
            -99.213018,
            19.462728
          ],
          [
            -99.213796,
            19.463067
          ],
          [
            -99.213957,
            19.463124
          ],
          [
            -99.214133,
            19.463166
          ],
          [
            -99.214257,
            19.463184
          ],
          [
            -99.214406,
            19.463171
          ],
          [
            -99.21455,
            19.463138
          ],
          [
            -99.214675,
            19.463092
          ],
          [
            -99.214784,
            19.463028
          ],
          [
            -99.214925,
            19.462935
          ],
          [
            -99.21505,
            19.462821
          ],
          [
            -99.215159,
            19.462671
          ],
          [
            -99.215229,
            19.46254
          ],
          [
            -99.215724,
            19.461143
          ],
          [
            -99.215801,
            19.460948
          ],
          [
            -99.21587,
            19.460745
          ],
          [
            -99.215941,
            19.460505
          ],
          [
            -99.215965,
            19.460383
          ],
          [
            -99.215983,
            19.460202
          ],
          [
            -99.215979,
            19.459569
          ],
          [
            -99.215965,
            19.458512
          ]
        ]
      }
    }
  ]
}