{
  "type": "FeatureCollection",
  "features": [
    {
      "type": "Feature",
      "properties": {
        "creator": "BRouter-1.7.9",
        "name": "[STC] Línea 9",
        "track-length": "26282",
        "filtered ascend": "3",
        "plain-ascend": "1",
        "total-time": "2102",
        "total-energy": "1156020",
        "cost": "52564",
        "messages": [
          [
            "Longitude",
            "Latitude",
            "Elevation",
            "Distance",
            "CostPerKm",
            "ElevCost",
            "TurnCost",
            "NodeCost",
            "InitialCost",
            "WayTags",
            "NodeTags",
            "Time",
            "Energy"
          ],
          [
            "-99071881",
            "19415854",
            "-8192",
            "15",
            "2000",
            "0",
            "0",
            "0",
            "0",
            "reversedirection=yes railway=subway",
            "railway=halt",
            "1",
            "659"
          ],
          [
            "-99073072",
            "19414127",
            "-8192",
            "230",
            "2000",
            "0",
            "0",
            "0",
            "0",
            "reversedirection=yes railway=subway",
            "railway=switch",
            "19",
            "10776"
          ],
          [
            "-99081825",
            "19407118",
            "-8192",
            "1313",
            "2000",
            "0",
            "0",
            "0",
            "0",
            "reversedirection=yes railway=subway",
            "railway=halt",
            "124",
            "68529"
          ],
          [
            "-99090673",
            "19408358",
            "-8192",
            "940",
            "2000",
            "0",
            "0",
            "0",
            "0",
            "reversedirection=yes railway=subway",
            "wheelchair=yes railway=halt",
            "199",
            "109875"
          ],
          [
            "-99102552",
            "19408536",
            "-8192",
            "1260",
            "2000",
            "0",
            "0",
            "0",
            "0",
            "reversedirection=yes railway=subway",
            "railway=halt",
            "300",
            "165296"
          ],
          [
            "-99108208",
            "19408477",
            "2237",
            "594",
            "2000",
            "0",
            "0",
            "0",
            "0",
            "reversedirection=yes railway=subway",
            "",
            "348",
            "191423"
          ],
          [
            "-99122389",
            "19409086",
            "2239",
            "1495",
            "2000",
            "0",
            "0",
            "0",
            "0",
            "railway=subway",
            "railway=halt",
            "467",
            "257181"
          ],
          [
            "-99134009",
            "19408452",
            "2239",
            "1221",
            "2000",
            "0",
            "0",
            "0",
            "0",
            "railway=subway",
            "railway=halt",
            "565",
            "310887"
          ],
          [
            "-99144448",
            "19407137",
            "2240",
            "1117",
            "2000",
            "0",
            "0",
            "0",
            "0",
            "railway=subway",
            "railway=station",
            "654",
            "360019"
          ],
          [
            "-99153571",
            "19406611",
            "2241",
            "960",
            "2000",
            "0",
            "0",
            "0",
            "0",
            "railway=subway",
            "estimated_crossing_class=6",
            "731",
            "402907"
          ],
          [
            "-99155018",
            "19406515",
            "-8192",
            "152",
            "2000",
            "0",
            "0",
            "0",
            "0",
            "railway=subway",
            "railway=halt",
            "743",
            "409593"
          ],
          [
            "-99168526",
            "19405903",
            "-8192",
            "1420",
            "2000",
            "0",
            "0",
            "0",
            "0",
            "railway=subway",
            "railway=station",
            "857",
            "474700"
          ],
          [
            "-99178752",
            "19406032",
            "-8192",
            "1082",
            "2000",
            "0",
            "0",
            "0",
            "0",
            "railway=subway",
            "railway=station",
            "943",
            "522292"
          ],
          [
            "-99187756",
            "19401461",
            "-8192",
            "1237",
            "2000",
            "0",
            "0",
            "0",
            "0",
            "railway=subway",
            "railway=halt",
            "1042",
            "576702"
          ],
          [
            "-99188242",
            "19400631",
            "-8192",
            "105",
            "2000",
            "0",
            "0",
            "0",
            "0",
            "railway=subway",
            "",
            "1051",
            "581321"
          ],
          [
            "-99187756",
            "19401461",
            "-8192",
            "105",
            "2000",
            "0",
            "0",
            "0",
            "0",
            "reversedirection=yes railway=subway",
            "railway=halt",
            "8",
            "4618"
          ],
          [
            "-99178752",
            "19406032",
            "-8192",
            "1237",
            "2000",
            "0",
            "0",
            "0",
            "0",
            "reversedirection=yes railway=subway",
            "railway=station",
            "107",
            "59028"
          ],
          [
            "-99168526",
            "19405903",
            "-8192",
            "1082",
            "2000",
            "0",
            "0",
            "0",
            "0",
            "reversedirection=yes railway=subway",
            "railway=station",
            "193",
            "106620"
          ],
          [
            "-99155018",
            "19406515",
            "-8192",
            "1420",
            "2000",
            "0",
            "0",
            "0",
            "0",
            "reversedirection=yes railway=subway",
            "railway=halt",
            "307",
            "169079"
          ],
          [
            "-99153571",
            "19406611",
            "2241",
            "152",
            "2000",
            "0",
            "0",
            "0",
            "0",
            "reversedirection=yes railway=subway",
            "estimated_crossing_class=6",
            "319",
            "175765"
          ],
          [
            "-99144448",
            "19407137",
            "2240",
            "960",
            "2000",
            "0",
            "0",
            "0",
            "0",
            "reversedirection=yes railway=subway",
            "railway=station",
            "396",
            "217990"
          ],
          [
            "-99134009",
            "19408452",
            "2239",
            "1117",
            "2000",
            "0",
            "0",
            "0",
            "0",
            "reversedirection=yes railway=subway",
            "railway=halt",
            "485",
            "267122"
          ],
          [
            "-99122389",
            "19409086",
            "2238",
            "1221",
            "2000",
            "0",
            "0",
            "0",
            "0",
            "reversedirection=yes railway=subway",
            "railway=halt",
            "583",
            "320828"
          ],
          [
            "-99108208",
            "19408477",
            "2237",
            "1495",
            "2000",
            "0",
            "0",
            "0",
            "0",
            "reversedirection=yes railway=subway",
            "",
            "703",
            "386230"
          ],
          [
            "-99102552",
            "19408536",
            "-8192",
            "594",
            "2000",
            "0",
            "0",
            "0",
            "0",
            "railway=subway",
            "railway=halt",
            "750",
            "412052"
          ],
          [
            "-99090673",
            "19408358",
            "-8192",
            "1260",
            "2000",
            "0",
            "0",
            "0",
            "0",
            "railway=subway",
            "wheelchair=yes railway=halt",
            "851",
            "464952"
          ],
          [
            "-99081825",
            "19407118",
            "-8192",
            "940",
            "2000",
            "0",
            "0",
            "0",
            "0",
            "railway=subway",
            "railway=halt",
            "926",
            "506170"
          ],
          [
            "-99073072",
            "19414127",
            "-8192",
            "1313",
            "2000",
            "0",
            "0",
            "0",
            "0",
            "railway=subway",
            "railway=switch",
            "1031",
            "563922"
          ],
          [
            "-99071881",
            "19415854",
            "-8192",
            "230",
            "2000",
            "0",
            "0",
            "0",
            "0",
            "railway=subway",
            "railway=halt",
            "1050",
            "574039"
          ],
          [
            "-99071808",
            "19415968",
            "-8192",
            "15",
            "2000",
            "0",
            "0",
            "0",
            "0",
            "railway=subway",
            "",
            "1051",
            "574699"
          ]
        ],
        "times": [
          0,
          1.2,
          12.56,
          14.72,
          18.32,
          19.6,
          27.52,
          32.24,
          37.6,
          48.8,
          60.8,
          67.84,
          71.44,
          73.84,
          77.44,
          89.36,
          91.76,
          93.28,
          94.88,
          96.32,
          97.6,
          98.88,
          100.48,
          102.16,
          105.36,
          107.6,
          108.88,
          110.32,
          111.76,
          122.56,
          124.64,
          135.84,
          162.96,
          175.04,
          179.44,
          198.56,
          199.84,
          211.76,
          224.08,
          244.56,
          247.44,
          251.12,
          254.08,
          258.16,
          261.2,
          264.48,
          273.52,
          285.2,
          287.44,
          290.08,
          299.04,
          300.64,
          312,
          319.04,
          326.32,
          333.2,
          348.16,
          354.32,
          356.32,
          362.56,
          364.8,
          376.8,
          381.6,
          385.36,
          393.12,
          405.12,
          420.48,
          443.36,
          447.44,
          459.52,
          462.4,
          467.76,
          471.52,
          475.6,
          501.12,
          514.32,
          565.44,
          571.6,
          574.24,
          575.6,
          576.88,
          583.6,
          585.52,
          587.6,
          613.44,
          654.8,
          731.6,
          743.76,
          744.64,
          786.16,
          789.2,
          795.68,
          800.32,
          828.8,
          854.08,
          857.36,
          861.12,
          885.68,
          919.76,
          928.56,
          933.44,
          943.92,
          952.32,
          954.24,
          956,
          957.52,
          959.36,
          960.88,
          962.4,
          964.88,
          975.2,
          979.36,
          982.48,
          984.96,
          987.84,
          989.76,
          991.52,
          994,
          999.44,
          1017.04,
          1019.44,
          1021.6,
          1023.84,
          1026.4,
          1029.6,
          1033.52,
          1037.04,
          1042.88,
          1051.28,
          1059.68,
          1065.52,
          1069.04,
          1072.96,
          1076.16,
          1078.72,
          1080.96,
          1083.12,
          1085.52,
          1103.12,
          1108.56,
          1111.04,
          1112.8,
          1114.72,
          1117.6,
          1120.08,
          1123.2,
          1127.36,
          1137.68,
          1140.16,
          1141.68,
          1143.2,
          1145.04,
          1146.56,
          1148.32,
          1150.24,
          1158.64,
          1169.12,
          1174,
          1182.8,
          1216.88,
          1241.44,
          1245.2,
          1248.48,
          1273.76,
          1302.24,
          1306.88,
          1313.36,
          1316.4,
          1357.92,
          1358.8,
          1370.96,
          1447.76,
          1489.12,
          1514.96,
          1517.04,
          1518.96,
          1525.68,
          1526.96,
          1528.32,
          1530.96,
          1537.12,
          1588.24,
          1601.44,
          1626.96,
          1631.04,
          1634.8,
          1640.16,
          1643.04,
          1655.12,
          1659.2,
          1682.08,
          1697.44,
          1709.44,
          1717.2,
          1720.96,
          1725.76,
          1737.76,
          1740,
          1746.24,
          1748.24,
          1754.4,
          1769.36,
          1776.24,
          1783.52,
          1790.56,
          1801.92,
          1803.52,
          1812.48,
          1815.12,
          1817.36,
          1829.04,
          1838.08,
          1841.36,
          1844.4,
          1848.48,
          1851.44,
          1855.12,
          1858,
          1878.48,
          1890.8,
          1902.72,
          1904,
          1923.12,
          1927.52,
          1939.6,
          1966.72,
          1977.92,
          1980,
          1990.8,
          1992.24,
          1993.68,
          1994.96,
          1997.2,
          2000.4,
          2002.08,
          2003.68,
          2004.96,
          2006.24,
          2007.68,
          2009.28,
          2010.8,
          2013.2,
          2025.12,
          2028.72,
          2031.12,
          2034.72,
          2041.76,
          2053.76,
          2064.96,
          2070.32,
          2075.04,
          2082.96,
          2084.24,
          2087.84,
          2090,
          2101.36,
          2102.56
        ]
      },
      "geometry": {
        "type": "LineString",
        "coordinates": [
          [
            -99.071808,
            19.415968,
            2237.75
          ],
          [
            -99.071881,
            19.415854,
            2237.75
          ],
          [
            -99.072562,
            19.414746,
            2237.75
          ],
          [
            -99.072716,
            19.414554,
            2237.75
          ],
          [
            -99.072984,
            19.41424,
            2237.75
          ],
          [
            -99.073072,
            19.414127,
            2237.75
          ],
          [
            -99.073574,
            19.413367,
            2237.75
          ],
          [
            -99.073864,
            19.412907,
            2237.75
          ],
          [
            -99.074203,
            19.41239,
            2237.75
          ],
          [
            -99.074888,
            19.411307,
            2237.75
          ],
          [
            -99.075635,
            19.410153,
            2237.75
          ],
          [
            -99.076093,
            19.409484,
            2237.75
          ],
          [
            -99.076367,
            19.409169,
            2237.75
          ],
          [
            -99.076561,
            19.40897,
            2237.75
          ],
          [
            -99.076862,
            19.408678,
            2237.75
          ],
          [
            -99.077891,
            19.407746,
            2237.75
          ],
          [
            -99.078102,
            19.407568,
            2237.75
          ],
          [
            -99.078243,
            19.40746,
            2237.75
          ],
          [
            -99.078396,
            19.407353,
            2237.75
          ],
          [
            -99.078536,
            19.407267,
            2237.75
          ],
          [
            -99.078666,
            19.407197,
            2237.75
          ],
          [
            -99.078808,
            19.407134,
            2237.75
          ],
          [
            -99.078982,
            19.407066,
            2237.75
          ],
          [
            -99.079176,
            19.407005,
            2237.75
          ],
          [
            -99.079544,
            19.406926,
            2237.75
          ],
          [
            -99.079809,
            19.406899,
            2237.75
          ],
          [
            -99.079963,
            19.406895,
            2237.75
          ],
          [
            -99.080131,
            19.406903,
            2237.75
          ],
          [
            -99.080303,
            19.406917,
            2237.75
          ],
          [
            -99.081577,
            19.407083,
            2237.75
          ],
          [
            -99.081825,
            19.407118,
            2237.75
          ],
          [
            -99.08314,
            19.407303,
            2237.75
          ],
          [
            -99.086329,
            19.407753,
            2237.75
          ],
          [
            -99.087751,
            19.407948,
            2237.75
          ],
          [
            -99.088271,
            19.408014,
            2237.75
          ],
          [
            -99.090523,
            19.408338,
            2237.75
          ],
          [
            -99.090673,
            19.408358,
            2237.75
          ],
          [
            -99.092079,
            19.408555,
            2237.75
          ],
          [
            -99.093529,
            19.408753,
            2237.75
          ],
          [
            -99.095942,
            19.409078,
            2237.75
          ],
          [
            -99.096284,
            19.409119,
            2237.75
          ],
          [
            -99.096716,
            19.409154,
            2237.75
          ],
          [
            -99.097071,
            19.40916,
            2237.75
          ],
          [
            -99.097553,
            19.409156,
            2237.75
          ],
          [
            -99.097918,
            19.409127,
            2237.75
          ],
          [
            -99.098306,
            19.409084,
            2237.75
          ],
          [
            -99.099367,
            19.408908,
            2237.75
          ],
          [
            -99.100727,
            19.408652,
            2237.75
          ],
          [
            -99.10099,
            19.408614,
            2237.75
          ],
          [
            -99.1013,
            19.408584,
            2237.75
          ],
          [
            -99.102361,
            19.408535,
            2237.75
          ],
          [
            -99.102552,
            19.408536,
            2237.75
          ],
          [
            -99.103902,
            19.408495,
            2237.75
          ],
          [
            -99.104741,
            19.408472,
            2237.75
          ],
          [
            -99.105604,
            19.408478,
            2237.75
          ],
          [
            -99.106426,
            19.408479,
            2237.75
          ],
          [
            -99.108208,
            19.408477,
            2237.75
          ],
          [
            -99.10894,
            19.408473,
            2237.75
          ],
          [
            -99.109181,
            19.408448,
            2237.75
          ],
          [
            -99.109923,
            19.408362,
            2238
          ],
          [
            -99.110187,
            19.408341,
            2238
          ],
          [
            -99.111618,
            19.408321,
            2238
          ],
          [
            -99.11219,
            19.408324,
            2238
          ],
          [
            -99.112639,
            19.408335,
            2238
          ],
          [
            -99.113559,
            19.408386,
            2238.25
          ],
          [
            -99.114974,
            19.408548,
            2238.25
          ],
          [
            -99.116789,
            19.408746,
            2238.5
          ],
          [
            -99.119488,
            19.409062,
            2238.75
          ],
          [
            -99.119971,
            19.409106,
            2238.75
          ],
          [
            -99.121408,
            19.409142,
            2238.75
          ],
          [
            -99.121753,
            19.40913,
            2238.75
          ],
          [
            -99.122389,
            19.409086,
            2239
          ],
          [
            -99.122838,
            19.409056,
            2239
          ],
          [
            -99.123325,
            19.409014,
            2239
          ],
          [
            -99.126363,
            19.408878,
            2239.25
          ],
          [
            -99.127936,
            19.40888,
            2239.25
          ],
          [
            -99.134009,
            19.408452,
            2239.75
          ],
          [
            -99.134736,
            19.408405,
            2239.75
          ],
          [
            -99.135051,
            19.408391,
            2240
          ],
          [
            -99.135212,
            19.408359,
            2240
          ],
          [
            -99.135355,
            19.408301,
            2240
          ],
          [
            -99.136035,
            19.407901,
            2240
          ],
          [
            -99.13624,
            19.40781,
            2240
          ],
          [
            -99.136475,
            19.407747,
            2240
          ],
          [
            -99.139535,
            19.407487,
            2240.25
          ],
          [
            -99.144448,
            19.407137,
            2240.75
          ],
          [
            -99.153571,
            19.406611,
            2241.5
          ],
          [
            -99.155018,
            19.406515
          ],
          [
            -99.155121,
            19.406517
          ],
          [
            -99.160058,
            19.406306
          ],
          [
            -99.160421,
            19.406348
          ],
          [
            -99.161185,
            19.406262
          ],
          [
            -99.16174,
            19.406239
          ],
          [
            -99.165123,
            19.406006
          ],
          [
            -99.168135,
            19.405903
          ],
          [
            -99.168526,
            19.405903
          ],
          [
            -99.168973,
            19.405889
          ],
          [
            -99.171893,
            19.405804
          ],
          [
            -99.175949,
            19.405703
          ],
          [
            -99.176994,
            19.405588
          ],
          [
            -99.177575,
            19.40563
          ],
          [
            -99.178752,
            19.406032
          ],
          [
            -99.17969,
            19.406351
          ],
          [
            -99.179907,
            19.406417
          ],
          [
            -99.180115,
            19.406441
          ],
          [
            -99.180296,
            19.406437
          ],
          [
            -99.180511,
            19.406384
          ],
          [
            -99.180674,
            19.406303
          ],
          [
            -99.180811,
            19.406189
          ],
          [
            -99.180966,
            19.405946
          ],
          [
            -99.181366,
            19.40484
          ],
          [
            -99.181572,
            19.404416
          ],
          [
            -99.181769,
            19.404122
          ],
          [
            -99.181945,
            19.403896
          ],
          [
            -99.182204,
            19.403678
          ],
          [
            -99.182392,
            19.403547
          ],
          [
            -99.18258,
            19.403465
          ],
          [
            -99.182869,
            19.403399
          ],
          [
            -99.183519,
            19.403349
          ],
          [
            -99.185615,
            19.403339
          ],
          [
            -99.185901,
            19.403308
          ],
          [
            -99.186154,
            19.403252
          ],
          [
            -99.186401,
            19.40315
          ],
          [
            -99.186629,
            19.402965
          ],
          [
            -99.186888,
            19.402697
          ],
          [
            -99.187187,
            19.402363
          ],
          [
            -99.187429,
            19.402042
          ],
          [
            -99.187756,
            19.401461
          ],
          [
            -99.188242,
            19.400631,
            2241.5
          ],
          [
            -99.187756,
            19.401461,
            2241.5
          ],
          [
            -99.187429,
            19.402042,
            2241.5
          ],
          [
            -99.187187,
            19.402363,
            2241.5
          ],
          [
            -99.186888,
            19.402697,
            2241.5
          ],
          [
            -99.186629,
            19.402965,
            2241.5
          ],
          [
            -99.186401,
            19.40315,
            2241.5
          ],
          [
            -99.186154,
            19.403252,
            2241.5
          ],
          [
            -99.185901,
            19.403308,
            2241.5
          ],
          [
            -99.185615,
            19.403339,
            2241.5
          ],
          [
            -99.183519,
            19.403349,
            2241.5
          ],
          [
            -99.182869,
            19.403399,
            2241.5
          ],
          [
            -99.18258,
            19.403465,
            2241.5
          ],
          [
            -99.182392,
            19.403547,
            2241.5
          ],
          [
            -99.182204,
            19.403678,
            2241.5
          ],
          [
            -99.181945,
            19.403896,
            2241.5
          ],
          [
            -99.181769,
            19.404122,
            2241.5
          ],
          [
            -99.181572,
            19.404416,
            2241.5
          ],
          [
            -99.181366,
            19.40484,
            2241.5
          ],
          [
            -99.180966,
            19.405946,
            2241.5
          ],
          [
            -99.180811,
            19.406189,
            2241.5
          ],
          [
            -99.180674,
            19.406303,
            2241.5
          ],
          [
            -99.180511,
            19.406384,
            2241.5
          ],
          [
            -99.180296,
            19.406437,
            2241.5
          ],
          [
            -99.180115,
            19.406441,
            2241.5
          ],
          [
            -99.179907,
            19.406417,
            2241.5
          ],
          [
            -99.17969,
            19.406351,
            2241.5
          ],
          [
            -99.178752,
            19.406032,
            2241.5
          ],
          [
            -99.177575,
            19.40563,
            2241.5
          ],
          [
            -99.176994,
            19.405588,
            2241.5
          ],
          [
            -99.175949,
            19.405703,
            2241.5
          ],
          [
            -99.171893,
            19.405804,
            2241.5
          ],
          [
            -99.168973,
            19.405889,
            2241.5
          ],
          [
            -99.168526,
            19.405903,
            2241.5
          ],
          [
            -99.168135,
            19.405903,
            2241.5
          ],
          [
            -99.165123,
            19.406006,
            2241.5
          ],
          [
            -99.16174,
            19.406239,
            2241.5
          ],
          [
            -99.161185,
            19.406262,
            2241.5
          ],
          [
            -99.160421,
            19.406348,
            2241.5
          ],
          [
            -99.160058,
            19.406306,
            2241.5
          ],
          [
            -99.155121,
            19.406517,
            2241.5
          ],
          [
            -99.155018,
            19.406515,
            2241.5
          ],
          [
            -99.153571,
            19.406611,
            2241.25
          ],
          [
            -99.144448,
            19.407137,
            2240.5
          ],
          [
            -99.139535,
            19.407487,
            2240.25
          ],
          [
            -99.136475,
            19.407747,
            2240
          ],
          [
            -99.13624,
            19.40781,
            2240
          ],
          [
            -99.136035,
            19.407901,
            2239.75
          ],
          [
            -99.135355,
            19.408301,
            2239.75
          ],
          [
            -99.135212,
            19.408359,
            2239.75
          ],
          [
            -99.135051,
            19.408391,
            2239.75
          ],
          [
            -99.134736,
            19.408405,
            2239.75
          ],
          [
            -99.134009,
            19.408452,
            2239.75
          ],
          [
            -99.127936,
            19.40888,
            2239.25
          ],
          [
            -99.126363,
            19.408878,
            2239
          ],
          [
            -99.123325,
            19.409014,
            2238.75
          ],
          [
            -99.122838,
            19.409056,
            2238.75
          ],
          [
            -99.122389,
            19.409086,
            2238.75
          ],
          [
            -99.121753,
            19.40913,
            2238.75
          ],
          [
            -99.121408,
            19.409142,
            2238.75
          ],
          [
            -99.119971,
            19.409106,
            2238.5
          ],
          [
            -99.119488,
            19.409062,
            2238.5
          ],
          [
            -99.116789,
            19.408746,
            2238.25
          ],
          [
            -99.114974,
            19.408548,
            2238.25
          ],
          [
            -99.113559,
            19.408386,
            2238
          ],
          [
            -99.112639,
            19.408335,
            2238
          ],
          [
            -99.11219,
            19.408324,
            2238
          ],
          [
            -99.111618,
            19.408321,
            2238
          ],
          [
            -99.110187,
            19.408341,
            2237.75
          ],
          [
            -99.109923,
            19.408362,
            2237.75
          ],
          [
            -99.109181,
            19.408448,
            2237.75
          ],
          [
            -99.10894,
            19.408473,
            2237.75
          ],
          [
            -99.108208,
            19.408477,
            2237.75
          ],
          [
            -99.106426,
            19.408479,
            2237.75
          ],
          [
            -99.105604,
            19.408478
          ],
          [
            -99.104741,
            19.408472
          ],
          [
            -99.103902,
            19.408495
          ],
          [
            -99.102552,
            19.408536
          ],
          [
            -99.102361,
            19.408535
          ],
          [
            -99.1013,
            19.408584
          ],
          [
            -99.10099,
            19.408614
          ],
          [
            -99.100727,
            19.408652
          ],
          [
            -99.099367,
            19.408908
          ],
          [
            -99.098306,
            19.409084
          ],
          [
            -99.097918,
            19.409127
          ],
          [
            -99.097553,
            19.409156
          ],
          [
            -99.097071,
            19.40916
          ],
          [
            -99.096716,
            19.409154
          ],
          [
            -99.096284,
            19.409119
          ],
          [
            -99.095942,
            19.409078
          ],
          [
            -99.093529,
            19.408753
          ],
          [
            -99.092079,
            19.408555
          ],
          [
            -99.090673,
            19.408358
          ],
          [
            -99.090523,
            19.408338
          ],
          [
            -99.088271,
            19.408014
          ],
          [
            -99.087751,
            19.407948
          ],
          [
            -99.086329,
            19.407753
          ],
          [
            -99.08314,
            19.407303
          ],
          [
            -99.081825,
            19.407118
          ],
          [
            -99.081577,
            19.407083
          ],
          [
            -99.080303,
            19.406917
          ],
          [
            -99.080131,
            19.406903
          ],
          [
            -99.079963,
            19.406895
          ],
          [
            -99.079809,
            19.406899
          ],
          [
            -99.079544,
            19.406926
          ],
          [
            -99.079176,
            19.407005
          ],
          [
            -99.078982,
            19.407066
          ],
          [
            -99.078808,
            19.407134
          ],
          [
            -99.078666,
            19.407197
          ],
          [
            -99.078536,
            19.407267
          ],
          [
            -99.078396,
            19.407353
          ],
          [
            -99.078243,
            19.40746
          ],
          [
            -99.078102,
            19.407568
          ],
          [
            -99.077891,
            19.407746
          ],
          [
            -99.076862,
            19.408678
          ],
          [
            -99.076561,
            19.40897
          ],
          [
            -99.076367,
            19.409169
          ],
          [
            -99.076093,
            19.409484
          ],
          [
            -99.075635,
            19.410153
          ],
          [
            -99.074888,
            19.411307
          ],
          [
            -99.074203,
            19.41239
          ],
          [
            -99.073864,
            19.412907
          ],
          [
            -99.073574,
            19.413367
          ],
          [
            -99.073072,
            19.414127
          ],
          [
            -99.072984,
            19.41424
          ],
          [
            -99.072716,
            19.414554
          ],
          [
            -99.072562,
            19.414746
          ],
          [
            -99.071881,
            19.415854
          ],
          [
            -99.071808,
            19.415968
          ]
        ]
      }
    }
  ]
}