{
  "type": "FeatureCollection",
  "features": [
    {
      "type": "Feature",
      "properties": {
        "creator": "BRouter-1.7.9",
        "name": "[STC] Línea 12",
        "track-length": "48429",
        "filtered ascend": "8",
        "plain-ascend": "0",
        "total-time": "3874",
        "total-energy": "2131076",
        "cost": "96858",
        "messages": [
          [
            "Longitude",
            "Latitude",
            "Elevation",
            "Distance",
            "CostPerKm",
            "ElevCost",
            "TurnCost",
            "NodeCost",
            "InitialCost",
            "WayTags",
            "NodeTags",
            "Time",
            "Energy"
          ],
          [
            "-99186737",
            "19375686",
            "-8192",
            "134",
            "2000",
            "0",
            "0",
            "0",
            "0",
            "railway=subway",
            "wheelchair=limited",
            "10",
            "5894"
          ],
          [
            "-99179009",
            "19373716",
            "-8192",
            "841",
            "2000",
            "0",
            "0",
            "0",
            "0",
            "railway=subway",
            "highway=traffic_signals traffic_signals:direction=backward traffic_signals=signal",
            "78",
            "42885"
          ],
          [
            "-99178810",
            "19373669",
            "-8192",
            "22",
            "2000",
            "0",
            "0",
            "0",
            "0",
            "railway=subway",
            "railway=halt",
            "79",
            "43853"
          ],
          [
            "-99177089",
            "19373258",
            "-8192",
            "186",
            "2000",
            "0",
            "0",
            "0",
            "0",
            "railway=subway",
            "railway=halt",
            "94",
            "52034"
          ],
          [
            "-99170761",
            "19371948",
            "-8192",
            "681",
            "2000",
            "0",
            "0",
            "0",
            "0",
            "railway=subway",
            "wheelchair=yes railway=halt",
            "149",
            "81988"
          ],
          [
            "-99164851",
            "19370661",
            "-8192",
            "637",
            "2000",
            "0",
            "0",
            "0",
            "0",
            "railway=subway",
            "railway=halt",
            "200",
            "110007"
          ],
          [
            "-99158781",
            "19370639",
            "-8192",
            "657",
            "2000",
            "0",
            "0",
            "0",
            "0",
            "railway=subway",
            "wheelchair=yes railway=halt",
            "252",
            "138905"
          ],
          [
            "-99151486",
            "19361356",
            "-8192",
            "1436",
            "2000",
            "0",
            "0",
            "0",
            "0",
            "railway=subway",
            "wheelchair=yes railway=station",
            "367",
            "202068"
          ],
          [
            "-99141342",
            "19359748",
            "-8192",
            "1082",
            "2000",
            "0",
            "0",
            "0",
            "0",
            "railway=subway",
            "wheelchair=yes railway=halt",
            "454",
            "249660"
          ],
          [
            "-99122685",
            "19357663",
            "-8192",
            "1974",
            "2000",
            "0",
            "0",
            "0",
            "0",
            "railway=subway",
            "wheelchair=yes railway=station",
            "611",
            "336487"
          ],
          [
            "-99106240",
            "19352791",
            "2241",
            "2046",
            "2000",
            "0",
            "0",
            "0",
            "0",
            "railway=subway",
            "railway=halt",
            "775",
            "426481"
          ],
          [
            "-99108942",
            "19336909",
            "2241",
            "1784",
            "2000",
            "0",
            "0",
            "0",
            "0",
            "railway=subway",
            "wheelchair=yes railway=station",
            "918",
            "507157"
          ],
          [
            "-99104439",
            "19328107",
            "2241",
            "1161",
            "2000",
            "0",
            "0",
            "0",
            "0",
            "railway=subway",
            "railway=station",
            "1011",
            "560873"
          ],
          [
            "-99095684",
            "19322173",
            "2241",
            "1205",
            "2000",
            "0",
            "0",
            "0",
            "0",
            "railway=subway",
            "wheelchair=yes railway=station",
            "1107",
            "613875"
          ],
          [
            "-99085893",
            "19320505",
            "2241",
            "1045",
            "2000",
            "0",
            "0",
            "0",
            "0",
            "railway=subway",
            "wheelchair=yes railway=station",
            "1191",
            "659840"
          ],
          [
            "-99074541",
            "19317635",
            "2241",
            "1253",
            "2000",
            "0",
            "0",
            "0",
            "0",
            "railway=subway",
            "railway=halt",
            "1291",
            "714953"
          ],
          [
            "-99065202",
            "19306245",
            "2241",
            "1711",
            "2000",
            "0",
            "0",
            "0",
            "0",
            "railway=subway",
            "railway=halt",
            "1428",
            "790212"
          ],
          [
            "-99064270",
            "19305929",
            "2241",
            "104",
            "2000",
            "0",
            "0",
            "0",
            "0",
            "railway=subway",
            "railway=switch",
            "1436",
            "794786"
          ],
          [
            "-99063902",
            "19305839",
            "2241",
            "39",
            "2000",
            "0",
            "0",
            "0",
            "0",
            "reversedirection=yes railway=subway",
            "railway=switch",
            "1439",
            "796501"
          ],
          [
            "-99063870",
            "19305828",
            "2241",
            "4",
            "2000",
            "0",
            "0",
            "0",
            "0",
            "reversedirection=yes railway=subway",
            "railway=switch",
            "1440",
            "796677"
          ],
          [
            "-99061266",
            "19304928",
            "2241",
            "291",
            "2000",
            "0",
            "0",
            "0",
            "0",
            "reversedirection=yes railway=subway",
            "railway=switch",
            "1463",
            "809477"
          ],
          [
            "-99061237",
            "19304918",
            "2241",
            "3",
            "2000",
            "0",
            "0",
            "0",
            "0",
            "reversedirection=yes railway=subway",
            "railway=switch",
            "1463",
            "809609"
          ],
          [
            "-99059457",
            "19304299",
            "2241",
            "199",
            "2000",
            "0",
            "0",
            "0",
            "0",
            "reversedirection=yes railway=subway",
            "railway=halt",
            "1479",
            "818362"
          ],
          [
            "-99045956",
            "19299946",
            "2241",
            "1509",
            "2000",
            "0",
            "0",
            "0",
            "0",
            "reversedirection=yes railway=subway",
            "railway=halt",
            "1600",
            "884736"
          ],
          [
            "-99033143",
            "19296862",
            "2241",
            "1541",
            "2000",
            "0",
            "0",
            "0",
            "0",
            "reversedirection=yes railway=subway",
            "",
            "1723",
            "952517"
          ],
          [
            "-99014077",
            "19285303",
            "2238",
            "2671",
            "2000",
            "0",
            "0",
            "0",
            "0",
            "railway=subway",
            "",
            "1937",
            "1065400"
          ],
          [
            "-99033143",
            "19296862",
            "2241",
            "2671",
            "2000",
            "0",
            "0",
            "0",
            "0",
            "reversedirection=yes railway=subway",
            "",
            "213",
            "118808"
          ],
          [
            "-99045956",
            "19299946",
            "2242",
            "1541",
            "2000",
            "0",
            "0",
            "0",
            "0",
            "railway=subway",
            "railway=halt",
            "336",
            "186590"
          ],
          [
            "-99059457",
            "19304299",
            "2242",
            "1509",
            "2000",
            "0",
            "0",
            "0",
            "0",
            "railway=subway",
            "railway=halt",
            "457",
            "252963"
          ],
          [
            "-99061237",
            "19304918",
            "2242",
            "199",
            "2000",
            "0",
            "0",
            "0",
            "0",
            "railway=subway",
            "railway=switch",
            "473",
            "261716"
          ],
          [
            "-99061266",
            "19304928",
            "2242",
            "3",
            "2000",
            "0",
            "0",
            "0",
            "0",
            "railway=subway",
            "railway=switch",
            "473",
            "261848"
          ],
          [
            "-99063870",
            "19305828",
            "2243",
            "291",
            "2000",
            "0",
            "0",
            "0",
            "0",
            "railway=subway",
            "railway=switch",
            "497",
            "274648"
          ],
          [
            "-99063902",
            "19305839",
            "2243",
            "4",
            "2000",
            "0",
            "0",
            "0",
            "0",
            "railway=subway",
            "railway=switch",
            "497",
            "274824"
          ],
          [
            "-99064270",
            "19305929",
            "2243",
            "39",
            "2000",
            "0",
            "0",
            "0",
            "0",
            "railway=subway",
            "railway=switch",
            "500",
            "276540"
          ],
          [
            "-99065202",
            "19306245",
            "2243",
            "104",
            "2000",
            "0",
            "0",
            "0",
            "0",
            "reversedirection=yes railway=subway",
            "railway=halt",
            "508",
            "281114"
          ],
          [
            "-99074541",
            "19317635",
            "2243",
            "1711",
            "2000",
            "0",
            "0",
            "0",
            "0",
            "reversedirection=yes railway=subway",
            "railway=halt",
            "645",
            "356373"
          ],
          [
            "-99085893",
            "19320505",
            "2243",
            "1253",
            "2000",
            "0",
            "0",
            "0",
            "0",
            "reversedirection=yes railway=subway",
            "wheelchair=yes railway=station",
            "746",
            "411486"
          ],
          [
            "-99095684",
            "19322173",
            "2244",
            "1045",
            "2000",
            "0",
            "0",
            "0",
            "0",
            "reversedirection=yes railway=subway",
            "wheelchair=yes railway=station",
            "829",
            "457451"
          ],
          [
            "-99104439",
            "19328107",
            "2244",
            "1205",
            "2000",
            "0",
            "0",
            "0",
            "0",
            "reversedirection=yes railway=subway",
            "railway=station",
            "926",
            "510453"
          ],
          [
            "-99108942",
            "19336909",
            "2245",
            "1161",
            "2000",
            "0",
            "0",
            "0",
            "0",
            "reversedirection=yes railway=subway",
            "wheelchair=yes railway=station",
            "1018",
            "561520"
          ],
          [
            "-99106240",
            "19352791",
            "2240",
            "1784",
            "2000",
            "0",
            "0",
            "0",
            "0",
            "reversedirection=yes railway=subway",
            "railway=halt",
            "1161",
            "641535"
          ],
          [
            "-99122685",
            "19357663",
            "-8192",
            "2046",
            "2000",
            "0",
            "0",
            "0",
            "0",
            "reversedirection=yes railway=subway",
            "wheelchair=yes railway=station",
            "1325",
            "729321"
          ],
          [
            "-99141342",
            "19359748",
            "-8192",
            "1974",
            "2000",
            "0",
            "0",
            "0",
            "0",
            "reversedirection=yes railway=subway",
            "wheelchair=yes railway=halt",
            "1483",
            "816148"
          ],
          [
            "-99151486",
            "19361356",
            "-8192",
            "1082",
            "2000",
            "0",
            "0",
            "0",
            "0",
            "reversedirection=yes railway=subway",
            "wheelchair=yes railway=station",
            "1569",
            "863740"
          ],
          [
            "-99154248",
            "19362392",
            "-8192",
            "324",
            "2000",
            "0",
            "0",
            "0",
            "0",
            "reversedirection=yes railway=subway",
            "",
            "1595",
            "877991"
          ],
          [
            "-99158777",
            "19370660",
            "-8192",
            "1114",
            "2000",
            "0",
            "0",
            "0",
            "0",
            "railway=subway",
            "wheelchair=yes railway=halt",
            "1684",
            "926991"
          ],
          [
            "-99164846",
            "19370681",
            "-8192",
            "654",
            "2000",
            "0",
            "0",
            "0",
            "0",
            "railway=subway",
            "railway=halt",
            "1737",
            "955757"
          ],
          [
            "-99170756",
            "19371968",
            "-8192",
            "637",
            "2000",
            "0",
            "0",
            "0",
            "0",
            "railway=subway",
            "wheelchair=yes railway=halt",
            "1788",
            "983776"
          ],
          [
            "-99177085",
            "19373279",
            "-8192",
            "681",
            "2000",
            "0",
            "0",
            "0",
            "0",
            "railway=subway",
            "railway=halt",
            "1842",
            "1013730"
          ],
          [
            "-99178805",
            "19373689",
            "-8192",
            "186",
            "2000",
            "0",
            "0",
            "0",
            "0",
            "railway=subway",
            "railway=halt",
            "1857",
            "1021911"
          ],
          [
            "-99179003",
            "19373736",
            "-8192",
            "21",
            "2000",
            "0",
            "0",
            "0",
            "0",
            "railway=subway",
            "highway=traffic_signals traffic_signals:direction=forward traffic_signals=signal",
            "1859",
            "1022835"
          ],
          [
            "-99186731",
            "19375706",
            "-8192",
            "840",
            "2000",
            "0",
            "0",
            "0",
            "0",
            "railway=subway",
            "wheelchair=limited",
            "1926",
            "1059782"
          ],
          [
            "-99187956",
            "19376051",
            "-8192",
            "134",
            "2000",
            "0",
            "0",
            "0",
            "0",
            "railway=subway",
            "",
            "1937",
            "1065676"
          ]
        ],
        "times": [
          0,
          4.16,
          10.72,
          42.88,
          78,
          79.76,
          94.64,
          107.2,
          120.16,
          132.88,
          149.12,
          173.36,
          179.68,
          200.08,
          208.8,
          210.72,
          211.6,
          212.32,
          213.92,
          216.24,
          222.8,
          223.84,
          224.88,
          226.72,
          227.52,
          229.12,
          230.32,
          233.6,
          238.64,
          252.64,
          257.84,
          264.56,
          268.16,
          269.44,
          270.96,
          273.44,
          275.12,
          284.48,
          287.12,
          299.04,
          312,
          327.52,
          329.36,
          331.28,
          334,
          339.52,
          341.6,
          343.84,
          345.44,
          348.72,
          352.4,
          367.52,
          428.08,
          443.44,
          446.24,
          454.08,
          523.04,
          543.36,
          572.32,
          612,
          619.6,
          620.16,
          621.2,
          621.84,
          623.52,
          625.6,
          626.56,
          627.52,
          628.48,
          629.52,
          630.4,
          631.28,
          632.16,
          633.04,
          661.36,
          678.56,
          686.32,
          686.88,
          687.92,
          689.36,
          690.8,
          691.52,
          706.56,
          712.4,
          718.24,
          738.4,
          740.8,
          742.16,
          743.52,
          744.88,
          746.24,
          747.6,
          748.96,
          750.32,
          751.68,
          753.04,
          754,
          754.96,
          755.92,
          756.88,
          757.68,
          758.48,
          760.08,
          762.72,
          766.16,
          775.68,
          811.04,
          849.04,
          864.48,
          881.12,
          886.48,
          893.36,
          894.8,
          896.32,
          898.32,
          918.4,
          930.4,
          933.2,
          936,
          938.72,
          967.92,
          979.36,
          980.64,
          981.92,
          983.2,
          984.64,
          987.2,
          988.4,
          990.72,
          991.92,
          994.56,
          995.92,
          997.28,
          998.64,
          1011.28,
          1028.24,
          1042.56,
          1050.4,
          1055.36,
          1056.56,
          1057.76,
          1058.96,
          1061.28,
          1063.44,
          1064.56,
          1065.68,
          1080.08,
          1080.96,
          1081.84,
          1083.6,
          1084.64,
          1085.68,
          1086.72,
          1088.72,
          1090.64,
          1092.56,
          1095.44,
          1096.4,
          1097.84,
          1107.68,
          1145.28,
          1188.16,
          1191.28,
          1214.4,
          1219.12,
          1262.48,
          1266.16,
          1269.2,
          1272.16,
          1275.12,
          1276.56,
          1279.68,
          1282,
          1291.52,
          1312.48,
          1330.8,
          1334.4,
          1341.28,
          1342.16,
          1343.04,
          1343.92,
          1344.8,
          1345.68,
          1346.56,
          1347.44,
          1348.32,
          1356.56,
          1372.32,
          1373.52,
          1374.719,
          1377.039,
          1378.159,
          1379.919,
          1381.199,
          1382.559,
          1383.679,
          1406.879,
          1410.239,
          1412.479,
          1414.719,
          1417.359,
          1421.999,
          1428.399,
          1434.799,
          1436.719,
          1437.599,
          1438.959,
          1439.839,
          1440.159,
          1440.879,
          1442.959,
          1444.319,
          1458.559,
          1460.079,
          1463.439,
          1463.679,
          1473.199,
          1479.599,
          1485.999,
          1520.159,
          1524.479,
          1528.799,
          1561.119,
          1564.559,
          1567.999,
          1571.439,
          1574.879,
          1578.319,
          1581.759,
          1593.919,
          1600.319,
          1606.719,
          1619.199,
          1621.279,
          1623.199,
          1625.439,
          1626.959,
          1629.119,
          1630.959,
          1632.639,
          1634.639,
          1636.319,
          1638.239,
          1639.679,
          1645.119,
          1647.199,
          1649.119,
          1650.319,
          1651.439,
          1652.959,
          1654.319,
          1655.919,
          1657.039,
          1658.239,
          1659.519,
          1661.439,
          1662.479,
          1663.599,
          1665.359,
          1680.079,
          1682.479,
          1683.599,
          1686.639,
          1689.439,
          1691.119,
          1723.599,
          1727.119,
          1767.519,
          1769.279,
          1771.599,
          1773.599,
          1774.799,
          1775.839,
          1776.799,
          1778.799,
          1780.559,
          1782.239,
          1783.679,
          1784.719,
          1786.479,
          1787.759,
          1796.559,
          1800.559,
          1803.759,
          1823.199,
          1826.399,
          1829.839,
          1833.359,
          1835.599,
          1838.399,
          1873.359,
          1876.159,
          1881.119,
          1883.439,
          1886.799,
          1898.079,
          1900.159,
          1901.039,
          1902.559,
          1904.399,
          1905.759,
          1907.199,
          1908.239,
          1909.759,
          1911.359,
          1912.959,
          1914.479,
          1917.599,
          1924.639,
          1930.159,
          1937.119,
          1937.279,
          1937.439,
          1944.399,
          1949.919,
          1956.959,
          1960.079,
          1961.599,
          1963.199,
          1964.799,
          1966.319,
          1967.359,
          1968.799,
          1970.159,
          1971.999,
          1973.519,
          1974.399,
          1976.479,
          1987.759,
          1991.119,
          1993.439,
          1998.399,
          2001.199,
          2036.159,
          2038.959,
          2041.199,
          2044.719,
          2048.159,
          2051.359,
          2070.799,
          2073.999,
          2077.999,
          2086.799,
          2088.079,
          2089.839,
          2090.879,
          2092.319,
          2093.999,
          2095.759,
          2097.759,
          2098.719,
          2099.759,
          2100.959,
          2102.959,
          2105.279,
          2107.039,
          2147.439,
          2150.959,
          2183.439,
          2185.119,
          2187.919,
          2190.959,
          2192.079,
          2194.479,
          2209.199,
          2210.959,
          2212.079,
          2213.119,
          2215.039,
          2216.319,
          2217.519,
          2218.639,
          2220.239,
          2221.599,
          2223.119,
          2224.239,
          2225.439,
          2227.359,
          2229.439,
          2234.879,
          2236.319,
          2238.239,
          2239.919,
          2241.919,
          2243.599,
          2245.439,
          2247.599,
          2249.119,
          2251.359,
          2253.279,
          2255.359,
          2267.839,
          2274.239,
          2280.639,
          2292.799,
          2296.239,
          2299.679,
          2303.119,
          2306.559,
          2309.999,
          2313.439,
          2345.759,
          2350.079,
          2354.399,
          2388.559,
          2394.959,
          2401.359,
          2410.879,
          2411.119,
          2414.479,
          2415.999,
          2430.239,
          2431.599,
          2433.679,
          2434.399,
          2434.719,
          2435.599,
          2436.959,
          2437.839,
          2439.759,
          2446.159,
          2452.559,
          2457.199,
          2459.839,
          2462.079,
          2464.319,
          2467.679,
          2490.879,
          2491.999,
          2493.359,
          2494.639,
          2496.399,
          2497.519,
          2499.839,
          2501.039,
          2502.239,
          2517.999,
          2526.239,
          2527.119,
          2527.999,
          2528.879,
          2529.759,
          2530.639,
          2531.519,
          2532.399,
          2533.279,
          2540.159,
          2543.759,
          2562.079,
          2583.039,
          2592.559,
          2594.879,
          2597.999,
          2599.439,
          2602.399,
          2605.359,
          2608.399,
          2612.079,
          2655.439,
          2660.159,
          2683.279,
          2686.399,
          2729.279,
          2766.879,
          2776.719,
          2778.159,
          2779.119,
          2781.999,
          2783.919,
          2785.839,
          2787.839,
          2788.879,
          2789.919,
          2790.959,
          2792.719,
          2793.599,
          2794.479,
          2808.879,
          2809.999,
          2811.119,
          2813.279,
          2815.599,
          2816.799,
          2817.999,
          2819.199,
          2824.159,
          2831.999,
          2846.319,
          2863.279,
          2875.919,
          2877.279,
          2878.639,
          2879.999,
          2882.639,
          2883.839,
          2886.159,
          2887.359,
          2889.919,
          2891.359,
          2892.639,
          2893.919,
          2895.199,
          2906.639,
          2935.839,
          2938.559,
          2941.359,
          2944.159,
          2956.159,
          2976.239,
          2978.239,
          2979.759,
          2981.199,
          2988.079,
          2993.439,
          3010.079,
          3025.519,
          3063.519,
          3098.879,
          3108.399,
          3111.839,
          3114.479,
          3116.079,
          3116.879,
          3117.679,
          3118.639,
          3119.599,
          3120.559,
          3121.519,
          3122.879,
          3124.239,
          3125.599,
          3126.959,
          3128.319,
          3129.679,
          3131.039,
          3132.399,
          3133.759,
          3136.159,
          3156.319,
          3162.159,
          3167.999,
          3183.039,
          3183.759,
          3185.199,
          3186.639,
          3187.679,
          3188.239,
          3195.999,
          3213.199,
          3241.519,
          3242.399,
          3243.279,
          3244.159,
          3245.039,
          3246.079,
          3247.039,
          3247.999,
          3248.959,
          3251.039,
          3252.719,
          3253.359,
          3254.399,
          3254.959,
          3262.559,
          3302.239,
          3331.199,
          3351.519,
          3420.479,
          3428.319,
          3431.119,
          3446.479,
          3507.039,
          3522.159,
          3525.839,
          3529.119,
          3530.719,
          3532.959,
          3533.599,
          3535.119,
          3540.559,
          3543.279,
          3545.199,
          3547.039,
          3562.559,
          3575.519,
          3587.439,
          3599.519,
          3601.279,
          3603.759,
          3604.399,
          3605.279,
          3606.559,
          3610.159,
          3616.879,
          3622.079,
          3636.079,
          3641.119,
          3644.399,
          3645.679,
          3647.359,
          3648.159,
          3648.959,
          3649.999,
          3651.039,
          3652.079,
          3658.559,
          3660.799,
          3662.319,
          3663.039,
          3663.919,
          3665.759,
          3667.679,
          3674.399,
          3694.799,
          3701.119,
          3725.359,
          3742.079,
          3754.319,
          3767.279,
          3779.839,
          3794.719,
          3796.399,
          3831.519,
          3862.479,
          3863.599,
          3870.159,
          3873.599,
          3874.319
        ]
      },
      "geometry": {
        "type": "LineString",
        "coordinates": [
          [
            -99.187963,
            19.37603,
            2240
          ],
          [
            -99.18749,
            19.375893,
            2240
          ],
          [
            -99.186737,
            19.375686,
            2240
          ],
          [
            -99.183066,
            19.374679,
            2240
          ],
          [
            -99.179009,
            19.373716,
            2240
          ],
          [
            -99.17881,
            19.373669,
            2240
          ],
          [
            -99.177089,
            19.373258,
            2240
          ],
          [
            -99.175621,
            19.373002,
            2240
          ],
          [
            -99.174115,
            19.372706,
            2240
          ],
          [
            -99.172641,
            19.372367,
            2240
          ],
          [
            -99.170761,
            19.371948,
            2240
          ],
          [
            -99.167958,
            19.371324,
            2240
          ],
          [
            -99.167219,
            19.371171,
            2240
          ],
          [
            -99.164851,
            19.370661,
            2240
          ],
          [
            -99.163845,
            19.370437,
            2240
          ],
          [
            -99.163622,
            19.370407,
            2240
          ],
          [
            -99.163515,
            19.370408,
            2240
          ],
          [
            -99.16343,
            19.370418,
            2240
          ],
          [
            -99.163247,
            19.370454,
            2240
          ],
          [
            -99.162987,
            19.370532,
            2240
          ],
          [
            -99.162291,
            19.37086,
            2240
          ],
          [
            -99.162179,
            19.370905,
            2240
          ],
          [
            -99.162064,
            19.370942,
            2240
          ],
          [
            -99.16185,
            19.370988,
            2240
          ],
          [
            -99.161753,
            19.371,
            2240
          ],
          [
            -99.161559,
            19.371007,
            2240
          ],
          [
            -99.161413,
            19.370995,
            2240
          ],
          [
            -99.161028,
            19.370946,
            2240
          ],
          [
            -99.160435,
            19.370851,
            2240
          ],
          [
            -99.158781,
            19.370639,
            2240
          ],
          [
            -99.158172,
            19.370525,
            2240
          ],
          [
            -99.15741,
            19.370296,
            2240
          ],
          [
            -99.157016,
            19.37013,
            2240
          ],
          [
            -99.156881,
            19.370066,
            2240
          ],
          [
            -99.156735,
            19.369971,
            2240
          ],
          [
            -99.15655,
            19.369758,
            2240
          ],
          [
            -99.156449,
            19.369593,
            2240
          ],
          [
            -99.156156,
            19.36857,
            2240
          ],
          [
            -99.156069,
            19.368279,
            2240
          ],
          [
            -99.155743,
            19.366968,
            2240
          ],
          [
            -99.155332,
            19.365558,
            2240
          ],
          [
            -99.154921,
            19.363847,
            2240
          ],
          [
            -99.154867,
            19.363643,
            2240
          ],
          [
            -99.154803,
            19.363436,
            2240
          ],
          [
            -99.154676,
            19.363149,
            2240
          ],
          [
            -99.154371,
            19.362601,
            2240
          ],
          [
            -99.154248,
            19.362392,
            2240
          ],
          [
            -99.154096,
            19.362179,
            2240
          ],
          [
            -99.153968,
            19.362048,
            2240
          ],
          [
            -99.153664,
            19.361822,
            2240
          ],
          [
            -99.15326,
            19.361659,
            2240
          ],
          [
            -99.151486,
            19.361356,
            2240
          ],
          [
            -99.14438,
            19.360228,
            2240
          ],
          [
            -99.142597,
            19.359857,
            2240
          ],
          [
            -99.142268,
            19.359876,
            2240
          ],
          [
            -99.141342,
            19.359748,
            2240
          ],
          [
            -99.133195,
            19.358817,
            2240
          ],
          [
            -99.130796,
            19.35857,
            2240
          ],
          [
            -99.12737,
            19.358193,
            2240
          ],
          [
            -99.122685,
            19.357663,
            2240
          ],
          [
            -99.121787,
            19.357559,
            2240
          ],
          [
            -99.121725,
            19.357559,
            2240
          ],
          [
            -99.121601,
            19.357573,
            2240
          ],
          [
            -99.121531,
            19.357588,
            2240
          ],
          [
            -99.121342,
            19.357648,
            2240
          ],
          [
            -99.121116,
            19.357738,
            2240
          ],
          [
            -99.121005,
            19.357776,
            2240
          ],
          [
            -99.120891,
            19.357806,
            2240
          ],
          [
            -99.120775,
            19.357829,
            2240
          ],
          [
            -99.120653,
            19.357845,
            2240
          ],
          [
            -99.120547,
            19.357852,
            2240
          ],
          [
            -99.12044,
            19.357851,
            2240
          ],
          [
            -99.120338,
            19.357842,
            2240
          ],
          [
            -99.120238,
            19.357827,
            2240
          ],
          [
            -99.116947,
            19.357161,
            2240
          ],
          [
            -99.114929,
            19.356854,
            2240
          ],
          [
            -99.114013,
            19.356776,
            2240
          ],
          [
            -99.113944,
            19.356766,
            2240
          ],
          [
            -99.113821,
            19.356737,
            2240
          ],
          [
            -99.113658,
            19.35668,
            2240
          ],
          [
            -99.113488,
            19.356641,
            2240
          ],
          [
            -99.113401,
            19.35663,
            2240
          ],
          [
            -99.111618,
            19.356489,
            2240
          ],
          [
            -99.110927,
            19.356447,
            2240
          ],
          [
            -99.110234,
            19.356389,
            2240
          ],
          [
            -99.107862,
            19.356083,
            2240
          ],
          [
            -99.10758,
            19.35602,
            2240
          ],
          [
            -99.107427,
            19.355965,
            2240
          ],
          [
            -99.107279,
            19.355902,
            2240
          ],
          [
            -99.107134,
            19.355832,
            2240
          ],
          [
            -99.106994,
            19.355753,
            2240
          ],
          [
            -99.10686,
            19.355668,
            2240
          ],
          [
            -99.10673,
            19.355576,
            2240
          ],
          [
            -99.106607,
            19.355477,
            2240
          ],
          [
            -99.10649,
            19.355372,
            2240
          ],
          [
            -99.106379,
            19.35526,
            2240
          ],
          [
            -99.106307,
            19.355175,
            2240
          ],
          [
            -99.106243,
            19.355085,
            2240
          ],
          [
            -99.106188,
            19.35499,
            2240
          ],
          [
            -99.106141,
            19.35489,
            2240
          ],
          [
            -99.106109,
            19.354804,
            2240
          ],
          [
            -99.106083,
            19.354717,
            2240
          ],
          [
            -99.106052,
            19.354537,
            2240
          ],
          [
            -99.106038,
            19.354241,
            2240.25
          ],
          [
            -99.106059,
            19.353852,
            2240.5
          ],
          [
            -99.10624,
            19.352791,
            2241.5
          ],
          [
            -99.10693,
            19.348856,
            2241.5
          ],
          [
            -99.107674,
            19.344619,
            2241.5
          ],
          [
            -99.108011,
            19.342903,
            2241.5
          ],
          [
            -99.108475,
            19.341072,
            2241.5
          ],
          [
            -99.108652,
            19.340489,
            2241.5
          ],
          [
            -99.108856,
            19.339732,
            2241.5
          ],
          [
            -99.108893,
            19.339572,
            2241.5
          ],
          [
            -99.10891,
            19.339401,
            2241.5
          ],
          [
            -99.108916,
            19.339179,
            2241.5
          ],
          [
            -99.108942,
            19.336909,
            2241.5
          ],
          [
            -99.108991,
            19.335559,
            2241.5
          ],
          [
            -99.108974,
            19.335242,
            2241.5
          ],
          [
            -99.108937,
            19.334929,
            2241.5
          ],
          [
            -99.108857,
            19.334636,
            2241.5
          ],
          [
            -99.107714,
            19.331524,
            2241.5
          ],
          [
            -99.107298,
            19.330294,
            2241.5
          ],
          [
            -99.107241,
            19.330157,
            2241.5
          ],
          [
            -99.107175,
            19.330023,
            2241.5
          ],
          [
            -99.107102,
            19.329892,
            2241.5
          ],
          [
            -99.107011,
            19.32975,
            2241.5
          ],
          [
            -99.106832,
            19.329517,
            2241.5
          ],
          [
            -99.106745,
            19.329413,
            2241.5
          ],
          [
            -99.106556,
            19.329216,
            2241.5
          ],
          [
            -99.106455,
            19.329125,
            2241.5
          ],
          [
            -99.106211,
            19.328935,
            2241.5
          ],
          [
            -99.106081,
            19.32885,
            2241.5
          ],
          [
            -99.105947,
            19.328772,
            2241.5
          ],
          [
            -99.105808,
            19.3287,
            2241.5
          ],
          [
            -99.104439,
            19.328107,
            2241.5
          ],
          [
            -99.102614,
            19.327299,
            2241.5
          ],
          [
            -99.101073,
            19.326599,
            2241.5
          ],
          [
            -99.100224,
            19.32623,
            2241.5
          ],
          [
            -99.0997,
            19.325973,
            2241.5
          ],
          [
            -99.099579,
            19.3259,
            2241.5
          ],
          [
            -99.099462,
            19.32582,
            2241.5
          ],
          [
            -99.099351,
            19.325733,
            2241.5
          ],
          [
            -99.099156,
            19.325551,
            2241.5
          ],
          [
            -99.098994,
            19.325359,
            2241.5
          ],
          [
            -99.098921,
            19.325257,
            2241.5
          ],
          [
            -99.098855,
            19.325151,
            2241.5
          ],
          [
            -99.098392,
            19.323585,
            2241.5
          ],
          [
            -99.098357,
            19.32349,
            2241.5
          ],
          [
            -99.098316,
            19.323398,
            2241.5
          ],
          [
            -99.098216,
            19.323221,
            2241.5
          ],
          [
            -99.098145,
            19.323121,
            2241.5
          ],
          [
            -99.098067,
            19.323026,
            2241.5
          ],
          [
            -99.097982,
            19.322936,
            2241.5
          ],
          [
            -99.097807,
            19.322782,
            2241.5
          ],
          [
            -99.097627,
            19.322654,
            2241.5
          ],
          [
            -99.097427,
            19.322544,
            2241.5
          ],
          [
            -99.097113,
            19.322418,
            2241.5
          ],
          [
            -99.097009,
            19.322385,
            2241.5
          ],
          [
            -99.096839,
            19.322349,
            2241.5
          ],
          [
            -99.095684,
            19.322173,
            2241.5
          ],
          [
            -99.091275,
            19.321444,
            2241.5
          ],
          [
            -99.086264,
            19.32056,
            2241.5
          ],
          [
            -99.085893,
            19.320505,
            2241.5
          ],
          [
            -99.083184,
            19.32003,
            2241.5
          ],
          [
            -99.082631,
            19.319949,
            2241.5
          ],
          [
            -99.077556,
            19.319071,
            2241.5
          ],
          [
            -99.077127,
            19.319003,
            2241.5
          ],
          [
            -99.076776,
            19.318934,
            2241.5
          ],
          [
            -99.076437,
            19.31884,
            2241.5
          ],
          [
            -99.076111,
            19.31872,
            2241.5
          ],
          [
            -99.075952,
            19.318651,
            2241.5
          ],
          [
            -99.075623,
            19.31848,
            2241.5
          ],
          [
            -99.075401,
            19.31833,
            2241.5
          ],
          [
            -99.074541,
            19.317635,
            2241.5
          ],
          [
            -99.072709,
            19.316025,
            2241.5
          ],
          [
            -99.07107,
            19.314668,
            2241.5
          ],
          [
            -99.070755,
            19.314387,
            2241.5
          ],
          [
            -99.070168,
            19.313849,
            2241.5
          ],
          [
            -99.070102,
            19.313773,
            2241.5
          ],
          [
            -99.070043,
            19.313693,
            2241.5
          ],
          [
            -99.069991,
            19.313608,
            2241.5
          ],
          [
            -99.069946,
            19.313516,
            2241.5
          ],
          [
            -99.069909,
            19.313421,
            2241.5
          ],
          [
            -99.06988,
            19.313323,
            2241.5
          ],
          [
            -99.069861,
            19.313223,
            2241.5
          ],
          [
            -99.069851,
            19.313122,
            2241.5
          ],
          [
            -99.069804,
            19.312197,
            2241.5
          ],
          [
            -99.06975,
            19.310415,
            2241.5
          ],
          [
            -99.069745,
            19.310279,
            2241.5
          ],
          [
            -99.069732,
            19.310145,
            2241.5
          ],
          [
            -99.069684,
            19.309891,
            2241.5
          ],
          [
            -99.06965,
            19.309772,
            2241.5
          ],
          [
            -99.069588,
            19.309585,
            2241.5
          ],
          [
            -99.069528,
            19.30945,
            2241.5
          ],
          [
            -99.069445,
            19.309316,
            2241.5
          ],
          [
            -99.069369,
            19.309216,
            2241.5
          ],
          [
            -99.06748,
            19.307312,
            2241.5
          ],
          [
            -99.067179,
            19.307057,
            2241.5
          ],
          [
            -99.066964,
            19.306902,
            2241.5
          ],
          [
            -99.066724,
            19.306788,
            2241.5
          ],
          [
            -99.066433,
            19.306675,
            2241.5
          ],
          [
            -99.065916,
            19.306491,
            2241.5
          ],
          [
            -99.065202,
            19.306245,
            2241.5
          ],
          [
            -99.064487,
            19.305999,
            2241.5
          ],
          [
            -99.06427,
            19.305929,
            2241.5
          ],
          [
            -99.064166,
            19.305899,
            2241.5
          ],
          [
            -99.064004,
            19.305867,
            2241.5
          ],
          [
            -99.063902,
            19.305839,
            2241.5
          ],
          [
            -99.06387,
            19.305828,
            2241.5
          ],
          [
            -99.063784,
            19.305803,
            2241.5
          ],
          [
            -99.063544,
            19.30575,
            2241.5
          ],
          [
            -99.06339,
            19.305705,
            2241.5
          ],
          [
            -99.061795,
            19.305155,
            2241.5
          ],
          [
            -99.06163,
            19.305092,
            2241.5
          ],
          [
            -99.061266,
            19.304928,
            2241.5
          ],
          [
            -99.061237,
            19.304918,
            2241.5
          ],
          [
            -99.06017,
            19.304545,
            2241.5
          ],
          [
            -99.059457,
            19.304299,
            2241.5
          ],
          [
            -99.058744,
            19.304053,
            2241.5
          ],
          [
            -99.054924,
            19.302734,
            2241.5
          ],
          [
            -99.054448,
            19.302555,
            2241.5
          ],
          [
            -99.05398,
            19.302357,
            2241.5
          ],
          [
            -99.050504,
            19.300803,
            2241.5
          ],
          [
            -99.05013,
            19.300643,
            2241.5
          ],
          [
            -99.049748,
            19.300505,
            2241.5
          ],
          [
            -99.049358,
            19.300388,
            2241.5
          ],
          [
            -99.048961,
            19.300292,
            2241.5
          ],
          [
            -99.04856,
            19.300217,
            2241.5
          ],
          [
            -99.048154,
            19.300165,
            2241.5
          ],
          [
            -99.046711,
            19.300021,
            2241.5
          ],
          [
            -99.045956,
            19.299946,
            2241.5
          ],
          [
            -99.045201,
            19.29987,
            2241.5
          ],
          [
            -99.043726,
            19.299736,
            2241.5
          ],
          [
            -99.043478,
            19.299702,
            2241.5
          ],
          [
            -99.043258,
            19.299652,
            2241.5
          ],
          [
            -99.043005,
            19.299565,
            2241.5
          ],
          [
            -99.042845,
            19.299491,
            2241.5
          ],
          [
            -99.04263,
            19.299363,
            2241.5
          ],
          [
            -99.042462,
            19.299233,
            2241.5
          ],
          [
            -99.042323,
            19.299092,
            2241.5
          ],
          [
            -99.042183,
            19.29891,
            2241.5
          ],
          [
            -99.042081,
            19.298743,
            2241.5
          ],
          [
            -99.041986,
            19.298546,
            2241.5
          ],
          [
            -99.041927,
            19.298398,
            2241.5
          ],
          [
            -99.041733,
            19.29781,
            2241.5
          ],
          [
            -99.041647,
            19.297587,
            2241.5
          ],
          [
            -99.041548,
            19.297394,
            2241.5
          ],
          [
            -99.041476,
            19.297281,
            2241.5
          ],
          [
            -99.041402,
            19.297179,
            2241.5
          ],
          [
            -99.041289,
            19.297046,
            2241.5
          ],
          [
            -99.041176,
            19.296936,
            2241.5
          ],
          [
            -99.041033,
            19.296819,
            2241.5
          ],
          [
            -99.040925,
            19.296745,
            2241.5
          ],
          [
            -99.040801,
            19.296676,
            2241.5
          ],
          [
            -99.040661,
            19.296612,
            2241.5
          ],
          [
            -99.040449,
            19.296538,
            2241.5
          ],
          [
            -99.040331,
            19.296507,
            2241.5
          ],
          [
            -99.040204,
            19.296479,
            2241.5
          ],
          [
            -99.039998,
            19.296445,
            2241.5
          ],
          [
            -99.038259,
            19.296228,
            2241.5
          ],
          [
            -99.037975,
            19.296204,
            2241.5
          ],
          [
            -99.037844,
            19.2962,
            2241.5
          ],
          [
            -99.037487,
            19.296205,
            2241.5
          ],
          [
            -99.037154,
            19.296227,
            2241.5
          ],
          [
            -99.036952,
            19.296251,
            2241.5
          ],
          [
            -99.033143,
            19.296862,
            2241.5
          ],
          [
            -99.032721,
            19.296891,
            2241.5
          ],
          [
            -99.027988,
            19.297653,
            2241.5
          ],
          [
            -99.027782,
            19.297684,
            2241.5
          ],
          [
            -99.027508,
            19.297702,
            2241.5
          ],
          [
            -99.027274,
            19.297693,
            2241.5
          ],
          [
            -99.027137,
            19.297675,
            2241.5
          ],
          [
            -99.027015,
            19.29765,
            2241.5
          ],
          [
            -99.026907,
            19.29762,
            2241.5
          ],
          [
            -99.026689,
            19.297538,
            2241.5
          ],
          [
            -99.026507,
            19.297448,
            2241.5
          ],
          [
            -99.026343,
            19.29734,
            2241.5
          ],
          [
            -99.026211,
            19.297233,
            2241.5
          ],
          [
            -99.026121,
            19.297147,
            2241.5
          ],
          [
            -99.025982,
            19.296994,
            2241.5
          ],
          [
            -99.025889,
            19.296874,
            2241.5
          ],
          [
            -99.025332,
            19.296036,
            2241.5
          ],
          [
            -99.025085,
            19.295645,
            2241.5
          ],
          [
            -99.024874,
            19.295349,
            2241.5
          ],
          [
            -99.023518,
            19.293568,
            2241.5
          ],
          [
            -99.023289,
            19.293285,
            2241.75
          ],
          [
            -99.023015,
            19.292993,
            2240.25
          ],
          [
            -99.02271,
            19.292716,
            2239
          ],
          [
            -99.022506,
            19.29256,
            2238
          ],
          [
            -99.022235,
            19.292377,
            2238.5
          ],
          [
            -99.018802,
            19.290147,
            2238
          ],
          [
            -99.018519,
            19.289974,
            2238.5
          ],
          [
            -99.018003,
            19.289704,
            2239.25
          ],
          [
            -99.017752,
            19.289595,
            2239.25
          ],
          [
            -99.017383,
            19.289458,
            2239.5
          ],
          [
            -99.016109,
            19.289046,
            2238.25
          ],
          [
            -99.015878,
            19.288962,
            2239.25
          ],
          [
            -99.015781,
            19.288918,
            2239.75
          ],
          [
            -99.015622,
            19.288829,
            2240.5
          ],
          [
            -99.015443,
            19.288707,
            2241.25
          ],
          [
            -99.015319,
            19.28861,
            2241.75
          ],
          [
            -99.0152,
            19.288492,
            2241.75
          ],
          [
            -99.015125,
            19.288403,
            2241.75
          ],
          [
            -99.015022,
            19.288258,
            2241.5
          ],
          [
            -99.01493,
            19.288104,
            2241
          ],
          [
            -99.014852,
            19.287944,
            2240.5
          ],
          [
            -99.014789,
            19.287784,
            2240.25
          ],
          [
            -99.014679,
            19.287445,
            2240.25
          ],
          [
            -99.014526,
            19.286661,
            2242
          ],
          [
            -99.014329,
            19.286065,
            2241.5
          ],
          [
            -99.014082,
            19.285317,
            2239.5
          ],
          [
            -99.014077,
            19.285303,
            2238.25
          ],
          [
            -99.014082,
            19.285317,
            2239.5
          ],
          [
            -99.014329,
            19.286065,
            2241.5
          ],
          [
            -99.014526,
            19.286661,
            2242
          ],
          [
            -99.014679,
            19.287445,
            2240.25
          ],
          [
            -99.014789,
            19.287784,
            2240.25
          ],
          [
            -99.014852,
            19.287944,
            2240.5
          ],
          [
            -99.01493,
            19.288104,
            2241
          ],
          [
            -99.015022,
            19.288258,
            2241.5
          ],
          [
            -99.015125,
            19.288403,
            2241.75
          ],
          [
            -99.0152,
            19.288492,
            2241.75
          ],
          [
            -99.015319,
            19.28861,
            2241.75
          ],
          [
            -99.015443,
            19.288707,
            2241.25
          ],
          [
            -99.015622,
            19.288829,
            2240.5
          ],
          [
            -99.015781,
            19.288918,
            2239.75
          ],
          [
            -99.015878,
            19.288962,
            2239.25
          ],
          [
            -99.016109,
            19.289046,
            2238.25
          ],
          [
            -99.017383,
            19.289458,
            2239.5
          ],
          [
            -99.017752,
            19.289595,
            2239.25
          ],
          [
            -99.018003,
            19.289704,
            2239.25
          ],
          [
            -99.018519,
            19.289974,
            2238.5
          ],
          [
            -99.018802,
            19.290147,
            2238
          ],
          [
            -99.022235,
            19.292377,
            2238.5
          ],
          [
            -99.022506,
            19.29256,
            2238
          ],
          [
            -99.02271,
            19.292716,
            2239
          ],
          [
            -99.023015,
            19.292993,
            2240.25
          ],
          [
            -99.023289,
            19.293285,
            2241.75
          ],
          [
            -99.023518,
            19.293568,
            2241.5
          ],
          [
            -99.024874,
            19.295349,
            2241.5
          ],
          [
            -99.025085,
            19.295645,
            2241.5
          ],
          [
            -99.025332,
            19.296036,
            2241.5
          ],
          [
            -99.025889,
            19.296874,
            2241.5
          ],
          [
            -99.025982,
            19.296994,
            2241.5
          ],
          [
            -99.026121,
            19.297147,
            2241.5
          ],
          [
            -99.026211,
            19.297233,
            2241.5
          ],
          [
            -99.026343,
            19.29734,
            2241.5
          ],
          [
            -99.026507,
            19.297448,
            2241.5
          ],
          [
            -99.026689,
            19.297538,
            2241.5
          ],
          [
            -99.026907,
            19.29762,
            2241.5
          ],
          [
            -99.027015,
            19.29765,
            2241.5
          ],
          [
            -99.027137,
            19.297675,
            2241.5
          ],
          [
            -99.027274,
            19.297693,
            2241.5
          ],
          [
            -99.027508,
            19.297702,
            2241.5
          ],
          [
            -99.027782,
            19.297684,
            2241.5
          ],
          [
            -99.027988,
            19.297653,
            2241.5
          ],
          [
            -99.032721,
            19.296891,
            2241.75
          ],
          [
            -99.033143,
            19.296862,
            2241.75
          ],
          [
            -99.036952,
            19.296251,
            2242
          ],
          [
            -99.037154,
            19.296227,
            2242
          ],
          [
            -99.037487,
            19.296205,
            2242
          ],
          [
            -99.037844,
            19.2962,
            2242
          ],
          [
            -99.037975,
            19.296204,
            2242
          ],
          [
            -99.038259,
            19.296228,
            2242
          ],
          [
            -99.039998,
            19.296445,
            2242
          ],
          [
            -99.040204,
            19.296479,
            2242
          ],
          [
            -99.040331,
            19.296507,
            2242
          ],
          [
            -99.040449,
            19.296538,
            2242
          ],
          [
            -99.040661,
            19.296612,
            2242
          ],
          [
            -99.040801,
            19.296676,
            2242
          ],
          [
            -99.040925,
            19.296745,
            2242
          ],
          [
            -99.041033,
            19.296819,
            2242
          ],
          [
            -99.041176,
            19.296936,
            2242
          ],
          [
            -99.041289,
            19.297046,
            2242
          ],
          [
            -99.041402,
            19.297179,
            2242
          ],
          [
            -99.041476,
            19.297281,
            2242
          ],
          [
            -99.041548,
            19.297394,
            2242
          ],
          [
            -99.041647,
            19.297587,
            2242
          ],
          [
            -99.041733,
            19.29781,
            2242
          ],
          [
            -99.041927,
            19.298398,
            2242
          ],
          [
            -99.041986,
            19.298546,
            2242
          ],
          [
            -99.042081,
            19.298743,
            2242
          ],
          [
            -99.042183,
            19.29891,
            2242
          ],
          [
            -99.042323,
            19.299092,
            2242.25
          ],
          [
            -99.042462,
            19.299233,
            2242.25
          ],
          [
            -99.04263,
            19.299363,
            2242.25
          ],
          [
            -99.042845,
            19.299491,
            2242.25
          ],
          [
            -99.043005,
            19.299565,
            2242.25
          ],
          [
            -99.043258,
            19.299652,
            2242.25
          ],
          [
            -99.043478,
            19.299702,
            2242.25
          ],
          [
            -99.043726,
            19.299736,
            2242.25
          ],
          [
            -99.045201,
            19.29987,
            2242.25
          ],
          [
            -99.045956,
            19.299946,
            2242.25
          ],
          [
            -99.046711,
            19.300021,
            2242.25
          ],
          [
            -99.048154,
            19.300165,
            2242.25
          ],
          [
            -99.04856,
            19.300217,
            2242.25
          ],
          [
            -99.048961,
            19.300292,
            2242.25
          ],
          [
            -99.049358,
            19.300388,
            2242.25
          ],
          [
            -99.049748,
            19.300505,
            2242.5
          ],
          [
            -99.05013,
            19.300643,
            2242.5
          ],
          [
            -99.050504,
            19.300803,
            2242.5
          ],
          [
            -99.05398,
            19.302357,
            2242.5
          ],
          [
            -99.054448,
            19.302555,
            2242.5
          ],
          [
            -99.054924,
            19.302734,
            2242.5
          ],
          [
            -99.058744,
            19.304053,
            2242.75
          ],
          [
            -99.059457,
            19.304299,
            2242.75
          ],
          [
            -99.06017,
            19.304545,
            2242.75
          ],
          [
            -99.061237,
            19.304918,
            2242.75
          ],
          [
            -99.061266,
            19.304928,
            2242.75
          ],
          [
            -99.06163,
            19.305092,
            2242.75
          ],
          [
            -99.061795,
            19.305155,
            2242.75
          ],
          [
            -99.06339,
            19.305705,
            2242.75
          ],
          [
            -99.063544,
            19.30575,
            2243
          ],
          [
            -99.063784,
            19.305803,
            2243
          ],
          [
            -99.06387,
            19.305828,
            2243
          ],
          [
            -99.063902,
            19.305839,
            2243
          ],
          [
            -99.064004,
            19.305867,
            2243
          ],
          [
            -99.064166,
            19.305899,
            2243
          ],
          [
            -99.06427,
            19.305929,
            2243
          ],
          [
            -99.064487,
            19.305999,
            2243
          ],
          [
            -99.065202,
            19.306245,
            2243
          ],
          [
            -99.065916,
            19.306491,
            2243
          ],
          [
            -99.066433,
            19.306675,
            2243
          ],
          [
            -99.066724,
            19.306788,
            2243
          ],
          [
            -99.066964,
            19.306902,
            2243
          ],
          [
            -99.067179,
            19.307057,
            2243
          ],
          [
            -99.06748,
            19.307312,
            2243
          ],
          [
            -99.069369,
            19.309216,
            2243
          ],
          [
            -99.069445,
            19.309316,
            2243
          ],
          [
            -99.069528,
            19.30945,
            2243
          ],
          [
            -99.069588,
            19.309585,
            2243.25
          ],
          [
            -99.06965,
            19.309772,
            2243.25
          ],
          [
            -99.069684,
            19.309891,
            2243.25
          ],
          [
            -99.069732,
            19.310145,
            2243.25
          ],
          [
            -99.069745,
            19.310279,
            2243.25
          ],
          [
            -99.06975,
            19.310415,
            2243.25
          ],
          [
            -99.069804,
            19.312197,
            2243.25
          ],
          [
            -99.069851,
            19.313122,
            2243.25
          ],
          [
            -99.069861,
            19.313223,
            2243.25
          ],
          [
            -99.06988,
            19.313323,
            2243.25
          ],
          [
            -99.069909,
            19.313421,
            2243.25
          ],
          [
            -99.069946,
            19.313516,
            2243.25
          ],
          [
            -99.069991,
            19.313608,
            2243.25
          ],
          [
            -99.070043,
            19.313693,
            2243.25
          ],
          [
            -99.070102,
            19.313773,
            2243.25
          ],
          [
            -99.070168,
            19.313849,
            2243.25
          ],
          [
            -99.070755,
            19.314387,
            2243.25
          ],
          [
            -99.07107,
            19.314668,
            2243.25
          ],
          [
            -99.072709,
            19.316025,
            2243.5
          ],
          [
            -99.074541,
            19.317635,
            2243.5
          ],
          [
            -99.075401,
            19.31833,
            2243.5
          ],
          [
            -99.075623,
            19.31848,
            2243.5
          ],
          [
            -99.075952,
            19.318651,
            2243.5
          ],
          [
            -99.076111,
            19.31872,
            2243.5
          ],
          [
            -99.076437,
            19.31884,
            2243.5
          ],
          [
            -99.076776,
            19.318934,
            2243.5
          ],
          [
            -99.077127,
            19.319003,
            2243.5
          ],
          [
            -99.077556,
            19.319071,
            2243.5
          ],
          [
            -99.082631,
            19.319949,
            2243.75
          ],
          [
            -99.083184,
            19.32003,
            2243.75
          ],
          [
            -99.085893,
            19.320505,
            2243.75
          ],
          [
            -99.086264,
            19.32056,
            2244
          ],
          [
            -99.091275,
            19.321444,
            2244
          ],
          [
            -99.095684,
            19.322173,
            2244.25
          ],
          [
            -99.096839,
            19.322349,
            2244.25
          ],
          [
            -99.097009,
            19.322385,
            2244.25
          ],
          [
            -99.097113,
            19.322418,
            2244.25
          ],
          [
            -99.097427,
            19.322544,
            2244.25
          ],
          [
            -99.097627,
            19.322654,
            2244.25
          ],
          [
            -99.097807,
            19.322782,
            2244.25
          ],
          [
            -99.097982,
            19.322936,
            2244.25
          ],
          [
            -99.098067,
            19.323026,
            2244.25
          ],
          [
            -99.098145,
            19.323121,
            2244.25
          ],
          [
            -99.098216,
            19.323221,
            2244.25
          ],
          [
            -99.098316,
            19.323398,
            2244.25
          ],
          [
            -99.098357,
            19.32349,
            2244.25
          ],
          [
            -99.098392,
            19.323585,
            2244.25
          ],
          [
            -99.098855,
            19.325151,
            2244.25
          ],
          [
            -99.098921,
            19.325257,
            2244.25
          ],
          [
            -99.098994,
            19.325359,
            2244.5
          ],
          [
            -99.099156,
            19.325551,
            2244.5
          ],
          [
            -99.099351,
            19.325733,
            2244.5
          ],
          [
            -99.099462,
            19.32582,
            2244.5
          ],
          [
            -99.099579,
            19.3259,
            2244.5
          ],
          [
            -99.0997,
            19.325973,
            2244.5
          ],
          [
            -99.100224,
            19.32623,
            2244.5
          ],
          [
            -99.101073,
            19.326599,
            2244.5
          ],
          [
            -99.102614,
            19.327299,
            2244.5
          ],
          [
            -99.104439,
            19.328107,
            2244.5
          ],
          [
            -99.105808,
            19.3287,
            2244.75
          ],
          [
            -99.105947,
            19.328772,
            2244.75
          ],
          [
            -99.106081,
            19.32885,
            2244.75
          ],
          [
            -99.106211,
            19.328935,
            2244.75
          ],
          [
            -99.106455,
            19.329125,
            2244.75
          ],
          [
            -99.106556,
            19.329216,
            2244.75
          ],
          [
            -99.106745,
            19.329413,
            2244.75
          ],
          [
            -99.106832,
            19.329517,
            2244.75
          ],
          [
            -99.107011,
            19.32975,
            2244.75
          ],
          [
            -99.107102,
            19.329892,
            2244.75
          ],
          [
            -99.107175,
            19.330023,
            2244.75
          ],
          [
            -99.107241,
            19.330157,
            2244.75
          ],
          [
            -99.107298,
            19.330294,
            2244.75
          ],
          [
            -99.107714,
            19.331524,
            2244.75
          ],
          [
            -99.108857,
            19.334636,
            2244.75
          ],
          [
            -99.108937,
            19.334929,
            2245
          ],
          [
            -99.108974,
            19.335242,
            2245
          ],
          [
            -99.108991,
            19.335559,
            2245
          ],
          [
            -99.108942,
            19.336909,
            2245
          ],
          [
            -99.108916,
            19.339179,
            2245
          ],
          [
            -99.10891,
            19.339401,
            2245
          ],
          [
            -99.108893,
            19.339572,
            2245
          ],
          [
            -99.108856,
            19.339732,
            2245
          ],
          [
            -99.108652,
            19.340489,
            2245
          ],
          [
            -99.108475,
            19.341072,
            2245
          ],
          [
            -99.108011,
            19.342903,
            2245.25
          ],
          [
            -99.107674,
            19.344619,
            2245.25
          ],
          [
            -99.10693,
            19.348856,
            2242.75
          ],
          [
            -99.10624,
            19.352791,
            2240.75
          ],
          [
            -99.106059,
            19.353852,
            2240
          ],
          [
            -99.106038,
            19.354241,
            2240
          ],
          [
            -99.106052,
            19.354537
          ],
          [
            -99.106083,
            19.354717
          ],
          [
            -99.106109,
            19.354804
          ],
          [
            -99.106141,
            19.35489
          ],
          [
            -99.106188,
            19.35499
          ],
          [
            -99.106243,
            19.355085
          ],
          [
            -99.106307,
            19.355175
          ],
          [
            -99.106379,
            19.35526
          ],
          [
            -99.10649,
            19.355372
          ],
          [
            -99.106607,
            19.355477
          ],
          [
            -99.10673,
            19.355576
          ],
          [
            -99.10686,
            19.355668
          ],
          [
            -99.106994,
            19.355753
          ],
          [
            -99.107134,
            19.355832
          ],
          [
            -99.107279,
            19.355902
          ],
          [
            -99.107427,
            19.355965
          ],
          [
            -99.10758,
            19.35602
          ],
          [
            -99.107862,
            19.356083
          ],
          [
            -99.110234,
            19.356389
          ],
          [
            -99.110927,
            19.356447
          ],
          [
            -99.111618,
            19.356489
          ],
          [
            -99.113401,
            19.35663
          ],
          [
            -99.113488,
            19.356641
          ],
          [
            -99.113658,
            19.35668
          ],
          [
            -99.113821,
            19.356737
          ],
          [
            -99.113944,
            19.356766
          ],
          [
            -99.114013,
            19.356776
          ],
          [
            -99.114929,
            19.356854
          ],
          [
            -99.116947,
            19.357161
          ],
          [
            -99.120238,
            19.357827
          ],
          [
            -99.120338,
            19.357842
          ],
          [
            -99.12044,
            19.357851
          ],
          [
            -99.120547,
            19.357852
          ],
          [
            -99.120653,
            19.357845
          ],
          [
            -99.120775,
            19.357829
          ],
          [
            -99.120891,
            19.357806
          ],
          [
            -99.121005,
            19.357776
          ],
          [
            -99.121116,
            19.357738
          ],
          [
            -99.121342,
            19.357648
          ],
          [
            -99.121531,
            19.357588
          ],
          [
            -99.121601,
            19.357573
          ],
          [
            -99.121725,
            19.357559
          ],
          [
            -99.121787,
            19.357559
          ],
          [
            -99.122685,
            19.357663
          ],
          [
            -99.12737,
            19.358193
          ],
          [
            -99.130796,
            19.35857
          ],
          [
            -99.133195,
            19.358817
          ],
          [
            -99.141342,
            19.359748
          ],
          [
            -99.142268,
            19.359876
          ],
          [
            -99.142597,
            19.359857
          ],
          [
            -99.14438,
            19.360228
          ],
          [
            -99.151486,
            19.361356
          ],
          [
            -99.15326,
            19.361659
          ],
          [
            -99.153664,
            19.361822
          ],
          [
            -99.153968,
            19.362048
          ],
          [
            -99.154096,
            19.362179
          ],
          [
            -99.154248,
            19.362392
          ],
          [
            -99.154262,
            19.362462
          ],
          [
            -99.154351,
            19.362611
          ],
          [
            -99.154656,
            19.363157
          ],
          [
            -99.154782,
            19.363443
          ],
          [
            -99.154846,
            19.363649
          ],
          [
            -99.1549,
            19.363852
          ],
          [
            -99.155311,
            19.365563
          ],
          [
            -99.155722,
            19.366973
          ],
          [
            -99.156048,
            19.368284
          ],
          [
            -99.156428,
            19.369601
          ],
          [
            -99.156532,
            19.36977
          ],
          [
            -99.15672,
            19.369986
          ],
          [
            -99.156783,
            19.370032
          ],
          [
            -99.15687,
            19.370084
          ],
          [
            -99.157007,
            19.370149
          ],
          [
            -99.157402,
            19.370316
          ],
          [
            -99.158166,
            19.370545
          ],
          [
            -99.158777,
            19.37066
          ],
          [
            -99.160431,
            19.370871
          ],
          [
            -99.161025,
            19.370967
          ],
          [
            -99.161411,
            19.371016
          ],
          [
            -99.161558,
            19.371028
          ],
          [
            -99.161756,
            19.371021
          ],
          [
            -99.161853,
            19.371009
          ],
          [
            -99.16195,
            19.370992
          ],
          [
            -99.16207,
            19.370962
          ],
          [
            -99.162187,
            19.370925
          ],
          [
            -99.162301,
            19.370879
          ],
          [
            -99.162995,
            19.370552
          ],
          [
            -99.163253,
            19.370474
          ],
          [
            -99.163434,
            19.370438
          ],
          [
            -99.163516,
            19.370429
          ],
          [
            -99.163621,
            19.370428
          ],
          [
            -99.163841,
            19.370457
          ],
          [
            -99.164063,
            19.370511
          ],
          [
            -99.164846,
            19.370681
          ],
          [
            -99.167214,
            19.371191
          ],
          [
            -99.167953,
            19.371344
          ],
          [
            -99.170756,
            19.371968
          ],
          [
            -99.172694,
            19.3724
          ],
          [
            -99.17411,
            19.372726
          ],
          [
            -99.175617,
            19.373022
          ],
          [
            -99.177085,
            19.373279
          ],
          [
            -99.178805,
            19.373689
          ],
          [
            -99.179003,
            19.373736
          ],
          [
            -99.18306,
            19.374699
          ],
          [
            -99.186599,
            19.37567
          ],
          [
            -99.186731,
            19.375706
          ],
          [
            -99.187484,
            19.375913
          ],
          [
            -99.187875,
            19.376027
          ],
          [
            -99.187956,
            19.376051
          ]
        ]
      }
    }
  ]
}