{
  "type": "FeatureCollection",
  "features": [
    {
      "type": "Feature",
      "properties": {
        "creator": "BRouter-1.7.0",
        "name": "Montréal Metro (Côte-Vertu - Montmorency)",
        "track-length": "59620",
        "filtered ascend": "88",
        "plain-ascend": "39",
        "total-time": "4770",
        "total-energy": "2677964",
        "cost": "119240",
        "messages": [
          [
            "Longitude",
            "Latitude",
            "Elevation",
            "Distance",
            "CostPerKm",
            "ElevCost",
            "TurnCost",
            "NodeCost",
            "InitialCost",
            "WayTags",
            "NodeTags",
            "Time",
            "Energy"
          ],
          [
            "-73683014",
            "45514338",
            "-8192",
            "37",
            "2000",
            "0",
            "0",
            "0",
            "0",
            "railway=subway",
            "railway=unknown",
            "2",
            "1627"
          ],
          [
            "-73673321",
            "45508376",
            "-8192",
            "1006",
            "2000",
            "0",
            "0",
            "0",
            "0",
            "railway=subway",
            "railway=unknown",
            "83",
            "45876"
          ],
          [
            "-73661634",
            "45500280",
            "-8192",
            "1287",
            "2000",
            "0",
            "0",
            "0",
            "0",
            "railway=subway",
            "railway=unknown",
            "186",
            "102485"
          ],
          [
            "-73652924",
            "45494870",
            "-8192",
            "909",
            "2000",
            "0",
            "0",
            "0",
            "0",
            "railway=subway",
            "railway=unknown",
            "259",
            "142468"
          ],
          [
            "-73637815",
            "45494380",
            "-8192",
            "1387",
            "2000",
            "0",
            "0",
            "0",
            "0",
            "railway=subway",
            "railway=unknown",
            "370",
            "203475"
          ],
          [
            "-73632891",
            "45492280",
            "-8192",
            "450",
            "2000",
            "0",
            "0",
            "0",
            "0",
            "railway=subway",
            "railway=unknown",
            "406",
            "223269"
          ],
          [
            "-73627892",
            "45486254",
            "74",
            "928",
            "2000",
            "0",
            "0",
            "0",
            "0",
            "railway=subway",
            "railway=unknown",
            "480",
            "264087"
          ],
          [
            "-73626664",
            "45482745",
            "83",
            "472",
            "2000",
            "0",
            "0",
            "0",
            "0",
            "railway=subway",
            "railway=switch",
            "518",
            "283973"
          ],
          [
            "-73626265",
            "45482574",
            "84",
            "37",
            "2000",
            "0",
            "0",
            "0",
            "0",
            "railway=subway",
            "railway=switch",
            "521",
            "285598"
          ],
          [
            "-73619774",
            "45479736",
            "92",
            "598",
            "2000",
            "0",
            "0",
            "0",
            "0",
            "railway=subway",
            "railway=unknown",
            "568",
            "321677"
          ],
          [
            "-73603772",
            "45473896",
            "48",
            "1447",
            "2000",
            "0",
            "0",
            "0",
            "0",
            "railway=subway",
            "railway=unknown",
            "684",
            "384027"
          ],
          [
            "-73586651",
            "45477186",
            "-8192",
            "1585",
            "2000",
            "0",
            "0",
            "0",
            "0",
            "railway=subway",
            "railway=unknown",
            "811",
            "442336"
          ],
          [
            "-73580175",
            "45482433",
            "-8192",
            "786",
            "2000",
            "0",
            "0",
            "0",
            "0",
            "railway=subway",
            "railway=unknown",
            "874",
            "474318"
          ],
          [
            "-73576478",
            "45488968",
            "-8192",
            "837",
            "2000",
            "0",
            "0",
            "0",
            "0",
            "railway=subway",
            "railway=unknown",
            "941",
            "511075"
          ],
          [
            "-73570938",
            "45494976",
            "-8192",
            "804",
            "2000",
            "0",
            "0",
            "0",
            "0",
            "railway=subway",
            "railway=unknown",
            "1005",
            "546440"
          ],
          [
            "-73567061",
            "45498253",
            "-8192",
            "474",
            "2000",
            "0",
            "0",
            "0",
            "0",
            "railway=subway",
            "railway=unknown",
            "1043",
            "567289"
          ],
          [
            "-73563092",
            "45502017",
            "-8192",
            "521",
            "2000",
            "0",
            "0",
            "0",
            "0",
            "railway=subway",
            "railway=unknown",
            "1085",
            "590205"
          ],
          [
            "-73559717",
            "45506043",
            "-8192",
            "519",
            "2000",
            "0",
            "0",
            "0",
            "0",
            "railway=subway",
            "railway=unknown",
            "1126",
            "613033"
          ],
          [
            "-73556383",
            "45510068",
            "-8192",
            "518",
            "2000",
            "0",
            "0",
            "0",
            "0",
            "railway=subway",
            "railway=unknown",
            "1168",
            "635818"
          ],
          [
            "-73561407",
            "45515461",
            "-8192",
            "896",
            "2000",
            "0",
            "0",
            "0",
            "0",
            "railway=subway",
            "railway=unknown",
            "1239",
            "675228"
          ],
          [
            "-73567204",
            "45517989",
            "-8192",
            "533",
            "2000",
            "0",
            "0",
            "0",
            "0",
            "railway=subway",
            "railway=unknown",
            "1282",
            "698672"
          ],
          [
            "-73581423",
            "45524740",
            "-8192",
            "1340",
            "2000",
            "0",
            "0",
            "0",
            "0",
            "railway=subway",
            "railway=unknown",
            "1389",
            "757613"
          ],
          [
            "-73588588",
            "45528247",
            "-8192",
            "685",
            "2000",
            "0",
            "0",
            "0",
            "0",
            "railway=subway",
            "railway=unknown",
            "1444",
            "787743"
          ],
          [
            "-73597387",
            "45531590",
            "-8192",
            "783",
            "2000",
            "0",
            "0",
            "0",
            "0",
            "railway=subway",
            "railway=unknown",
            "1507",
            "822183"
          ],
          [
            "-73604940",
            "45535069",
            "-8192",
            "705",
            "2000",
            "0",
            "0",
            "0",
            "0",
            "railway=subway",
            "railway=unknown",
            "1563",
            "853193"
          ],
          [
            "-73614158",
            "45538999",
            "-8192",
            "843",
            "2000",
            "0",
            "0",
            "0",
            "0",
            "railway=subway",
            "railway=unknown",
            "1630",
            "890272"
          ],
          [
            "-73628743",
            "45543192",
            "-8192",
            "1231",
            "2000",
            "0",
            "0",
            "0",
            "0",
            "railway=subway",
            "railway=unknown",
            "1729",
            "944418"
          ],
          [
            "-73638911",
            "45546031",
            "-8192",
            "854",
            "2000",
            "0",
            "0",
            "0",
            "0",
            "railway=subway",
            "railway=unknown",
            "1797",
            "981981"
          ],
          [
            "-73641253",
            "45546702",
            "-8192",
            "197",
            "2000",
            "0",
            "0",
            "0",
            "0",
            "railway=subway",
            "railway=switch",
            "1813",
            "990646"
          ],
          [
            "-73656253",
            "45550955",
            "-8192",
            "1263",
            "2000",
            "0",
            "0",
            "0",
            "0",
            "railway=subway",
            "railway=unknown",
            "1914",
            "1046200"
          ],
          [
            "-73665225",
            "45553550",
            "-8192",
            "758",
            "2000",
            "0",
            "0",
            "0",
            "0",
            "railway=subway",
            "railway=switch",
            "1975",
            "1079541"
          ],
          [
            "-73668051",
            "45554358",
            "-8192",
            "238",
            "2000",
            "0",
            "0",
            "0",
            "0",
            "railway=subway",
            "railway=unknown",
            "1994",
            "1090009"
          ],
          [
            "-73669062",
            "45554643",
            "-8192",
            "85",
            "2000",
            "0",
            "0",
            "0",
            "0",
            "railway=subway",
            "railway=switch",
            "2001",
            "1093748"
          ],
          [
            "-73672320",
            "45555571",
            "-8192",
            "275",
            "2000",
            "0",
            "0",
            "0",
            "0",
            "railway=subway",
            "railway=switch",
            "2023",
            "1105844"
          ],
          [
            "-73674343",
            "45556151",
            "-8192",
            "171",
            "2000",
            "0",
            "0",
            "0",
            "0",
            "railway=subway",
            "railway=switch",
            "2036",
            "1113365"
          ],
          [
            "-73681993",
            "45559949",
            "-8192",
            "734",
            "2000",
            "0",
            "0",
            "0",
            "0",
            "railway=subway",
            "railway=unknown",
            "2095",
            "1145650"
          ],
          [
            "-73709463",
            "45560725",
            "-8192",
            "2194",
            "2000",
            "0",
            "0",
            "0",
            "0",
            "railway=subway",
            "railway=unknown",
            "2270",
            "1242154"
          ],
          [
            "-73720684",
            "45559342",
            "-8192",
            "828",
            "2000",
            "0",
            "0",
            "0",
            "0",
            "railway=subway",
            "",
            "2337",
            "1278574"
          ],
          [
            "-73720684",
            "45559342",
            "-8192",
            "81",
            "2000",
            "0",
            "0",
            "0",
            "0",
            "railway=subway",
            "railway=switch",
            "6",
            "3562"
          ],
          [
            "-73720946",
            "45559222",
            "-8192",
            "11",
            "2000",
            "0",
            "0",
            "0",
            "0",
            "railway=subway",
            "",
            "7",
            "4046"
          ],
          [
            "-73720946",
            "45559222",
            "-8192",
            "13",
            "2000",
            "0",
            "0",
            "0",
            "0",
            "railway=subway",
            "railway=switch",
            "1",
            "571"
          ],
          [
            "-73722023",
            "45558695",
            "-8192",
            "102",
            "2000",
            "0",
            "0",
            "0",
            "0",
            "railway=subway",
            "railway=unknown",
            "9",
            "5058"
          ],
          [
            "-73723242",
            "45558077",
            "-8192",
            "117",
            "2000",
            "0",
            "0",
            "0",
            "0",
            "railway=subway",
            "railway=switch",
            "18",
            "10204"
          ],
          [
            "-73723485",
            "45557954",
            "-8192",
            "23",
            "2000",
            "0",
            "0",
            "0",
            "0",
            "railway=subway",
            "railway=switch",
            "20",
            "11216"
          ],
          [
            "-73726112",
            "45556626",
            "-8192",
            "253",
            "2000",
            "0",
            "0",
            "0",
            "0",
            "railway=subway",
            "",
            "40",
            "22344"
          ],
          [
            "-73723485",
            "45557954",
            "-8192",
            "253",
            "2000",
            "0",
            "0",
            "0",
            "0",
            "reversedirection=yes railway=subway",
            "railway=switch",
            "20",
            "11128"
          ],
          [
            "-73723354",
            "45558004",
            "-8192",
            "12",
            "2000",
            "0",
            "0",
            "0",
            "0",
            "reversedirection=yes railway=subway",
            "railway=unknown",
            "21",
            "11656"
          ],
          [
            "-73723219",
            "45558055",
            "-8192",
            "12",
            "2000",
            "0",
            "0",
            "0",
            "0",
            "reversedirection=yes railway=subway",
            "railway=switch",
            "22",
            "12183"
          ],
          [
            "-73723111",
            "45558110",
            "-8192",
            "10",
            "2000",
            "0",
            "0",
            "0",
            "0",
            "reversedirection=yes railway=subway",
            "railway=switch",
            "22",
            "12623"
          ],
          [
            "-73722001",
            "45558673",
            "-8192",
            "107",
            "2000",
            "0",
            "0",
            "0",
            "0",
            "reversedirection=yes railway=subway",
            "railway=unknown",
            "31",
            "17330"
          ],
          [
            "-73720925",
            "45559200",
            "-8192",
            "102",
            "2000",
            "0",
            "0",
            "0",
            "0",
            "reversedirection=yes railway=subway",
            "railway=switch",
            "39",
            "21816"
          ],
          [
            "-73720662",
            "45559320",
            "-8192",
            "24",
            "2000",
            "0",
            "0",
            "0",
            "0",
            "reversedirection=yes railway=subway",
            "railway=switch",
            "41",
            "22872"
          ],
          [
            "-73719575",
            "45559849",
            "-8192",
            "94",
            "2000",
            "0",
            "0",
            "0",
            "0",
            "reversedirection=yes railway=subway",
            "",
            "49",
            "27006"
          ],
          [
            "-73709453",
            "45560699",
            "-8192",
            "814",
            "2000",
            "0",
            "0",
            "0",
            "0",
            "reversedirection=yes railway=subway",
            "railway=unknown",
            "65",
            "35803"
          ],
          [
            "-73694431",
            "45561293",
            "-8192",
            "593",
            "2000",
            "0",
            "0",
            "0",
            "0",
            "reversedirection=yes railway=subway",
            "",
            "112",
            "61887"
          ],
          [
            "-73682017",
            "45559928",
            "-8192",
            "1598",
            "2000",
            "0",
            "0",
            "0",
            "0",
            "reversedirection=yes railway=subway",
            "railway=unknown",
            "127",
            "70288"
          ],
          [
            "-73678919",
            "45558199",
            "-8192",
            "220",
            "2000",
            "0",
            "0",
            "0",
            "0",
            "reversedirection=yes railway=subway",
            "",
            "145",
            "79965"
          ],
          [
            "-73672522",
            "45555599",
            "-8192",
            "671",
            "2000",
            "0",
            "0",
            "0",
            "0",
            "reversedirection=yes railway=subway",
            "railway=switch",
            "53",
            "29514"
          ],
          [
            "-73668881",
            "45554562",
            "-8192",
            "307",
            "2000",
            "0",
            "0",
            "0",
            "0",
            "reversedirection=yes railway=subway",
            "railway=switch",
            "78",
            "43017"
          ],
          [
            "-73668064",
            "45554326",
            "-8192",
            "69",
            "2000",
            "0",
            "0",
            "0",
            "0",
            "reversedirection=yes railway=subway",
            "railway=unknown",
            "83",
            "46052"
          ],
          [
            "-73665243",
            "45553525",
            "-8192",
            "238",
            "2000",
            "0",
            "0",
            "0",
            "0",
            "reversedirection=yes railway=subway",
            "railway=switch",
            "102",
            "56521"
          ],
          [
            "-73656267",
            "45550930",
            "-8192",
            "398",
            "2000",
            "0",
            "0",
            "0",
            "0",
            "reversedirection=yes railway=subway",
            "",
            "134",
            "74027"
          ],
          [
            "-73656267",
            "45550930",
            "-8192",
            "360",
            "2000",
            "0",
            "0",
            "0",
            "0",
            "reversedirection=yes railway=subway",
            "railway=unknown",
            "28",
            "15834"
          ],
          [
            "-73641081",
            "45546625",
            "-8192",
            "1279",
            "2000",
            "0",
            "0",
            "0",
            "0",
            "reversedirection=yes railway=subway",
            "railway=switch",
            "131",
            "72091"
          ],
          [
            "-73640911",
            "45546574",
            "-8192",
            "14",
            "2000",
            "0",
            "0",
            "0",
            "0",
            "reversedirection=yes railway=subway",
            "railway=switch",
            "132",
            "72707"
          ],
          [
            "-73638925",
            "45546006",
            "-8192",
            "167",
            "2000",
            "0",
            "0",
            "0",
            "0",
            "reversedirection=yes railway=subway",
            "railway=unknown",
            "145",
            "80053"
          ],
          [
            "-73628757",
            "45543167",
            "-8192",
            "854",
            "2000",
            "0",
            "0",
            "0",
            "0",
            "reversedirection=yes railway=subway",
            "railway=unknown",
            "213",
            "117616"
          ],
          [
            "-73614172",
            "45538974",
            "-8192",
            "1231",
            "2000",
            "0",
            "0",
            "0",
            "0",
            "reversedirection=yes railway=subway",
            "railway=unknown",
            "312",
            "171762"
          ],
          [
            "-73604961",
            "45535046",
            "-8192",
            "530",
            "2000",
            "0",
            "0",
            "0",
            "0",
            "reversedirection=yes railway=subway",
            "",
            "354",
            "195074"
          ],
          [
            "-73604961",
            "45535046",
            "-8192",
            "313",
            "2000",
            "0",
            "0",
            "0",
            "0",
            "reversedirection=yes railway=subway",
            "railway=unknown",
            "25",
            "13767"
          ],
          [
            "-73597408",
            "45531567",
            "-8192",
            "705",
            "2000",
            "0",
            "0",
            "0",
            "0",
            "reversedirection=yes railway=subway",
            "railway=unknown",
            "81",
            "44776"
          ],
          [
            "-73588609",
            "45528224",
            "-8192",
            "785",
            "2000",
            "0",
            "0",
            "0",
            "0",
            "reversedirection=yes railway=subway",
            "railway=unknown",
            "144",
            "79305"
          ],
          [
            "-73581443",
            "45524718",
            "-8192",
            "685",
            "2000",
            "0",
            "0",
            "0",
            "0",
            "reversedirection=yes railway=subway",
            "railway=unknown",
            "199",
            "109435"
          ],
          [
            "-73567225",
            "45517966",
            "-8192",
            "1340",
            "2000",
            "0",
            "0",
            "0",
            "0",
            "reversedirection=yes railway=subway",
            "railway=unknown",
            "306",
            "168375"
          ],
          [
            "-73561428",
            "45515438",
            "-8192",
            "533",
            "2000",
            "0",
            "0",
            "0",
            "0",
            "reversedirection=yes railway=subway",
            "railway=unknown",
            "348",
            "191819"
          ],
          [
            "-73556416",
            "45510082",
            "18",
            "804",
            "2000",
            "0",
            "0",
            "0",
            "0",
            "reversedirection=yes railway=subway",
            "",
            "413",
            "227183"
          ],
          [
            "-73556416",
            "45510082",
            "18",
            "87",
            "2000",
            "0",
            "0",
            "0",
            "0",
            "reversedirection=yes railway=subway",
            "railway=unknown",
            "6",
            "3826"
          ],
          [
            "-73559750",
            "45506057",
            "18",
            "518",
            "2000",
            "0",
            "0",
            "0",
            "0",
            "reversedirection=yes railway=subway",
            "railway=unknown",
            "48",
            "28366"
          ],
          [
            "-73563124",
            "45502032",
            "18",
            "519",
            "2000",
            "0",
            "0",
            "0",
            "0",
            "reversedirection=yes railway=subway",
            "railway=unknown",
            "89",
            "51205"
          ],
          [
            "-73567091",
            "45498269",
            "18",
            "520",
            "2000",
            "0",
            "0",
            "0",
            "0",
            "reversedirection=yes railway=subway",
            "railway=unknown",
            "131",
            "74077"
          ],
          [
            "-73570968",
            "45494993",
            "18",
            "474",
            "2000",
            "0",
            "0",
            "0",
            "0",
            "reversedirection=yes railway=subway",
            "railway=unknown",
            "169",
            "94926"
          ],
          [
            "-73576514",
            "45488977",
            "19",
            "804",
            "2000",
            "0",
            "0",
            "0",
            "0",
            "reversedirection=yes railway=subway",
            "railway=unknown",
            "233",
            "132938"
          ],
          [
            "-73580199",
            "45482452",
            "20",
            "835",
            "2000",
            "0",
            "0",
            "0",
            "0",
            "reversedirection=yes railway=subway",
            "railway=unknown",
            "300",
            "169150"
          ],
          [
            "-73586669",
            "45477210",
            "29",
            "784",
            "2000",
            "0",
            "0",
            "0",
            "0",
            "reversedirection=yes railway=subway",
            "railway=unknown",
            "363",
            "203268"
          ],
          [
            "-73603793",
            "45473926",
            "47",
            "1583",
            "2000",
            "0",
            "0",
            "0",
            "0",
            "reversedirection=yes railway=subway",
            "railway=unknown",
            "489",
            "286746"
          ],
          [
            "-73619741",
            "45479759",
            "92",
            "1442",
            "2000",
            "0",
            "0",
            "0",
            "0",
            "reversedirection=yes railway=subway",
            "railway=unknown",
            "605",
            "395661"
          ],
          [
            "-73626577",
            "45482743",
            "-8192",
            "629",
            "2000",
            "0",
            "0",
            "0",
            "0",
            "reversedirection=yes railway=subway",
            "railway=switch",
            "655",
            "422484"
          ],
          [
            "-73627848",
            "45486247",
            "-8192",
            "475",
            "2000",
            "0",
            "0",
            "0",
            "0",
            "reversedirection=yes railway=subway",
            "railway=unknown",
            "693",
            "443375"
          ],
          [
            "-73629977",
            "45490958",
            "-8192",
            "587",
            "2000",
            "0",
            "0",
            "0",
            "0",
            "reversedirection=yes railway=subway",
            "",
            "740",
            "469195"
          ],
          [
            "-73632865",
            "45492303",
            "-8192",
            "346",
            "2000",
            "0",
            "0",
            "0",
            "0",
            "reversedirection=yes railway=subway",
            "railway=unknown",
            "27",
            "15218"
          ],
          [
            "-73637794",
            "45494403",
            "-8192",
            "451",
            "2000",
            "0",
            "0",
            "0",
            "0",
            "reversedirection=yes railway=subway",
            "railway=unknown",
            "63",
            "35056"
          ],
          [
            "-73652900",
            "45494891",
            "-8192",
            "1390",
            "2000",
            "0",
            "0",
            "0",
            "0",
            "reversedirection=yes railway=subway",
            "railway=unknown",
            "174",
            "96195"
          ],
          [
            "-73661608",
            "45500300",
            "-8192",
            "909",
            "2000",
            "0",
            "0",
            "0",
            "0",
            "reversedirection=yes railway=subway",
            "railway=unknown",
            "247",
            "136178"
          ],
          [
            "-73673297",
            "45508397",
            "-8192",
            "1287",
            "2000",
            "0",
            "0",
            "0",
            "0",
            "reversedirection=yes railway=subway",
            "railway=unknown",
            "350",
            "192787"
          ],
          [
            "-73682988",
            "45514358",
            "-8192",
            "1006",
            "2000",
            "0",
            "0",
            "0",
            "0",
            "reversedirection=yes railway=subway",
            "railway=unknown",
            "431",
            "237036"
          ],
          [
            "-73683439",
            "45514634",
            "-8192",
            "37",
            "2000",
            "0",
            "0",
            "0",
            "0",
            "reversedirection=yes railway=subway",
            "",
            "434",
            "238663"
          ]
        ],
        "times": [
          0,
          2.96,
          40.24,
          83.44,
          89.04,
          99.2,
          112.88,
          153.04,
          163.6,
          170.8,
          178.32,
          186.4,
          205.2,
          256.08,
          259.12,
          271.68,
          275.68,
          280.08,
          282.72,
          286.72,
          290.88,
          293.36,
          296.88,
          299.92,
          304.08,
          314,
          320.4,
          325.2,
          328.08,
          331.2,
          334.32,
          338.24,
          341.92,
          345.68,
          347.52,
          352.24,
          370.08,
          406.08,
          427.76,
          447.68,
          449.84,
          451.52,
          452.8,
          454.32,
          456,
          470.16,
          480.32,
          482.64,
          498.4,
          500.32,
          501.68,
          502.32,
          503.04,
          504.08,
          505.76,
          516,
          518.08,
          521.04,
          556.96,
          568.88,
          570.56,
          604.8,
          616.08,
          644.48,
          671.52,
          672.72,
          673.76,
          674.4,
          675.92,
          676.4,
          676.88,
          679.6,
          680.4,
          681.44,
          684.64,
          693.6,
          697.36,
          700.32,
          702.08,
          706.32,
          715.04,
          728.96,
          736.24,
          737.6,
          740.56,
          744.16,
          745.2,
          746.4,
          748.64,
          750.32,
          751.68,
          752.8,
          754.88,
          757.6,
          758.96,
          760.48,
          762.64,
          764.72,
          766.08,
          767.28,
          768.32,
          771.84,
          778.08,
          779.28,
          781.2,
          783.2,
          784.32,
          786.64,
          788.24,
          790.4,
          794.88,
          800.16,
          801.76,
          802.56,
          803.6,
          804.64,
          805.6,
          811.44,
          818.72,
          820.4,
          821.92,
          826.56,
          831.2,
          833.12,
          834.96,
          837.04,
          843.84,
          858.64,
          860.4,
          862,
          863.52,
          865.68,
          874.32,
          881.36,
          883.28,
          885.6,
          888.8,
          889.36,
          890,
          892.48,
          893.76,
          894.72,
          896.56,
          897.68,
          899.04,
          900.64,
          902.4,
          904.32,
          907.12,
          909.04,
          912.4,
          915.04,
          918.32,
          921.44,
          925.6,
          928.48,
          930.24,
          931.52,
          933.36,
          936.4,
          937.92,
          941.28,
          942.88,
          947.44,
          957.12,
          960.88,
          964,
          966.48,
          969.84,
          972.32,
          979.04,
          1005.6,
          1043.52,
          1085.2,
          1086.16,
          1126.72,
          1168.16,
          1184.16,
          1186.48,
          1189.04,
          1191.04,
          1192.96,
          1194.64,
          1197.04,
          1227.44,
          1239.84,
          1282.48,
          1296,
          1306,
          1378,
          1389.68,
          1409.44,
          1418.16,
          1420.96,
          1422.16,
          1424.08,
          1425.44,
          1426.72,
          1428.08,
          1444.48,
          1455.2,
          1465.28,
          1474.08,
          1477.12,
          1480.72,
          1484.08,
          1486.72,
          1489.36,
          1491.36,
          1493.68,
          1496.32,
          1500.4,
          1503.6,
          1507.12,
          1515.76,
          1563.52,
          1620.88,
          1622.88,
          1624.72,
          1630.96,
          1729.44,
          1797.76,
          1811.12,
          1813.52,
          1825.76,
          1844.32,
          1898.4,
          1914.56,
          1975.2,
          1994.24,
          2001.04,
          2021.84,
          2023.04,
          2031.28,
          2033.92,
          2035.04,
          2036.72,
          2040.88,
          2045.6,
          2050,
          2070.72,
          2086,
          2095.44,
          2106.32,
          2109.92,
          2114.24,
          2118.16,
          2123.6,
          2129.12,
          2176.48,
          2228.96,
          2242.08,
          2246.8,
          2249.92,
          2253.041,
          2258.401,
          2265.681,
          2270.961,
          2282.641,
          2285.521,
          2288.561,
          2315.841,
          2321.201,
          2324.801,
          2328.241,
          2331.601,
          2335.441,
          2337.201,
          2343.681,
          2344.561,
          2345.601,
          2353.761,
          2363.121,
          2364.961,
          2385.201,
          2405.441,
          2406.401,
          2407.361,
          2408.161,
          2416.721,
          2424.881,
          2426.801,
          2434.321,
          2435.041,
          2438.881,
          2442.241,
          2445.601,
          2449.201,
          2454.561,
          2481.841,
          2484.881,
          2487.761,
          2491.761,
          2499.441,
          2504.721,
          2512.001,
          2517.361,
          2520.481,
          2523.601,
          2528.321,
          2541.441,
          2546.881,
          2593.921,
          2641.281,
          2646.801,
          2652.241,
          2656.081,
          2660.321,
          2663.841,
          2674.721,
          2684.161,
          2692.321,
          2699.441,
          2720.161,
          2724.641,
          2729.441,
          2746.001,
          2747.361,
          2770.561,
          2776.081,
          2795.121,
          2826.961,
          2855.761,
          2871.921,
          2926.001,
          2927.281,
          2927.921,
          2942.961,
          2943.361,
          2958.081,
          2959.201,
          2972.561,
          3040.881,
          3139.361,
          3145.601,
          3147.441,
          3149.441,
          3181.761,
          3206.801,
          3254.561,
          3263.201,
          3266.721,
          3270.001,
          3274.081,
          3276.721,
          3279.121,
          3281.201,
          3283.841,
          3286.481,
          3289.841,
          3293.361,
          3296.401,
          3305.201,
          3315.281,
          3326.001,
          3342.401,
          3343.761,
          3344.961,
          3346.321,
          3348.241,
          3349.521,
          3352.321,
          3361.041,
          3380.801,
          3392.481,
          3464.481,
          3474.481,
          3488.001,
          3530.641,
          3543.041,
          3573.441,
          3575.841,
          3577.441,
          3579.281,
          3581.201,
          3583.681,
          3585.921,
          3594.961,
          3601.921,
          3643.361,
          3683.921,
          3684.881,
          3726.481,
          3764.401,
          3790.961,
          3797.681,
          3800.161,
          3803.521,
          3806.001,
          3809.121,
          3812.881,
          3822.561,
          3827.121,
          3828.721,
          3832.161,
          3833.681,
          3836.801,
          3838.641,
          3839.921,
          3841.681,
          3844.561,
          3848.721,
          3855.121,
          3857.761,
          3861.121,
          3863.041,
          3865.841,
          3867.681,
          3869.361,
          3870.961,
          3872.241,
          3873.361,
          3875.201,
          3876.161,
          3877.441,
          3879.921,
          3880.481,
          3881.041,
          3884.241,
          3886.561,
          3888.481,
          3895.521,
          3904.161,
          3906.321,
          3907.841,
          3909.441,
          3911.201,
          3926.001,
          3932.801,
          3934.801,
          3936.641,
          3938.561,
          3943.201,
          3947.841,
          3949.281,
          3950.961,
          3958.241,
          3964.081,
          3965.041,
          3966.081,
          3967.121,
          3967.921,
          3969.521,
          3974.801,
          3979.281,
          3981.441,
          3982.961,
          3985.201,
          3986.321,
          3988.321,
          3990.241,
          3991.441,
          3997.681,
          4001.201,
          4002.241,
          4003.441,
          4004.801,
          4006.881,
          4009.041,
          4010.561,
          4011.921,
          4013.121,
          4014.561,
          4016.641,
          4017.761,
          4019.121,
          4020.881,
          4023.121,
          4024.321,
          4025.361,
          4029.041,
          4032.081,
          4033.441,
          4040.721,
          4054.641,
          4067.201,
          4069.361,
          4071.841,
          4073.121,
          4075.921,
          4084.881,
          4088.081,
          4089.921,
          4091.921,
          4092.881,
          4093.521,
          4094.801,
          4096.481,
          4097.681,
          4124.801,
          4164.321,
          4198.721,
          4200.241,
          4212.241,
          4250.561,
          4253.121,
          4263.361,
          4265.041,
          4265.921,
          4266.641,
          4267.281,
          4268.481,
          4269.681,
          4270.481,
          4288.561,
          4298.721,
          4310.001,
          4312.961,
          4314.641,
          4316.161,
          4317.841,
          4319.361,
          4321.521,
          4333.841,
          4335.521,
          4341.521,
          4363.201,
          4399.281,
          4417.121,
          4421.921,
          4423.841,
          4427.681,
          4431.361,
          4435.281,
          4438.481,
          4441.601,
          4444.561,
          4449.441,
          4455.841,
          4465.761,
          4469.921,
          4472.961,
          4476.481,
          4478.881,
          4482.961,
          4486.881,
          4489.521,
          4493.921,
          4497.921,
          4510.481,
          4513.521,
          4564.401,
          4583.201,
          4591.281,
          4598.801,
          4606.001,
          4616.561,
          4656.721,
          4670.401,
          4680.561,
          4686.161,
          4729.361,
          4766.641,
          4769.601
        ]
      },
      "geometry": {
        "type": "LineString",
        "coordinates": [
          [
            -73.683368,
            45.514555,
            78.5
          ],
          [
            -73.683014,
            45.514338,
            78.5
          ],
          [
            -73.678542,
            45.511566,
            78.5
          ],
          [
            -73.673321,
            45.508376,
            78.5
          ],
          [
            -73.672612,
            45.507984,
            78.5
          ],
          [
            -73.67131,
            45.507303,
            78.5
          ],
          [
            -73.669648,
            45.506301,
            78.5
          ],
          [
            -73.665037,
            45.503152,
            78.5
          ],
          [
            -73.663935,
            45.502251,
            78.5
          ],
          [
            -73.663302,
            45.501579,
            78.5
          ],
          [
            -73.662558,
            45.500916,
            78.5
          ],
          [
            -73.661634,
            45.50028,
            78.5
          ],
          [
            -73.659381,
            45.49888,
            78.5
          ],
          [
            -73.653281,
            45.495099,
            78.5
          ],
          [
            -73.652924,
            45.49487,
            78.5
          ],
          [
            -73.651326,
            45.494013,
            78.5
          ],
          [
            -73.650798,
            45.493758,
            78.5
          ],
          [
            -73.650183,
            45.493516,
            78.5
          ],
          [
            -73.649792,
            45.493402,
            78.5
          ],
          [
            -73.649177,
            45.493289,
            78.5
          ],
          [
            -73.648517,
            45.493304,
            78.5
          ],
          [
            -73.648137,
            45.493376,
            78.5
          ],
          [
            -73.647609,
            45.493507,
            78.5
          ],
          [
            -73.647169,
            45.493653,
            78.5
          ],
          [
            -73.64663,
            45.493929,
            78.5
          ],
          [
            -73.645516,
            45.494722,
            78.5
          ],
          [
            -73.64482,
            45.495252,
            78.5
          ],
          [
            -73.644229,
            45.495602,
            78.5
          ],
          [
            -73.643854,
            45.495792,
            78.5
          ],
          [
            -73.643391,
            45.495913,
            78.5
          ],
          [
            -73.642896,
            45.495976,
            78.5
          ],
          [
            -73.642276,
            45.496021,
            78.5
          ],
          [
            -73.641699,
            45.495958,
            78.5
          ],
          [
            -73.641119,
            45.495841,
            78.5
          ],
          [
            -73.64085,
            45.495749,
            78.5
          ],
          [
            -73.640218,
            45.495453,
            78.5
          ],
          [
            -73.637815,
            45.49438,
            78.5
          ],
          [
            -73.632891,
            45.49228,
            78.5
          ],
          [
            -73.630005,
            45.490933,
            78.5
          ],
          [
            -73.627311,
            45.489736,
            78.5
          ],
          [
            -73.627058,
            45.489575,
            78.5
          ],
          [
            -73.626922,
            45.489411,
            78.5
          ],
          [
            -73.626881,
            45.489268,
            78.5
          ],
          [
            -73.626893,
            45.489099,
            78.5
          ],
          [
            -73.626932,
            45.488909,
            78.5
          ],
          [
            -73.627468,
            45.487359,
            76.25
          ],
          [
            -73.627892,
            45.486254,
            74.75
          ],
          [
            -73.627991,
            45.486001,
            75.25
          ],
          [
            -73.628605,
            45.484279,
            78.75
          ],
          [
            -73.628628,
            45.48406,
            79.25
          ],
          [
            -73.628613,
            45.48391,
            79.5
          ],
          [
            -73.628595,
            45.483839,
            79.75
          ],
          [
            -73.628563,
            45.483762,
            80
          ],
          [
            -73.628493,
            45.483659,
            80.25
          ],
          [
            -73.628302,
            45.483523,
            80.5
          ],
          [
            -73.62695,
            45.482872,
            83
          ],
          [
            -73.626664,
            45.482745,
            83.25
          ],
          [
            -73.626265,
            45.482574,
            84
          ],
          [
            -73.621397,
            45.48044,
            92.25
          ],
          [
            -73.619774,
            45.479736,
            92.5
          ],
          [
            -73.619547,
            45.479637,
            91.75
          ],
          [
            -73.61484,
            45.477676,
            78.25
          ],
          [
            -73.613291,
            45.477021,
            74
          ],
          [
            -73.60942,
            45.475351,
            62.75
          ],
          [
            -73.605746,
            45.473746,
            52.25
          ],
          [
            -73.605571,
            45.473689,
            51.75
          ],
          [
            -73.605421,
            45.473649,
            51.5
          ],
          [
            -73.605328,
            45.473632,
            51.25
          ],
          [
            -73.605091,
            45.473604,
            50.5
          ],
          [
            -73.605014,
            45.473603,
            50.25
          ],
          [
            -73.604942,
            45.473605,
            50.25
          ],
          [
            -73.604513,
            45.47367,
            49
          ],
          [
            -73.604391,
            45.473695,
            48.75
          ],
          [
            -73.604238,
            45.473739,
            48.5
          ],
          [
            -73.603772,
            45.473896,
            48
          ],
          [
            -73.602479,
            45.474336,
            46.25
          ],
          [
            -73.601948,
            45.474536
          ],
          [
            -73.601561,
            45.474724
          ],
          [
            -73.601331,
            45.474841
          ],
          [
            -73.600827,
            45.475155
          ],
          [
            -73.599789,
            45.475804
          ],
          [
            -73.598348,
            45.476994
          ],
          [
            -73.597609,
            45.477625
          ],
          [
            -73.597448,
            45.477731
          ],
          [
            -73.597072,
            45.477937
          ],
          [
            -73.596592,
            45.478165
          ],
          [
            -73.596445,
            45.478224
          ],
          [
            -73.596272,
            45.478278
          ],
          [
            -73.595936,
            45.478368
          ],
          [
            -73.595671,
            45.478417
          ],
          [
            -73.595455,
            45.478437
          ],
          [
            -73.595281,
            45.478444
          ],
          [
            -73.594948,
            45.478443
          ],
          [
            -73.59452,
            45.478415
          ],
          [
            -73.59431,
            45.478394
          ],
          [
            -73.594074,
            45.478359
          ],
          [
            -73.593747,
            45.478293
          ],
          [
            -73.593434,
            45.478209
          ],
          [
            -73.593238,
            45.478142
          ],
          [
            -73.593069,
            45.478073
          ],
          [
            -73.59293,
            45.478007
          ],
          [
            -73.592484,
            45.477766
          ],
          [
            -73.591705,
            45.477322
          ],
          [
            -73.59155,
            45.477239
          ],
          [
            -73.591293,
            45.477117
          ],
          [
            -73.591011,
            45.477012
          ],
          [
            -73.590842,
            45.476959
          ],
          [
            -73.590491,
            45.476884
          ],
          [
            -73.590244,
            45.47685
          ],
          [
            -73.589904,
            45.47682
          ],
          [
            -73.589186,
            45.476771
          ],
          [
            -73.588341,
            45.47675
          ],
          [
            -73.588084,
            45.476762
          ],
          [
            -73.587959,
            45.476777
          ],
          [
            -73.587796,
            45.476807
          ],
          [
            -73.587635,
            45.476849
          ],
          [
            -73.587491,
            45.476893
          ],
          [
            -73.586651,
            45.477186
          ],
          [
            -73.585627,
            45.477583
          ],
          [
            -73.585401,
            45.477687
          ],
          [
            -73.58521,
            45.477787
          ],
          [
            -73.584653,
            45.478136
          ],
          [
            -73.584149,
            45.478522
          ],
          [
            -73.583948,
            45.478689
          ],
          [
            -73.583768,
            45.478854
          ],
          [
            -73.583591,
            45.479047
          ],
          [
            -73.583044,
            45.479711
          ],
          [
            -73.581874,
            45.481158
          ],
          [
            -73.581718,
            45.481323
          ],
          [
            -73.581563,
            45.481468
          ],
          [
            -73.58141,
            45.481596
          ],
          [
            -73.581173,
            45.481768
          ],
          [
            -73.580175,
            45.482433
          ],
          [
            -73.579317,
            45.482947
          ],
          [
            -73.579073,
            45.483078
          ],
          [
            -73.578772,
            45.483229
          ],
          [
            -73.578324,
            45.483409
          ],
          [
            -73.578244,
            45.483445
          ],
          [
            -73.578167,
            45.483489
          ],
          [
            -73.577895,
            45.483691
          ],
          [
            -73.57776,
            45.483804
          ],
          [
            -73.577665,
            45.483894
          ],
          [
            -73.577495,
            45.484064
          ],
          [
            -73.577408,
            45.484174
          ],
          [
            -73.577321,
            45.48431
          ],
          [
            -73.577235,
            45.484476
          ],
          [
            -73.577153,
            45.484662
          ],
          [
            -73.577082,
            45.484869
          ],
          [
            -73.576998,
            45.485177
          ],
          [
            -73.576951,
            45.485391
          ],
          [
            -73.576891,
            45.485771
          ],
          [
            -73.576887,
            45.486065
          ],
          [
            -73.576904,
            45.486435
          ],
          [
            -73.576931,
            45.486784
          ],
          [
            -73.576949,
            45.487251
          ],
          [
            -73.576938,
            45.487571
          ],
          [
            -73.576921,
            45.487767
          ],
          [
            -73.576897,
            45.487906
          ],
          [
            -73.576853,
            45.488114
          ],
          [
            -73.576735,
            45.48845
          ],
          [
            -73.576667,
            45.48861
          ],
          [
            -73.576478,
            45.488968
          ],
          [
            -73.576393,
            45.489135
          ],
          [
            -73.576126,
            45.489612
          ],
          [
            -73.575534,
            45.490616
          ],
          [
            -73.575295,
            45.491006
          ],
          [
            -73.575078,
            45.49132
          ],
          [
            -73.574865,
            45.491556
          ],
          [
            -73.574564,
            45.491872
          ],
          [
            -73.574332,
            45.4921
          ],
          [
            -73.573652,
            45.492682
          ],
          [
            -73.570938,
            45.494976
          ],
          [
            -73.567061,
            45.498253
          ],
          [
            -73.563092,
            45.502017
          ],
          [
            -73.563009,
            45.502107
          ],
          [
            -73.559717,
            45.506043
          ],
          [
            -73.556383,
            45.510068
          ],
          [
            -73.555059,
            45.511613
          ],
          [
            -73.554909,
            45.511854
          ],
          [
            -73.554895,
            45.512143
          ],
          [
            -73.554988,
            45.512357
          ],
          [
            -73.555164,
            45.512536
          ],
          [
            -73.555366,
            45.512659
          ],
          [
            -73.555695,
            45.512798
          ],
          [
            -73.55975,
            45.514696
          ],
          [
            -73.561407,
            45.515461
          ],
          [
            -73.567204,
            45.517989
          ],
          [
            -73.569012,
            45.51883
          ],
          [
            -73.570262,
            45.519526
          ],
          [
            -73.57985,
            45.524026
          ],
          [
            -73.581423,
            45.52474
          ],
          [
            -73.584094,
            45.525935
          ],
          [
            -73.585263,
            45.526466
          ],
          [
            -73.585632,
            45.526641
          ],
          [
            -73.585778,
            45.526732
          ],
          [
            -73.585971,
            45.526896
          ],
          [
            -73.586095,
            45.527027
          ],
          [
            -73.586234,
            45.52713
          ],
          [
            -73.586405,
            45.527227
          ],
          [
            -73.588588,
            45.528247
          ],
          [
            -73.59004,
            45.528891
          ],
          [
            -73.591402,
            45.529506
          ],
          [
            -73.592599,
            45.530025
          ],
          [
            -73.593002,
            45.530217
          ],
          [
            -73.593513,
            45.5304
          ],
          [
            -73.59401,
            45.530544
          ],
          [
            -73.594415,
            45.530643
          ],
          [
            -73.594825,
            45.530715
          ],
          [
            -73.595135,
            45.530786
          ],
          [
            -73.59548,
            45.530892
          ],
          [
            -73.595862,
            45.531022
          ],
          [
            -73.596445,
            45.531223
          ],
          [
            -73.596903,
            45.531392
          ],
          [
            -73.597387,
            45.53159
          ],
          [
            -73.59854,
            45.532128
          ],
          [
            -73.60494,
            45.535069
          ],
          [
            -73.612673,
            45.538552
          ],
          [
            -73.612957,
            45.538662
          ],
          [
            -73.61323,
            45.538747
          ],
          [
            -73.614158,
            45.538999
          ],
          [
            -73.628743,
            45.543192
          ],
          [
            -73.638911,
            45.546031
          ],
          [
            -73.640896,
            45.5466
          ],
          [
            -73.641253,
            45.546702
          ],
          [
            -73.643065,
            45.547221
          ],
          [
            -73.645818,
            45.548009
          ],
          [
            -73.653834,
            45.550305
          ],
          [
            -73.656253,
            45.550955
          ],
          [
            -73.665225,
            45.55355
          ],
          [
            -73.668051,
            45.554358
          ],
          [
            -73.669062,
            45.554643
          ],
          [
            -73.672147,
            45.555523
          ],
          [
            -73.67232,
            45.555571
          ],
          [
            -73.673546,
            45.55592
          ],
          [
            -73.673931,
            45.556036
          ],
          [
            -73.674088,
            45.556091
          ],
          [
            -73.674343,
            45.556151
          ],
          [
            -73.674955,
            45.556328
          ],
          [
            -73.675639,
            45.556563
          ],
          [
            -73.676227,
            45.55684
          ],
          [
            -73.678895,
            45.55822
          ],
          [
            -73.680803,
            45.559296
          ],
          [
            -73.681993,
            45.559949
          ],
          [
            -73.683347,
            45.560715
          ],
          [
            -73.683837,
            45.560922
          ],
          [
            -73.684486,
            45.561091
          ],
          [
            -73.685098,
            45.561176
          ],
          [
            -73.685964,
            45.561232
          ],
          [
            -73.686845,
            45.561249
          ],
          [
            -73.694431,
            45.56132
          ],
          [
            -73.70283,
            45.561347
          ],
          [
            -73.704926,
            45.561314
          ],
          [
            -73.705682,
            45.561279
          ],
          [
            -73.706175,
            45.561249
          ],
          [
            -73.706668,
            45.561196
          ],
          [
            -73.707509,
            45.561079
          ],
          [
            -73.708643,
            45.56088
          ],
          [
            -73.709463,
            45.560725
          ],
          [
            -73.711283,
            45.56041
          ],
          [
            -73.71173,
            45.560345
          ],
          [
            -73.712213,
            45.56031
          ],
          [
            -73.716578,
            45.560357
          ],
          [
            -73.717441,
            45.560334
          ],
          [
            -73.718015,
            45.560286
          ],
          [
            -73.718552,
            45.560213
          ],
          [
            -73.719061,
            45.560085
          ],
          [
            -73.719596,
            45.559872
          ],
          [
            -73.719833,
            45.559757
          ],
          [
            -73.720684,
            45.559342
          ],
          [
            -73.720804,
            45.559287
          ],
          [
            -73.720946,
            45.559222
          ],
          [
            -73.722023,
            45.558695
          ],
          [
            -73.723242,
            45.558077
          ],
          [
            -73.723485,
            45.557954
          ],
          [
            -73.726112,
            45.556626
          ],
          [
            -73.723485,
            45.557954
          ],
          [
            -73.723354,
            45.558004
          ],
          [
            -73.723219,
            45.558055
          ],
          [
            -73.723111,
            45.55811
          ],
          [
            -73.722001,
            45.558673
          ],
          [
            -73.720925,
            45.5592
          ],
          [
            -73.720662,
            45.55932
          ],
          [
            -73.719668,
            45.559804
          ],
          [
            -73.719575,
            45.559849
          ],
          [
            -73.719045,
            45.560061
          ],
          [
            -73.718542,
            45.560187
          ],
          [
            -73.718009,
            45.560259
          ],
          [
            -73.717438,
            45.560307
          ],
          [
            -73.716578,
            45.56033
          ],
          [
            -73.712212,
            45.560283
          ],
          [
            -73.711724,
            45.560318
          ],
          [
            -73.711275,
            45.560384
          ],
          [
            -73.710646,
            45.560489
          ],
          [
            -73.709453,
            45.560699
          ],
          [
            -73.708633,
            45.560854
          ],
          [
            -73.707501,
            45.561052
          ],
          [
            -73.706662,
            45.56117
          ],
          [
            -73.706171,
            45.561222
          ],
          [
            -73.705679,
            45.561252
          ],
          [
            -73.704924,
            45.561287
          ],
          [
            -73.70283,
            45.56132
          ],
          [
            -73.701959,
            45.561317
          ],
          [
            -73.694431,
            45.561293
          ],
          [
            -73.686846,
            45.561222
          ],
          [
            -73.685966,
            45.561205
          ],
          [
            -73.685103,
            45.561149
          ],
          [
            -73.684496,
            45.561065
          ],
          [
            -73.683854,
            45.560897
          ],
          [
            -73.683369,
            45.560693
          ],
          [
            -73.682017,
            45.559928
          ],
          [
            -73.680827,
            45.559275
          ],
          [
            -73.679807,
            45.558699
          ],
          [
            -73.678919,
            45.558199
          ],
          [
            -73.676249,
            45.556818
          ],
          [
            -73.675658,
            45.556539
          ],
          [
            -73.674971,
            45.556304
          ],
          [
            -73.672522,
            45.555599
          ],
          [
            -73.672325,
            45.555543
          ],
          [
            -73.668881,
            45.554562
          ],
          [
            -73.668064,
            45.554326
          ],
          [
            -73.665243,
            45.553525
          ],
          [
            -73.660531,
            45.552162
          ],
          [
            -73.656267,
            45.55093
          ],
          [
            -73.653848,
            45.55028
          ],
          [
            -73.645832,
            45.547984
          ],
          [
            -73.64564,
            45.547929
          ],
          [
            -73.64555,
            45.547904
          ],
          [
            -73.643319,
            45.547265
          ],
          [
            -73.643262,
            45.547249
          ],
          [
            -73.641081,
            45.546625
          ],
          [
            -73.640911,
            45.546574
          ],
          [
            -73.638925,
            45.546006
          ],
          [
            -73.628757,
            45.543167
          ],
          [
            -73.614172,
            45.538974
          ],
          [
            -73.613245,
            45.538722
          ],
          [
            -73.612974,
            45.538638
          ],
          [
            -73.612693,
            45.538529
          ],
          [
            -73.608336,
            45.536566,
            18.25
          ],
          [
            -73.604961,
            45.535046,
            18.25
          ],
          [
            -73.598561,
            45.532106,
            18.25
          ],
          [
            -73.597408,
            45.531567,
            18.25
          ],
          [
            -73.596922,
            45.531369,
            18.25
          ],
          [
            -73.596463,
            45.531199,
            18.25
          ],
          [
            -73.595879,
            45.530998,
            18.25
          ],
          [
            -73.595496,
            45.530868,
            18.25
          ],
          [
            -73.595149,
            45.530761,
            18.25
          ],
          [
            -73.594836,
            45.530689,
            18.25
          ],
          [
            -73.594426,
            45.530617,
            18.25
          ],
          [
            -73.594023,
            45.530519,
            18.25
          ],
          [
            -73.593529,
            45.530375,
            18.25
          ],
          [
            -73.593022,
            45.530193,
            18.25
          ],
          [
            -73.59262,
            45.530003,
            18.25
          ],
          [
            -73.591422,
            45.529483,
            18.25
          ],
          [
            -73.590061,
            45.528868,
            18.25
          ],
          [
            -73.588609,
            45.528224,
            18.25
          ],
          [
            -73.586426,
            45.527204,
            18.25
          ],
          [
            -73.58626,
            45.52711,
            18.25
          ],
          [
            -73.586126,
            45.52701,
            18.25
          ],
          [
            -73.586002,
            45.52688,
            18.25
          ],
          [
            -73.585806,
            45.526713,
            18.25
          ],
          [
            -73.585656,
            45.52662,
            18.25
          ],
          [
            -73.585284,
            45.526443,
            18.25
          ],
          [
            -73.584115,
            45.525913,
            18.25
          ],
          [
            -73.581443,
            45.524718,
            18.25
          ],
          [
            -73.579871,
            45.524004,
            18.25
          ],
          [
            -73.570284,
            45.519504,
            18.25
          ],
          [
            -73.569034,
            45.518808,
            18.25
          ],
          [
            -73.567225,
            45.517966,
            18.25
          ],
          [
            -73.561428,
            45.515438,
            18.25
          ],
          [
            -73.559771,
            45.514674,
            18.25
          ],
          [
            -73.555716,
            45.512776,
            18.25
          ],
          [
            -73.555388,
            45.512637,
            18.25
          ],
          [
            -73.555193,
            45.512518,
            18.25
          ],
          [
            -73.555023,
            45.512346,
            18.25
          ],
          [
            -73.554931,
            45.512139,
            18.25
          ],
          [
            -73.554947,
            45.51186,
            18.25
          ],
          [
            -73.555093,
            45.511626,
            18.25
          ],
          [
            -73.555842,
            45.510751,
            18.25
          ],
          [
            -73.556416,
            45.510082,
            18.25
          ],
          [
            -73.55975,
            45.506057,
            18.25
          ],
          [
            -73.563042,
            45.502121,
            18.5
          ],
          [
            -73.563124,
            45.502032,
            18.5
          ],
          [
            -73.567091,
            45.498269,
            18.5
          ],
          [
            -73.570968,
            45.494993,
            18.75
          ],
          [
            -73.573682,
            45.492699,
            18.75
          ],
          [
            -73.574362,
            45.492116,
            18.75
          ],
          [
            -73.574596,
            45.491887,
            18.75
          ],
          [
            -73.574898,
            45.49157,
            18.75
          ],
          [
            -73.575111,
            45.491333,
            18.75
          ],
          [
            -73.57533,
            45.491017,
            18.75
          ],
          [
            -73.575569,
            45.490626,
            18.75
          ],
          [
            -73.576162,
            45.489622,
            19
          ],
          [
            -73.576429,
            45.489145,
            19
          ],
          [
            -73.576514,
            45.488977,
            19
          ],
          [
            -73.576704,
            45.488618,
            19
          ],
          [
            -73.576772,
            45.488457,
            19
          ],
          [
            -73.576891,
            45.488119,
            19
          ],
          [
            -73.576935,
            45.48791,
            19
          ],
          [
            -73.576959,
            45.487769,
            19
          ],
          [
            -73.576976,
            45.487572,
            19
          ],
          [
            -73.576988,
            45.487251,
            19
          ],
          [
            -73.576969,
            45.486783,
            19
          ],
          [
            -73.576926,
            45.486065,
            19
          ],
          [
            -73.576929,
            45.485772,
            19
          ],
          [
            -73.576989,
            45.485395,
            19
          ],
          [
            -73.577036,
            45.485182,
            19
          ],
          [
            -73.57712,
            45.484874,
            19
          ],
          [
            -73.57719,
            45.484669,
            19
          ],
          [
            -73.577271,
            45.484485,
            19
          ],
          [
            -73.577357,
            45.48432,
            19
          ],
          [
            -73.577442,
            45.484186,
            19
          ],
          [
            -73.577527,
            45.484079,
            19
          ],
          [
            -73.577697,
            45.48391,
            19
          ],
          [
            -73.57779,
            45.48382,
            19
          ],
          [
            -73.577924,
            45.483709,
            19
          ],
          [
            -73.578192,
            45.483509,
            19
          ],
          [
            -73.578266,
            45.483467,
            19
          ],
          [
            -73.578344,
            45.483432,
            19
          ],
          [
            -73.578793,
            45.483251,
            19
          ],
          [
            -73.579096,
            45.4831,
            19
          ],
          [
            -73.579341,
            45.482968,
            19
          ],
          [
            -73.580199,
            45.482452,
            20
          ],
          [
            -73.5812,
            45.481787,
            21.25
          ],
          [
            -73.581438,
            45.481615,
            21.5
          ],
          [
            -73.581593,
            45.481485,
            21.75
          ],
          [
            -73.581749,
            45.481339,
            22
          ],
          [
            -73.581907,
            45.481172,
            22.25
          ],
          [
            -73.583077,
            45.479724,
            24.5
          ],
          [
            -73.583624,
            45.479061,
            25.5
          ],
          [
            -73.5838,
            45.478869,
            25.75
          ],
          [
            -73.583978,
            45.478706,
            26
          ],
          [
            -73.584178,
            45.478539,
            26.25
          ],
          [
            -73.58468,
            45.478155,
            27
          ],
          [
            -73.585234,
            45.477808,
            27.5
          ],
          [
            -73.585423,
            45.477709,
            27.75
          ],
          [
            -73.585647,
            45.477606,
            28
          ],
          [
            -73.586669,
            45.47721,
            29
          ],
          [
            -73.587507,
            45.476917,
            30
          ],
          [
            -73.587649,
            45.476874,
            30
          ],
          [
            -73.587808,
            45.476833,
            30.25
          ],
          [
            -73.587967,
            45.476803,
            30.5
          ],
          [
            -73.588089,
            45.476789,
            30.5
          ],
          [
            -73.588342,
            45.476777,
            30.75
          ],
          [
            -73.589184,
            45.476798,
            31.5
          ],
          [
            -73.5899,
            45.476847,
            32.25
          ],
          [
            -73.590238,
            45.476876,
            32.5
          ],
          [
            -73.590482,
            45.47691,
            32.75
          ],
          [
            -73.590828,
            45.476984,
            33
          ],
          [
            -73.590994,
            45.477036,
            33.25
          ],
          [
            -73.591273,
            45.477141,
            33.5
          ],
          [
            -73.591527,
            45.477261,
            33.75
          ],
          [
            -73.591681,
            45.477343,
            34
          ],
          [
            -73.59246,
            45.477787,
            35
          ],
          [
            -73.592908,
            45.478029,
            35.5
          ],
          [
            -73.593048,
            45.478096,
            35.5
          ],
          [
            -73.59322,
            45.478165,
            35.75
          ],
          [
            -73.593418,
            45.478234,
            36
          ],
          [
            -73.593734,
            45.478319,
            36.25
          ],
          [
            -73.594065,
            45.478385,
            36.5
          ],
          [
            -73.594303,
            45.47842,
            36.75
          ],
          [
            -73.594515,
            45.478442,
            37
          ],
          [
            -73.594711,
            45.478458,
            37.25
          ],
          [
            -73.594946,
            45.478469,
            37.25
          ],
          [
            -73.595282,
            45.478471,
            37.75
          ],
          [
            -73.595458,
            45.478464,
            37.75
          ],
          [
            -73.595678,
            45.478443,
            38
          ],
          [
            -73.595948,
            45.478394,
            38.25
          ],
          [
            -73.596287,
            45.478303,
            38.75
          ],
          [
            -73.596462,
            45.478248,
            38.75
          ],
          [
            -73.596612,
            45.478188,
            39
          ],
          [
            -73.597095,
            45.477959,
            39.5
          ],
          [
            -73.597473,
            45.477751,
            40
          ],
          [
            -73.597637,
            45.477644,
            40.25
          ],
          [
            -73.598378,
            45.477011,
            41.25
          ],
          [
            -73.599817,
            45.475823,
            43.25
          ],
          [
            -73.601324,
            45.474886,
            45
          ],
          [
            -73.601602,
            45.474739,
            45.5
          ],
          [
            -73.601928,
            45.474582,
            45.75
          ],
          [
            -73.602105,
            45.474509,
            46
          ],
          [
            -73.6025,
            45.474363,
            46.25
          ],
          [
            -73.603793,
            45.473926,
            47.75
          ],
          [
            -73.604259,
            45.473768,
            49
          ],
          [
            -73.604533,
            45.473703,
            49.5
          ],
          [
            -73.604839,
            45.473652,
            50.5
          ],
          [
            -73.604995,
            45.473631,
            50.75
          ],
          [
            -73.605098,
            45.47363,
            51
          ],
          [
            -73.605295,
            45.473658,
            51.5
          ],
          [
            -73.605554,
            45.473715,
            52.25
          ],
          [
            -73.605731,
            45.473777,
            52.75
          ],
          [
            -73.609412,
            45.475383,
            63.5
          ],
          [
            -73.614803,
            45.477699,
            79
          ],
          [
            -73.619537,
            45.479669,
            92.75
          ],
          [
            -73.619741,
            45.479759,
            92.75
          ],
          [
            -73.621377,
            45.480467,
            88.5
          ],
          [
            -73.626577,
            45.482743
          ],
          [
            -73.62692,
            45.482897
          ],
          [
            -73.628271,
            45.48355
          ],
          [
            -73.628461,
            45.483683
          ],
          [
            -73.628517,
            45.483773
          ],
          [
            -73.628545,
            45.483848
          ],
          [
            -73.628565,
            45.48392
          ],
          [
            -73.628581,
            45.484059
          ],
          [
            -73.628573,
            45.484191
          ],
          [
            -73.628559,
            45.484277
          ],
          [
            -73.627848,
            45.486247
          ],
          [
            -73.627423,
            45.487349
          ],
          [
            -73.626988,
            45.488582
          ],
          [
            -73.626881,
            45.488909
          ],
          [
            -73.626842,
            45.489097
          ],
          [
            -73.626831,
            45.489269
          ],
          [
            -73.626895,
            45.489452
          ],
          [
            -73.627021,
            45.489598
          ],
          [
            -73.627283,
            45.489757
          ],
          [
            -73.628942,
            45.490503
          ],
          [
            -73.629169,
            45.490602
          ],
          [
            -73.629977,
            45.490958
          ],
          [
            -73.632865,
            45.492303
          ],
          [
            -73.637794,
            45.494403
          ],
          [
            -73.640197,
            45.495475
          ],
          [
            -73.64083,
            45.495773
          ],
          [
            -73.641105,
            45.495866
          ],
          [
            -73.64169,
            45.495984
          ],
          [
            -73.642275,
            45.496049
          ],
          [
            -73.642901,
            45.496003
          ],
          [
            -73.643401,
            45.49594
          ],
          [
            -73.643872,
            45.495816
          ],
          [
            -73.644253,
            45.495624
          ],
          [
            -73.644847,
            45.495272
          ],
          [
            -73.645543,
            45.49474
          ],
          [
            -73.646655,
            45.49395
          ],
          [
            -73.647188,
            45.493676
          ],
          [
            -73.647624,
            45.493532
          ],
          [
            -73.648149,
            45.493401
          ],
          [
            -73.648523,
            45.493331
          ],
          [
            -73.649173,
            45.493317
          ],
          [
            -73.64978,
            45.493428
          ],
          [
            -73.650166,
            45.49354
          ],
          [
            -73.650777,
            45.493781
          ],
          [
            -73.651304,
            45.494035
          ],
          [
            -73.6529,
            45.494891
          ],
          [
            -73.653256,
            45.495119
          ],
          [
            -73.659355,
            45.4989
          ],
          [
            -73.661608,
            45.5003
          ],
          [
            -73.66253,
            45.500934
          ],
          [
            -73.663271,
            45.501595
          ],
          [
            -73.663904,
            45.502268
          ],
          [
            -73.665009,
            45.50317
          ],
          [
            -73.669622,
            45.506321
          ],
          [
            -73.671285,
            45.507324
          ],
          [
            -73.672589,
            45.508005
          ],
          [
            -73.673297,
            45.508397
          ],
          [
            -73.678517,
            45.511586
          ],
          [
            -73.682988,
            45.514358
          ],
          [
            -73.683348,
            45.514577
          ]
        ]
      }
    }
  ]
}