{
  "type": "FeatureCollection",
  "features": [
    {
      "type": "Feature",
      "properties": {
        "creator": "BRouter-1.7.0",
        "name": "Montréal Metro (Angrignon - Honoré-Beaugrand)",
        "track-length": "44496",
        "filtered ascend": "54",
        "plain-ascend": "1",
        "total-time": "3560",
        "total-energy": "1979719",
        "cost": "88992",
        "messages": [
          [
            "Longitude",
            "Latitude",
            "Elevation",
            "Distance",
            "CostPerKm",
            "ElevCost",
            "TurnCost",
            "NodeCost",
            "InitialCost",
            "WayTags",
            "NodeTags",
            "Time",
            "Energy"
          ],
          [
            "-73603611",
            "45446228",
            "-8192",
            "46",
            "2000",
            "0",
            "0",
            "0",
            "0",
            "reversedirection=yes railway=subway",
            "railway=unknown",
            "3",
            "2023"
          ],
          [
            "-73593731",
            "45451102",
            "23",
            "985",
            "2000",
            "0",
            "0",
            "0",
            "0",
            "reversedirection=yes railway=subway",
            "railway=unknown",
            "82",
            "45348"
          ],
          [
            "-73582035",
            "45456758",
            "20",
            "1180",
            "2000",
            "0",
            "0",
            "0",
            "0",
            "reversedirection=yes railway=subway",
            "wheelchair=yes railway=unknown",
            "176",
            "97251"
          ],
          [
            "-73573163",
            "45459457",
            "18",
            "932",
            "2000",
            "0",
            "0",
            "0",
            "0",
            "reversedirection=yes railway=subway",
            "railway=unknown",
            "251",
            "138245"
          ],
          [
            "-73567044",
            "45462771",
            "17",
            "784",
            "2000",
            "0",
            "0",
            "0",
            "0",
            "reversedirection=yes railway=subway",
            "railway=unknown",
            "314",
            "172730"
          ],
          [
            "-73566245",
            "45471028",
            "15",
            "920",
            "2000",
            "0",
            "0",
            "0",
            "0",
            "reversedirection=yes railway=subway",
            "railway=unknown",
            "387",
            "208587"
          ],
          [
            "-73569375",
            "45478395",
            "16",
            "909",
            "2000",
            "0",
            "0",
            "0",
            "0",
            "reversedirection=yes railway=subway",
            "railway=unknown",
            "460",
            "248543"
          ],
          [
            "-73580272",
            "45482528",
            "18",
            "1150",
            "2000",
            "0",
            "0",
            "0",
            "0",
            "reversedirection=yes railway=subway",
            "railway=unknown",
            "552",
            "296740"
          ],
          [
            "-73580308",
            "45482505",
            "18",
            "4",
            "2000",
            "0",
            "0",
            "0",
            "0",
            "reversedirection=yes railway=subway",
            "railway=unknown",
            "552",
            "296923"
          ],
          [
            "-73586313",
            "45489679",
            "38",
            "1648",
            "2000",
            "0",
            "0",
            "0",
            "0",
            "reversedirection=yes railway=subway",
            "wheelchair=yes railway=station",
            "684",
            "369583"
          ],
          [
            "-73579815",
            "45495351",
            "48",
            "809",
            "2000",
            "0",
            "0",
            "0",
            "0",
            "reversedirection=yes railway=subway",
            "railway=unknown",
            "749",
            "407815"
          ],
          [
            "-73575024",
            "45500564",
            "56",
            "690",
            "2000",
            "0",
            "0",
            "0",
            "0",
            "reversedirection=yes railway=subway",
            "railway=unknown",
            "804",
            "438165"
          ],
          [
            "-73571533",
            "45504069",
            "50",
            "475",
            "2000",
            "0",
            "0",
            "0",
            "0",
            "reversedirection=yes railway=subway",
            "railway=unknown",
            "842",
            "489911"
          ],
          [
            "-73568337",
            "45508037",
            "45",
            "508",
            "2000",
            "0",
            "0",
            "0",
            "0",
            "reversedirection=yes railway=subway",
            "railway=unknown",
            "883",
            "512523"
          ],
          [
            "-73564822",
            "45510924",
            "40",
            "433",
            "2000",
            "0",
            "0",
            "0",
            "0",
            "reversedirection=yes railway=subway",
            "wheelchair=no railway=unknown",
            "917",
            "531570"
          ],
          [
            "-73561335",
            "45514946",
            "34",
            "523",
            "2000",
            "0",
            "0",
            "0",
            "0",
            "reversedirection=yes railway=subway",
            "railway=unknown",
            "959",
            "554575"
          ],
          [
            "-73561165",
            "45515195",
            "33",
            "31",
            "2000",
            "0",
            "0",
            "0",
            "0",
            "reversedirection=yes railway=subway",
            "railway=unknown",
            "962",
            "555938"
          ],
          [
            "-73557162",
            "45519543",
            "-8192",
            "576",
            "2000",
            "0",
            "0",
            "0",
            "0",
            "reversedirection=yes railway=subway",
            "railway=unknown",
            "1008",
            "570694"
          ],
          [
            "-73554307",
            "45522606",
            "-8192",
            "407",
            "2000",
            "0",
            "0",
            "0",
            "0",
            "reversedirection=yes railway=subway",
            "highway=bus_stop",
            "1040",
            "588334"
          ],
          [
            "-73552944",
            "45524049",
            "-8192",
            "192",
            "2000",
            "0",
            "0",
            "0",
            "0",
            "reversedirection=yes railway=subway",
            "railway=unknown",
            "1056",
            "596776"
          ],
          [
            "-73552479",
            "45532993",
            "-8192",
            "1225",
            "2000",
            "0",
            "0",
            "0",
            "0",
            "reversedirection=yes railway=subway",
            "railway=unknown",
            "1154",
            "648554"
          ],
          [
            "-73554221",
            "45541717",
            "-8192",
            "1166",
            "2000",
            "0",
            "0",
            "0",
            "0",
            "reversedirection=yes railway=subway",
            "railway=unknown",
            "1247",
            "699295"
          ],
          [
            "-73551127",
            "45546890",
            "-8192",
            "624",
            "2000",
            "0",
            "0",
            "0",
            "0",
            "reversedirection=yes railway=subway",
            "railway=unknown",
            "1297",
            "726742"
          ],
          [
            "-73551501",
            "45554200",
            "-8192",
            "839",
            "2000",
            "0",
            "0",
            "0",
            "0",
            "reversedirection=yes railway=subway",
            "railway=unknown",
            "1364",
            "763646"
          ],
          [
            "-73547217",
            "45561211",
            "-8192",
            "849",
            "2000",
            "0",
            "0",
            "0",
            "0",
            "reversedirection=yes railway=subway",
            "wheelchair=no railway=unknown",
            "1432",
            "800989"
          ],
          [
            "-73547212",
            "45569165",
            "-8192",
            "976",
            "2000",
            "0",
            "0",
            "0",
            "0",
            "reversedirection=yes railway=subway",
            "railway=unknown",
            "1510",
            "843919"
          ],
          [
            "-73546718",
            "45576839",
            "-8192",
            "929",
            "2000",
            "0",
            "0",
            "0",
            "0",
            "reversedirection=yes railway=subway",
            "railway=unknown",
            "1584",
            "884781"
          ],
          [
            "-73543183",
            "45582750",
            "-8192",
            "712",
            "2000",
            "0",
            "0",
            "0",
            "0",
            "reversedirection=yes railway=subway",
            "railway=unknown",
            "1641",
            "916099"
          ],
          [
            "-73539420",
            "45589156",
            "-8192",
            "770",
            "2000",
            "0",
            "0",
            "0",
            "0",
            "reversedirection=yes railway=subway",
            "railway=unknown",
            "1703",
            "949967"
          ],
          [
            "-73535420",
            "45596409",
            "-8192",
            "867",
            "2000",
            "0",
            "0",
            "0",
            "0",
            "reversedirection=yes railway=subway",
            "railway=unknown",
            "1772",
            "988102"
          ],
          [
            "-73534980",
            "45597149",
            "-8192",
            "89",
            "2000",
            "0",
            "0",
            "0",
            "0",
            "reversedirection=yes railway=subway",
            "",
            "1779",
            "992017"
          ],
          [
            "-73535420",
            "45596409",
            "-8192",
            "89",
            "2000",
            "0",
            "0",
            "0",
            "0",
            "railway=subway",
            "railway=unknown",
            "7",
            "3914"
          ],
          [
            "-73539420",
            "45589156",
            "-8192",
            "867",
            "2000",
            "0",
            "0",
            "0",
            "0",
            "railway=subway",
            "railway=unknown",
            "76",
            "42049"
          ],
          [
            "-73543183",
            "45582750",
            "-8192",
            "770",
            "2000",
            "0",
            "0",
            "0",
            "0",
            "railway=subway",
            "railway=unknown",
            "138",
            "75918"
          ],
          [
            "-73546718",
            "45576839",
            "-8192",
            "712",
            "2000",
            "0",
            "0",
            "0",
            "0",
            "railway=subway",
            "railway=unknown",
            "195",
            "107236"
          ],
          [
            "-73547212",
            "45569165",
            "-8192",
            "929",
            "2000",
            "0",
            "0",
            "0",
            "0",
            "railway=subway",
            "railway=unknown",
            "269",
            "148098"
          ],
          [
            "-73547217",
            "45561211",
            "-8192",
            "976",
            "2000",
            "0",
            "0",
            "0",
            "0",
            "railway=subway",
            "wheelchair=no railway=unknown",
            "347",
            "191027"
          ],
          [
            "-73551501",
            "45554200",
            "-8192",
            "849",
            "2000",
            "0",
            "0",
            "0",
            "0",
            "railway=subway",
            "railway=unknown",
            "415",
            "228371"
          ],
          [
            "-73551127",
            "45546890",
            "-8192",
            "839",
            "2000",
            "0",
            "0",
            "0",
            "0",
            "railway=subway",
            "railway=unknown",
            "482",
            "265275"
          ],
          [
            "-73554221",
            "45541717",
            "-8192",
            "624",
            "2000",
            "0",
            "0",
            "0",
            "0",
            "railway=subway",
            "railway=unknown",
            "532",
            "292721"
          ],
          [
            "-73552479",
            "45532993",
            "-8192",
            "1166",
            "2000",
            "0",
            "0",
            "0",
            "0",
            "railway=subway",
            "railway=unknown",
            "625",
            "344008"
          ],
          [
            "-73552944",
            "45524049",
            "-8192",
            "1225",
            "2000",
            "0",
            "0",
            "0",
            "0",
            "railway=subway",
            "railway=unknown",
            "723",
            "397890"
          ],
          [
            "-73554307",
            "45522606",
            "-8192",
            "192",
            "2000",
            "0",
            "0",
            "0",
            "0",
            "railway=subway",
            "highway=bus_stop",
            "739",
            "406335"
          ],
          [
            "-73557162",
            "45519543",
            "-8192",
            "407",
            "2000",
            "0",
            "0",
            "0",
            "0",
            "railway=subway",
            "railway=unknown",
            "771",
            "424237"
          ],
          [
            "-73561165",
            "45515195",
            "36",
            "576",
            "2000",
            "0",
            "0",
            "0",
            "0",
            "railway=subway",
            "railway=unknown",
            "817",
            "449573"
          ],
          [
            "-73561335",
            "45514946",
            "36",
            "31",
            "2000",
            "0",
            "0",
            "0",
            "0",
            "railway=subway",
            "railway=unknown",
            "820",
            "450936"
          ],
          [
            "-73564822",
            "45510924",
            "42",
            "523",
            "2000",
            "0",
            "0",
            "0",
            "0",
            "railway=subway",
            "wheelchair=no railway=unknown",
            "862",
            "473941"
          ],
          [
            "-73568337",
            "45508037",
            "46",
            "433",
            "2000",
            "0",
            "0",
            "0",
            "0",
            "railway=subway",
            "railway=unknown",
            "896",
            "492986"
          ],
          [
            "-73571533",
            "45504069",
            "52",
            "508",
            "2000",
            "0",
            "0",
            "0",
            "0",
            "railway=subway",
            "railway=unknown",
            "937",
            "515331"
          ],
          [
            "-73575024",
            "45500564",
            "47",
            "475",
            "2000",
            "0",
            "0",
            "0",
            "0",
            "railway=subway",
            "railway=unknown",
            "975",
            "557011"
          ],
          [
            "-73579815",
            "45495351",
            "41",
            "690",
            "2000",
            "0",
            "0",
            "0",
            "0",
            "railway=subway",
            "railway=unknown",
            "1030",
            "587542"
          ],
          [
            "-73586313",
            "45489679",
            "33",
            "809",
            "2000",
            "0",
            "0",
            "0",
            "0",
            "railway=subway",
            "wheelchair=yes railway=station",
            "1095",
            "623126"
          ],
          [
            "-73580308",
            "45482505",
            "18",
            "1648",
            "2000",
            "0",
            "0",
            "0",
            "0",
            "railway=subway",
            "railway=unknown",
            "1227",
            "691753"
          ],
          [
            "-73580272",
            "45482528",
            "18",
            "4",
            "2000",
            "0",
            "0",
            "0",
            "0",
            "railway=subway",
            "railway=unknown",
            "1227",
            "691753"
          ],
          [
            "-73569375",
            "45478395",
            "16",
            "1150",
            "2000",
            "0",
            "0",
            "0",
            "0",
            "railway=subway",
            "railway=unknown",
            "1319",
            "735626"
          ],
          [
            "-73566245",
            "45471028",
            "15",
            "909",
            "2000",
            "0",
            "0",
            "0",
            "0",
            "railway=subway",
            "railway=unknown",
            "1392",
            "772757"
          ],
          [
            "-73567044",
            "45462771",
            "17",
            "920",
            "2000",
            "0",
            "0",
            "0",
            "0",
            "railway=subway",
            "railway=unknown",
            "1465",
            "812985"
          ],
          [
            "-73573163",
            "45459457",
            "18",
            "784",
            "2000",
            "0",
            "0",
            "0",
            "0",
            "railway=subway",
            "railway=unknown",
            "1528",
            "846047"
          ],
          [
            "-73582035",
            "45456758",
            "20",
            "932",
            "2000",
            "0",
            "0",
            "0",
            "0",
            "railway=subway",
            "wheelchair=yes railway=unknown",
            "1602",
            "885815"
          ],
          [
            "-73593731",
            "45451102",
            "23",
            "1180",
            "2000",
            "0",
            "0",
            "0",
            "0",
            "railway=subway",
            "railway=unknown",
            "1697",
            "940185"
          ],
          [
            "-73603611",
            "45446228",
            "-8192",
            "985",
            "2000",
            "0",
            "0",
            "0",
            "0",
            "railway=subway",
            "railway=unknown",
            "1776",
            "985678"
          ],
          [
            "-73604385",
            "45445795",
            "-8192",
            "46",
            "2000",
            "0",
            "0",
            "0",
            "0",
            "railway=subway",
            "",
            "1779",
            "987702"
          ]
        ],
        "times": [
          0,
          3.68,
          16.96,
          20.24,
          21.68,
          23.68,
          25.68,
          27.44,
          29.84,
          33.68,
          37.04,
          39.12,
          41.12,
          43.44,
          46,
          48.72,
          51.36,
          58.56,
          61.12,
          76.32,
          82.48,
          88.56,
          97.28,
          99.6,
          112.24,
          118.08,
          130.8,
          144,
          146.24,
          149.52,
          152.56,
          154.08,
          160.72,
          164,
          165.36,
          166.4,
          168.72,
          169.68,
          176.88,
          185.76,
          189.52,
          191.44,
          193.68,
          194.48,
          195.36,
          196.32,
          197.28,
          198.4,
          199.6,
          200.64,
          202.08,
          203.28,
          204.56,
          207.6,
          211.68,
          216.88,
          230.32,
          251.44,
          257.6,
          275.68,
          276.48,
          278.32,
          280.56,
          281.52,
          283.92,
          284.96,
          285.52,
          285.92,
          286.88,
          288,
          289.6,
          290.72,
          292.08,
          294.56,
          298.16,
          308.16,
          314.16,
          330.96,
          346.4,
          385.04,
          387.76,
          397.2,
          408.24,
          411.84,
          415.36,
          418.96,
          421.76,
          423.76,
          426.08,
          429.28,
          432.64,
          434.88,
          437.68,
          440.64,
          443.6,
          446.96,
          460.48,
          478.48,
          481.04,
          483.44,
          487.84,
          495.92,
          509.84,
          514.08,
          517.52,
          519.04,
          520.88,
          523.36,
          524.88,
          526.4,
          528.4,
          529.36,
          530.96,
          532.32,
          533.44,
          534.8,
          536.24,
          537.44,
          538.24,
          540,
          541.92,
          545.36,
          552.48,
          552.8,
          564.64,
          567.12,
          568.32,
          569.52,
          571.36,
          572.56,
          574.4,
          575.6,
          577.44,
          579.28,
          581.12,
          582.32,
          584.16,
          585.36,
          586.56,
          588.4,
          605.44,
          607.28,
          609.12,
          610.96,
          612.24,
          614.08,
          615.92,
          617.2,
          619.04,
          620.88,
          622.72,
          624,
          625.84,
          627.68,
          628.961,
          630.801,
          632.001,
          633.841,
          635.681,
          637.521,
          638.801,
          640.641,
          641.921,
          643.761,
          645.601,
          646.881,
          648.721,
          651.201,
          653.041,
          654.881,
          684.641,
          687.681,
          691.281,
          701.201,
          741.281,
          749.361,
          758.401,
          785.521,
          804.561,
          808.001,
          842.561,
          871.521,
          883.201,
          892.881,
          898.641,
          904.081,
          912.161,
          917.841,
          937.281,
          941.841,
          959.681,
          962.161,
          974.401,
          988.161,
          1008.241,
          1019.281,
          1040.801,
          1056.161,
          1071.681,
          1099.681,
          1106.161,
          1110.481,
          1115.521,
          1120.401,
          1124.001,
          1127.281,
          1132.321,
          1141.521,
          1154.161,
          1171.281,
          1175.601,
          1177.441,
          1182.001,
          1186.161,
          1193.921,
          1202.401,
          1212.401,
          1214.721,
          1219.281,
          1226.721,
          1228.241,
          1240.561,
          1247.441,
          1297.361,
          1305.281,
          1310.641,
          1315.601,
          1325.441,
          1335.361,
          1343.761,
          1348.881,
          1352.881,
          1357.041,
          1364.481,
          1367.121,
          1370.641,
          1373.521,
          1379.281,
          1393.441,
          1432.401,
          1437.761,
          1445.841,
          1452.161,
          1464.321,
          1470.401,
          1475.761,
          1484.961,
          1491.681,
          1500.081,
          1510.481,
          1520.721,
          1529.521,
          1536.321,
          1544.161,
          1548.481,
          1553.361,
          1584.801,
          1590.321,
          1596.081,
          1614.881,
          1641.761,
          1703.361,
          1726.641,
          1729.201,
          1737.121,
          1739.201,
          1772.721,
          1779.841,
          1786.961,
          1820.481,
          1822.561,
          1830.481,
          1833.041,
          1856.321,
          1917.921,
          1944.801,
          1963.601,
          1969.361,
          1974.881,
          2006.321,
          2011.201,
          2015.521,
          2023.361,
          2030.161,
          2038.961,
          2049.201,
          2059.601,
          2068.001,
          2074.721,
          2083.921,
          2089.281,
          2095.361,
          2107.521,
          2113.841,
          2121.921,
          2127.281,
          2166.241,
          2180.401,
          2186.161,
          2189.041,
          2192.561,
          2195.201,
          2202.641,
          2206.801,
          2210.801,
          2215.921,
          2224.321,
          2234.241,
          2244.081,
          2249.041,
          2254.401,
          2262.321,
          2312.241,
          2319.121,
          2331.441,
          2332.961,
          2340.401,
          2344.961,
          2347.281,
          2357.281,
          2365.761,
          2373.521,
          2377.681,
          2382.241,
          2384.081,
          2388.401,
          2405.521,
          2418.161,
          2427.361,
          2432.401,
          2435.681,
          2439.281,
          2444.161,
          2449.201,
          2453.521,
          2460.001,
          2488.001,
          2503.521,
          2518.881,
          2540.401,
          2551.441,
          2571.521,
          2585.281,
          2597.521,
          2600.001,
          2617.841,
          2622.401,
          2641.841,
          2647.521,
          2655.601,
          2661.041,
          2666.801,
          2676.481,
          2688.161,
          2717.121,
          2751.681,
          2755.121,
          2774.161,
          2801.281,
          2810.321,
          2818.401,
          2858.481,
          2868.401,
          2872.001,
          2875.041,
          2904.801,
          2906.641,
          2908.481,
          2910.961,
          2912.801,
          2914.081,
          2915.921,
          2917.761,
          2919.041,
          2920.881,
          2922.161,
          2924.001,
          2925.841,
          2927.681,
          2928.881,
          2930.721,
          2932.001,
          2933.841,
          2935.681,
          2936.961,
          2938.801,
          2940.641,
          2942.481,
          2943.761,
          2945.601,
          2947.44,
          2948.721,
          2950.56,
          2952.4,
          2954.24,
          2971.28,
          2973.12,
          2974.32,
          2975.52,
          2977.36,
          2978.56,
          2980.4,
          2982.24,
          2984.08,
          2985.28,
          2987.12,
          2988.32,
          2990.16,
          2991.36,
          2992.56,
          2995.04,
          3006.88,
          3007.2,
          3014.32,
          3017.76,
          3019.68,
          3021.44,
          3022.24,
          3023.44,
          3024.88,
          3026.24,
          3027.36,
          3028.72,
          3030.32,
          3031.28,
          3033.28,
          3034.8,
          3036.32,
          3038.8,
          3040.64,
          3042.16,
          3045.6,
          3049.84,
          3063.76,
          3071.84,
          3076.24,
          3078.64,
          3081.2,
          3099.2,
          3112.72,
          3116.08,
          3119.04,
          3122,
          3124.8,
          3127.04,
          3130.4,
          3133.6,
          3135.919,
          3137.919,
          3140.72,
          3144.32,
          3147.84,
          3151.44,
          3162.48,
          3171.919,
          3174.639,
          3213.279,
          3228.719,
          3245.519,
          3251.519,
          3261.519,
          3265.119,
          3267.599,
          3268.959,
          3270.079,
          3271.679,
          3272.799,
          3273.759,
          3274.159,
          3274.719,
          3275.759,
          3278.159,
          3279.119,
          3281.359,
          3283.199,
          3283.999,
          3302.079,
          3308.239,
          3329.359,
          3342.799,
          3347.999,
          3352.079,
          3355.119,
          3356.399,
          3357.599,
          3359.039,
          3360.079,
          3361.279,
          3362.399,
          3363.359,
          3364.319,
          3365.199,
          3365.999,
          3368.239,
          3370.159,
          3373.919,
          3382.799,
          3389.999,
          3390.959,
          3393.279,
          3394.319,
          3395.679,
          3398.959,
          3405.599,
          3407.119,
          3410.159,
          3413.439,
          3415.679,
          3428.879,
          3441.599,
          3447.439,
          3460.079,
          3462.399,
          3471.119,
          3477.199,
          3483.359,
          3498.559,
          3501.119,
          3508.319,
          3510.959,
          3513.679,
          3516.239,
          3518.559,
          3520.559,
          3522.639,
          3525.999,
          3529.839,
          3532.239,
          3533.999,
          3535.999,
          3537.999,
          3539.439,
          3542.719,
          3555.999,
          3559.679
        ]
      },
      "geometry": {
        "type": "LineString",
        "coordinates": [
          [
            -73.604072,
            45.44597,
            23.5
          ],
          [
            -73.603611,
            45.446228,
            23.5
          ],
          [
            -73.601961,
            45.447169,
            23.5
          ],
          [
            -73.601536,
            45.447384,
            23.5
          ],
          [
            -73.601363,
            45.447487,
            23.5
          ],
          [
            -73.601127,
            45.447644,
            23.5
          ],
          [
            -73.60091,
            45.447808,
            23.5
          ],
          [
            -73.600745,
            45.447964,
            23.5
          ],
          [
            -73.600535,
            45.448185,
            23.5
          ],
          [
            -73.600216,
            45.448556,
            23.5
          ],
          [
            -73.599982,
            45.448898,
            23.5
          ],
          [
            -73.599848,
            45.449115,
            23.5
          ],
          [
            -73.599698,
            45.449309,
            23.5
          ],
          [
            -73.59946,
            45.449513,
            23.5
          ],
          [
            -73.599161,
            45.449711,
            23.5
          ],
          [
            -73.598797,
            45.449879,
            23.5
          ],
          [
            -73.598437,
            45.450026,
            23.5
          ],
          [
            -73.597416,
            45.45039,
            23.5
          ],
          [
            -73.597032,
            45.450493,
            23.5
          ],
          [
            -73.594682,
            45.450922,
            23.5
          ],
          [
            -73.593731,
            45.451102,
            23.25
          ],
          [
            -73.592786,
            45.451272,
            23
          ],
          [
            -73.591472,
            45.451588,
            22.75
          ],
          [
            -73.59113,
            45.45168,
            22.75
          ],
          [
            -73.589264,
            45.45223,
            22.5
          ],
          [
            -73.588425,
            45.452513,
            22.25
          ],
          [
            -73.586605,
            45.453143,
            22
          ],
          [
            -73.584743,
            45.453848,
            21.5
          ],
          [
            -73.584438,
            45.453972,
            21.5
          ],
          [
            -73.584,
            45.454178,
            21.5
          ],
          [
            -73.583607,
            45.454377,
            21.25
          ],
          [
            -73.583438,
            45.454494,
            21.25
          ],
          [
            -73.582758,
            45.455067,
            21
          ],
          [
            -73.582443,
            45.455367,
            21
          ],
          [
            -73.582326,
            45.455497,
            21
          ],
          [
            -73.582253,
            45.4556,
            21
          ],
          [
            -73.582137,
            45.455848,
            21
          ],
          [
            -73.582105,
            45.455949,
            21
          ],
          [
            -73.582035,
            45.456758,
            20.75
          ],
          [
            -73.58194,
            45.457752,
            20.5
          ],
          [
            -73.581862,
            45.458171,
            20.25
          ],
          [
            -73.58181,
            45.458387,
            20.25
          ],
          [
            -73.581736,
            45.458631,
            20.25
          ],
          [
            -73.581702,
            45.458715,
            20.25
          ],
          [
            -73.581657,
            45.458806,
            20.25
          ],
          [
            -73.581587,
            45.458907,
            20.25
          ],
          [
            -73.581508,
            45.458997,
            20.25
          ],
          [
            -73.581403,
            45.459098,
            20
          ],
          [
            -73.581283,
            45.459199,
            20
          ],
          [
            -73.581154,
            45.459277,
            20
          ],
          [
            -73.580965,
            45.45937,
            20
          ],
          [
            -73.5808,
            45.459435,
            20
          ],
          [
            -73.580611,
            45.459483,
            20
          ],
          [
            -73.580152,
            45.459581,
            19.75
          ],
          [
            -73.579507,
            45.45965,
            19.75
          ],
          [
            -73.578679,
            45.459651,
            19.5
          ],
          [
            -73.576531,
            45.459581,
            19.25
          ],
          [
            -73.573163,
            45.459457,
            18.75
          ],
          [
            -73.572182,
            45.459412,
            18.5
          ],
          [
            -73.569297,
            45.459361,
            18
          ],
          [
            -73.569165,
            45.459367,
            18
          ],
          [
            -73.568877,
            45.459396,
            18
          ],
          [
            -73.568522,
            45.459435,
            18
          ],
          [
            -73.568376,
            45.459461,
            18
          ],
          [
            -73.568016,
            45.459565,
            17.75
          ],
          [
            -73.567864,
            45.459621,
            17.75
          ],
          [
            -73.567785,
            45.459658,
            17.75
          ],
          [
            -73.567735,
            45.45969,
            17.75
          ],
          [
            -73.56763,
            45.459766,
            17.75
          ],
          [
            -73.567511,
            45.459864,
            17.75
          ],
          [
            -73.567385,
            45.460021,
            17.75
          ],
          [
            -73.567333,
            45.460143,
            17.75
          ],
          [
            -73.567286,
            45.460294,
            17.5
          ],
          [
            -73.567226,
            45.46057,
            17.5
          ],
          [
            -73.567184,
            45.460972,
            17.5
          ],
          [
            -73.567108,
            45.462098,
            17.25
          ],
          [
            -73.567044,
            45.462771,
            17
          ],
          [
            -73.566865,
            45.464653,
            16.5
          ],
          [
            -73.566699,
            45.466385,
            16.25
          ],
          [
            -73.56627,
            45.470723,
            15.25
          ],
          [
            -73.566245,
            45.471028,
            15.25
          ],
          [
            -73.566161,
            45.472086,
            15.25
          ],
          [
            -73.566008,
            45.473327,
            15.5
          ],
          [
            -73.56597,
            45.473734,
            15.75
          ],
          [
            -73.565969,
            45.474132,
            15.75
          ],
          [
            -73.565997,
            45.474533,
            15.75
          ],
          [
            -73.566038,
            45.474843,
            15.75
          ],
          [
            -73.566087,
            45.475064,
            16
          ],
          [
            -73.566168,
            45.475318,
            16
          ],
          [
            -73.566326,
            45.475662,
            16
          ],
          [
            -73.56652,
            45.476016,
            16
          ],
          [
            -73.566679,
            45.476241,
            16.25
          ],
          [
            -73.566905,
            45.476516,
            16.25
          ],
          [
            -73.567171,
            45.476792,
            16.25
          ],
          [
            -73.567468,
            45.477053,
            16.25
          ],
          [
            -73.567821,
            45.477337,
            16.5
          ],
          [
            -73.569375,
            45.478395,
            16.75
          ],
          [
            -73.571625,
            45.479663,
            17
          ],
          [
            -73.571923,
            45.479858,
            17
          ],
          [
            -73.572194,
            45.480045,
            17.25
          ],
          [
            -73.572647,
            45.48042,
            17.25
          ],
          [
            -73.57346,
            45.481128,
            17.5
          ],
          [
            -73.574877,
            45.482337,
            17.75
          ],
          [
            -73.575278,
            45.482716,
            17.75
          ],
          [
            -73.575622,
            45.483023,
            18
          ],
          [
            -73.575783,
            45.48315,
            18
          ],
          [
            -73.575998,
            45.483285,
            18
          ],
          [
            -73.576322,
            45.483447,
            18
          ],
          [
            -73.576533,
            45.483534,
            18
          ],
          [
            -73.576746,
            45.483608,
            18
          ],
          [
            -73.577043,
            45.483683,
            18
          ],
          [
            -73.577194,
            45.483715,
            18.25
          ],
          [
            -73.577439,
            45.483748,
            18.25
          ],
          [
            -73.577656,
            45.483757,
            18.25
          ],
          [
            -73.577833,
            45.483748,
            18.25
          ],
          [
            -73.578045,
            45.483722,
            18.25
          ],
          [
            -73.578259,
            45.483676,
            18.25
          ],
          [
            -73.578428,
            45.483619,
            18.25
          ],
          [
            -73.578539,
            45.483573,
            18.25
          ],
          [
            -73.578769,
            45.483463,
            18.25
          ],
          [
            -73.579016,
            45.483329,
            18.5
          ],
          [
            -73.57944,
            45.483078,
            18.5
          ],
          [
            -73.580272,
            45.482528,
            18.5
          ],
          [
            -73.580308,
            45.482505,
            18.5
          ],
          [
            -73.581704,
            45.481609,
            20.25
          ],
          [
            -73.582024,
            45.481446,
            20.5
          ],
          [
            -73.582193,
            45.481375,
            20.75
          ],
          [
            -73.582368,
            45.48131,
            21
          ],
          [
            -73.58264,
            45.481227,
            21.25
          ],
          [
            -73.582827,
            45.481181,
            21.5
          ],
          [
            -73.583113,
            45.481125,
            21.75
          ],
          [
            -73.583307,
            45.481098,
            21.75
          ],
          [
            -73.583601,
            45.481073,
            22.25
          ],
          [
            -73.583898,
            45.481065,
            22.5
          ],
          [
            -73.584194,
            45.481075,
            22.75
          ],
          [
            -73.58439,
            45.481092,
            22.75
          ],
          [
            -73.584682,
            45.481132,
            23.25
          ],
          [
            -73.584873,
            45.481168,
            23.25
          ],
          [
            -73.58506,
            45.481212,
            23.5
          ],
          [
            -73.585334,
            45.481292,
            23.75
          ],
          [
            -73.587728,
            45.482197,
            26.25
          ],
          [
            -73.587983,
            45.482306,
            26.75
          ],
          [
            -73.588227,
            45.482426,
            27
          ],
          [
            -73.588461,
            45.482557,
            27.25
          ],
          [
            -73.58861,
            45.48265,
            27.5
          ],
          [
            -73.588823,
            45.482797,
            27.75
          ],
          [
            -73.589022,
            45.482953,
            28
          ],
          [
            -73.589147,
            45.483062,
            28.25
          ],
          [
            -73.589321,
            45.483232,
            28.5
          ],
          [
            -73.589481,
            45.48341,
            28.75
          ],
          [
            -73.589624,
            45.483594,
            29
          ],
          [
            -73.58971,
            45.48372,
            29.25
          ],
          [
            -73.589825,
            45.483913,
            29.5
          ],
          [
            -73.589922,
            45.484111,
            29.75
          ],
          [
            -73.589977,
            45.484246,
            30
          ],
          [
            -73.590044,
            45.48445,
            30.25
          ],
          [
            -73.590079,
            45.484587,
            30.25
          ],
          [
            -73.590115,
            45.484795,
            30.75
          ],
          [
            -73.590133,
            45.485005,
            31
          ],
          [
            -73.590132,
            45.485214,
            31.25
          ],
          [
            -73.590121,
            45.485354,
            31.5
          ],
          [
            -73.590089,
            45.485562,
            31.75
          ],
          [
            -73.590057,
            45.4857,
            31.75
          ],
          [
            -73.589994,
            45.485905,
            32.25
          ],
          [
            -73.589912,
            45.486106,
            32.5
          ],
          [
            -73.589848,
            45.486239,
            32.5
          ],
          [
            -73.589737,
            45.486433,
            33
          ],
          [
            -73.589563,
            45.486684,
            33.25
          ],
          [
            -73.589412,
            45.486865,
            33.5
          ],
          [
            -73.589246,
            45.48704,
            33.75
          ],
          [
            -73.586313,
            45.489679,
            38.25
          ],
          [
            -73.585988,
            45.489938,
            38.75
          ],
          [
            -73.585626,
            45.490255,
            39.25
          ],
          [
            -73.584616,
            45.491116,
            40.75
          ],
          [
            -73.580617,
            45.494636,
            46.75
          ],
          [
            -73.579815,
            45.495351,
            48
          ],
          [
            -73.579096,
            45.496235,
            49.5
          ],
          [
            -73.576709,
            45.498779,
            53.5
          ],
          [
            -73.575024,
            45.500564,
            56.25
          ],
          [
            -73.574707,
            45.500881,
            55.75
          ],
          [
            -73.571533,
            45.504069,
            50.75
          ],
          [
            -73.569086,
            45.506837,
            46.75
          ],
          [
            -73.568337,
            45.508037,
            45
          ],
          [
            -73.567766,
            45.509046,
            43.5
          ],
          [
            -73.567185,
            45.509544,
            42.75
          ],
          [
            -73.566532,
            45.509953,
            42
          ],
          [
            -73.56549,
            45.510494,
            41
          ],
          [
            -73.564822,
            45.510924,
            40
          ],
          [
            -73.563209,
            45.512797,
            37.25
          ],
          [
            -73.562819,
            45.513233,
            36.75
          ],
          [
            -73.561335,
            45.514946,
            34.25
          ],
          [
            -73.561165,
            45.515195,
            33.75
          ],
          [
            -73.560103,
            45.516348,
            32
          ],
          [
            -73.5589,
            45.517647,
            30.25
          ],
          [
            -73.557162,
            45.519543
          ],
          [
            -73.556216,
            45.520588
          ],
          [
            -73.554307,
            45.522606
          ],
          [
            -73.552944,
            45.524049
          ],
          [
            -73.551573,
            45.525502
          ],
          [
            -73.549114,
            45.528133
          ],
          [
            -73.548802,
            45.528824
          ],
          [
            -73.548677,
            45.529303
          ],
          [
            -73.54867,
            45.529867
          ],
          [
            -73.548747,
            45.530413
          ],
          [
            -73.548919,
            45.530796
          ],
          [
            -73.5492,
            45.531105
          ],
          [
            -73.549647,
            45.531576
          ],
          [
            -73.550753,
            45.532255
          ],
          [
            -73.552479,
            45.532993
          ],
          [
            -73.55485,
            45.533952
          ],
          [
            -73.555397,
            45.534247
          ],
          [
            -73.555618,
            45.534388
          ],
          [
            -73.556012,
            45.534818
          ],
          [
            -73.556272,
            45.535247
          ],
          [
            -73.556568,
            45.53609
          ],
          [
            -73.55668,
            45.537038
          ],
          [
            -73.556548,
            45.538157
          ],
          [
            -73.556451,
            45.538406
          ],
          [
            -73.55621,
            45.53889
          ],
          [
            -73.555736,
            45.539653
          ],
          [
            -73.555629,
            45.539811
          ],
          [
            -73.554555,
            45.540978
          ],
          [
            -73.554221,
            45.541717
          ],
          [
            -73.551127,
            45.54689
          ],
          [
            -73.55075,
            45.547736
          ],
          [
            -73.550645,
            45.548334
          ],
          [
            -73.550745,
            45.548888
          ],
          [
            -73.551198,
            45.549952
          ],
          [
            -73.55178,
            45.550994
          ],
          [
            -73.551982,
            45.551928
          ],
          [
            -73.551939,
            45.552503
          ],
          [
            -73.551997,
            45.552952
          ],
          [
            -73.551929,
            45.553416
          ],
          [
            -73.551501,
            45.5542
          ],
          [
            -73.551406,
            45.554488
          ],
          [
            -73.551239,
            45.554869
          ],
          [
            -73.551067,
            45.555172
          ],
          [
            -73.550688,
            45.555762
          ],
          [
            -73.549703,
            45.557196
          ],
          [
            -73.547217,
            45.561211
          ],
          [
            -73.546858,
            45.561759
          ],
          [
            -73.546125,
            45.562503
          ],
          [
            -73.545605,
            45.563108
          ],
          [
            -73.544852,
            45.564366
          ],
          [
            -73.544775,
            45.565048
          ],
          [
            -73.544889,
            45.565645
          ],
          [
            -73.545329,
            45.566634
          ],
          [
            -73.545716,
            45.567336
          ],
          [
            -73.546312,
            45.568179
          ],
          [
            -73.547212,
            45.569165
          ],
          [
            -73.548064,
            45.57015
          ],
          [
            -73.548715,
            45.571023
          ],
          [
            -73.549037,
            45.571752
          ],
          [
            -73.549143,
            45.572627
          ],
          [
            -73.549069,
            45.573113
          ],
          [
            -73.548863,
            45.57364
          ],
          [
            -73.546718,
            45.576839
          ],
          [
            -73.546338,
            45.577404
          ],
          [
            -73.545959,
            45.577997
          ],
          [
            -73.544845,
            45.579962
          ],
          [
            -73.543183,
            45.58275
          ],
          [
            -73.53942,
            45.589156
          ],
          [
            -73.537962,
            45.591562
          ],
          [
            -73.537847,
            45.591838
          ],
          [
            -73.537602,
            45.592715
          ],
          [
            -73.537515,
            45.592943
          ],
          [
            -73.53542,
            45.596409
          ],
          [
            -73.53498,
            45.597149,
            30.25
          ],
          [
            -73.53542,
            45.596409,
            30.25
          ],
          [
            -73.537515,
            45.592943,
            30.25
          ],
          [
            -73.537602,
            45.592715,
            30.25
          ],
          [
            -73.537847,
            45.591838,
            30.25
          ],
          [
            -73.537962,
            45.591562,
            30.25
          ],
          [
            -73.53942,
            45.589156,
            30.25
          ],
          [
            -73.543183,
            45.58275,
            30.25
          ],
          [
            -73.544845,
            45.579962,
            30.25
          ],
          [
            -73.545959,
            45.577997,
            30.25
          ],
          [
            -73.546338,
            45.577404,
            30.25
          ],
          [
            -73.546718,
            45.576839,
            30.25
          ],
          [
            -73.548863,
            45.57364,
            30.25
          ],
          [
            -73.549069,
            45.573113,
            30.25
          ],
          [
            -73.549143,
            45.572627,
            30.25
          ],
          [
            -73.549037,
            45.571752,
            30.25
          ],
          [
            -73.548715,
            45.571023,
            30.25
          ],
          [
            -73.548064,
            45.57015,
            30.25
          ],
          [
            -73.547212,
            45.569165,
            30.25
          ],
          [
            -73.546312,
            45.568179,
            30.25
          ],
          [
            -73.545716,
            45.567336,
            30.25
          ],
          [
            -73.545329,
            45.566634,
            30.25
          ],
          [
            -73.544889,
            45.565645,
            30.25
          ],
          [
            -73.544775,
            45.565048,
            30.25
          ],
          [
            -73.544852,
            45.564366,
            30.25
          ],
          [
            -73.545605,
            45.563108,
            30.25
          ],
          [
            -73.546125,
            45.562503,
            30.25
          ],
          [
            -73.546858,
            45.561759,
            30.25
          ],
          [
            -73.547217,
            45.561211,
            30.25
          ],
          [
            -73.549703,
            45.557196,
            30.25
          ],
          [
            -73.550688,
            45.555762,
            30.25
          ],
          [
            -73.551067,
            45.555172,
            30.25
          ],
          [
            -73.551239,
            45.554869,
            30.25
          ],
          [
            -73.551406,
            45.554488,
            30.25
          ],
          [
            -73.551501,
            45.5542,
            30.25
          ],
          [
            -73.551929,
            45.553416,
            30.25
          ],
          [
            -73.551997,
            45.552952,
            30.25
          ],
          [
            -73.551939,
            45.552503,
            30.25
          ],
          [
            -73.551982,
            45.551928,
            30.25
          ],
          [
            -73.55178,
            45.550994,
            30.25
          ],
          [
            -73.551198,
            45.549952,
            30.25
          ],
          [
            -73.550745,
            45.548888,
            30.25
          ],
          [
            -73.550645,
            45.548334,
            30.25
          ],
          [
            -73.55075,
            45.547736,
            30.25
          ],
          [
            -73.551127,
            45.54689,
            30.25
          ],
          [
            -73.554221,
            45.541717,
            30.25
          ],
          [
            -73.554555,
            45.540978,
            30.25
          ],
          [
            -73.555629,
            45.539811,
            30.25
          ],
          [
            -73.555736,
            45.539653,
            30.25
          ],
          [
            -73.55621,
            45.53889,
            30.25
          ],
          [
            -73.556451,
            45.538406,
            30.25
          ],
          [
            -73.556548,
            45.538157,
            30.25
          ],
          [
            -73.55668,
            45.537038,
            30.25
          ],
          [
            -73.556568,
            45.53609,
            30.25
          ],
          [
            -73.556272,
            45.535247,
            30.25
          ],
          [
            -73.556012,
            45.534818,
            30.25
          ],
          [
            -73.555618,
            45.534388,
            30.25
          ],
          [
            -73.555397,
            45.534247,
            30.25
          ],
          [
            -73.55485,
            45.533952,
            30.25
          ],
          [
            -73.552479,
            45.532993,
            30.25
          ],
          [
            -73.550753,
            45.532255,
            30.25
          ],
          [
            -73.549647,
            45.531576,
            30.25
          ],
          [
            -73.5492,
            45.531105,
            30.25
          ],
          [
            -73.548919,
            45.530796,
            30.25
          ],
          [
            -73.548747,
            45.530413,
            30.25
          ],
          [
            -73.54867,
            45.529867,
            30.25
          ],
          [
            -73.548677,
            45.529303,
            30.25
          ],
          [
            -73.548802,
            45.528824,
            30.25
          ],
          [
            -73.549114,
            45.528133,
            30.25
          ],
          [
            -73.551573,
            45.525502,
            30.25
          ],
          [
            -73.552944,
            45.524049,
            30.25
          ],
          [
            -73.554307,
            45.522606,
            30.25
          ],
          [
            -73.556216,
            45.520588,
            30.25
          ],
          [
            -73.557162,
            45.519543,
            30.25
          ],
          [
            -73.5589,
            45.517647,
            32.75
          ],
          [
            -73.560103,
            45.516348,
            34.75
          ],
          [
            -73.561165,
            45.515195,
            36.25
          ],
          [
            -73.561335,
            45.514946,
            36.5
          ],
          [
            -73.562819,
            45.513233,
            39
          ],
          [
            -73.563209,
            45.512797,
            39.5
          ],
          [
            -73.564822,
            45.510924,
            42.25
          ],
          [
            -73.56549,
            45.510494,
            43
          ],
          [
            -73.566532,
            45.509953,
            44
          ],
          [
            -73.567185,
            45.509544,
            44.75
          ],
          [
            -73.567766,
            45.509046,
            45.5
          ],
          [
            -73.568337,
            45.508037,
            46.75
          ],
          [
            -73.569086,
            45.506837,
            48.5
          ],
          [
            -73.571533,
            45.504069,
            52.25
          ],
          [
            -73.574707,
            45.500881,
            48.25
          ],
          [
            -73.575024,
            45.500564,
            47.75
          ],
          [
            -73.576709,
            45.498779,
            45.5
          ],
          [
            -73.579096,
            45.496235,
            42.5
          ],
          [
            -73.579815,
            45.495351,
            41.25
          ],
          [
            -73.580617,
            45.494636,
            40.5
          ],
          [
            -73.584616,
            45.491116,
            35.75
          ],
          [
            -73.585626,
            45.490255,
            34.75
          ],
          [
            -73.585988,
            45.489938,
            34.25
          ],
          [
            -73.586313,
            45.489679,
            33.75
          ],
          [
            -73.589246,
            45.48704,
            30.5
          ],
          [
            -73.589412,
            45.486865,
            30.25
          ],
          [
            -73.589563,
            45.486684,
            30
          ],
          [
            -73.589737,
            45.486433,
            29.75
          ],
          [
            -73.589848,
            45.486239,
            29.5
          ],
          [
            -73.589912,
            45.486106,
            29.25
          ],
          [
            -73.589994,
            45.485905,
            29.25
          ],
          [
            -73.590057,
            45.4857,
            29
          ],
          [
            -73.590089,
            45.485562,
            28.75
          ],
          [
            -73.590121,
            45.485354,
            28.5
          ],
          [
            -73.590132,
            45.485214,
            28.5
          ],
          [
            -73.590133,
            45.485005,
            28.25
          ],
          [
            -73.590115,
            45.484795,
            28
          ],
          [
            -73.590079,
            45.484587,
            27.75
          ],
          [
            -73.590044,
            45.48445,
            27.75
          ],
          [
            -73.589977,
            45.484246,
            27.5
          ],
          [
            -73.589922,
            45.484111,
            27.25
          ],
          [
            -73.589825,
            45.483913,
            27
          ],
          [
            -73.58971,
            45.48372,
            26.75
          ],
          [
            -73.589624,
            45.483594,
            26.75
          ],
          [
            -73.589481,
            45.48341,
            26.5
          ],
          [
            -73.589321,
            45.483232,
            26.25
          ],
          [
            -73.589147,
            45.483062,
            26
          ],
          [
            -73.589022,
            45.482953,
            26
          ],
          [
            -73.588823,
            45.482797,
            25.75
          ],
          [
            -73.58861,
            45.48265,
            25.5
          ],
          [
            -73.588461,
            45.482557,
            25.25
          ],
          [
            -73.588227,
            45.482426,
            25.25
          ],
          [
            -73.587983,
            45.482306,
            25
          ],
          [
            -73.587728,
            45.482197,
            24.75
          ],
          [
            -73.585334,
            45.481292,
            22.75
          ],
          [
            -73.58506,
            45.481212,
            22.5
          ],
          [
            -73.584873,
            45.481168,
            22.5
          ],
          [
            -73.584682,
            45.481132,
            22.25
          ],
          [
            -73.58439,
            45.481092,
            22
          ],
          [
            -73.584194,
            45.481075,
            22
          ],
          [
            -73.583898,
            45.481065,
            21.75
          ],
          [
            -73.583601,
            45.481073,
            21.5
          ],
          [
            -73.583307,
            45.481098,
            21.25
          ],
          [
            -73.583113,
            45.481125,
            21
          ],
          [
            -73.582827,
            45.481181,
            21
          ],
          [
            -73.58264,
            45.481227,
            20.75
          ],
          [
            -73.582368,
            45.48131,
            20.5
          ],
          [
            -73.582193,
            45.481375,
            20.5
          ],
          [
            -73.582024,
            45.481446,
            20.25
          ],
          [
            -73.581704,
            45.481609,
            20
          ],
          [
            -73.580308,
            45.482505,
            18.75
          ],
          [
            -73.580272,
            45.482528,
            18.5
          ],
          [
            -73.57944,
            45.483078,
            18.5
          ],
          [
            -73.579016,
            45.483329,
            18.5
          ],
          [
            -73.578769,
            45.483463,
            18.25
          ],
          [
            -73.578539,
            45.483573,
            18.25
          ],
          [
            -73.578428,
            45.483619,
            18.25
          ],
          [
            -73.578259,
            45.483676,
            18.25
          ],
          [
            -73.578045,
            45.483722,
            18.25
          ],
          [
            -73.577833,
            45.483748,
            18.25
          ],
          [
            -73.577656,
            45.483757,
            18.25
          ],
          [
            -73.577439,
            45.483748,
            18.25
          ],
          [
            -73.577194,
            45.483715,
            18
          ],
          [
            -73.577043,
            45.483683,
            18
          ],
          [
            -73.576746,
            45.483608,
            18
          ],
          [
            -73.576533,
            45.483534,
            18
          ],
          [
            -73.576322,
            45.483447,
            18
          ],
          [
            -73.575998,
            45.483285,
            18
          ],
          [
            -73.575783,
            45.48315,
            17.75
          ],
          [
            -73.575622,
            45.483023,
            17.75
          ],
          [
            -73.575278,
            45.482716,
            17.75
          ],
          [
            -73.574877,
            45.482337,
            17.75
          ],
          [
            -73.57346,
            45.481128,
            17.25
          ],
          [
            -73.572647,
            45.48042,
            17.25
          ],
          [
            -73.572194,
            45.480045,
            17
          ],
          [
            -73.571923,
            45.479858,
            17
          ],
          [
            -73.571625,
            45.479663,
            17
          ],
          [
            -73.569375,
            45.478395,
            16.5
          ],
          [
            -73.567821,
            45.477337,
            16.25
          ],
          [
            -73.567468,
            45.477053,
            16.25
          ],
          [
            -73.567171,
            45.476792,
            16
          ],
          [
            -73.566905,
            45.476516,
            16
          ],
          [
            -73.566679,
            45.476241,
            16
          ],
          [
            -73.56652,
            45.476016,
            16
          ],
          [
            -73.566326,
            45.475662,
            15.75
          ],
          [
            -73.566168,
            45.475318,
            15.75
          ],
          [
            -73.566087,
            45.475064,
            15.75
          ],
          [
            -73.566038,
            45.474843,
            15.75
          ],
          [
            -73.565997,
            45.474533,
            15.5
          ],
          [
            -73.565969,
            45.474132,
            15.5
          ],
          [
            -73.56597,
            45.473734,
            15.5
          ],
          [
            -73.566008,
            45.473327,
            15.25
          ],
          [
            -73.566161,
            45.472086,
            15.25
          ],
          [
            -73.566245,
            45.471028,
            15.25
          ],
          [
            -73.56627,
            45.470723,
            15.25
          ],
          [
            -73.566699,
            45.466385,
            16.25
          ],
          [
            -73.566865,
            45.464653,
            16.75
          ],
          [
            -73.567044,
            45.462771,
            17
          ],
          [
            -73.567108,
            45.462098,
            17.25
          ],
          [
            -73.567184,
            45.460972,
            17.5
          ],
          [
            -73.567226,
            45.46057,
            17.75
          ],
          [
            -73.567286,
            45.460294,
            17.75
          ],
          [
            -73.567333,
            45.460143,
            17.75
          ],
          [
            -73.567385,
            45.460021,
            17.75
          ],
          [
            -73.567511,
            45.459864,
            17.75
          ],
          [
            -73.56763,
            45.459766,
            17.75
          ],
          [
            -73.567735,
            45.45969,
            18
          ],
          [
            -73.567785,
            45.459658,
            18
          ],
          [
            -73.567864,
            45.459621,
            18
          ],
          [
            -73.568016,
            45.459565,
            18
          ],
          [
            -73.568376,
            45.459461,
            18
          ],
          [
            -73.568522,
            45.459435,
            18
          ],
          [
            -73.568877,
            45.459396,
            18
          ],
          [
            -73.569165,
            45.459367,
            18.25
          ],
          [
            -73.569297,
            45.459361,
            18.25
          ],
          [
            -73.572182,
            45.459412,
            18.75
          ],
          [
            -73.573163,
            45.459457,
            18.75
          ],
          [
            -73.576531,
            45.459581,
            19.5
          ],
          [
            -73.578679,
            45.459651,
            19.75
          ],
          [
            -73.579507,
            45.45965,
            20
          ],
          [
            -73.580152,
            45.459581,
            20
          ],
          [
            -73.580611,
            45.459483,
            20
          ],
          [
            -73.5808,
            45.459435,
            20
          ],
          [
            -73.580965,
            45.45937,
            20.25
          ],
          [
            -73.581154,
            45.459277,
            20.25
          ],
          [
            -73.581283,
            45.459199,
            20.25
          ],
          [
            -73.581403,
            45.459098,
            20.25
          ],
          [
            -73.581508,
            45.458997,
            20.25
          ],
          [
            -73.581587,
            45.458907,
            20.25
          ],
          [
            -73.581657,
            45.458806,
            20.25
          ],
          [
            -73.581702,
            45.458715,
            20.25
          ],
          [
            -73.581736,
            45.458631,
            20.25
          ],
          [
            -73.58181,
            45.458387,
            20.5
          ],
          [
            -73.581862,
            45.458171,
            20.5
          ],
          [
            -73.58194,
            45.457752,
            20.5
          ],
          [
            -73.582035,
            45.456758,
            20.75
          ],
          [
            -73.582105,
            45.455949,
            21
          ],
          [
            -73.582137,
            45.455848,
            21
          ],
          [
            -73.582253,
            45.4556,
            21
          ],
          [
            -73.582326,
            45.455497,
            21.25
          ],
          [
            -73.582443,
            45.455367,
            21.25
          ],
          [
            -73.582758,
            45.455067,
            21.25
          ],
          [
            -73.583438,
            45.454494,
            21.5
          ],
          [
            -73.583607,
            45.454377,
            21.5
          ],
          [
            -73.584,
            45.454178,
            21.5
          ],
          [
            -73.584438,
            45.453972,
            21.75
          ],
          [
            -73.584743,
            45.453848,
            21.75
          ],
          [
            -73.586605,
            45.453143,
            22
          ],
          [
            -73.588425,
            45.452513,
            22.5
          ],
          [
            -73.589264,
            45.45223,
            22.5
          ],
          [
            -73.59113,
            45.45168,
            23
          ],
          [
            -73.591472,
            45.451588,
            23
          ],
          [
            -73.592786,
            45.451272,
            23.25
          ],
          [
            -73.593731,
            45.451102,
            23.5
          ],
          [
            -73.594682,
            45.450922
          ],
          [
            -73.597032,
            45.450493
          ],
          [
            -73.597416,
            45.45039
          ],
          [
            -73.598437,
            45.450026
          ],
          [
            -73.598797,
            45.449879
          ],
          [
            -73.599161,
            45.449711
          ],
          [
            -73.59946,
            45.449513
          ],
          [
            -73.599698,
            45.449309
          ],
          [
            -73.599848,
            45.449115
          ],
          [
            -73.599982,
            45.448898
          ],
          [
            -73.600216,
            45.448556
          ],
          [
            -73.600535,
            45.448185
          ],
          [
            -73.600745,
            45.447964
          ],
          [
            -73.60091,
            45.447808
          ],
          [
            -73.601127,
            45.447644
          ],
          [
            -73.601363,
            45.447487
          ],
          [
            -73.601536,
            45.447384
          ],
          [
            -73.601961,
            45.447169
          ],
          [
            -73.603611,
            45.446228
          ],
          [
            -73.604072,
            45.44597
          ]
        ]
      }
    }
  ]
}