{
  "type": "FeatureCollection",
  "features": [
    {
      "type": "Feature",
      "properties": {
        "creator": "BRouter-1.7.0",
        "name": "Stations': 'Montréal Metro (Berri - Longueuil)",
        "track-length": "9029",
        "filtered ascend": "13",
        "plain-ascend": "6",
        "total-time": "722",
        "total-energy": "398775",
        "cost": "18058",
        "messages": [
          [
            "Longitude",
            "Latitude",
            "Elevation",
            "Distance",
            "CostPerKm",
            "ElevCost",
            "TurnCost",
            "NodeCost",
            "InitialCost",
            "WayTags",
            "NodeTags",
            "Time",
            "Energy"
          ],
          [
            "-73561886",
            "45514405",
            "-8192",
            "189",
            "2000",
            "0",
            "0",
            "0",
            "0",
            "railway=subway",
            "railway=unknown",
            "15",
            "8313"
          ],
          [
            "-73556930",
            "45512119",
            "25",
            "463",
            "2000",
            "0",
            "0",
            "0",
            "0",
            "railway=subway",
            "highway=crossing crossing=traffic_signals",
            "52",
            "28376"
          ],
          [
            "-73533166",
            "45512435",
            "-8192",
            "2096",
            "2000",
            "0",
            "0",
            "0",
            "0",
            "railway=subway",
            "railway=unknown",
            "219",
            "114117"
          ],
          [
            "-73523734",
            "45518682",
            "-8192",
            "54",
            "2000",
            "0",
            "0",
            "0",
            "0",
            "railway=subway",
            "",
            "224",
            "116455"
          ],
          [
            "-73521997",
            "45524673",
            "17",
            "1654",
            "2000",
            "0",
            "0",
            "0",
            "0",
            "railway=subway",
            "wheelchair=yes railway=subway_entrance",
            "132",
            "72751"
          ],
          [
            "-73521971",
            "45524950",
            "18",
            "31",
            "2000",
            "0",
            "0",
            "0",
            "0",
            "railway=subway",
            "railway=unknown",
            "134",
            "74409"
          ],
          [
            "-73521742",
            "45527735",
            "-8192",
            "28",
            "2000",
            "0",
            "0",
            "0",
            "0",
            "railway=subway",
            "",
            "137",
            "75838"
          ],
          [
            "-73521971",
            "45524950",
            "18",
            "28",
            "2000",
            "0",
            "0",
            "0",
            "0",
            "reversedirection=yes railway=subway",
            "railway=unknown",
            "2",
            "1231"
          ],
          [
            "-73521997",
            "45524673",
            "18",
            "31",
            "2000",
            "0",
            "0",
            "0",
            "0",
            "reversedirection=yes railway=subway",
            "wheelchair=yes railway=subway_entrance",
            "4",
            "2300"
          ],
          [
            "-73533166",
            "45512435",
            "21",
            "1707",
            "2000",
            "0",
            "0",
            "0",
            "0",
            "reversedirection=yes railway=subway",
            "railway=unknown",
            "141",
            "76574"
          ],
          [
            "-73556930",
            "45512119",
            "25",
            "2096",
            "2000",
            "0",
            "0",
            "0",
            "0",
            "reversedirection=yes railway=subway",
            "highway=crossing crossing=traffic_signals",
            "308",
            "171761"
          ],
          [
            "-73561886",
            "45514405",
            "-8192",
            "463",
            "2000",
            "0",
            "0",
            "0",
            "0",
            "reversedirection=yes railway=subway",
            "railway=unknown",
            "346",
            "198096"
          ],
          [
            "-73563901",
            "45515346",
            "-8192",
            "189",
            "2000",
            "0",
            "0",
            "0",
            "0",
            "reversedirection=yes railway=subway",
            "",
            "361",
            "206482"
          ]
        ],
        "times": [
          0,
          15.12,
          16.64,
          20.32,
          30,
          37.68,
          43.12,
          46.32,
          51.04,
          51.76,
          52.16,
          53.6,
          60.64,
          62.8,
          69.04,
          72.24,
          74.88,
          78,
          83.12,
          94.32,
          121.68,
          136.96,
          149.44,
          160,
          169.52,
          180.32,
          192.64,
          219.84,
          224.16,
          300.88,
          306.24,
          307.84,
          309.2,
          310.24,
          312.72,
          315.52,
          316.8,
          320.56,
          323.52,
          326.32,
          356.48,
          358.96,
          361.2,
          363.44,
          365.92,
          396.08,
          398.88,
          401.84,
          405.6,
          406.88,
          409.68,
          412.16,
          413.2,
          414.56,
          416.16,
          421.52,
          502.48,
          529.68,
          542,
          552.8,
          562.32,
          572.88,
          585.36,
          600.64,
          628,
          639.2,
          644.32,
          647.44,
          650.08,
          653.28,
          659.52,
          661.68,
          668.72,
          670.16,
          670.56,
          671.28,
          676,
          679.2,
          684.64,
          692.32,
          702,
          705.68,
          707.2,
          722.32
        ]
      },
      "geometry": {
        "type": "LineString",
        "coordinates": [
          [
            -73.563901,
            45.515346,
            30.5
          ],
          [
            -73.561886,
            45.514405,
            30.5
          ],
          [
            -73.56168,
            45.51431,
            30.5
          ],
          [
            -73.561198,
            45.514069,
            30.5
          ],
          [
            -73.559907,
            45.513473,
            30.5
          ],
          [
            -73.558881,
            45.513005,
            31.25
          ],
          [
            -73.558145,
            45.51267,
            29
          ],
          [
            -73.557728,
            45.512468,
            27.5
          ],
          [
            -73.557088,
            45.512185,
            25.75
          ],
          [
            -73.556984,
            45.512145,
            25.5
          ],
          [
            -73.55693,
            45.512119,
            25.5
          ],
          [
            -73.556739,
            45.512035,
            25
          ],
          [
            -73.555786,
            45.51161,
            22.75
          ],
          [
            -73.555483,
            45.511486
          ],
          [
            -73.554618,
            45.511127
          ],
          [
            -73.554218,
            45.510904
          ],
          [
            -73.55387,
            45.510733
          ],
          [
            -73.553429,
            45.510561
          ],
          [
            -73.552736,
            45.510261
          ],
          [
            -73.551045,
            45.509838
          ],
          [
            -73.546929,
            45.508792
          ],
          [
            -73.544532,
            45.508465
          ],
          [
            -73.54253,
            45.508417
          ],
          [
            -73.540854,
            45.508573
          ],
          [
            -73.539418,
            45.508934
          ],
          [
            -73.537897,
            45.509506
          ],
          [
            -73.536255,
            45.510277
          ],
          [
            -73.533166,
            45.512435
          ],
          [
            -73.532665,
            45.512766,
            17.25
          ],
          [
            -73.523734,
            45.518682,
            17.25
          ],
          [
            -73.523159,
            45.519135,
            17.25
          ],
          [
            -73.523001,
            45.519276,
            17.25
          ],
          [
            -73.522889,
            45.519408,
            17.25
          ],
          [
            -73.522815,
            45.519513,
            17.25
          ],
          [
            -73.522682,
            45.519776,
            17.25
          ],
          [
            -73.522556,
            45.520078,
            17.25
          ],
          [
            -73.522512,
            45.520223,
            17.25
          ],
          [
            -73.522415,
            45.520639,
            17.25
          ],
          [
            -73.522358,
            45.520973,
            17.25
          ],
          [
            -73.522316,
            45.521289,
            17.25
          ],
          [
            -73.521997,
            45.524673,
            17.25
          ],
          [
            -73.521971,
            45.52495,
            18.5
          ],
          [
            -73.521951,
            45.5252,
            18.5
          ],
          [
            -73.521971,
            45.52495,
            18.5
          ],
          [
            -73.521997,
            45.524673,
            18.5
          ],
          [
            -73.522316,
            45.521289,
            19
          ],
          [
            -73.522358,
            45.520973,
            19.25
          ],
          [
            -73.522415,
            45.520639,
            19.25
          ],
          [
            -73.522512,
            45.520223,
            19.25
          ],
          [
            -73.522556,
            45.520078,
            19.25
          ],
          [
            -73.522682,
            45.519776,
            19.5
          ],
          [
            -73.522815,
            45.519513,
            19.5
          ],
          [
            -73.522889,
            45.519408,
            19.5
          ],
          [
            -73.523001,
            45.519276,
            19.5
          ],
          [
            -73.523159,
            45.519135,
            19.5
          ],
          [
            -73.523734,
            45.518682,
            19.75
          ],
          [
            -73.533166,
            45.512435,
            21.5
          ],
          [
            -73.536255,
            45.510277,
            22
          ],
          [
            -73.537897,
            45.509506,
            22.25
          ],
          [
            -73.539418,
            45.508934,
            22.5
          ],
          [
            -73.540854,
            45.508573,
            22.75
          ],
          [
            -73.54253,
            45.508417,
            23
          ],
          [
            -73.544532,
            45.508465,
            23.25
          ],
          [
            -73.546929,
            45.508792,
            23.5
          ],
          [
            -73.551045,
            45.509838,
            24.25
          ],
          [
            -73.552736,
            45.510261,
            24.5
          ],
          [
            -73.553429,
            45.510561,
            24.5
          ],
          [
            -73.55387,
            45.510733,
            24.5
          ],
          [
            -73.554218,
            45.510904,
            24.5
          ],
          [
            -73.554618,
            45.511127,
            24.75
          ],
          [
            -73.555483,
            45.511486,
            24.75
          ],
          [
            -73.555786,
            45.51161,
            25
          ],
          [
            -73.556739,
            45.512035,
            25
          ],
          [
            -73.55693,
            45.512119,
            25.5
          ],
          [
            -73.556984,
            45.512145,
            25.75
          ],
          [
            -73.557088,
            45.512185,
            26
          ],
          [
            -73.557728,
            45.512468,
            29
          ],
          [
            -73.558145,
            45.51267,
            31.25
          ],
          [
            -73.558881,
            45.513005,
            31.25
          ],
          [
            -73.559907,
            45.513473,
            30.5
          ],
          [
            -73.561198,
            45.514069
          ],
          [
            -73.56168,
            45.51431
          ],
          [
            -73.561886,
            45.514405
          ],
          [
            -73.563901,
            45.515346
          ]
        ]
      }
    }
  ]
}