{
  "type": "FeatureCollection",
  "features": [
    {
      "type": "Feature",
      "properties": {
        "creator": "BRouter-1.7.0",
        "name": "[Translink] Canada Line (Richmond)",
        "track-length": "28716",
        "filtered ascend": "89",
        "plain-ascend": "76",
        "total-time": "2297",
        "total-energy": "1308773",
        "cost": "57432",
        "messages": [
          [
            "Longitude",
            "Latitude",
            "Elevation",
            "Distance",
            "CostPerKm",
            "ElevCost",
            "TurnCost",
            "NodeCost",
            "InitialCost",
            "WayTags",
            "NodeTags",
            "Time",
            "Energy"
          ],
          [
            "-123113477",
            "49285658",
            "-8192",
            "47",
            "2000",
            "0",
            "0",
            "0",
            "0",
            "railway=subway",
            "wheelchair=yes railway=buffer_stop",
            "3",
            "2067"
          ],
          [
            "-123114064",
            "49285277",
            "-8192",
            "60",
            "2000",
            "0",
            "0",
            "0",
            "0",
            "railway=subway",
            "railway=switch",
            "8",
            "4706"
          ],
          [
            "-123114496",
            "49284992",
            "-8192",
            "45",
            "2000",
            "0",
            "0",
            "0",
            "0",
            "railway=subway",
            "railway=switch",
            "12",
            "6685"
          ],
          [
            "-123118961",
            "49282019",
            "-8192",
            "463",
            "2000",
            "0",
            "0",
            "0",
            "0",
            "railway=subway",
            "railway=unknown",
            "49",
            "27050"
          ],
          [
            "-123121231",
            "49280525",
            "-8192",
            "54",
            "2000",
            "0",
            "0",
            "0",
            "0",
            "railway=subway",
            "",
            "53",
            "29426"
          ],
          [
            "-123121791",
            "49274243",
            "-8192",
            "1053",
            "2000",
            "0",
            "0",
            "0",
            "0",
            "railway=subway",
            "railway=unknown",
            "84",
            "46316"
          ],
          [
            "-123118568",
            "49270814",
            "-8192",
            "325",
            "2000",
            "0",
            "0",
            "0",
            "0",
            "railway=subway",
            "",
            "110",
            "60611"
          ],
          [
            "-123115462",
            "49266615",
            "-8192",
            "652",
            "2000",
            "0",
            "0",
            "0",
            "0",
            "railway=subway",
            "railway=unknown",
            "52",
            "28678"
          ],
          [
            "-123114775",
            "49263762",
            "-8192",
            "325",
            "2000",
            "0",
            "0",
            "0",
            "0",
            "railway=subway",
            "railway=switch",
            "78",
            "42973"
          ],
          [
            "-123114792",
            "49263437",
            "-8192",
            "20",
            "2000",
            "0",
            "0",
            "0",
            "0",
            "railway=subway",
            "",
            "79",
            "43853"
          ],
          [
            "-123114792",
            "49263437",
            "-8192",
            "16",
            "2000",
            "0",
            "0",
            "0",
            "0",
            "railway=subway",
            "railway=switch",
            "1",
            "703"
          ],
          [
            "-123114824",
            "49262903",
            "-8192",
            "59",
            "2000",
            "0",
            "0",
            "0",
            "0",
            "railway=subway",
            "railway=unknown",
            "6",
            "3298"
          ],
          [
            "-123114885",
            "49262257",
            "-8192",
            "43",
            "2000",
            "0",
            "0",
            "0",
            "0",
            "railway=subway",
            "",
            "9",
            "5190"
          ],
          [
            "-123115314",
            "49249083",
            "-8192",
            "1495",
            "2000",
            "0",
            "0",
            "0",
            "0",
            "railway=subway",
            "railway=unknown",
            "119",
            "65757"
          ],
          [
            "-123115336",
            "49247517",
            "-8192",
            "142",
            "2000",
            "0",
            "0",
            "0",
            "0",
            "railway=subway",
            "",
            "130",
            "72003"
          ],
          [
            "-123116124",
            "49234093",
            "-8192",
            "1647",
            "2000",
            "0",
            "0",
            "0",
            "0",
            "railway=subway",
            "railway=switch",
            "131",
            "72443"
          ],
          [
            "-123116094",
            "49233939",
            "-8192",
            "17",
            "2000",
            "0",
            "0",
            "0",
            "0",
            "reversedirection=yes railway=subway",
            "railway=unknown",
            "133",
            "73191"
          ],
          [
            "-123116142",
            "49233780",
            "-8192",
            "18",
            "2000",
            "0",
            "0",
            "0",
            "0",
            "railway=subway",
            "railway=switch",
            "134",
            "73983"
          ],
          [
            "-123116173",
            "49233075",
            "-8192",
            "78",
            "2000",
            "0",
            "0",
            "0",
            "0",
            "railway=subway",
            "railway=unknown",
            "140",
            "77414"
          ],
          [
            "-123116349",
            "49226507",
            "-8192",
            "730",
            "2000",
            "0",
            "0",
            "0",
            "0",
            "railway=subway",
            "railway=unknown",
            "199",
            "109523"
          ],
          [
            "-123116658",
            "49221093",
            "-8192",
            "542",
            "2000",
            "0",
            "0",
            "0",
            "0",
            "railway=subway",
            "",
            "242",
            "133363"
          ],
          [
            "-123116846",
            "49214379",
            "-8192",
            "720",
            "2000",
            "0",
            "0",
            "0",
            "0",
            "railway=subway",
            "",
            "57",
            "31669"
          ],
          [
            "-123117010",
            "49209622",
            "17",
            "617",
            "2000",
            "0",
            "0",
            "0",
            "0",
            "railway=subway",
            "railway=unknown",
            "49",
            "24858"
          ],
          [
            "-123117410",
            "49207506",
            "15",
            "238",
            "2000",
            "0",
            "0",
            "0",
            "0",
            "railway=subway",
            "railway=switch",
            "68",
            "35193"
          ],
          [
            "-123117379",
            "49207080",
            "15",
            "47",
            "2000",
            "0",
            "0",
            "0",
            "0",
            "railway=subway",
            "railway=switch",
            "72",
            "37255"
          ],
          [
            "-123117380",
            "49207006",
            "15",
            "8",
            "2000",
            "0",
            "0",
            "0",
            "0",
            "railway=subway",
            "railway=switch",
            "72",
            "37606"
          ],
          [
            "-123117438",
            "49206614",
            "14",
            "44",
            "2000",
            "0",
            "0",
            "0",
            "0",
            "railway=subway",
            "railway=switch",
            "76",
            "39539"
          ],
          [
            "-123119354",
            "49198766",
            "6",
            "902",
            "2000",
            "0",
            "0",
            "0",
            "0",
            "railway=subway",
            "railway=switch",
            "148",
            "79208"
          ],
          [
            "-123119441",
            "49198690",
            "6",
            "11",
            "2000",
            "0",
            "0",
            "0",
            "0",
            "railway=subway",
            "railway=switch",
            "149",
            "79692"
          ],
          [
            "-123120405",
            "49197994",
            "5",
            "104",
            "2000",
            "0",
            "0",
            "0",
            "0",
            "railway=subway",
            "railway=unknown direction=both",
            "157",
            "84266"
          ],
          [
            "-123121366",
            "49197554",
            "4",
            "85",
            "2000",
            "0",
            "0",
            "0",
            "0",
            "railway=subway",
            "railway=switch",
            "164",
            "86774"
          ],
          [
            "-123121862",
            "49197378",
            "4",
            "41",
            "2000",
            "0",
            "0",
            "0",
            "0",
            "railway=subway",
            "railway=crossing",
            "167",
            "86774"
          ],
          [
            "-123122781",
            "49197069",
            "4",
            "75",
            "2000",
            "0",
            "0",
            "0",
            "0",
            "railway=subway",
            "railway=switch",
            "173",
            "87561"
          ],
          [
            "-123124433",
            "49196363",
            "-8192",
            "144",
            "2000",
            "0",
            "0",
            "0",
            "0",
            "railway=subway",
            "railway=switch",
            "185",
            "92180"
          ],
          [
            "-123124512",
            "49196328",
            "-8192",
            "7",
            "2000",
            "0",
            "0",
            "0",
            "0",
            "railway=subway",
            "railway=switch",
            "185",
            "92452"
          ],
          [
            "-123126062",
            "49195614",
            "-8192",
            "138",
            "2000",
            "0",
            "0",
            "0",
            "0",
            "railway=subway",
            "railway=unknown",
            "196",
            "98150"
          ],
          [
            "-123127830",
            "49194810",
            "-8192",
            "18",
            "2000",
            "0",
            "0",
            "0",
            "0",
            "railway=subway",
            "",
            "198",
            "98921"
          ],
          [
            "-123127830",
            "49194810",
            "-8192",
            "139",
            "2000",
            "0",
            "0",
            "0",
            "0",
            "railway=subway",
            "railway=switch",
            "11",
            "6113"
          ],
          [
            "-123128389",
            "49194554",
            "-8192",
            "50",
            "2000",
            "0",
            "0",
            "0",
            "0",
            "railway=subway",
            "railway=unknown direction=both",
            "15",
            "8313"
          ],
          [
            "-123131507",
            "49189552",
            "-8192",
            "631",
            "2000",
            "0",
            "0",
            "0",
            "0",
            "railway=subway",
            "railway=unknown",
            "65",
            "36067"
          ],
          [
            "-123136362",
            "49183907",
            "-8192",
            "729",
            "2000",
            "0",
            "0",
            "0",
            "0",
            "railway=subway",
            "railway=unknown",
            "123",
            "68133"
          ],
          [
            "-123136513",
            "49180264",
            "-8192",
            "405",
            "2000",
            "0",
            "0",
            "0",
            "0",
            "railway=subway",
            "railway=unknown direction=both",
            "156",
            "85947"
          ],
          [
            "-123136517",
            "49174721",
            "-8192",
            "616",
            "2000",
            "0",
            "0",
            "0",
            "0",
            "railway=subway",
            "railway=unknown",
            "205",
            "113042"
          ],
          [
            "-123136522",
            "49173859",
            "-8192",
            "96",
            "2000",
            "0",
            "0",
            "0",
            "0",
            "railway=subway",
            "railway=switch",
            "213",
            "117264"
          ],
          [
            "-123136509",
            "49172623",
            "-8192",
            "137",
            "2000",
            "0",
            "0",
            "0",
            "0",
            "railway=subway",
            "railway=switch",
            "224",
            "123290"
          ],
          [
            "-123136358",
            "49168131",
            "-8192",
            "500",
            "2000",
            "0",
            "0",
            "0",
            "0",
            "railway=subway",
            "railway=unknown",
            "264",
            "145283"
          ],
          [
            "-123136364",
            "49167523",
            "-8192",
            "26",
            "2000",
            "0",
            "0",
            "0",
            "0",
            "railway=subway",
            "",
            "266",
            "146426"
          ],
          [
            "-123136358",
            "49168131",
            "-8192",
            "26",
            "2000",
            "0",
            "0",
            "0",
            "0",
            "reversedirection=yes railway=subway",
            "railway=unknown",
            "2",
            "1143"
          ],
          [
            "-123136509",
            "49172623",
            "-8192",
            "500",
            "2000",
            "0",
            "0",
            "0",
            "0",
            "reversedirection=yes railway=subway",
            "railway=switch",
            "42",
            "23136"
          ],
          [
            "-123136453",
            "49173632",
            "-8192",
            "109",
            "2000",
            "0",
            "0",
            "0",
            "0",
            "railway=subway",
            "",
            "50",
            "27930"
          ],
          [
            "-123136453",
            "49173632",
            "-8192",
            "3",
            "2000",
            "0",
            "0",
            "0",
            "0",
            "railway=subway",
            "railway=unknown direction=both",
            "0",
            "131"
          ],
          [
            "-123136450",
            "49174238",
            "-8192",
            "67",
            "2000",
            "0",
            "0",
            "0",
            "0",
            "railway=subway",
            "railway=switch",
            "5",
            "3078"
          ],
          [
            "-123136450",
            "49174722",
            "-8192",
            "54",
            "2000",
            "0",
            "0",
            "0",
            "0",
            "railway=subway",
            "railway=unknown",
            "9",
            "5454"
          ],
          [
            "-123136439",
            "49180265",
            "-8192",
            "617",
            "2000",
            "0",
            "0",
            "0",
            "0",
            "railway=subway",
            "railway=unknown direction=both",
            "59",
            "32593"
          ],
          [
            "-123136287",
            "49183920",
            "-8192",
            "406",
            "2000",
            "0",
            "0",
            "0",
            "0",
            "railway=subway",
            "railway=unknown",
            "91",
            "50451"
          ],
          [
            "-123131451",
            "49189530",
            "-8192",
            "725",
            "2000",
            "0",
            "0",
            "0",
            "0",
            "railway=subway",
            "railway=unknown",
            "149",
            "82340"
          ],
          [
            "-123128352",
            "49194517",
            "-8192",
            "631",
            "2000",
            "0",
            "0",
            "0",
            "0",
            "railway=subway",
            "railway=unknown direction=both",
            "200",
            "110095"
          ],
          [
            "-123126408",
            "49195318",
            "-8192",
            "167",
            "2000",
            "0",
            "0",
            "0",
            "0",
            "railway=subway",
            "railway=switch",
            "213",
            "117440"
          ],
          [
            "-123125974",
            "49195524",
            "-8192",
            "39",
            "2000",
            "0",
            "0",
            "0",
            "0",
            "railway=subway",
            "railway=unknown",
            "216",
            "119156"
          ],
          [
            "-123125560",
            "49195704",
            "-8192",
            "36",
            "2000",
            "0",
            "0",
            "0",
            "0",
            "railway=subway",
            "railway=switch",
            "219",
            "120739"
          ],
          [
            "-123123323",
            "49196779",
            "-8192",
            "203",
            "2000",
            "0",
            "0",
            "0",
            "0",
            "railway=subway",
            "",
            "235",
            "129668"
          ],
          [
            "-123122124",
            "49197192",
            "-8192",
            "57",
            "2000",
            "0",
            "0",
            "0",
            "0",
            "reversedirection=yes railway=subway",
            "",
            "240",
            "132175"
          ],
          [
            "-123122124",
            "49197192",
            "-8192",
            "42",
            "2000",
            "0",
            "0",
            "0",
            "0",
            "reversedirection=yes railway=subway",
            "railway=unknown direction=both",
            "3",
            "1847"
          ],
          [
            "-123118793",
            "49199175",
            "-8192",
            "334",
            "2000",
            "0",
            "0",
            "0",
            "0",
            "reversedirection=yes railway=subway",
            "railway=switch",
            "30",
            "16538"
          ],
          [
            "-123117752",
            "49201716",
            "-8192",
            "225",
            "2000",
            "0",
            "0",
            "0",
            "0",
            "reversedirection=yes railway=subway",
            "",
            "48",
            "26435"
          ],
          [
            "-123117380",
            "49207006",
            "-8192",
            "665",
            "2000",
            "0",
            "0",
            "0",
            "0",
            "reversedirection=yes railway=subway",
            "railway=switch",
            "53",
            "29250"
          ],
          [
            "-123117379",
            "49207080",
            "-8192",
            "8",
            "2000",
            "0",
            "0",
            "0",
            "0",
            "reversedirection=yes railway=subway",
            "railway=switch",
            "53",
            "29602"
          ],
          [
            "-123116949",
            "49209622",
            "-8192",
            "284",
            "2000",
            "0",
            "0",
            "0",
            "0",
            "reversedirection=yes railway=subway",
            "railway=unknown",
            "76",
            "42093"
          ],
          [
            "-123116948",
            "49209683",
            "-8192",
            "7",
            "2000",
            "0",
            "0",
            "0",
            "0",
            "reversedirection=yes railway=subway",
            "wheelchair=yes railway=station",
            "77",
            "42401"
          ],
          [
            "-123116737",
            "49216872",
            "45",
            "616",
            "2000",
            "0",
            "0",
            "0",
            "0",
            "reversedirection=yes railway=subway",
            "",
            "126",
            "84524"
          ],
          [
            "-123116737",
            "49216872",
            "45",
            "131",
            "2000",
            "0",
            "0",
            "0",
            "0",
            "reversedirection=yes railway=subway",
            "",
            "10",
            "8340"
          ],
          [
            "-123116737",
            "49216872",
            "44",
            "51",
            "2000",
            "0",
            "0",
            "0",
            "0",
            "reversedirection=yes railway=subway",
            "highway=crossing crossing=traffic_signals",
            "4",
            "3213"
          ],
          [
            "-123116316",
            "49226506",
            "72",
            "1072",
            "2000",
            "0",
            "0",
            "0",
            "0",
            "reversedirection=yes railway=subway",
            "railway=unknown",
            "89",
            "51823"
          ],
          [
            "-123116274",
            "49227748",
            "76",
            "138",
            "2000",
            "0",
            "0",
            "0",
            "0",
            "reversedirection=yes railway=subway",
            "",
            "100",
            "57893"
          ],
          [
            "-123116097",
            "49233082",
            "92",
            "593",
            "2000",
            "0",
            "0",
            "0",
            "0",
            "railway=subway",
            "railway=unknown",
            "148",
            "119168"
          ],
          [
            "-123116062",
            "49233778",
            "-8192",
            "19",
            "2000",
            "0",
            "0",
            "0",
            "0",
            "railway=subway",
            "",
            "149",
            "120598"
          ],
          [
            "-123116062",
            "49233778",
            "-8192",
            "58",
            "2000",
            "0",
            "0",
            "0",
            "0",
            "railway=subway",
            "railway=switch",
            "4",
            "2551"
          ],
          [
            "-123116041",
            "49234095",
            "-8192",
            "35",
            "2000",
            "0",
            "0",
            "0",
            "0",
            "railway=subway",
            "railway=switch",
            "7",
            "4090"
          ],
          [
            "-123115234",
            "49247822",
            "-8192",
            "1639",
            "2000",
            "0",
            "0",
            "0",
            "0",
            "railway=subway",
            "",
            "138",
            "76182"
          ],
          [
            "-123115234",
            "49247822",
            "-8192",
            "10",
            "2000",
            "0",
            "0",
            "0",
            "0",
            "railway=subway",
            "",
            "0",
            "439"
          ],
          [
            "-123115331",
            "49249300",
            "-8192",
            "164",
            "2000",
            "0",
            "0",
            "0",
            "0",
            "reversedirection=yes railway=subway",
            "railway=unknown",
            "13",
            "7653"
          ],
          [
            "-123114774",
            "49262902",
            "-8192",
            "1512",
            "2000",
            "0",
            "0",
            "0",
            "0",
            "reversedirection=yes railway=subway",
            "railway=unknown",
            "134",
            "74159"
          ],
          [
            "-123114738",
            "49263435",
            "-8192",
            "59",
            "2000",
            "0",
            "0",
            "0",
            "0",
            "reversedirection=yes railway=subway",
            "railway=switch",
            "139",
            "76754"
          ],
          [
            "-123114719",
            "49263761",
            "-8192",
            "36",
            "2000",
            "0",
            "0",
            "0",
            "0",
            "reversedirection=yes railway=subway",
            "railway=switch",
            "142",
            "78337"
          ],
          [
            "-123114802",
            "49265468",
            "-8192",
            "162",
            "2000",
            "0",
            "0",
            "0",
            "0",
            "reversedirection=yes railway=subway",
            "",
            "155",
            "85463"
          ],
          [
            "-123115352",
            "49266648",
            "-8192",
            "166",
            "2000",
            "0",
            "0",
            "0",
            "0",
            "reversedirection=yes railway=subway",
            "railway=unknown",
            "13",
            "7301"
          ],
          [
            "-123119366",
            "49272205",
            "-8192",
            "638",
            "2000",
            "0",
            "0",
            "0",
            "0",
            "reversedirection=yes railway=subway",
            "",
            "64",
            "35364"
          ],
          [
            "-123122087",
            "49274527",
            "-8192",
            "377",
            "2000",
            "0",
            "0",
            "0",
            "0",
            "reversedirection=yes railway=subway",
            "wheelchair=yes railway=unknown",
            "30",
            "16582"
          ],
          [
            "-123124662",
            "49277685",
            "-8192",
            "405",
            "2000",
            "0",
            "0",
            "0",
            "0",
            "reversedirection=yes railway=subway",
            "",
            "62",
            "34396"
          ],
          [
            "-123118880",
            "49281960",
            "-8192",
            "644",
            "2000",
            "0",
            "0",
            "0",
            "0",
            "reversedirection=yes railway=subway",
            "",
            "51",
            "28326"
          ],
          [
            "-123118880",
            "49281960",
            "-8192",
            "12",
            "2000",
            "0",
            "0",
            "0",
            "0",
            "reversedirection=yes railway=subway",
            "railway=unknown",
            "0",
            "527"
          ],
          [
            "-123114390",
            "49284907",
            "-8192",
            "462",
            "2000",
            "0",
            "0",
            "0",
            "0",
            "reversedirection=yes railway=subway",
            "railway=switch",
            "37",
            "20849"
          ],
          [
            "-123113942",
            "49285194",
            "-8192",
            "46",
            "2000",
            "0",
            "0",
            "0",
            "0",
            "reversedirection=yes railway=subway",
            "railway=switch",
            "41",
            "22872"
          ],
          [
            "-123113347",
            "49285582",
            "-8192",
            "61",
            "2000",
            "0",
            "0",
            "0",
            "0",
            "reversedirection=yes railway=subway",
            "wheelchair=yes railway=buffer_stop",
            "46",
            "25555"
          ],
          [
            "-123112895",
            "49285877",
            "-8192",
            "46",
            "2000",
            "0",
            "0",
            "0",
            "0",
            "reversedirection=yes railway=subway",
            "",
            "50",
            "27578"
          ]
        ],
        "times": [
          0,
          3.76,
          8.56,
          12.16,
          23.44,
          32.88,
          42.4,
          46.48,
          49.2,
          53.52,
          68,
          82.08,
          89.6,
          93.44,
          97.2,
          100.8,
          104.24,
          108,
          110.72,
          112.88,
          115.28,
          118.08,
          121.12,
          137.76,
          139.6,
          144.56,
          147.76,
          150.48,
          153.44,
          155.2,
          161.04,
          163.76,
          174.16,
          181.92,
          185.28,
          188.16,
          205.76,
          208.16,
          211.44,
          215.92,
          223.92,
          227.2,
          229.68,
          232.08,
          237.92,
          241.92,
          243.52,
          244.8,
          249.52,
          252.96,
          255.28,
          264.08,
          343.12,
          363.04,
          366.96,
          372.56,
          377.2,
          379.76,
          383.92,
          386.56,
          397.92,
          403.36,
          406,
          408.08,
          410,
          411.28,
          412.8,
          416,
          417.92,
          424.88,
          427.2,
          428.4,
          430.8,
          432.48,
          434.24,
          435.44,
          436.56,
          440.64,
          450.48,
          451.92,
          453.36,
          454.24,
          455.28,
          456.96,
          469.36,
          474.32,
          475.76,
          477.68,
          479.6,
          481.76,
          487.6,
          515.68,
          517.04,
          518.48,
          524.72,
          560.72,
          572.08,
          583.12,
          610.24,
          615.44,
          626.48,
          631.36,
          671.84,
          684.08,
          691.12,
          711.04,
          722.48,
          733.44,
          738.48,
          740.08,
          746,
          748.56,
          752.48,
          756.24,
          756.88,
          760.4,
          777.04,
          779.12,
          783.04,
          803.92,
          814.48,
          816.88,
          818.24,
          820.08,
          822.32,
          823.84,
          824.8,
          832.56,
          833.44,
          835.28,
          836.56,
          839.36,
          841.76,
          842.56,
          844.56,
          846.32,
          847.28,
          848.56,
          851.84,
          857.84,
          858,
          863.04,
          864.32,
          866,
          869.36,
          869.92,
          880.96,
          882.4,
          893.52,
          897.52,
          901.52,
          903.52,
          904.64,
          905.6,
          907.36,
          908.24,
          909.92,
          911.36,
          912.8,
          914.16,
          915.6,
          916.88,
          918.64,
          927.6,
          928.96,
          929.92,
          931.2,
          933.92,
          935.12,
          937.44,
          938.96,
          940.08,
          942.8,
          948,
          954.96,
          957.36,
          960.88,
          968.16,
          982.08,
          995.12,
          996.64,
          998.32,
          1000.56,
          1002,
          1006.32,
          1018.96,
          1024.8,
          1038.72,
          1048.24,
          1066.32,
          1088,
          1095.68,
          1106.64,
          1110,
          1112.8,
          1118.16,
          1120.72,
          1122.56,
          1146.64,
          1148.72,
          1150.8,
          1174.88,
          1176.72,
          1179.28,
          1184.64,
          1187.44,
          1190.8,
          1193.84,
          1199.52,
          1199.76,
          1205.12,
          1209.44,
          1213.6,
          1240.08,
          1252.32,
          1258.8,
          1276.16,
          1291.28,
          1296.24,
          1298.32,
          1301.2,
          1334.56,
          1339.28,
          1349.28,
          1355.92,
          1357.68,
          1360.16,
          1361.2,
          1362.72,
          1363.76,
          1364.96,
          1366.48,
          1369.04,
          1380.56,
          1383.2,
          1386,
          1388.16,
          1389.12,
          1391.04,
          1391.92,
          1393.92,
          1394.88,
          1396.72,
          1399.76,
          1405.28,
          1406.48,
          1408.72,
          1411.6,
          1413.12,
          1416.24,
          1419.12,
          1423.76,
          1425.92,
          1430.24,
          1432,
          1432.88,
          1435.36,
          1439.92,
          1443.28,
          1450.24,
          1451.44,
          1453.6,
          1455.68,
          1457.84,
          1458.88,
          1464.16,
          1470,
          1473.6,
          1474.64,
          1476.56,
          1478.32,
          1479.2,
          1481.04,
          1482.64,
          1484.16,
          1488,
          1494.08,
          1506.32,
          1518.8,
          1541.2,
          1541.84,
          1549.04,
          1550.32,
          1551.68,
          1557.92,
          1559.44,
          1564.56,
          1565.12,
          1575.52,
          1586.88,
          1612.56,
          1614.4,
          1624.88,
          1628.96,
          1629.84,
          1714.72,
          1725.76,
          1753.84,
          1773.2,
          1774.72,
          1779.36,
          1782.16,
          1810.16,
          1816.08,
          1818.4,
          1820.24,
          1822.4,
          1824.08,
          1828.88,
          1841.28,
          1842.72,
          1843.76,
          1844.72,
          1846,
          1847.44,
          1857.2,
          1861.28,
          1862.08,
          1863.12,
          1866,
          1867.68,
          1870.32,
          1876.48,
          1879.6,
          1881.68,
          1884.88,
          1886.4,
          1887.84,
          1889.84,
          1891.84,
          1894.56,
          1913.28,
          1914.08,
          1917.36,
          1927.2,
          1930.88,
          1934.72,
          1944.08,
          2033.68,
          2042.4,
          2048.16,
          2052.88,
          2055.76,
          2058.56,
          2065.76,
          2068.48,
          2068.72,
          2071.04,
          2074.56,
          2076.72,
          2082,
          2086.72,
          2089.44,
          2109.6,
          2112.64,
          2123.76,
          2133.04,
          2136.96,
          2144.64,
          2147.44,
          2150.24,
          2163.2,
          2176.8,
          2179.68,
          2182.16,
          2184.56,
          2186.72,
          2189.68,
          2193.44,
          2195.6,
          2196.8,
          2200.4,
          2204.08,
          2207.84,
          2216.32,
          2231.12,
          2239.68,
          2247.12,
          2248.08,
          2250.88,
          2254.72,
          2264.4,
          2273.76,
          2285.04,
          2288.72,
          2293.6,
          2297.28
        ]
      },
      "geometry": {
        "type": "LineString",
        "coordinates": [
          [
            -123.113021,
            49.285957
          ],
          [
            -123.113477,
            49.285658
          ],
          [
            -123.114064,
            49.285277
          ],
          [
            -123.114496,
            49.284992
          ],
          [
            -123.115841,
            49.284075
          ],
          [
            -123.116971,
            49.283314
          ],
          [
            -123.118122,
            49.282555
          ],
          [
            -123.118627,
            49.282239
          ],
          [
            -123.118961,
            49.282019
          ],
          [
            -123.11948,
            49.281678
          ],
          [
            -123.121231,
            49.280525
          ],
          [
            -123.122927,
            49.279401
          ],
          [
            -123.123829,
            49.278794
          ],
          [
            -123.124227,
            49.278455
          ],
          [
            -123.124507,
            49.278077
          ],
          [
            -123.124696,
            49.277694
          ],
          [
            -123.124779,
            49.277311
          ],
          [
            -123.124745,
            49.276887
          ],
          [
            -123.124654,
            49.276584
          ],
          [
            -123.124538,
            49.27635
          ],
          [
            -123.124373,
            49.276099
          ],
          [
            -123.124133,
            49.275826
          ],
          [
            -123.12381,
            49.27556
          ],
          [
            -123.121791,
            49.274243
          ],
          [
            -123.121551,
            49.274105
          ],
          [
            -123.120927,
            49.273728
          ],
          [
            -123.120537,
            49.273475
          ],
          [
            -123.120227,
            49.273241
          ],
          [
            -123.119959,
            49.272963
          ],
          [
            -123.11982,
            49.272784
          ],
          [
            -123.11939,
            49.272188
          ],
          [
            -123.119218,
            49.2719
          ],
          [
            -123.118568,
            49.270814
          ],
          [
            -123.118131,
            49.269989
          ],
          [
            -123.117953,
            49.26963
          ],
          [
            -123.117752,
            49.269339
          ],
          [
            -123.116164,
            49.267657
          ],
          [
            -123.115972,
            49.267417
          ],
          [
            -123.115739,
            49.267083
          ],
          [
            -123.115462,
            49.266615
          ],
          [
            -123.115007,
            49.265766
          ],
          [
            -123.11487,
            49.26541
          ],
          [
            -123.114809,
            49.265134
          ],
          [
            -123.114776,
            49.264863
          ],
          [
            -123.114762,
            49.264211
          ],
          [
            -123.114775,
            49.263762
          ],
          [
            -123.114785,
            49.263578
          ],
          [
            -123.114792,
            49.263437
          ],
          [
            -123.114824,
            49.262903
          ],
          [
            -123.114861,
            49.262517
          ],
          [
            -123.114885,
            49.262257
          ],
          [
            -123.114988,
            49.26127
          ],
          [
            -123.115295,
            49.252386
          ],
          [
            -123.115365,
            49.250151
          ],
          [
            -123.11536,
            49.249714
          ],
          [
            -123.115314,
            49.249083
          ],
          [
            -123.115252,
            49.248567
          ],
          [
            -123.115264,
            49.24828
          ],
          [
            -123.115308,
            49.247816
          ],
          [
            -123.115336,
            49.247517
          ],
          [
            -123.115387,
            49.246242
          ],
          [
            -123.115396,
            49.245631
          ],
          [
            -123.115422,
            49.245334
          ],
          [
            -123.11548,
            49.245102
          ],
          [
            -123.115576,
            49.244893
          ],
          [
            -123.115657,
            49.244756
          ],
          [
            -123.115794,
            49.244608
          ],
          [
            -123.116118,
            49.244323
          ],
          [
            -123.116338,
            49.244162
          ],
          [
            -123.117248,
            49.24366
          ],
          [
            -123.11754,
            49.243489
          ],
          [
            -123.117671,
            49.243385
          ],
          [
            -123.117873,
            49.243148
          ],
          [
            -123.118004,
            49.242975
          ],
          [
            -123.118121,
            49.242795
          ],
          [
            -123.118184,
            49.242664
          ],
          [
            -123.118212,
            49.242543
          ],
          [
            -123.118269,
            49.242083
          ],
          [
            -123.118357,
            49.240975
          ],
          [
            -123.118344,
            49.240811
          ],
          [
            -123.118293,
            49.240653
          ],
          [
            -123.11824,
            49.240556
          ],
          [
            -123.118168,
            49.240453
          ],
          [
            -123.118007,
            49.240297
          ],
          [
            -123.116749,
            49.23917
          ],
          [
            -123.116258,
            49.238711
          ],
          [
            -123.116127,
            49.238569
          ],
          [
            -123.116017,
            49.238361
          ],
          [
            -123.115956,
            49.238147
          ],
          [
            -123.115911,
            49.237902
          ],
          [
            -123.115958,
            49.237244
          ],
          [
            -123.116124,
            49.234093
          ],
          [
            -123.116094,
            49.233939
          ],
          [
            -123.116142,
            49.23378
          ],
          [
            -123.116173,
            49.233075
          ],
          [
            -123.116305,
            49.229027
          ],
          [
            -123.116334,
            49.227748
          ],
          [
            -123.116349,
            49.226507
          ],
          [
            -123.116527,
            49.223465
          ],
          [
            -123.116546,
            49.222885
          ],
          [
            -123.116624,
            49.221645
          ],
          [
            -123.116658,
            49.221093
          ],
          [
            -123.116784,
            49.216542
          ],
          [
            -123.116824,
            49.21517,
            20.25
          ],
          [
            -123.116846,
            49.214379,
            20.25
          ],
          [
            -123.116932,
            49.212139,
            20.25
          ],
          [
            -123.116977,
            49.210856,
            18.75
          ],
          [
            -123.11701,
            49.209622,
            17.5
          ],
          [
            -123.117047,
            49.209052,
            17
          ],
          [
            -123.117088,
            49.208871,
            16.75
          ],
          [
            -123.117333,
            49.208227,
            16.25
          ],
          [
            -123.117384,
            49.207942,
            15.75
          ],
          [
            -123.11741,
            49.207506,
            15.5
          ],
          [
            -123.117379,
            49.20708,
            15
          ],
          [
            -123.11738,
            49.207006,
            15
          ],
          [
            -123.117438,
            49.206614,
            14.5
          ],
          [
            -123.117559,
            49.204746,
            12.5
          ],
          [
            -123.117562,
            49.204509,
            12.5
          ],
          [
            -123.117594,
            49.204068,
            12
          ],
          [
            -123.117841,
            49.201726,
            9.5
          ],
          [
            -123.117957,
            49.200544,
            8.25
          ],
          [
            -123.11801,
            49.200278,
            8
          ],
          [
            -123.118061,
            49.200131,
            8
          ],
          [
            -123.118158,
            49.199932,
            7.75
          ],
          [
            -123.118315,
            49.199704,
            7.5
          ],
          [
            -123.118451,
            49.199554,
            7.25
          ],
          [
            -123.118549,
            49.199462,
            7.25
          ],
          [
            -123.119354,
            49.198766,
            6.25
          ],
          [
            -123.119441,
            49.19869,
            6.25
          ],
          [
            -123.11965,
            49.19853,
            6
          ],
          [
            -123.119807,
            49.198427,
            5.75
          ],
          [
            -123.120122,
            49.198184,
            5.5
          ],
          [
            -123.120405,
            49.197994,
            5.25
          ],
          [
            -123.120505,
            49.197932,
            5.25
          ],
          [
            -123.120778,
            49.19779,
            5
          ],
          [
            -123.121028,
            49.197676,
            4.75
          ],
          [
            -123.121173,
            49.19762,
            4.5
          ],
          [
            -123.121366,
            49.197554,
            4.75
          ],
          [
            -123.121862,
            49.197378,
            4.75
          ],
          [
            -123.122781,
            49.197069,
            4.25
          ],
          [
            -123.122803,
            49.197062,
            4.25
          ],
          [
            -123.123559,
            49.196796
          ],
          [
            -123.123751,
            49.196719
          ],
          [
            -123.123989,
            49.196605
          ],
          [
            -123.124433,
            49.196363
          ],
          [
            -123.124512,
            49.196328
          ],
          [
            -123.126062,
            49.195614
          ],
          [
            -123.126267,
            49.19552
          ],
          [
            -123.12783,
            49.19481
          ],
          [
            -123.128389,
            49.194554
          ],
          [
            -123.128945,
            49.194294
          ],
          [
            -123.129207,
            49.194152
          ],
          [
            -123.12934,
            49.194065
          ],
          [
            -123.129455,
            49.193982
          ],
          [
            -123.129638,
            49.19382
          ],
          [
            -123.129719,
            49.193735
          ],
          [
            -123.129855,
            49.193564
          ],
          [
            -123.12995,
            49.19341
          ],
          [
            -123.130021,
            49.193254
          ],
          [
            -123.130064,
            49.193105
          ],
          [
            -123.130092,
            49.192948
          ],
          [
            -123.130113,
            49.192807
          ],
          [
            -123.130125,
            49.192613
          ],
          [
            -123.130129,
            49.191607
          ],
          [
            -123.13014,
            49.191452
          ],
          [
            -123.130154,
            49.191345
          ],
          [
            -123.130189,
            49.191205
          ],
          [
            -123.130295,
            49.190904
          ],
          [
            -123.130357,
            49.190778
          ],
          [
            -123.130505,
            49.190539
          ],
          [
            -123.130621,
            49.190387
          ],
          [
            -123.130719,
            49.190276
          ],
          [
            -123.13098,
            49.190023
          ],
          [
            -123.131507,
            49.189552
          ],
          [
            -123.132186,
            49.188906
          ],
          [
            -123.132432,
            49.188691
          ],
          [
            -123.132778,
            49.188366
          ],
          [
            -123.133469,
            49.187685
          ],
          [
            -123.134757,
            49.186364
          ],
          [
            -123.135967,
            49.185134
          ],
          [
            -123.136088,
            49.184979
          ],
          [
            -123.136192,
            49.184799
          ],
          [
            -123.136282,
            49.184554
          ],
          [
            -123.136314,
            49.184392
          ],
          [
            -123.136362,
            49.183907
          ],
          [
            -123.136468,
            49.182486
          ],
          [
            -123.136504,
            49.181826
          ],
          [
            -123.136513,
            49.180264
          ],
          [
            -123.136498,
            49.179192
          ],
          [
            -123.136492,
            49.177159
          ],
          [
            -123.136517,
            49.174721
          ],
          [
            -123.136522,
            49.173859
          ],
          [
            -123.136509,
            49.172623
          ],
          [
            -123.136486,
            49.172244
          ],
          [
            -123.136441,
            49.171929
          ],
          [
            -123.136393,
            49.171328
          ],
          [
            -123.136361,
            49.17104
          ],
          [
            -123.136352,
            49.170835
          ],
          [
            -123.136358,
            49.168131
          ],
          [
            -123.136361,
            49.167897
          ],
          [
            -123.136358,
            49.168131
          ],
          [
            -123.136352,
            49.170835
          ],
          [
            -123.136361,
            49.17104
          ],
          [
            -123.136393,
            49.171328
          ],
          [
            -123.136441,
            49.171929
          ],
          [
            -123.136486,
            49.172244
          ],
          [
            -123.136509,
            49.172623
          ],
          [
            -123.136447,
            49.172962
          ],
          [
            -123.136453,
            49.173601
          ],
          [
            -123.136453,
            49.173632
          ],
          [
            -123.13645,
            49.174238
          ],
          [
            -123.13645,
            49.174722
          ],
          [
            -123.136437,
            49.175185
          ],
          [
            -123.136427,
            49.17816
          ],
          [
            -123.136443,
            49.179533
          ],
          [
            -123.136439,
            49.180265
          ],
          [
            -123.136406,
            49.18222
          ],
          [
            -123.136287,
            49.18392
          ],
          [
            -123.136224,
            49.184479
          ],
          [
            -123.136158,
            49.184713
          ],
          [
            -123.13599,
            49.185019
          ],
          [
            -123.132892,
            49.188169
          ],
          [
            -123.132437,
            49.188609
          ],
          [
            -123.131451,
            49.18953
          ],
          [
            -123.130787,
            49.190132
          ],
          [
            -123.130623,
            49.190297
          ],
          [
            -123.13043,
            49.190545
          ],
          [
            -123.130357,
            49.190655
          ],
          [
            -123.130264,
            49.190817
          ],
          [
            -123.130216,
            49.190927
          ],
          [
            -123.130165,
            49.191056
          ],
          [
            -123.130116,
            49.191222
          ],
          [
            -123.130066,
            49.19151
          ],
          [
            -123.130055,
            49.192801
          ],
          [
            -123.130006,
            49.193098
          ],
          [
            -123.129893,
            49.1934
          ],
          [
            -123.129741,
            49.193622
          ],
          [
            -123.129663,
            49.193713
          ],
          [
            -123.129482,
            49.19389
          ],
          [
            -123.129387,
            49.193968
          ],
          [
            -123.129151,
            49.194126
          ],
          [
            -123.129022,
            49.194199
          ],
          [
            -123.128776,
            49.194323
          ],
          [
            -123.128352,
            49.194517
          ],
          [
            -123.127575,
            49.194872
          ],
          [
            -123.127397,
            49.194946
          ],
          [
            -123.12706,
            49.195073
          ],
          [
            -123.126624,
            49.195227
          ],
          [
            -123.126408,
            49.195318
          ],
          [
            -123.125974,
            49.195524
          ],
          [
            -123.12556,
            49.195704
          ],
          [
            -123.124906,
            49.196006
          ],
          [
            -123.124618,
            49.196152
          ],
          [
            -123.124051,
            49.196459
          ],
          [
            -123.12381,
            49.196581
          ],
          [
            -123.123683,
            49.196639
          ],
          [
            -123.123323,
            49.196779
          ],
          [
            -123.122634,
            49.197016
          ],
          [
            -123.122124,
            49.197192
          ],
          [
            -123.121075,
            49.197558
          ],
          [
            -123.120895,
            49.197632
          ],
          [
            -123.120598,
            49.197772
          ],
          [
            -123.120328,
            49.197924
          ],
          [
            -123.120065,
            49.198098
          ],
          [
            -123.11995,
            49.198185
          ],
          [
            -123.119393,
            49.198653
          ],
          [
            -123.118793,
            49.199175
          ],
          [
            -123.11843,
            49.199498
          ],
          [
            -123.118336,
            49.199593
          ],
          [
            -123.118184,
            49.19978
          ],
          [
            -123.118069,
            49.199962
          ],
          [
            -123.118024,
            49.200057
          ],
          [
            -123.117946,
            49.200257
          ],
          [
            -123.117899,
            49.200438
          ],
          [
            -123.117869,
            49.200604
          ],
          [
            -123.117824,
            49.201036,
            14.25
          ],
          [
            -123.117752,
            49.201716,
            14.25
          ],
          [
            -123.117621,
            49.20309,
            14.25
          ],
          [
            -123.117512,
            49.204487,
            14.25
          ],
          [
            -123.11738,
            49.207006,
            14.25
          ],
          [
            -123.117379,
            49.20708,
            14.25
          ],
          [
            -123.117333,
            49.207889,
            14.25
          ],
          [
            -123.117315,
            49.208034,
            14.25
          ],
          [
            -123.117279,
            49.208189,
            14.25
          ],
          [
            -123.117022,
            49.208874,
            14.25
          ],
          [
            -123.116983,
            49.209045,
            14.25
          ],
          [
            -123.116949,
            49.209622,
            14.25
          ],
          [
            -123.116948,
            49.209683,
            14.25
          ],
          [
            -123.116914,
            49.210856,
            14.25
          ],
          [
            -123.11687,
            49.212136,
            20
          ],
          [
            -123.116822,
            49.215025,
            34.5
          ],
          [
            -123.116813,
            49.215234,
            45.5
          ],
          [
            -123.116759,
            49.21641,
            45.5
          ],
          [
            -123.116737,
            49.216872,
            44
          ],
          [
            -123.11673,
            49.216973,
            44.25
          ],
          [
            -123.116316,
            49.226506,
            72.5
          ],
          [
            -123.116274,
            49.227748,
            76.25
          ],
          [
            -123.116162,
            49.230904,
            85.75
          ],
          [
            -123.116097,
            49.233082,
            92.25
          ],
          [
            -123.116089,
            49.233253,
            92.25
          ],
          [
            -123.116062,
            49.233778
          ],
          [
            -123.116041,
            49.234095
          ],
          [
            -123.115859,
            49.237238
          ],
          [
            -123.115811,
            49.237907
          ],
          [
            -123.115846,
            49.23817
          ],
          [
            -123.115905,
            49.238376
          ],
          [
            -123.116049,
            49.238601
          ],
          [
            -123.116207,
            49.238762
          ],
          [
            -123.116697,
            49.239194
          ],
          [
            -123.117941,
            49.240328
          ],
          [
            -123.118073,
            49.240467
          ],
          [
            -123.11815,
            49.240574
          ],
          [
            -123.118202,
            49.240678
          ],
          [
            -123.11825,
            49.240818
          ],
          [
            -123.118271,
            49.240976
          ],
          [
            -123.118184,
            49.242069
          ],
          [
            -123.118129,
            49.242523
          ],
          [
            -123.118108,
            49.242614
          ],
          [
            -123.118056,
            49.242724
          ],
          [
            -123.11788,
            49.243027
          ],
          [
            -123.117732,
            49.243189
          ],
          [
            -123.117472,
            49.243429
          ],
          [
            -123.116698,
            49.243896
          ],
          [
            -123.116294,
            49.244125
          ],
          [
            -123.116047,
            49.244296
          ],
          [
            -123.115732,
            49.244588
          ],
          [
            -123.1156,
            49.244739
          ],
          [
            -123.115507,
            49.244887
          ],
          [
            -123.115402,
            49.245098
          ],
          [
            -123.115344,
            49.245324
          ],
          [
            -123.115312,
            49.24563
          ],
          [
            -123.115238,
            49.247736
          ],
          [
            -123.115234,
            49.247822
          ],
          [
            -123.115223,
            49.248195
          ],
          [
            -123.115331,
            49.2493
          ],
          [
            -123.11536,
            49.249715
          ],
          [
            -123.115366,
            49.250151
          ],
          [
            -123.115337,
            49.251207
          ],
          [
            -123.11499,
            49.261275
          ],
          [
            -123.114837,
            49.262254
          ],
          [
            -123.114774,
            49.262902
          ],
          [
            -123.114738,
            49.263435
          ],
          [
            -123.114719,
            49.263761
          ],
          [
            -123.11471,
            49.264076
          ],
          [
            -123.114721,
            49.264882
          ],
          [
            -123.11475,
            49.265183
          ],
          [
            -123.114755,
            49.265209
          ],
          [
            -123.114802,
            49.265468
          ],
          [
            -123.114928,
            49.265859
          ],
          [
            -123.11503,
            49.26609
          ],
          [
            -123.115352,
            49.266648
          ],
          [
            -123.115622,
            49.26715
          ],
          [
            -123.115846,
            49.267422
          ],
          [
            -123.117711,
            49.269329
          ],
          [
            -123.117923,
            49.26964
          ],
          [
            -123.118542,
            49.270827
          ],
          [
            -123.119123,
            49.271797
          ],
          [
            -123.119366,
            49.272205
          ],
          [
            -123.119938,
            49.272981
          ],
          [
            -123.120204,
            49.273248
          ],
          [
            -123.120515,
            49.273493
          ],
          [
            -123.122087,
            49.274527
          ],
          [
            -123.12375,
            49.275602
          ],
          [
            -123.124077,
            49.27585
          ],
          [
            -123.124303,
            49.276088
          ],
          [
            -123.12448,
            49.276332
          ],
          [
            -123.124601,
            49.276558
          ],
          [
            -123.124706,
            49.276884
          ],
          [
            -123.124735,
            49.277307
          ],
          [
            -123.124689,
            49.277548
          ],
          [
            -123.124662,
            49.277685
          ],
          [
            -123.124466,
            49.278068
          ],
          [
            -123.124156,
            49.278432
          ],
          [
            -123.123749,
            49.278757
          ],
          [
            -123.122724,
            49.279435
          ],
          [
            -123.12093,
            49.280607
          ],
          [
            -123.11989,
            49.281287
          ],
          [
            -123.118995,
            49.281884
          ],
          [
            -123.11888,
            49.28196
          ],
          [
            -123.118548,
            49.282184
          ],
          [
            -123.118062,
            49.282482
          ],
          [
            -123.11689,
            49.283256
          ],
          [
            -123.11575,
            49.284003
          ],
          [
            -123.11439,
            49.284907
          ],
          [
            -123.113942,
            49.285194
          ],
          [
            -123.113347,
            49.285582
          ],
          [
            -123.112895,
            49.285877
          ]
        ]
      }
    }
  ]
}