{
  "type": "FeatureCollection",
  "features": [
    {
      "type": "Feature",
      "properties": {
        "creator": "BRouter-1.7.0",
        "name": "[Valley Metro] S Line",
        "track-length": "9339",
        "filtered ascend": "30",
        "plain-ascend": "1",
        "total-time": "747",
        "total-energy": "415138",
        "cost": "18680",
        "messages": [
          [
            "Longitude",
            "Latitude",
            "Elevation",
            "Distance",
            "CostPerKm",
            "ElevCost",
            "TurnCost",
            "NodeCost",
            "InitialCost",
            "WayTags",
            "NodeTags",
            "Time",
            "Energy"
          ],
          [
            "-111917110",
            "33414697",
            "358",
            "7",
            "2000",
            "0",
            "0",
            "0",
            "0",
            "railway=tram",
            "wheelchair=yes railway=tram_stop direction=forward",
            "0",
            "307"
          ],
          [
            "-111917219",
            "33414697",
            "358",
            "10",
            "2000",
            "0",
            "0",
            "0",
            "0",
            "railway=tram",
            "railway=switch",
            "1",
            "747"
          ],
          [
            "-111917699",
            "33414699",
            "358",
            "44",
            "2000",
            "0",
            "0",
            "0",
            "0",
            "railway=tram",
            "railway=level_crossing",
            "4",
            "2706"
          ],
          [
            "-111920426",
            "33414762",
            "360",
            "254",
            "2000",
            "0",
            "0",
            "0",
            "0",
            "railway=tram",
            "railway=level_crossing",
            "25",
            "15803"
          ],
          [
            "-111920472",
            "33414768",
            "360",
            "4",
            "2000",
            "0",
            "0",
            "0",
            "0",
            "railway=tram",
            "railway=level_crossing",
            "25",
            "15971"
          ],
          [
            "-111920958",
            "33414802",
            "359",
            "46",
            "2000",
            "0",
            "0",
            "0",
            "0",
            "railway=tram",
            "railway=switch",
            "29",
            "17720"
          ],
          [
            "-111922024",
            "33414799",
            "359",
            "52",
            "2000",
            "0",
            "0",
            "0",
            "0",
            "railway=tram",
            "",
            "33",
            "19734"
          ],
          [
            "-111922024",
            "33414799",
            "359",
            "47",
            "2000",
            "0",
            "0",
            "0",
            "0",
            "railway=tram",
            "railway=level_crossing",
            "3",
            "1901"
          ],
          [
            "-111924316",
            "33414803",
            "359",
            "213",
            "2000",
            "0",
            "0",
            "0",
            "0",
            "railway=tram",
            "railway=level_crossing",
            "20",
            "11027"
          ],
          [
            "-111925326",
            "33414803",
            "359",
            "94",
            "2000",
            "0",
            "0",
            "0",
            "0",
            "railway=tram",
            "wheelchair=yes railway=tram_stop direction=forward",
            "28",
            "15276"
          ],
          [
            "-111926106",
            "33414802",
            "358",
            "73",
            "2000",
            "0",
            "0",
            "0",
            "0",
            "railway=tram",
            "railway=crossing",
            "34",
            "18068"
          ],
          [
            "-111926288",
            "33414802",
            "358",
            "17",
            "2000",
            "0",
            "0",
            "0",
            "0",
            "railway=tram",
            "railway=level_crossing",
            "35",
            "18789"
          ],
          [
            "-111926482",
            "33414798",
            "358",
            "18",
            "2000",
            "0",
            "0",
            "0",
            "0",
            "railway=tram",
            "railway=crossing",
            "36",
            "19594"
          ],
          [
            "-111929147",
            "33414778",
            "355",
            "248",
            "2000",
            "0",
            "0",
            "0",
            "0",
            "railway=tram",
            "railway=unknown",
            "56",
            "30157"
          ],
          [
            "-111929476",
            "33414775",
            "354",
            "31",
            "2000",
            "0",
            "0",
            "0",
            "0",
            "railway=tram",
            "wheelchair=yes railway=tram_stop direction=forward",
            "59",
            "31394"
          ],
          [
            "-111930508",
            "33414765",
            "355",
            "96",
            "2000",
            "0",
            "0",
            "0",
            "0",
            "railway=tram",
            "railway=unknown",
            "66",
            "34041"
          ],
          [
            "-111930661",
            "33414763",
            "355",
            "14",
            "2000",
            "0",
            "0",
            "0",
            "0",
            "railway=tram",
            "railway=unknown",
            "68",
            "34529"
          ],
          [
            "-111930799",
            "33414762",
            "355",
            "13",
            "2000",
            "0",
            "0",
            "0",
            "0",
            "railway=tram",
            "railway=unknown",
            "69",
            "35024"
          ],
          [
            "-111932244",
            "33414750",
            "357",
            "134",
            "2000",
            "0",
            "0",
            "0",
            "0",
            "railway=tram",
            "railway=level_crossing",
            "79",
            "41650"
          ],
          [
            "-111932714",
            "33414745",
            "357",
            "44",
            "2000",
            "0",
            "0",
            "0",
            "0",
            "railway=tram",
            "railway=unknown",
            "83",
            "43678"
          ],
          [
            "-111932819",
            "33414744",
            "357",
            "10",
            "2000",
            "0",
            "0",
            "0",
            "0",
            "railway=tram",
            "railway=level_crossing",
            "84",
            "44134"
          ],
          [
            "-111934847",
            "33414727",
            "354",
            "189",
            "2000",
            "0",
            "0",
            "0",
            "0",
            "railway=tram",
            "railway=unknown",
            "99",
            "50515"
          ],
          [
            "-111934958",
            "33414726",
            "354",
            "10",
            "2000",
            "0",
            "0",
            "0",
            "0",
            "railway=tram",
            "railway=level_crossing",
            "100",
            "50901"
          ],
          [
            "-111935053",
            "33414725",
            "354",
            "9",
            "2000",
            "0",
            "0",
            "0",
            "0",
            "railway=tram",
            "railway=unknown",
            "100",
            "51272"
          ],
          [
            "-111935346",
            "33414723",
            "356",
            "27",
            "2000",
            "0",
            "0",
            "0",
            "0",
            "railway=tram",
            "wheelchair=yes railway=tram_stop direction=forward",
            "102",
            "52762"
          ],
          [
            "-111936482",
            "33414708",
            "355",
            "106",
            "2000",
            "0",
            "0",
            "0",
            "0",
            "railway=tram",
            "railway=unknown",
            "111",
            "57486"
          ],
          [
            "-111936601",
            "33414709",
            "354",
            "11",
            "2000",
            "0",
            "0",
            "0",
            "0",
            "railway=tram",
            "railway=level_crossing",
            "112",
            "57904"
          ],
          [
            "-111938176",
            "33414986",
            "358",
            "151",
            "2000",
            "0",
            "0",
            "0",
            "0",
            "railway=tram",
            "railway=level_crossing",
            "124",
            "65336"
          ],
          [
            "-111939118",
            "33415578",
            "353",
            "102",
            "2000",
            "0",
            "0",
            "0",
            "0",
            "railway=tram",
            "",
            "132",
            "70245"
          ],
          [
            "-111939469",
            "33415978",
            "353",
            "63",
            "2000",
            "0",
            "0",
            "0",
            "0",
            "railway=tram",
            "railway=crossing",
            "5",
            "2353"
          ],
          [
            "-111939514",
            "33416050",
            "354",
            "9",
            "2000",
            "0",
            "0",
            "0",
            "0",
            "railway=tram",
            "railway=level_crossing",
            "5",
            "2765"
          ],
          [
            "-111939873",
            "33417455",
            "356",
            "162",
            "2000",
            "0",
            "0",
            "0",
            "0",
            "railway=tram",
            "railway=level_crossing",
            "18",
            "11343"
          ],
          [
            "-111939878",
            "33417622",
            "356",
            "19",
            "2000",
            "0",
            "0",
            "0",
            "0",
            "railway=tram",
            "railway=level_crossing",
            "20",
            "12340"
          ],
          [
            "-111939879",
            "33417714",
            "356",
            "10",
            "2000",
            "0",
            "0",
            "0",
            "0",
            "railway=tram",
            "railway=unknown",
            "21",
            "12833"
          ],
          [
            "-111939881",
            "33418151",
            "356",
            "48",
            "2000",
            "0",
            "0",
            "0",
            "0",
            "railway=tram",
            "wheelchair=yes railway=tram_stop direction=forward",
            "24",
            "15135"
          ],
          [
            "-111939895",
            "33419067",
            "356",
            "102",
            "2000",
            "0",
            "0",
            "0",
            "0",
            "railway=tram",
            "railway=level_crossing",
            "33",
            "19961"
          ],
          [
            "-111939899",
            "33419347",
            "356",
            "31",
            "2000",
            "0",
            "0",
            "0",
            "0",
            "railway=tram",
            "railway=switch",
            "35",
            "21375"
          ],
          [
            "-111939915",
            "33420491",
            "355",
            "127",
            "2000",
            "0",
            "0",
            "0",
            "0",
            "railway=tram",
            "railway=level_crossing",
            "45",
            "26408"
          ],
          [
            "-111939920",
            "33421029",
            "355",
            "60",
            "2000",
            "0",
            "0",
            "0",
            "0",
            "railway=tram",
            "wheelchair=yes railway=tram_stop direction=forward",
            "50",
            "28763"
          ],
          [
            "-111939987",
            "33423134",
            "360",
            "232",
            "2000",
            "0",
            "0",
            "0",
            "0",
            "railway=tram",
            "railway=unknown",
            "69",
            "42155"
          ],
          [
            "-111939987",
            "33423276",
            "360",
            "16",
            "2000",
            "0",
            "0",
            "0",
            "0",
            "railway=tram",
            "railway=unknown",
            "70",
            "43054"
          ],
          [
            "-111939986",
            "33424256",
            "356",
            "109",
            "2000",
            "0",
            "0",
            "0",
            "0",
            "railway=tram",
            "railway=unknown",
            "79",
            "47717"
          ],
          [
            "-111939985",
            "33424345",
            "356",
            "10",
            "2000",
            "0",
            "0",
            "0",
            "0",
            "railway=tram",
            "railway=unknown",
            "79",
            "47920"
          ],
          [
            "-111939985",
            "33424449",
            "356",
            "12",
            "2000",
            "0",
            "0",
            "0",
            "0",
            "railway=tram",
            "railway=unknown",
            "80",
            "48217"
          ],
          [
            "-111939985",
            "33424902",
            "358",
            "50",
            "2000",
            "0",
            "0",
            "0",
            "0",
            "railway=tram",
            "wheelchair=yes railway=tram_stop direction=forward",
            "84",
            "50314"
          ],
          [
            "-111939983",
            "33425474",
            "360",
            "64",
            "2000",
            "0",
            "0",
            "0",
            "0",
            "railway=tram",
            "railway=unknown",
            "89",
            "53803"
          ],
          [
            "-111939983",
            "33425508",
            "360",
            "4",
            "2000",
            "0",
            "0",
            "0",
            "0",
            "railway=tram",
            "railway=unknown",
            "90",
            "54025"
          ],
          [
            "-111939983",
            "33425531",
            "360",
            "3",
            "2000",
            "0",
            "0",
            "0",
            "0",
            "railway=tram",
            "railway=unknown",
            "90",
            "54189"
          ],
          [
            "-111939982",
            "33426279",
            "360",
            "83",
            "2000",
            "0",
            "0",
            "0",
            "0",
            "railway=tram",
            "railway=unknown",
            "97",
            "58456"
          ],
          [
            "-111939980",
            "33427277",
            "357",
            "64",
            "2000",
            "0",
            "0",
            "0",
            "0",
            "railway=tram",
            "",
            "102",
            "60954"
          ],
          [
            "-111939980",
            "33427277",
            "357",
            "47",
            "2000",
            "0",
            "0",
            "0",
            "0",
            "railway=tram",
            "railway=unknown",
            "3",
            "1653"
          ],
          [
            "-111939980",
            "33427385",
            "357",
            "12",
            "2000",
            "0",
            "0",
            "0",
            "0",
            "railway=tram",
            "railway=unknown",
            "4",
            "2053"
          ],
          [
            "-111939985",
            "33427491",
            "357",
            "12",
            "2000",
            "0",
            "0",
            "0",
            "0",
            "railway=tram",
            "railway=unknown",
            "5",
            "2442"
          ],
          [
            "-111939986",
            "33427527",
            "357",
            "4",
            "2000",
            "0",
            "0",
            "0",
            "0",
            "railway=tram",
            "railway=unknown",
            "6",
            "2576"
          ],
          [
            "-111939993",
            "33427989",
            "358",
            "51",
            "2000",
            "0",
            "0",
            "0",
            "0",
            "railway=tram",
            "wheelchair=yes railway=tram_stop direction=forward",
            "10",
            "4728"
          ],
          [
            "-111939971",
            "33428495",
            "358",
            "56",
            "2000",
            "0",
            "0",
            "0",
            "0",
            "railway=tram",
            "railway=unknown",
            "14",
            "7402"
          ],
          [
            "-111939957",
            "33429311",
            "355",
            "91",
            "2000",
            "0",
            "0",
            "0",
            "0",
            "railway=tram",
            "railway=switch",
            "21",
            "10159"
          ],
          [
            "-111939839",
            "33429497",
            "355",
            "24",
            "2000",
            "0",
            "0",
            "0",
            "0",
            "railway=tram",
            "railway=unknown",
            "23",
            "10921"
          ],
          [
            "-111939748",
            "33429527",
            "355",
            "9",
            "2000",
            "0",
            "0",
            "0",
            "0",
            "railway=tram",
            "railway=unknown",
            "24",
            "11216"
          ],
          [
            "-111939194",
            "33429572",
            "355",
            "52",
            "2000",
            "0",
            "0",
            "0",
            "0",
            "railway=tram",
            "railway=unknown",
            "28",
            "13145"
          ],
          [
            "-111938827",
            "33429696",
            "356",
            "38",
            "2000",
            "0",
            "0",
            "0",
            "0",
            "railway=tram",
            "railway=unknown",
            "31",
            "14824"
          ],
          [
            "-111938451",
            "33429995",
            "356",
            "48",
            "2000",
            "0",
            "0",
            "0",
            "0",
            "railway=tram",
            "railway=switch",
            "35",
            "17082"
          ],
          [
            "-111938382",
            "33430036",
            "356",
            "8",
            "2000",
            "0",
            "0",
            "0",
            "0",
            "railway=tram",
            "highway=crossing crossing=uncontrolled",
            "36",
            "17470"
          ],
          [
            "-111938207",
            "33430138",
            "357",
            "20",
            "2000",
            "0",
            "0",
            "0",
            "0",
            "railway=tram",
            "wheelchair=yes railway=tram_stop",
            "37",
            "18466"
          ],
          [
            "-111937469",
            "33430498",
            "355",
            "80",
            "2000",
            "0",
            "0",
            "0",
            "0",
            "railway=tram",
            "railway=unknown",
            "44",
            "21784"
          ],
          [
            "-111937359",
            "33430534",
            "355",
            "11",
            "2000",
            "0",
            "0",
            "0",
            "0",
            "railway=tram",
            "railway=unknown",
            "45",
            "22229"
          ],
          [
            "-111935141",
            "33430312",
            "353",
            "214",
            "2000",
            "0",
            "0",
            "0",
            "0",
            "railway=tram",
            "railway=unknown",
            "62",
            "29672"
          ],
          [
            "-111935078",
            "33430278",
            "353",
            "7",
            "2000",
            "0",
            "0",
            "0",
            "0",
            "railway=tram",
            "railway=unknown",
            "62",
            "29941"
          ],
          [
            "-111934132",
            "33429667",
            "359",
            "111",
            "2000",
            "0",
            "0",
            "0",
            "0",
            "railway=tram",
            "railway=unknown",
            "71",
            "35471"
          ],
          [
            "-111934009",
            "33429583",
            "358",
            "15",
            "2000",
            "0",
            "0",
            "0",
            "0",
            "railway=tram",
            "railway=unknown",
            "72",
            "36274"
          ],
          [
            "-111933880",
            "33429492",
            "358",
            "16",
            "2000",
            "0",
            "0",
            "0",
            "0",
            "railway=tram",
            "railway=unknown",
            "74",
            "37076"
          ],
          [
            "-111933323",
            "33429343",
            "355",
            "57",
            "2000",
            "0",
            "0",
            "0",
            "0",
            "railway=tram",
            "railway=switch",
            "78",
            "40079"
          ],
          [
            "-111932554",
            "33429332",
            "353",
            "71",
            "2000",
            "0",
            "0",
            "0",
            "0",
            "railway=tram",
            "wheelchair=yes railway=tram_stop direction=forward",
            "84",
            "42466"
          ],
          [
            "-111932432",
            "33429333",
            "353",
            "11",
            "2000",
            "0",
            "0",
            "0",
            "0",
            "railway=tram",
            "railway=unknown",
            "85",
            "42826"
          ],
          [
            "-111932154",
            "33429337",
            "352",
            "1",
            "2000",
            "0",
            "0",
            "0",
            "0",
            "railway=tram",
            "",
            "85",
            "42858"
          ],
          [
            "-111932432",
            "33429333",
            "353",
            "1",
            "2000",
            "0",
            "0",
            "0",
            "0",
            "reversedirection=yes railway=tram",
            "railway=unknown",
            "0",
            "46"
          ],
          [
            "-111932554",
            "33429332",
            "353",
            "11",
            "2000",
            "0",
            "0",
            "0",
            "0",
            "reversedirection=yes railway=tram",
            "wheelchair=yes railway=tram_stop direction=forward",
            "0",
            "575"
          ],
          [
            "-111933323",
            "33429343",
            "355",
            "71",
            "2000",
            "0",
            "0",
            "0",
            "0",
            "reversedirection=yes railway=tram",
            "railway=switch",
            "6",
            "4543"
          ],
          [
            "-111933880",
            "33429492",
            "358",
            "57",
            "2000",
            "0",
            "0",
            "0",
            "0",
            "reversedirection=yes railway=tram",
            "railway=unknown",
            "11",
            "7439"
          ],
          [
            "-111934009",
            "33429583",
            "358",
            "16",
            "2000",
            "0",
            "0",
            "0",
            "0",
            "reversedirection=yes railway=tram",
            "railway=unknown",
            "12",
            "8312"
          ],
          [
            "-111934132",
            "33429667",
            "359",
            "15",
            "2000",
            "0",
            "0",
            "0",
            "0",
            "reversedirection=yes railway=tram",
            "railway=unknown",
            "13",
            "9139"
          ],
          [
            "-111935078",
            "33430278",
            "353",
            "111",
            "2000",
            "0",
            "0",
            "0",
            "0",
            "reversedirection=yes railway=tram",
            "railway=unknown",
            "22",
            "13735"
          ],
          [
            "-111935141",
            "33430312",
            "353",
            "7",
            "2000",
            "0",
            "0",
            "0",
            "0",
            "reversedirection=yes railway=tram",
            "railway=unknown",
            "23",
            "13968"
          ],
          [
            "-111937359",
            "33430534",
            "355",
            "214",
            "2000",
            "0",
            "0",
            "0",
            "0",
            "reversedirection=yes railway=tram",
            "railway=unknown",
            "40",
            "23729"
          ],
          [
            "-111937469",
            "33430498",
            "355",
            "11",
            "2000",
            "0",
            "0",
            "0",
            "0",
            "reversedirection=yes railway=tram",
            "railway=unknown",
            "41",
            "24275"
          ],
          [
            "-111938207",
            "33430138",
            "357",
            "80",
            "2000",
            "0",
            "0",
            "0",
            "0",
            "reversedirection=yes railway=tram",
            "wheelchair=yes railway=tram_stop",
            "47",
            "28619"
          ],
          [
            "-111938382",
            "33430036",
            "356",
            "20",
            "2000",
            "0",
            "0",
            "0",
            "0",
            "reversedirection=yes railway=tram",
            "highway=crossing crossing=uncontrolled",
            "49",
            "29647"
          ],
          [
            "-111938451",
            "33429995",
            "356",
            "8",
            "2000",
            "0",
            "0",
            "0",
            "0",
            "reversedirection=yes railway=tram",
            "railway=switch",
            "49",
            "30034"
          ],
          [
            "-111939858",
            "33429674",
            "354",
            "139",
            "2000",
            "0",
            "0",
            "0",
            "0",
            "railway=tram",
            "railway=unknown",
            "60",
            "35509"
          ],
          [
            "-111939966",
            "33429662",
            "354",
            "10",
            "2000",
            "0",
            "0",
            "0",
            "0",
            "railway=tram",
            "railway=unknown",
            "61",
            "35902"
          ],
          [
            "-111940090",
            "33429650",
            "354",
            "12",
            "2000",
            "0",
            "0",
            "0",
            "0",
            "railway=tram",
            "railway=unknown",
            "62",
            "36330"
          ],
          [
            "-111940222",
            "33429638",
            "353",
            "12",
            "2000",
            "0",
            "0",
            "0",
            "0",
            "railway=tram",
            "railway=unknown",
            "63",
            "36719"
          ],
          [
            "-111940289",
            "33429632",
            "353",
            "6",
            "2000",
            "0",
            "0",
            "0",
            "0",
            "railway=tram",
            "railway=switch",
            "64",
            "36919"
          ],
          [
            "-111940962",
            "33429564",
            "352",
            "63",
            "2000",
            "0",
            "0",
            "0",
            "0",
            "railway=tram",
            "railway=unknown",
            "69",
            "38489"
          ],
          [
            "-111941579",
            "33429502",
            "351",
            "58",
            "2000",
            "0",
            "0",
            "0",
            "0",
            "railway=tram",
            "wheelchair=yes railway=tram_stop direction=forward",
            "73",
            "40243"
          ],
          [
            "-111941781",
            "33429492",
            "351",
            "19",
            "2000",
            "0",
            "0",
            "0",
            "0",
            "railway=tram",
            "railway=unknown",
            "75",
            "40904"
          ],
          [
            "-111942161",
            "33429489",
            "352",
            "36",
            "2000",
            "0",
            "0",
            "0",
            "0",
            "railway=tram",
            "",
            "78",
            "42548"
          ],
          [
            "-111942536",
            "33429401",
            "354",
            "36",
            "2000",
            "0",
            "0",
            "0",
            "0",
            "railway=tram",
            "railway=unknown",
            "2",
            "2144"
          ],
          [
            "-111942772",
            "33429195",
            "354",
            "34",
            "2000",
            "0",
            "0",
            "0",
            "0",
            "railway=tram",
            "railway=unknown",
            "5",
            "4063"
          ],
          [
            "-111942723",
            "33429021",
            "354",
            "20",
            "2000",
            "0",
            "0",
            "0",
            "0",
            "railway=tram",
            "railway=unknown",
            "7",
            "5132"
          ],
          [
            "-111942559",
            "33428509",
            "355",
            "59",
            "2000",
            "0",
            "0",
            "0",
            "0",
            "railway=tram",
            "railway=unknown",
            "11",
            "8396"
          ],
          [
            "-111942717",
            "33427784",
            "355",
            "83",
            "2000",
            "0",
            "0",
            "0",
            "0",
            "railway=tram",
            "railway=unknown",
            "18",
            "12888"
          ],
          [
            "-111942738",
            "33427746",
            "355",
            "5",
            "2000",
            "0",
            "0",
            "0",
            "0",
            "railway=tram",
            "railway=unknown",
            "19",
            "13141"
          ],
          [
            "-111942764",
            "33427706",
            "355",
            "5",
            "2000",
            "0",
            "0",
            "0",
            "0",
            "railway=tram",
            "railway=unknown",
            "19",
            "13392"
          ],
          [
            "-111942841",
            "33427596",
            "355",
            "14",
            "2000",
            "0",
            "0",
            "0",
            "0",
            "railway=tram",
            "railway=unknown",
            "20",
            "14087"
          ],
          [
            "-111942901",
            "33427519",
            "355",
            "10",
            "2000",
            "0",
            "0",
            "0",
            "0",
            "railway=tram",
            "railway=unknown",
            "21",
            "14577"
          ],
          [
            "-111943043",
            "33427348",
            "354",
            "23",
            "2000",
            "0",
            "0",
            "0",
            "0",
            "railway=tram",
            "wheelchair=yes railway=tram_stop direction=forward",
            "23",
            "15505"
          ],
          [
            "-111943252",
            "33427055",
            "353",
            "38",
            "2000",
            "0",
            "0",
            "0",
            "0",
            "railway=tram",
            "railway=unknown",
            "26",
            "16794"
          ],
          [
            "-111943437",
            "33425593",
            "356",
            "164",
            "2000",
            "0",
            "0",
            "0",
            "0",
            "railway=tram",
            "railway=unknown",
            "39",
            "24613"
          ],
          [
            "-111943436",
            "33425529",
            "356",
            "7",
            "2000",
            "0",
            "0",
            "0",
            "0",
            "railway=tram",
            "railway=unknown",
            "39",
            "24988"
          ],
          [
            "-111943435",
            "33425447",
            "356",
            "9",
            "2000",
            "0",
            "0",
            "0",
            "0",
            "railway=tram",
            "railway=unknown",
            "40",
            "25446"
          ],
          [
            "-111943434",
            "33425380",
            "356",
            "7",
            "2000",
            "0",
            "0",
            "0",
            "0",
            "railway=tram",
            "railway=unknown",
            "41",
            "25798"
          ],
          [
            "-111943435",
            "33425118",
            "355",
            "29",
            "2000",
            "0",
            "0",
            "0",
            "0",
            "railway=tram",
            "wheelchair=yes railway=tram_stop direction=forward",
            "43",
            "27170"
          ],
          [
            "-111942677",
            "33423301",
            "358",
            "217",
            "2000",
            "0",
            "0",
            "0",
            "0",
            "railway=tram",
            "railway=unknown",
            "60",
            "37645"
          ],
          [
            "-111942560",
            "33423038",
            "359",
            "31",
            "2000",
            "0",
            "0",
            "0",
            "0",
            "railway=tram",
            "railway=unknown",
            "63",
            "39605"
          ],
          [
            "-111942478",
            "33422671",
            "360",
            "41",
            "2000",
            "0",
            "0",
            "0",
            "0",
            "railway=tram",
            "railway=unknown",
            "66",
            "42341"
          ],
          [
            "-111942473",
            "33422301",
            "359",
            "33",
            "2000",
            "0",
            "0",
            "0",
            "0",
            "railway=tram",
            "",
            "69",
            "44208"
          ],
          [
            "-111942473",
            "33422301",
            "359",
            "9",
            "2000",
            "0",
            "0",
            "0",
            "0",
            "railway=tram",
            "wheelchair=yes railway=tram_stop direction=forward",
            "0",
            "395"
          ],
          [
            "-111942464",
            "33422044",
            "358",
            "28",
            "2000",
            "0",
            "0",
            "0",
            "0",
            "railway=tram",
            "railway=unknown",
            "2",
            "1353"
          ],
          [
            "-111942389",
            "33421940",
            "358",
            "14",
            "2000",
            "0",
            "0",
            "0",
            "0",
            "railway=tram",
            "railway=unknown",
            "4",
            "1803"
          ],
          [
            "-111942368",
            "33421928",
            "358",
            "2",
            "2000",
            "0",
            "0",
            "0",
            "0",
            "railway=tram",
            "railway=unknown",
            "4",
            "1873"
          ],
          [
            "-111942295",
            "33421904",
            "358",
            "7",
            "2000",
            "0",
            "0",
            "0",
            "0",
            "railway=tram",
            "railway=unknown",
            "4",
            "2123"
          ],
          [
            "-111941776",
            "33421902",
            "361",
            "48",
            "2000",
            "0",
            "0",
            "0",
            "0",
            "railway=tram",
            "railway=unknown",
            "8",
            "4687"
          ],
          [
            "-111940171",
            "33421923",
            "359",
            "150",
            "2000",
            "0",
            "0",
            "0",
            "0",
            "railway=tram",
            "railway=unknown",
            "20",
            "11727"
          ],
          [
            "-111940089",
            "33421887",
            "358",
            "9",
            "2000",
            "0",
            "0",
            "0",
            "0",
            "railway=tram",
            "railway=unknown",
            "21",
            "11977"
          ],
          [
            "-111939994",
            "33420808",
            "355",
            "120",
            "2000",
            "0",
            "0",
            "0",
            "0",
            "railway=tram",
            "wheelchair=yes railway=tram_stop direction=forward",
            "30",
            "16361"
          ],
          [
            "-111939991",
            "33420493",
            "355",
            "35",
            "2000",
            "0",
            "0",
            "0",
            "0",
            "railway=tram",
            "railway=level_crossing",
            "33",
            "17790"
          ],
          [
            "-111939984",
            "33419894",
            "356",
            "66",
            "2000",
            "0",
            "0",
            "0",
            "0",
            "railway=tram",
            "railway=switch",
            "39",
            "19872"
          ],
          [
            "-111939975",
            "33419066",
            "356",
            "92",
            "2000",
            "0",
            "0",
            "0",
            "0",
            "railway=tram",
            "railway=level_crossing",
            "46",
            "23283"
          ],
          [
            "-111939959",
            "33418008",
            "356",
            "118",
            "2000",
            "0",
            "0",
            "0",
            "0",
            "railway=tram",
            "wheelchair=yes railway=tram_stop direction=forward",
            "55",
            "27889"
          ],
          [
            "-111939957",
            "33417713",
            "356",
            "26",
            "2000",
            "0",
            "0",
            "0",
            "0",
            "railway=tram",
            "",
            "57",
            "28969"
          ],
          [
            "-111939957",
            "33417713",
            "356",
            "7",
            "2000",
            "0",
            "0",
            "0",
            "0",
            "railway=tram",
            "railway=unknown",
            "0",
            "322"
          ],
          [
            "-111939955",
            "33417624",
            "356",
            "10",
            "2000",
            "0",
            "0",
            "0",
            "0",
            "railway=tram",
            "railway=level_crossing",
            "1",
            "803"
          ],
          [
            "-111939953",
            "33417454",
            "356",
            "19",
            "2000",
            "0",
            "0",
            "0",
            "0",
            "railway=tram",
            "railway=level_crossing",
            "2",
            "1705"
          ],
          [
            "-111939569",
            "33415987",
            "354",
            "167",
            "2000",
            "0",
            "0",
            "0",
            "0",
            "railway=tram",
            "railway=level_crossing",
            "16",
            "8276"
          ],
          [
            "-111939526",
            "33415921",
            "354",
            "8",
            "2000",
            "0",
            "0",
            "0",
            "0",
            "railway=tram",
            "railway=crossing",
            "16",
            "8525"
          ],
          [
            "-111938269",
            "33414939",
            "358",
            "162",
            "2000",
            "0",
            "0",
            "0",
            "0",
            "railway=tram",
            "railway=level_crossing",
            "29",
            "16934"
          ],
          [
            "-111936604",
            "33414644",
            "354",
            "161",
            "2000",
            "0",
            "0",
            "0",
            "0",
            "railway=tram",
            "railway=level_crossing",
            "42",
            "22695"
          ],
          [
            "-111936484",
            "33414645",
            "355",
            "11",
            "2000",
            "0",
            "0",
            "0",
            "0",
            "railway=tram",
            "railway=unknown",
            "43",
            "23170"
          ],
          [
            "-111935196",
            "33414655",
            "355",
            "120",
            "2000",
            "0",
            "0",
            "0",
            "0",
            "railway=tram",
            "wheelchair=yes railway=tram_stop direction=forward",
            "53",
            "28546"
          ],
          [
            "-111935052",
            "33414657",
            "354",
            "13",
            "2000",
            "0",
            "0",
            "0",
            "0",
            "railway=tram",
            "railway=unknown",
            "54",
            "29042"
          ],
          [
            "-111934955",
            "33414658",
            "354",
            "9",
            "2000",
            "0",
            "0",
            "0",
            "0",
            "railway=tram",
            "railway=level_crossing",
            "54",
            "29372"
          ],
          [
            "-111934840",
            "33414660",
            "354",
            "11",
            "2000",
            "0",
            "0",
            "0",
            "0",
            "railway=tram",
            "railway=unknown",
            "55",
            "29806"
          ],
          [
            "-111933667",
            "33414669",
            "356",
            "109",
            "2000",
            "0",
            "0",
            "0",
            "0",
            "railway=tram",
            "railway=level_crossing",
            "64",
            "35488"
          ],
          [
            "-111932754",
            "33414679",
            "357",
            "85",
            "2000",
            "0",
            "0",
            "0",
            "0",
            "railway=tram",
            "railway=level_crossing",
            "71",
            "39736"
          ],
          [
            "-111932714",
            "33414679",
            "357",
            "4",
            "2000",
            "0",
            "0",
            "0",
            "0",
            "railway=tram",
            "railway=unknown",
            "71",
            "39927"
          ],
          [
            "-111930800",
            "33414698",
            "355",
            "178",
            "2000",
            "0",
            "0",
            "0",
            "0",
            "railway=tram",
            "railway=unknown",
            "85",
            "46776"
          ],
          [
            "-111930665",
            "33414700",
            "355",
            "13",
            "2000",
            "0",
            "0",
            "0",
            "0",
            "railway=tram",
            "railway=unknown",
            "86",
            "47297"
          ],
          [
            "-111930499",
            "33414702",
            "355",
            "15",
            "2000",
            "0",
            "0",
            "0",
            "0",
            "railway=tram",
            "railway=unknown",
            "88",
            "47905"
          ],
          [
            "-111929248",
            "33414711",
            "355",
            "116",
            "2000",
            "0",
            "0",
            "0",
            "0",
            "railway=tram",
            "wheelchair=yes railway=tram_stop direction=forward",
            "97",
            "52790"
          ],
          [
            "-111929146",
            "33414712",
            "355",
            "9",
            "2000",
            "0",
            "0",
            "0",
            "0",
            "railway=tram",
            "railway=unknown",
            "98",
            "53177"
          ],
          [
            "-111926483",
            "33414735",
            "358",
            "248",
            "2000",
            "0",
            "0",
            "0",
            "0",
            "railway=tram",
            "railway=crossing",
            "118",
            "64407"
          ],
          [
            "-111926291",
            "33414736",
            "358",
            "18",
            "2000",
            "0",
            "0",
            "0",
            "0",
            "railway=tram",
            "railway=level_crossing",
            "119",
            "65603"
          ],
          [
            "-111926104",
            "33414734",
            "358",
            "17",
            "2000",
            "0",
            "0",
            "0",
            "0",
            "railway=tram",
            "railway=crossing",
            "120",
            "66638"
          ],
          [
            "-111925173",
            "33414738",
            "359",
            "87",
            "2000",
            "0",
            "0",
            "0",
            "0",
            "railway=tram",
            "wheelchair=yes railway=tram_stop direction=forward",
            "127",
            "70465"
          ],
          [
            "-111924349",
            "33414738",
            "358",
            "77",
            "2000",
            "0",
            "0",
            "0",
            "0",
            "railway=tram",
            "railway=level_crossing",
            "133",
            "74918"
          ],
          [
            "-111922052",
            "33414737",
            "359",
            "187",
            "2000",
            "0",
            "0",
            "0",
            "0",
            "railway=tram",
            "",
            "148",
            "83922"
          ],
          [
            "-111922052",
            "33414737",
            "359",
            "27",
            "2000",
            "0",
            "0",
            "0",
            "0",
            "railway=tram",
            "railway=level_crossing",
            "2",
            "1239"
          ],
          [
            "-111920958",
            "33414802",
            "359",
            "102",
            "2000",
            "0",
            "0",
            "0",
            "0",
            "railway=tram",
            "railway=switch",
            "10",
            "6214"
          ],
          [
            "-111920472",
            "33414768",
            "360",
            "46",
            "2000",
            "0",
            "0",
            "0",
            "0",
            "reversedirection=yes railway=tram",
            "railway=level_crossing",
            "14",
            "8532"
          ],
          [
            "-111920426",
            "33414762",
            "360",
            "4",
            "2000",
            "0",
            "0",
            "0",
            "0",
            "reversedirection=yes railway=tram",
            "railway=level_crossing",
            "14",
            "8736"
          ],
          [
            "-111917699",
            "33414699",
            "358",
            "254",
            "2000",
            "0",
            "0",
            "0",
            "0",
            "reversedirection=yes railway=tram",
            "railway=level_crossing",
            "34",
            "19179"
          ],
          [
            "-111917219",
            "33414697",
            "358",
            "44",
            "2000",
            "0",
            "0",
            "0",
            "0",
            "reversedirection=yes railway=tram",
            "railway=switch",
            "38",
            "20988"
          ],
          [
            "-111917110",
            "33414697",
            "358",
            "10",
            "2000",
            "0",
            "0",
            "0",
            "0",
            "reversedirection=yes railway=tram",
            "wheelchair=yes railway=tram_stop direction=forward",
            "38",
            "21406"
          ],
          [
            "-111916631",
            "33414698",
            "358",
            "7",
            "2000",
            "0",
            "0",
            "0",
            "0",
            "reversedirection=yes railway=tram",
            "",
            "39",
            "21700"
          ]
        ],
        "times": [
          0,
          0.56,
          1.36,
          4,
          4.88,
          22.4,
          23.44,
          25.2,
          25.52,
          27.28,
          29.2,
          31.52,
          33.36,
          37.12,
          54.16,
          61.68,
          67.52,
          68.88,
          70.32,
          90.16,
          92.64,
          100.32,
          101.44,
          102.48,
          113.2,
          116.72,
          117.52,
          132.64,
          133.44,
          134.16,
          136.32,
          144.8,
          145.68,
          149.36,
          151.12,
          152.88,
          155.44,
          157.76,
          159.36,
          161.68,
          163.84,
          165.12,
          165.92,
          166.56,
          168.56,
          170.96,
          171.68,
          172.96,
          173.76,
          176.56,
          178.16,
          180.4,
          181.36,
          184.64,
          186.16,
          186.96,
          190.8,
          198.24,
          198.96,
          199.6,
          201.44,
          210.88,
          211.6,
          212.48,
          216.4,
          223.12,
          224.4,
          225.6,
          228.64,
          234.96,
          235.52,
          236.24,
          244.96,
          245.76,
          246.72,
          250.72,
          255.12,
          255.84,
          256.16,
          256.4,
          257.12,
          263.04,
          265.36,
          268.16,
          271.92,
          272.88,
          273.84,
          274.16,
          274.56,
          278.24,
          280.96,
          282.16,
          282.48,
          282.72,
          283.84,
          284.72,
          290,
          290.8,
          290.96,
          291.12,
          291.92,
          292.64,
          293.52,
          296.8,
          297.68,
          298.24,
          299.04,
          299.84,
          302.4,
          303.68,
          304.32,
          305.92,
          308.32,
          309.44,
          311.2,
          312.32,
          313.2,
          314.88,
          317.2,
          318.8,
          320.16,
          321.84,
          322.88,
          324.32,
          325.92,
          328,
          330.32,
          330.88,
          333.12,
          334.64,
          336.4,
          337.92,
          339.76,
          340.96,
          342.24,
          343.04,
          343.76,
          344.48,
          346,
          346.8,
          348.48,
          352.48,
          353.36,
          353.44,
          353.52,
          354.4,
          358.4,
          360.08,
          360.88,
          362.4,
          363.12,
          363.84,
          364.64,
          365.92,
          367.12,
          368.96,
          370.48,
          372.24,
          373.76,
          376,
          376.56,
          378.88,
          380.96,
          382.56,
          384,
          385.04,
          386.72,
          388.08,
          389.68,
          392,
          393.68,
          394.56,
          395.68,
          397.44,
          398.56,
          400.96,
          402.56,
          403.2,
          405.2,
          406.4,
          407.28,
          408.16,
          414.32,
          415.12,
          416.08,
          417.04,
          417.52,
          422.56,
          427.2,
          428.72,
          428.96,
          431.6,
          432.4,
          433.12,
          434.56,
          435.68,
          436.32,
          436.72,
          436.96,
          437.28,
          437.68,
          438.24,
          438.88,
          441.2,
          442.32,
          443.6,
          444.48,
          445.68,
          447.44,
          449.2,
          450.24,
          450.64,
          451.04,
          452.16,
          452.96,
          454.8,
          455.92,
          457.84,
          458.24,
          460,
          460.96,
          462.8,
          463.84,
          470.96,
          471.52,
          472.24,
          472.8,
          475.12,
          478.24,
          479.2,
          480.24,
          482.24,
          483.12,
          484.64,
          486,
          490.88,
          492.48,
          493.36,
          494.96,
          496.48,
          498.24,
          498.64,
          500.88,
          501.6,
          503.68,
          503.84,
          504.48,
          504.96,
          505.12,
          505.68,
          506.8,
          509.52,
          509.84,
          515.36,
          517.44,
          518.48,
          521.12,
          521.52,
          522.24,
          522.64,
          523.12,
          526.24,
          528.32,
          529.44,
          531.84,
          533.84,
          534.64,
          535.36,
          539.92,
          546.64,
          547.28,
          548,
          556.72,
          558.8,
          559.36,
          560.16,
          561.68,
          563.92,
          565.84,
          566.8,
          568.16,
          569.76,
          571.2,
          572.96,
          575.04,
          575.68,
          577.6,
          579.52,
          581.36,
          582.8,
          584.96,
          587.44,
          588.64,
          590.16,
          592.4,
          594.48,
          595.92,
          597.76,
          599.6,
          601.52,
          602.4,
          612,
          613.04,
          613.76,
          614.64,
          623.36,
          630.16,
          630.48,
          644.72,
          645.76,
          646.96,
          656.24,
          656.96,
          676.8,
          678.24,
          679.6,
          686.56,
          692.72,
          707.68,
          709.84,
          713.28,
          714.48,
          715.52,
          718,
          719.92,
          721.68,
          722,
          723.76,
          724.8,
          742.32,
          743.2,
          745.84,
          746.64,
          747.2
        ]
      },
      "geometry": {
        "type": "LineString",
        "coordinates": [
          [
            -111.917038,
            33.414697,
            358.5
          ],
          [
            -111.91711,
            33.414697,
            358.5
          ],
          [
            -111.917219,
            33.414697,
            358.5
          ],
          [
            -111.917578,
            33.414698,
            358.5
          ],
          [
            -111.917699,
            33.414699,
            358.75
          ],
          [
            -111.920051,
            33.414715,
            361
          ],
          [
            -111.920193,
            33.414726,
            361
          ],
          [
            -111.920426,
            33.414762,
            360.5
          ],
          [
            -111.920472,
            33.414768,
            360.5
          ],
          [
            -111.920703,
            33.414797,
            360
          ],
          [
            -111.920958,
            33.414802,
            359.75
          ],
          [
            -111.921268,
            33.414802,
            359.75
          ],
          [
            -111.92152,
            33.414801,
            359
          ],
          [
            -111.922024,
            33.414799,
            359
          ],
          [
            -111.924316,
            33.414803,
            359
          ],
          [
            -111.925326,
            33.414803,
            359.25
          ],
          [
            -111.926106,
            33.414802,
            358.25
          ],
          [
            -111.926288,
            33.414802,
            358.5
          ],
          [
            -111.926482,
            33.414798,
            358.75
          ],
          [
            -111.929147,
            33.414778,
            355.25
          ],
          [
            -111.929476,
            33.414775,
            354.75
          ],
          [
            -111.930508,
            33.414765,
            355.25
          ],
          [
            -111.930661,
            33.414763,
            355.25
          ],
          [
            -111.930799,
            33.414762,
            355.5
          ],
          [
            -111.932244,
            33.41475,
            357.25
          ],
          [
            -111.932714,
            33.414745,
            357.25
          ],
          [
            -111.932819,
            33.414744,
            357.25
          ],
          [
            -111.934847,
            33.414727,
            354.5
          ],
          [
            -111.934958,
            33.414726,
            354.25
          ],
          [
            -111.935053,
            33.414725,
            354.5
          ],
          [
            -111.935346,
            33.414723,
            356.25
          ],
          [
            -111.936482,
            33.414708,
            355.25
          ],
          [
            -111.936601,
            33.414709,
            354.5
          ],
          [
            -111.937094,
            33.414723,
            354.5
          ],
          [
            -111.937329,
            33.414754,
            354.75
          ],
          [
            -111.937562,
            33.414795,
            355.25
          ],
          [
            -111.937892,
            33.414882,
            356.5
          ],
          [
            -111.938176,
            33.414986,
            358
          ],
          [
            -111.938367,
            33.415072,
            359
          ],
          [
            -111.938631,
            33.415217,
            358.25
          ],
          [
            -111.938856,
            33.415369,
            356.75
          ],
          [
            -111.938986,
            33.415468,
            355.5
          ],
          [
            -111.939059,
            33.415528,
            353.75
          ],
          [
            -111.939118,
            33.415578,
            353.75
          ],
          [
            -111.939287,
            33.415751,
            353
          ],
          [
            -111.939469,
            33.415978,
            353.75
          ],
          [
            -111.939514,
            33.41605,
            354.25
          ],
          [
            -111.939594,
            33.416175,
            354.75
          ],
          [
            -111.939638,
            33.416258,
            354.75
          ],
          [
            -111.939764,
            33.416558,
            355.25
          ],
          [
            -111.939814,
            33.416732,
            355.5
          ],
          [
            -111.939858,
            33.41698,
            356
          ],
          [
            -111.93987,
            33.417086,
            356.25
          ],
          [
            -111.939873,
            33.417455,
            356.75
          ],
          [
            -111.939878,
            33.417622,
            356.75
          ],
          [
            -111.939879,
            33.417714,
            356.5
          ],
          [
            -111.939881,
            33.418151,
            356.5
          ],
          [
            -111.939893,
            33.418988,
            356.75
          ],
          [
            -111.939895,
            33.419067,
            356.75
          ],
          [
            -111.939896,
            33.419142,
            356.75
          ],
          [
            -111.939899,
            33.419347,
            356.75
          ],
          [
            -111.939914,
            33.420407,
            355.75
          ],
          [
            -111.939915,
            33.420491,
            355.5
          ],
          [
            -111.939916,
            33.420587,
            355.25
          ],
          [
            -111.93992,
            33.421029,
            355.25
          ],
          [
            -111.939933,
            33.42179,
            357.25
          ],
          [
            -111.939944,
            33.421936,
            357.75
          ],
          [
            -111.93995,
            33.422072,
            358.25
          ],
          [
            -111.939951,
            33.422418,
            359.5
          ],
          [
            -111.939987,
            33.423134,
            360.5
          ],
          [
            -111.939988,
            33.423195,
            360.75
          ],
          [
            -111.939987,
            33.423276,
            360.75
          ],
          [
            -111.939986,
            33.424256,
            356.25
          ],
          [
            -111.939985,
            33.424345,
            356.5
          ],
          [
            -111.939985,
            33.424449,
            356.75
          ],
          [
            -111.939985,
            33.424902,
            358.5
          ],
          [
            -111.939984,
            33.425395,
            360.25
          ],
          [
            -111.939983,
            33.425474,
            360.5
          ],
          [
            -111.939983,
            33.425508,
            360.75
          ],
          [
            -111.939983,
            33.425531,
            360.75
          ],
          [
            -111.939984,
            33.425608,
            361
          ],
          [
            -111.939982,
            33.426279,
            360.75
          ],
          [
            -111.939982,
            33.426539,
            360.25
          ],
          [
            -111.939982,
            33.426855,
            357.75
          ],
          [
            -111.93998,
            33.427277,
            357.75
          ],
          [
            -111.93998,
            33.427385,
            357.25
          ],
          [
            -111.939985,
            33.427491,
            357
          ],
          [
            -111.939986,
            33.427527,
            357
          ],
          [
            -111.939988,
            33.427575,
            357
          ],
          [
            -111.939993,
            33.427989,
            358
          ],
          [
            -111.939989,
            33.428294,
            358.75
          ],
          [
            -111.939984,
            33.428428,
            358.5
          ],
          [
            -111.939976,
            33.428464,
            358.5
          ],
          [
            -111.939971,
            33.428495,
            358.5
          ],
          [
            -111.939954,
            33.428617,
            358
          ],
          [
            -111.939951,
            33.428713,
            357.75
          ],
          [
            -111.939957,
            33.429311,
            355.5
          ],
          [
            -111.939937,
            33.429395,
            355.5
          ],
          [
            -111.939927,
            33.429413,
            355.25
          ],
          [
            -111.939918,
            33.429433,
            355.25
          ],
          [
            -111.939839,
            33.429497,
            355.25
          ],
          [
            -111.939748,
            33.429527,
            355.25
          ],
          [
            -111.939631,
            33.429541,
            355.25
          ],
          [
            -111.939194,
            33.429572,
            355.5
          ],
          [
            -111.939079,
            33.429589,
            355.75
          ],
          [
            -111.939011,
            33.429609,
            356
          ],
          [
            -111.938915,
            33.429645,
            356.25
          ],
          [
            -111.938827,
            33.429696,
            356.25
          ],
          [
            -111.938577,
            33.4299,
            356.5
          ],
          [
            -111.938451,
            33.429995,
            356.5
          ],
          [
            -111.938382,
            33.430036,
            356.75
          ],
          [
            -111.938207,
            33.430138,
            357
          ],
          [
            -111.937942,
            33.430294,
            356.5
          ],
          [
            -111.937815,
            33.430359,
            356.25
          ],
          [
            -111.937608,
            33.430451,
            355.75
          ],
          [
            -111.937469,
            33.430498,
            355.5
          ],
          [
            -111.937359,
            33.430534,
            355.75
          ],
          [
            -111.937137,
            33.430588,
            356
          ],
          [
            -111.936829,
            33.430637,
            356
          ],
          [
            -111.936616,
            33.430651,
            355.5
          ],
          [
            -111.936431,
            33.43065,
            354.25
          ],
          [
            -111.936203,
            33.430634,
            353
          ],
          [
            -111.936067,
            33.430617,
            352.5
          ],
          [
            -111.935879,
            33.430582,
            351.75
          ],
          [
            -111.935671,
            33.43053,
            352.25
          ],
          [
            -111.935412,
            33.430441,
            353.25
          ],
          [
            -111.935141,
            33.430312,
            353.25
          ],
          [
            -111.935078,
            33.430278,
            353.25
          ],
          [
            -111.934836,
            33.430134,
            353.75
          ],
          [
            -111.934683,
            33.430021,
            354.5
          ],
          [
            -111.934499,
            33.429896,
            357
          ],
          [
            -111.934329,
            33.429795,
            358.5
          ],
          [
            -111.934132,
            33.429667,
            359
          ],
          [
            -111.934009,
            33.429583,
            358.75
          ],
          [
            -111.93388,
            33.429492,
            358.5
          ],
          [
            -111.933799,
            33.429438,
            358.25
          ],
          [
            -111.933716,
            33.429399,
            357.75
          ],
          [
            -111.933628,
            33.429374,
            357.25
          ],
          [
            -111.93343,
            33.429348,
            356
          ],
          [
            -111.933323,
            33.429343,
            355.25
          ],
          [
            -111.933094,
            33.429336,
            354.75
          ],
          [
            -111.932554,
            33.429332,
            353.5
          ],
          [
            -111.932432,
            33.429333,
            353.25
          ],
          [
            -111.932425,
            33.429333,
            352.25
          ],
          [
            -111.932432,
            33.429333,
            353.25
          ],
          [
            -111.932554,
            33.429332,
            353.5
          ],
          [
            -111.933094,
            33.429336,
            354.75
          ],
          [
            -111.933323,
            33.429343,
            355.25
          ],
          [
            -111.93343,
            33.429348,
            356
          ],
          [
            -111.933628,
            33.429374,
            357.25
          ],
          [
            -111.933716,
            33.429399,
            357.75
          ],
          [
            -111.933799,
            33.429438,
            358.25
          ],
          [
            -111.93388,
            33.429492,
            358.5
          ],
          [
            -111.934009,
            33.429583,
            358.75
          ],
          [
            -111.934132,
            33.429667,
            359
          ],
          [
            -111.934329,
            33.429795,
            358.5
          ],
          [
            -111.934499,
            33.429896,
            357
          ],
          [
            -111.934683,
            33.430021,
            354.5
          ],
          [
            -111.934836,
            33.430134,
            353.75
          ],
          [
            -111.935078,
            33.430278,
            353.25
          ],
          [
            -111.935141,
            33.430312,
            353.25
          ],
          [
            -111.935412,
            33.430441,
            353.25
          ],
          [
            -111.935671,
            33.43053,
            352.25
          ],
          [
            -111.935879,
            33.430582,
            351.75
          ],
          [
            -111.936067,
            33.430617,
            352.5
          ],
          [
            -111.936203,
            33.430634,
            353
          ],
          [
            -111.936431,
            33.43065,
            354.25
          ],
          [
            -111.936616,
            33.430651,
            355.5
          ],
          [
            -111.936829,
            33.430637,
            356
          ],
          [
            -111.937137,
            33.430588,
            356
          ],
          [
            -111.937359,
            33.430534,
            355.75
          ],
          [
            -111.937469,
            33.430498,
            355.5
          ],
          [
            -111.937608,
            33.430451,
            355.75
          ],
          [
            -111.937815,
            33.430359,
            356.25
          ],
          [
            -111.937942,
            33.430294,
            356.5
          ],
          [
            -111.938207,
            33.430138,
            357
          ],
          [
            -111.938382,
            33.430036,
            356.75
          ],
          [
            -111.938451,
            33.429995,
            356.5
          ],
          [
            -111.938667,
            33.429866,
            356.25
          ],
          [
            -111.938807,
            33.429804,
            356
          ],
          [
            -111.938919,
            33.429772,
            355.75
          ],
          [
            -111.939033,
            33.429754,
            355.25
          ],
          [
            -111.939858,
            33.429674,
            354.75
          ],
          [
            -111.939966,
            33.429662,
            354.75
          ],
          [
            -111.94009,
            33.42965,
            354.25
          ],
          [
            -111.940222,
            33.429638,
            353.75
          ],
          [
            -111.940289,
            33.429632,
            353.75
          ],
          [
            -111.940962,
            33.429564,
            352
          ],
          [
            -111.941579,
            33.429502,
            351.5
          ],
          [
            -111.941781,
            33.429492,
            351.5
          ],
          [
            -111.94181,
            33.429491,
            351.75
          ],
          [
            -111.942161,
            33.429489,
            352.75
          ],
          [
            -111.942256,
            33.429478,
            353
          ],
          [
            -111.94235,
            33.429459,
            353.5
          ],
          [
            -111.942536,
            33.429401,
            354
          ],
          [
            -111.942673,
            33.429342,
            354
          ],
          [
            -111.942732,
            33.42929,
            354
          ],
          [
            -111.942755,
            33.429254,
            354
          ],
          [
            -111.942762,
            33.429229,
            354
          ],
          [
            -111.942772,
            33.429195,
            354
          ],
          [
            -111.94277,
            33.429149,
            354
          ],
          [
            -111.942755,
            33.429089,
            354
          ],
          [
            -111.942723,
            33.429021,
            354
          ],
          [
            -111.942614,
            33.428772,
            354.5
          ],
          [
            -111.942584,
            33.428651,
            354.75
          ],
          [
            -111.942559,
            33.428509,
            355
          ],
          [
            -111.942552,
            33.428413,
            355.25
          ],
          [
            -111.942558,
            33.428281,
            355.5
          ],
          [
            -111.942591,
            33.428086,
            355.5
          ],
          [
            -111.942658,
            33.427895,
            355.5
          ],
          [
            -111.942717,
            33.427784,
            355.5
          ],
          [
            -111.942738,
            33.427746,
            355.5
          ],
          [
            -111.942764,
            33.427706,
            355.5
          ],
          [
            -111.942841,
            33.427596,
            355.5
          ],
          [
            -111.942901,
            33.427519,
            355.5
          ],
          [
            -111.943043,
            33.427348,
            354.5
          ],
          [
            -111.943132,
            33.427243,
            354
          ],
          [
            -111.943252,
            33.427055,
            353.25
          ],
          [
            -111.943277,
            33.427015,
            353
          ],
          [
            -111.94336,
            33.426826,
            352.25
          ],
          [
            -111.943391,
            33.42672,
            352
          ],
          [
            -111.943432,
            33.426514,
            352.75
          ],
          [
            -111.943437,
            33.426394,
            353.25
          ],
          [
            -111.943437,
            33.425593,
            356.25
          ],
          [
            -111.943436,
            33.425529,
            356.25
          ],
          [
            -111.943435,
            33.425447,
            356
          ],
          [
            -111.943434,
            33.42538,
            356
          ],
          [
            -111.943435,
            33.425118,
            355.75
          ],
          [
            -111.94343,
            33.424762,
            355.25
          ],
          [
            -111.943421,
            33.42465,
            355.25
          ],
          [
            -111.943399,
            33.424537,
            355.25
          ],
          [
            -111.943335,
            33.424315,
            355
          ],
          [
            -111.943296,
            33.424219,
            355
          ],
          [
            -111.943214,
            33.424061,
            355
          ],
          [
            -111.94313,
            33.423923,
            355.25
          ],
          [
            -111.942781,
            33.423456,
            357.25
          ],
          [
            -111.942677,
            33.423301,
            358
          ],
          [
            -111.942629,
            33.423208,
            358.5
          ],
          [
            -111.94256,
            33.423038,
            359.25
          ],
          [
            -111.942509,
            33.422868,
            360
          ],
          [
            -111.942478,
            33.422671,
            360.5
          ],
          [
            -111.942473,
            33.42263,
            360.75
          ],
          [
            -111.942473,
            33.42238,
            359.75
          ],
          [
            -111.942473,
            33.422301,
            359.75
          ],
          [
            -111.94247,
            33.422064,
            358.5
          ],
          [
            -111.942464,
            33.422044,
            358.25
          ],
          [
            -111.942436,
            33.421978,
            358
          ],
          [
            -111.942389,
            33.42194,
            358
          ],
          [
            -111.942368,
            33.421928,
            358.25
          ],
          [
            -111.942295,
            33.421904,
            358.25
          ],
          [
            -111.942143,
            33.421899,
            359
          ],
          [
            -111.941776,
            33.421902,
            361
          ],
          [
            -111.941729,
            33.4219,
            361.25
          ],
          [
            -111.940989,
            33.421923,
            363
          ],
          [
            -111.940714,
            33.421925,
            362.5
          ],
          [
            -111.940575,
            33.421927,
            361.75
          ],
          [
            -111.940224,
            33.42193,
            359.25
          ],
          [
            -111.940171,
            33.421923,
            359
          ],
          [
            -111.940089,
            33.421887,
            358.25
          ],
          [
            -111.940062,
            33.421847,
            358
          ],
          [
            -111.940056,
            33.421789,
            357.75
          ],
          [
            -111.940043,
            33.421435,
            356.5
          ],
          [
            -111.940008,
            33.421201,
            355.75
          ],
          [
            -111.939998,
            33.421074,
            355.5
          ],
          [
            -111.939994,
            33.420808,
            355
          ],
          [
            -111.939992,
            33.420587,
            355.5
          ],
          [
            -111.939991,
            33.420493,
            355.75
          ],
          [
            -111.939989,
            33.420411,
            355.75
          ],
          [
            -111.939984,
            33.419894,
            356.75
          ],
          [
            -111.939976,
            33.41914,
            356.75
          ],
          [
            -111.939975,
            33.419066,
            356.75
          ],
          [
            -111.939974,
            33.418988,
            356.75
          ],
          [
            -111.939959,
            33.418008,
            356.25
          ],
          [
            -111.939958,
            33.417776,
            356.5
          ],
          [
            -111.939957,
            33.417713,
            356.5
          ],
          [
            -111.939955,
            33.417624,
            356.75
          ],
          [
            -111.939953,
            33.417454,
            356.75
          ],
          [
            -111.939952,
            33.417198,
            356.5
          ],
          [
            -111.939939,
            33.416981,
            356.25
          ],
          [
            -111.939926,
            33.416872,
            356
          ],
          [
            -111.939896,
            33.416717,
            355.75
          ],
          [
            -111.939847,
            33.416538,
            355.5
          ],
          [
            -111.939784,
            33.416381,
            355.5
          ],
          [
            -111.939693,
            33.416196,
            355
          ],
          [
            -111.939569,
            33.415987,
            354.5
          ],
          [
            -111.939526,
            33.415921,
            354
          ],
          [
            -111.939383,
            33.415743,
            353.5
          ],
          [
            -111.939223,
            33.415572,
            353.75
          ],
          [
            -111.939057,
            33.415423,
            355.25
          ],
          [
            -111.938914,
            33.415312,
            356.5
          ],
          [
            -111.938693,
            33.415161,
            358
          ],
          [
            -111.938414,
            33.415007,
            358.75
          ],
          [
            -111.938269,
            33.414939,
            358.5
          ],
          [
            -111.938085,
            33.414866,
            357.5
          ],
          [
            -111.937806,
            33.414775,
            356.25
          ],
          [
            -111.937539,
            33.414713,
            355
          ],
          [
            -111.937352,
            33.414679,
            354.75
          ],
          [
            -111.937104,
            33.414653,
            354.5
          ],
          [
            -111.93686,
            33.414642,
            354.5
          ],
          [
            -111.936604,
            33.414644,
            354.75
          ],
          [
            -111.936484,
            33.414645,
            355.25
          ],
          [
            -111.935196,
            33.414655,
            355.5
          ],
          [
            -111.935052,
            33.414657,
            354.75
          ],
          [
            -111.934955,
            33.414658,
            354.5
          ],
          [
            -111.93484,
            33.41466,
            354.75
          ],
          [
            -111.933667,
            33.414669,
            356.75
          ],
          [
            -111.932754,
            33.414679,
            357.25
          ],
          [
            -111.932714,
            33.414679,
            357.25
          ],
          [
            -111.9308,
            33.414698,
            355.5
          ],
          [
            -111.930665,
            33.4147,
            355.25
          ],
          [
            -111.930499,
            33.414702,
            355.25
          ],
          [
            -111.929248,
            33.414711,
            355.25
          ],
          [
            -111.929146,
            33.414712,
            355.25
          ],
          [
            -111.926483,
            33.414735,
            358.75
          ],
          [
            -111.926291,
            33.414736,
            358.5
          ],
          [
            -111.926104,
            33.414734,
            358.25
          ],
          [
            -111.925173,
            33.414738,
            359.5
          ],
          [
            -111.924349,
            33.414738,
            358.75
          ],
          [
            -111.922338,
            33.414737,
            359
          ],
          [
            -111.922052,
            33.414737,
            359
          ],
          [
            -111.921588,
            33.414736,
            359.5
          ],
          [
            -111.921424,
            33.414749,
            359.75
          ],
          [
            -111.921284,
            33.414768,
            359.75
          ],
          [
            -111.920958,
            33.414802,
            359.75
          ],
          [
            -111.920703,
            33.414797,
            360
          ],
          [
            -111.920472,
            33.414768,
            360.5
          ],
          [
            -111.920426,
            33.414762,
            360.5
          ],
          [
            -111.920193,
            33.414726,
            361
          ],
          [
            -111.920051,
            33.414715,
            361
          ],
          [
            -111.917699,
            33.414699,
            358.75
          ],
          [
            -111.917578,
            33.414698,
            358.5
          ],
          [
            -111.917219,
            33.414697,
            358.5
          ],
          [
            -111.91711,
            33.414697,
            358.5
          ],
          [
            -111.917039,
            33.414697,
            358.5
          ]
        ]
      }
    }
  ]
}