{
  "type": "FeatureCollection",
  "features": [
    {
      "type": "Feature",
      "properties": {
        "name": "Route"
      },
      "geometry": {
        "type": "LineString",
        "coordinates": [
          [
            -115.14898,
            36.084781
          ],
          [
            -115.148974,
            36.084771
          ],
          [
            -115.148969,
            36.084761
          ],
          [
            -115.148963,
            36.084751
          ],
          [
            -115.148958,
            36.084741
          ],
          [
            -115.148952,
            36.084731
          ],
          [
            -115.148947,
            36.084721
          ],
          [
            -115.148941,
            36.084711
          ],
          [
            -115.148935,
            36.084701
          ],
          [
            -115.14893,
            36.084691
          ],
          [
            -115.148924,
            36.084681
          ],
          [
            -115.148919,
            36.084671
          ],
          [
            -115.148913,
            36.084661
          ],
          [
            -115.148908,
            36.084651
          ],
          [
            -115.148902,
            36.084641
          ],
          [
            -115.148897,
            36.084631
          ],
          [
            -115.148891,
            36.084621
          ],
          [
            -115.148886,
            36.084611
          ],
          [
            -115.14888,
            36.084601
          ],
          [
            -115.148874,
            36.084591
          ],
          [
            -115.148869,
            36.084581
          ],
          [
            -115.148863,
            36.084571
          ],
          [
            -115.148856,
            36.084557
          ],
          [
            -115.148848,
            36.084543
          ],
          [
            -115.14884,
            36.084529
          ],
          [
            -115.148832,
            36.084515
          ],
          [
            -115.148825,
            36.084501
          ],
          [
            -115.148817,
            36.084487
          ],
          [
            -115.148809,
            36.084473
          ],
          [
            -115.148801,
            36.084459
          ],
          [
            -115.148794,
            36.084446
          ],
          [
            -115.148786,
            36.084432
          ],
          [
            -115.148778,
            36.084418
          ],
          [
            -115.14877,
            36.084404
          ],
          [
            -115.148763,
            36.08439
          ],
          [
            -115.148755,
            36.084376
          ],
          [
            -115.148747,
            36.084362
          ],
          [
            -115.14874,
            36.084348
          ],
          [
            -115.148732,
            36.084334
          ],
          [
            -115.148724,
            36.08432
          ],
          [
            -115.148716,
            36.084306
          ],
          [
            -115.148709,
            36.084292
          ],
          [
            -115.148701,
            36.084278
          ],
          [
            -115.148697,
            36.084271
          ],
          [
            -115.148693,
            36.084263
          ],
          [
            -115.148689,
            36.084256
          ],
          [
            -115.148684,
            36.084248
          ],
          [
            -115.14868,
            36.084241
          ],
          [
            -115.148676,
            36.084233
          ],
          [
            -115.148672,
            36.084226
          ],
          [
            -115.148668,
            36.084218
          ],
          [
            -115.148664,
            36.084211
          ],
          [
            -115.148659,
            36.084203
          ],
          [
            -115.148655,
            36.084196
          ],
          [
            -115.148651,
            36.084188
          ],
          [
            -115.148647,
            36.084181
          ],
          [
            -115.148643,
            36.084173
          ],
          [
            -115.148639,
            36.084166
          ],
          [
            -115.148634,
            36.084158
          ],
          [
            -115.14863,
            36.084151
          ],
          [
            -115.148626,
            36.084143
          ],
          [
            -115.148622,
            36.084136
          ],
          [
            -115.148618,
            36.084128
          ],
          [
            -115.148613,
            36.084121
          ],
          [
            -115.148609,
            36.084112
          ],
          [
            -115.148604,
            36.084104
          ],
          [
            -115.1486,
            36.084096
          ],
          [
            -115.148595,
            36.084088
          ],
          [
            -115.148591,
            36.08408
          ],
          [
            -115.148587,
            36.084071
          ],
          [
            -115.148583,
            36.084063
          ],
          [
            -115.148578,
            36.084055
          ],
          [
            -115.148574,
            36.084046
          ],
          [
            -115.14857,
            36.084038
          ],
          [
            -115.148566,
            36.08403
          ],
          [
            -115.148561,
            36.084021
          ],
          [
            -115.148557,
            36.084013
          ],
          [
            -115.148553,
            36.084005
          ],
          [
            -115.148549,
            36.083996
          ],
          [
            -115.148545,
            36.083988
          ],
          [
            -115.148541,
            36.08398
          ],
          [
            -115.148537,
            36.083971
          ],
          [
            -115.148533,
            36.083963
          ],
          [
            -115.148529,
            36.083955
          ],
          [
            -115.148525,
            36.083946
          ],
          [
            -115.148519,
            36.083933
          ],
          [
            -115.148512,
            36.08392
          ],
          [
            -115.148506,
            36.083906
          ],
          [
            -115.1485,
            36.083893
          ],
          [
            -115.148493,
            36.08388
          ],
          [
            -115.148487,
            36.083867
          ],
          [
            -115.14848,
            36.083854
          ],
          [
            -115.148473,
            36.083841
          ],
          [
            -115.148467,
            36.083827
          ],
          [
            -115.14846,
            36.083814
          ],
          [
            -115.148453,
            36.083801
          ],
          [
            -115.148446,
            36.083788
          ],
          [
            -115.148439,
            36.083775
          ],
          [
            -115.148432,
            36.083762
          ],
          [
            -115.148426,
            36.083749
          ],
          [
            -115.148419,
            36.083736
          ],
          [
            -115.148412,
            36.083723
          ],
          [
            -115.148405,
            36.08371
          ],
          [
            -115.148398,
            36.083697
          ],
          [
            -115.148391,
            36.083684
          ],
          [
            -115.148384,
            36.083671
          ],
          [
            -115.148369,
            36.083642
          ],
          [
            -115.148353,
            36.083614
          ],
          [
            -115.148338,
            36.083585
          ],
          [
            -115.148322,
            36.083557
          ],
          [
            -115.148307,
            36.083529
          ],
          [
            -115.148291,
            36.083501
          ],
          [
            -115.148276,
            36.083472
          ],
          [
            -115.14826,
            36.083444
          ],
          [
            -115.148245,
            36.083416
          ],
          [
            -115.148229,
            36.083388
          ],
          [
            -115.148213,
            36.083359
          ],
          [
            -115.148197,
            36.083331
          ],
          [
            -115.148182,
            36.083303
          ],
          [
            -115.148166,
            36.083275
          ],
          [
            -115.14815,
            36.083247
          ],
          [
            -115.148134,
            36.083218
          ],
          [
            -115.148118,
            36.08319
          ],
          [
            -115.148103,
            36.083162
          ],
          [
            -115.148087,
            36.083134
          ],
          [
            -115.148071,
            36.083106
          ],
          [
            -115.148055,
            36.083078
          ],
          [
            -115.148038,
            36.083047
          ],
          [
            -115.148021,
            36.083016
          ],
          [
            -115.148004,
            36.082986
          ],
          [
            -115.147987,
            36.082955
          ],
          [
            -115.147969,
            36.082924
          ],
          [
            -115.147952,
            36.082894
          ],
          [
            -115.147935,
            36.082863
          ],
          [
            -115.147918,
            36.082833
          ],
          [
            -115.147901,
            36.082802
          ],
          [
            -115.147883,
            36.082772
          ],
          [
            -115.147866,
            36.082741
          ],
          [
            -115.147849,
            36.08271
          ],
          [
            -115.147831,
            36.08268
          ],
          [
            -115.147814,
            36.082649
          ],
          [
            -115.147797,
            36.082619
          ],
          [
            -115.147779,
            36.082588
          ],
          [
            -115.147762,
            36.082558
          ],
          [
            -115.147745,
            36.082527
          ],
          [
            -115.147727,
            36.082497
          ],
          [
            -115.14771,
            36.082466
          ],
          [
            -115.147692,
            36.082436
          ],
          [
            -115.147679,
            36.082412
          ],
          [
            -115.147665,
            36.082388
          ],
          [
            -115.147651,
            36.082364
          ],
          [
            -115.147637,
            36.08234
          ],
          [
            -115.147623,
            36.082316
          ],
          [
            -115.147609,
            36.082292
          ],
          [
            -115.147595,
            36.082268
          ],
          [
            -115.147582,
            36.082244
          ],
          [
            -115.147568,
            36.08222
          ],
          [
            -115.147554,
            36.082197
          ],
          [
            -115.14754,
            36.082173
          ],
          [
            -115.147526,
            36.082149
          ],
          [
            -115.147511,
            36.082125
          ],
          [
            -115.147497,
            36.082101
          ],
          [
            -115.147483,
            36.082077
          ],
          [
            -115.147469,
            36.082053
          ],
          [
            -115.147455,
            36.082029
          ],
          [
            -115.147441,
            36.082006
          ],
          [
            -115.147427,
            36.081982
          ],
          [
            -115.147413,
            36.081958
          ],
          [
            -115.147398,
            36.081934
          ],
          [
            -115.147383,
            36.081908
          ],
          [
            -115.147367,
            36.081882
          ],
          [
            -115.147351,
            36.081855
          ],
          [
            -115.147335,
            36.081829
          ],
          [
            -115.14732,
            36.081803
          ],
          [
            -115.147304,
            36.081776
          ],
          [
            -115.147288,
            36.08175
          ],
          [
            -115.147273,
            36.081724
          ],
          [
            -115.147257,
            36.081697
          ],
          [
            -115.147241,
            36.081671
          ],
          [
            -115.147225,
            36.081645
          ],
          [
            -115.14721,
            36.081618
          ],
          [
            -115.147194,
            36.081592
          ],
          [
            -115.147178,
            36.081566
          ],
          [
            -115.147162,
            36.081539
          ],
          [
            -115.147147,
            36.081513
          ],
          [
            -115.147131,
            36.081486
          ],
          [
            -115.147115,
            36.08146
          ],
          [
            -115.1471,
            36.081434
          ],
          [
            -115.147084,
            36.081407
          ],
          [
            -115.147068,
            36.081381
          ],
          [
            -115.14706,
            36.081368
          ],
          [
            -115.147053,
            36.081355
          ],
          [
            -115.147045,
            36.081342
          ],
          [
            -115.147037,
            36.081328
          ],
          [
            -115.147029,
            36.081315
          ],
          [
            -115.147021,
            36.081302
          ],
          [
            -115.147013,
            36.081289
          ],
          [
            -115.147005,
            36.081276
          ],
          [
            -115.146997,
            36.081263
          ],
          [
            -115.14699,
            36.081249
          ],
          [
            -115.146982,
            36.081236
          ],
          [
            -115.146974,
            36.081223
          ],
          [
            -115.146966,
            36.08121
          ],
          [
            -115.146958,
            36.081197
          ],
          [
            -115.14695,
            36.081184
          ],
          [
            -115.146942,
            36.08117
          ],
          [
            -115.146935,
            36.081157
          ],
          [
            -115.146927,
            36.081144
          ],
          [
            -115.146919,
            36.081131
          ],
          [
            -115.146911,
            36.081118
          ],
          [
            -115.146903,
            36.081105
          ]
        ]
      }
    }
  ]
}