{
  "type": "FeatureCollection",
  "features": [
    {
      "type": "Feature",
      "properties": {
        "name": "Route"
      },
      "geometry": {
        "type": "LineString",
        "coordinates": [
          [
            -115.137051,
            36.086141
          ],
          [
            -115.137051,
            36.086132
          ],
          [
            -115.137051,
            36.086124
          ],
          [
            -115.137051,
            36.086115
          ],
          [
            -115.137051,
            36.086107
          ],
          [
            -115.137051,
            36.086098
          ],
          [
            -115.137051,
            36.086089
          ],
          [
            -115.137052,
            36.086081
          ],
          [
            -115.137052,
            36.086072
          ],
          [
            -115.137052,
            36.086063
          ],
          [
            -115.137052,
            36.086055
          ],
          [
            -115.137052,
            36.086043
          ],
          [
            -115.137053,
            36.086029
          ],
          [
            -115.137053,
            36.086015
          ],
          [
            -115.137053,
            36.086001
          ],
          [
            -115.137053,
            36.085987
          ],
          [
            -115.137054,
            36.085973
          ],
          [
            -115.137054,
            36.085958
          ],
          [
            -115.137054,
            36.085944
          ],
          [
            -115.137054,
            36.08593
          ],
          [
            -115.137055,
            36.085916
          ],
          [
            -115.137055,
            36.085902
          ],
          [
            -115.137055,
            36.085895
          ],
          [
            -115.137055,
            36.085887
          ],
          [
            -115.137056,
            36.08588
          ],
          [
            -115.137056,
            36.085873
          ],
          [
            -115.137057,
            36.085866
          ],
          [
            -115.137058,
            36.085859
          ],
          [
            -115.137059,
            36.085851
          ],
          [
            -115.13706,
            36.085844
          ],
          [
            -115.137061,
            36.085837
          ],
          [
            -115.137062,
            36.08583
          ],
          [
            -115.137063,
            36.085822
          ],
          [
            -115.137064,
            36.085815
          ],
          [
            -115.137066,
            36.085808
          ],
          [
            -115.137067,
            36.085801
          ],
          [
            -115.137069,
            36.085794
          ],
          [
            -115.13707,
            36.085787
          ],
          [
            -115.137072,
            36.085779
          ],
          [
            -115.137074,
            36.085772
          ],
          [
            -115.137075,
            36.085765
          ],
          [
            -115.137077,
            36.085758
          ],
          [
            -115.137079,
            36.085751
          ],
          [
            -115.137083,
            36.085734
          ],
          [
            -115.137088,
            36.085716
          ],
          [
            -115.137092,
            36.085699
          ],
          [
            -115.137096,
            36.085682
          ],
          [
            -115.137101,
            36.085665
          ],
          [
            -115.137105,
            36.085648
          ],
          [
            -115.137109,
            36.085631
          ],
          [
            -115.137113,
            36.085614
          ],
          [
            -115.137118,
            36.085596
          ],
          [
            -115.137122,
            36.085579
          ],
          [
            -115.137126,
            36.085562
          ],
          [
            -115.137131,
            36.085545
          ],
          [
            -115.137135,
            36.085528
          ],
          [
            -115.137139,
            36.08551
          ],
          [
            -115.137143,
            36.085493
          ],
          [
            -115.137148,
            36.085476
          ],
          [
            -115.137152,
            36.085459
          ],
          [
            -115.137156,
            36.085442
          ],
          [
            -115.137161,
            36.085425
          ],
          [
            -115.137165,
            36.085407
          ],
          [
            -115.137169,
            36.08539
          ],
          [
            -115.137176,
            36.085363
          ],
          [
            -115.137183,
            36.085335
          ],
          [
            -115.13719,
            36.085308
          ],
          [
            -115.137197,
            36.085281
          ],
          [
            -115.137204,
            36.085253
          ],
          [
            -115.13721,
            36.085226
          ],
          [
            -115.137217,
            36.085198
          ],
          [
            -115.137224,
            36.085171
          ],
          [
            -115.137231,
            36.085143
          ],
          [
            -115.137238,
            36.085116
          ],
          [
            -115.137245,
            36.085088
          ],
          [
            -115.137252,
            36.085061
          ],
          [
            -115.137259,
            36.085034
          ],
          [
            -115.137265,
            36.085006
          ],
          [
            -115.137272,
            36.084979
          ],
          [
            -115.137279,
            36.084951
          ],
          [
            -115.137286,
            36.084924
          ],
          [
            -115.137293,
            36.084896
          ],
          [
            -115.1373,
            36.084869
          ],
          [
            -115.137307,
            36.084842
          ],
          [
            -115.137314,
            36.084814
          ],
          [
            -115.137322,
            36.084779
          ],
          [
            -115.137331,
            36.084744
          ],
          [
            -115.13734,
            36.084709
          ],
          [
            -115.137349,
            36.084674
          ],
          [
            -115.137357,
            36.084639
          ],
          [
            -115.137366,
            36.084604
          ],
          [
            -115.137375,
            36.08457
          ],
          [
            -115.137384,
            36.084535
          ],
          [
            -115.137393,
            36.0845
          ],
          [
            -115.137401,
            36.084465
          ],
          [
            -115.13741,
            36.08443
          ],
          [
            -115.137419,
            36.084395
          ],
          [
            -115.137428,
            36.08436
          ],
          [
            -115.137436,
            36.084325
          ],
          [
            -115.137445,
            36.08429
          ],
          [
            -115.137454,
            36.084255
          ],
          [
            -115.137462,
            36.08422
          ],
          [
            -115.137471,
            36.084185
          ],
          [
            -115.13748,
            36.08415
          ],
          [
            -115.137489,
            36.084116
          ],
          [
            -115.137497,
            36.084081
          ],
          [
            -115.137506,
            36.084046
          ],
          [
            -115.137515,
            36.084012
          ],
          [
            -115.137523,
            36.083977
          ],
          [
            -115.137532,
            36.083942
          ],
          [
            -115.137541,
            36.083908
          ],
          [
            -115.137549,
            36.083873
          ],
          [
            -115.137558,
            36.083839
          ],
          [
            -115.137566,
            36.083804
          ],
          [
            -115.137575,
            36.08377
          ],
          [
            -115.137584,
            36.083735
          ],
          [
            -115.137592,
            36.083701
          ],
          [
            -115.137601,
            36.083666
          ],
          [
            -115.13761,
            36.083632
          ],
          [
            -115.137618,
            36.083597
          ],
          [
            -115.137627,
            36.083562
          ],
          [
            -115.137636,
            36.083528
          ],
          [
            -115.137644,
            36.083493
          ],
          [
            -115.137653,
            36.083459
          ],
          [
            -115.137662,
            36.083424
          ],
          [
            -115.13767,
            36.08339
          ],
          [
            -115.137679,
            36.083355
          ],
          [
            -115.137683,
            36.083337
          ],
          [
            -115.137688,
            36.08332
          ],
          [
            -115.137692,
            36.083302
          ],
          [
            -115.137697,
            36.083284
          ],
          [
            -115.137701,
            36.083267
          ],
          [
            -115.137706,
            36.083249
          ],
          [
            -115.13771,
            36.083231
          ],
          [
            -115.137715,
            36.083213
          ],
          [
            -115.137719,
            36.083196
          ],
          [
            -115.137724,
            36.083178
          ],
          [
            -115.137728,
            36.08316
          ],
          [
            -115.137733,
            36.083142
          ],
          [
            -115.137737,
            36.083124
          ],
          [
            -115.137742,
            36.083107
          ],
          [
            -115.137746,
            36.083089
          ],
          [
            -115.13775,
            36.083071
          ],
          [
            -115.137755,
            36.083053
          ],
          [
            -115.137759,
            36.083036
          ],
          [
            -115.137764,
            36.083018
          ],
          [
            -115.137768,
            36.083
          ],
          [
            -115.137772,
            36.082982
          ],
          [
            -115.137774,
            36.082975
          ],
          [
            -115.137776,
            36.082968
          ],
          [
            -115.137777,
            36.082961
          ],
          [
            -115.137778,
            36.082954
          ],
          [
            -115.137779,
            36.082946
          ],
          [
            -115.137781,
            36.082939
          ],
          [
            -115.137781,
            36.082932
          ],
          [
            -115.137782,
            36.082925
          ],
          [
            -115.137783,
            36.082918
          ],
          [
            -115.137783,
            36.08291
          ],
          [
            -115.137784,
            36.082903
          ],
          [
            -115.137784,
            36.082896
          ],
          [
            -115.137784,
            36.082889
          ],
          [
            -115.137784,
            36.082881
          ],
          [
            -115.137784,
            36.082874
          ],
          [
            -115.137784,
            36.082867
          ],
          [
            -115.137784,
            36.082859
          ],
          [
            -115.137784,
            36.082852
          ],
          [
            -115.137783,
            36.082845
          ],
          [
            -115.137783,
            36.082837
          ],
          [
            -115.137782,
            36.08283
          ],
          [
            -115.137781,
            36.08282
          ],
          [
            -115.13778,
            36.08281
          ],
          [
            -115.137779,
            36.0828
          ],
          [
            -115.137778,
            36.082791
          ],
          [
            -115.137777,
            36.082781
          ],
          [
            -115.137777,
            36.082771
          ],
          [
            -115.137776,
            36.082761
          ],
          [
            -115.137775,
            36.082751
          ],
          [
            -115.137774,
            36.082741
          ],
          [
            -115.137773,
            36.082731
          ],
          [
            -115.137772,
            36.082721
          ],
          [
            -115.137771,
            36.082711
          ],
          [
            -115.137771,
            36.082701
          ],
          [
            -115.13777,
            36.082691
          ],
          [
            -115.137769,
            36.082681
          ],
          [
            -115.137768,
            36.082671
          ],
          [
            -115.137767,
            36.082662
          ],
          [
            -115.137767,
            36.082652
          ],
          [
            -115.137766,
            36.082642
          ],
          [
            -115.137765,
            36.082632
          ],
          [
            -115.137764,
            36.082622
          ],
          [
            -115.137764,
            36.08261
          ],
          [
            -115.137763,
            36.082599
          ],
          [
            -115.137762,
            36.082587
          ],
          [
            -115.137761,
            36.082575
          ],
          [
            -115.13776,
            36.082564
          ],
          [
            -115.137759,
            36.082552
          ],
          [
            -115.137758,
            36.082541
          ],
          [
            -115.137757,
            36.082529
          ],
          [
            -115.137756,
            36.082518
          ],
          [
            -115.137755,
            36.082506
          ],
          [
            -115.137754,
            36.082494
          ],
          [
            -115.137753,
            36.082483
          ],
          [
            -115.137753,
            36.082471
          ],
          [
            -115.137751,
            36.082459
          ],
          [
            -115.137751,
            36.082448
          ],
          [
            -115.13775,
            36.082436
          ],
          [
            -115.137749,
            36.082425
          ],
          [
            -115.137748,
            36.082413
          ],
          [
            -115.137747,
            36.082402
          ],
          [
            -115.137746,
            36.08239
          ],
          [
            -115.137745,
            36.082378
          ],
          [
            -115.137744,
            36.08237
          ],
          [
            -115.137743,
            36.082361
          ],
          [
            -115.137743,
            36.082352
          ],
          [
            -115.137742,
            36.082343
          ],
          [
            -115.137741,
            36.082335
          ],
          [
            -115.137741,
            36.082326
          ],
          [
            -115.13774,
            36.082317
          ],
          [
            -115.137739,
            36.082309
          ],
          [
            -115.137739,
            36.0823
          ],
          [
            -115.137738,
            36.082291
          ],
          [
            -115.137738,
            36.082282
          ],
          [
            -115.137737,
            36.082274
          ],
          [
            -115.137736,
            36.082265
          ],
          [
            -115.137736,
            36.082256
          ],
          [
            -115.137736,
            36.082248
          ],
          [
            -115.137735,
            36.082239
          ],
          [
            -115.137735,
            36.08223
          ],
          [
            -115.137734,
            36.082222
          ],
          [
            -115.137734,
            36.082213
          ],
          [
            -115.137734,
            36.082204
          ],
          [
            -115.137733,
            36.082195
          ],
          [
            -115.137733,
            36.082186
          ],
          [
            -115.137733,
            36.082176
          ],
          [
            -115.137733,
            36.082167
          ],
          [
            -115.137733,
            36.082157
          ],
          [
            -115.137732,
            36.082148
          ],
          [
            -115.137732,
            36.082138
          ],
          [
            -115.137732,
            36.082129
          ]
        ]
      }
    }
  ]
}