{
  "type": "FeatureCollection",
  "features": [
    {
      "type": "Feature",
      "properties": {
        "name": "Route"
      },
      "geometry": {
        "type": "LineString",
        "coordinates": [
          [
            -115.148843,
            36.084845
          ],
          [
            -115.148838,
            36.084836
          ],
          [
            -115.148833,
            36.084828
          ],
          [
            -115.148828,
            36.08482
          ],
          [
            -115.148823,
            36.084812
          ],
          [
            -115.148818,
            36.084804
          ],
          [
            -115.148813,
            36.084795
          ],
          [
            -115.148808,
            36.084787
          ],
          [
            -115.148803,
            36.084779
          ],
          [
            -115.148798,
            36.084771
          ],
          [
            -115.148793,
            36.084763
          ],
          [
            -115.148788,
            36.084755
          ],
          [
            -115.148783,
            36.084746
          ],
          [
            -115.148778,
            36.084738
          ],
          [
            -115.148773,
            36.08473
          ],
          [
            -115.148768,
            36.084722
          ],
          [
            -115.148763,
            36.084714
          ],
          [
            -115.148758,
            36.084705
          ],
          [
            -115.148753,
            36.084697
          ],
          [
            -115.148748,
            36.084689
          ],
          [
            -115.148743,
            36.084681
          ],
          [
            -115.148738,
            36.084673
          ],
          [
            -115.148727,
            36.084654
          ],
          [
            -115.148716,
            36.084636
          ],
          [
            -115.148705,
            36.084618
          ],
          [
            -115.148694,
            36.0846
          ],
          [
            -115.148683,
            36.084581
          ],
          [
            -115.148672,
            36.084563
          ],
          [
            -115.148661,
            36.084545
          ],
          [
            -115.148649,
            36.084527
          ],
          [
            -115.148638,
            36.084508
          ],
          [
            -115.148627,
            36.08449
          ],
          [
            -115.148616,
            36.084472
          ],
          [
            -115.148605,
            36.084453
          ],
          [
            -115.148594,
            36.084435
          ],
          [
            -115.148583,
            36.084417
          ],
          [
            -115.148572,
            36.084398
          ],
          [
            -115.148561,
            36.08438
          ],
          [
            -115.14855,
            36.084362
          ],
          [
            -115.148539,
            36.084344
          ],
          [
            -115.148527,
            36.084325
          ],
          [
            -115.148516,
            36.084307
          ],
          [
            -115.148505,
            36.084289
          ],
          [
            -115.148497,
            36.084275
          ],
          [
            -115.148488,
            36.08426
          ],
          [
            -115.148479,
            36.084246
          ],
          [
            -115.148471,
            36.084232
          ],
          [
            -115.148462,
            36.084218
          ],
          [
            -115.148453,
            36.084203
          ],
          [
            -115.148445,
            36.084189
          ],
          [
            -115.148436,
            36.084175
          ],
          [
            -115.148427,
            36.084161
          ],
          [
            -115.148419,
            36.084146
          ],
          [
            -115.14841,
            36.084132
          ],
          [
            -115.148402,
            36.084118
          ],
          [
            -115.148393,
            36.084103
          ],
          [
            -115.148384,
            36.084089
          ],
          [
            -115.148376,
            36.084075
          ],
          [
            -115.148367,
            36.084061
          ],
          [
            -115.148358,
            36.084046
          ],
          [
            -115.148349,
            36.084032
          ],
          [
            -115.148341,
            36.084018
          ],
          [
            -115.148332,
            36.084004
          ],
          [
            -115.148324,
            36.08399
          ],
          [
            -115.148315,
            36.083977
          ],
          [
            -115.148307,
            36.083964
          ],
          [
            -115.148298,
            36.083952
          ],
          [
            -115.14829,
            36.08394
          ],
          [
            -115.14828,
            36.083928
          ],
          [
            -115.148271,
            36.083916
          ],
          [
            -115.148261,
            36.083904
          ],
          [
            -115.148251,
            36.083893
          ],
          [
            -115.148241,
            36.083881
          ],
          [
            -115.14823,
            36.08387
          ],
          [
            -115.14822,
            36.083859
          ],
          [
            -115.148209,
            36.083847
          ],
          [
            -115.148198,
            36.083836
          ],
          [
            -115.148187,
            36.083825
          ],
          [
            -115.148176,
            36.083814
          ],
          [
            -115.148165,
            36.083804
          ],
          [
            -115.148153,
            36.083793
          ],
          [
            -115.148142,
            36.083782
          ],
          [
            -115.14813,
            36.083771
          ],
          [
            -115.148119,
            36.08376
          ],
          [
            -115.148107,
            36.083749
          ],
          [
            -115.148095,
            36.083738
          ],
          [
            -115.148083,
            36.083727
          ],
          [
            -115.148071,
            36.083715
          ],
          [
            -115.148058,
            36.083704
          ],
          [
            -115.148046,
            36.083693
          ],
          [
            -115.148033,
            36.083681
          ],
          [
            -115.148021,
            36.08367
          ],
          [
            -115.148008,
            36.083659
          ],
          [
            -115.147995,
            36.083648
          ],
          [
            -115.147982,
            36.083638
          ],
          [
            -115.147969,
            36.083627
          ],
          [
            -115.147955,
            36.083616
          ],
          [
            -115.147942,
            36.083606
          ],
          [
            -115.147928,
            36.083596
          ],
          [
            -115.147914,
            36.083586
          ],
          [
            -115.1479,
            36.083576
          ],
          [
            -115.147886,
            36.083566
          ],
          [
            -115.147871,
            36.083557
          ],
          [
            -115.147857,
            36.083547
          ],
          [
            -115.147842,
            36.083538
          ],
          [
            -115.147827,
            36.083529
          ],
          [
            -115.147816,
            36.083523
          ],
          [
            -115.147805,
            36.083517
          ],
          [
            -115.147794,
            36.083511
          ],
          [
            -115.147783,
            36.083504
          ],
          [
            -115.147772,
            36.083498
          ],
          [
            -115.147761,
            36.083492
          ],
          [
            -115.14775,
            36.083486
          ],
          [
            -115.147739,
            36.083479
          ],
          [
            -115.147728,
            36.083473
          ],
          [
            -115.147717,
            36.083467
          ],
          [
            -115.147706,
            36.083461
          ],
          [
            -115.147695,
            36.083454
          ],
          [
            -115.147684,
            36.083448
          ],
          [
            -115.147673,
            36.083442
          ],
          [
            -115.147662,
            36.083436
          ],
          [
            -115.147651,
            36.083429
          ],
          [
            -115.14764,
            36.083423
          ],
          [
            -115.147629,
            36.083417
          ],
          [
            -115.147618,
            36.083411
          ],
          [
            -115.147607,
            36.083404
          ],
          [
            -115.147596,
            36.083398
          ],
          [
            -115.147579,
            36.083389
          ],
          [
            -115.147563,
            36.083379
          ],
          [
            -115.147546,
            36.08337
          ],
          [
            -115.147529,
            36.083361
          ],
          [
            -115.147512,
            36.083352
          ],
          [
            -115.147495,
            36.083343
          ],
          [
            -115.147477,
            36.083334
          ],
          [
            -115.14746,
            36.083326
          ],
          [
            -115.147443,
            36.083317
          ],
          [
            -115.147426,
            36.083309
          ],
          [
            -115.147408,
            36.0833
          ],
          [
            -115.147391,
            36.083292
          ],
          [
            -115.147373,
            36.083283
          ],
          [
            -115.147356,
            36.083275
          ],
          [
            -115.147338,
            36.083266
          ],
          [
            -115.147321,
            36.083258
          ],
          [
            -115.147303,
            36.08325
          ],
          [
            -115.147286,
            36.083241
          ],
          [
            -115.147268,
            36.083233
          ],
          [
            -115.147251,
            36.083225
          ],
          [
            -115.147233,
            36.083216
          ],
          [
            -115.147206,
            36.083204
          ],
          [
            -115.14718,
            36.083191
          ],
          [
            -115.147153,
            36.083179
          ],
          [
            -115.147127,
            36.083166
          ],
          [
            -115.1471,
            36.083154
          ],
          [
            -115.147073,
            36.083141
          ],
          [
            -115.147047,
            36.083129
          ],
          [
            -115.14702,
            36.083116
          ],
          [
            -115.146993,
            36.083104
          ],
          [
            -115.146967,
            36.083091
          ],
          [
            -115.14694,
            36.083079
          ],
          [
            -115.146913,
            36.083066
          ],
          [
            -115.146887,
            36.083054
          ],
          [
            -115.14686,
            36.083042
          ],
          [
            -115.146833,
            36.083029
          ],
          [
            -115.146807,
            36.083016
          ],
          [
            -115.14678,
            36.083004
          ],
          [
            -115.146754,
            36.082991
          ],
          [
            -115.146727,
            36.082979
          ],
          [
            -115.1467,
            36.082967
          ],
          [
            -115.146674,
            36.082954
          ],
          [
            -115.146642,
            36.082939
          ],
          [
            -115.146611,
            36.082925
          ],
          [
            -115.146579,
            36.08291
          ],
          [
            -115.146548,
            36.082895
          ],
          [
            -115.146516,
            36.082881
          ],
          [
            -115.146485,
            36.082866
          ],
          [
            -115.146454,
            36.082851
          ],
          [
            -115.146422,
            36.082837
          ],
          [
            -115.146391,
            36.082822
          ],
          [
            -115.146359,
            36.082807
          ],
          [
            -115.146328,
            36.082793
          ],
          [
            -115.146296,
            36.082778
          ],
          [
            -115.146265,
            36.082763
          ],
          [
            -115.146233,
            36.082749
          ],
          [
            -115.146202,
            36.082734
          ],
          [
            -115.14617,
            36.08272
          ],
          [
            -115.146139,
            36.082705
          ],
          [
            -115.146107,
            36.08269
          ],
          [
            -115.146076,
            36.082676
          ],
          [
            -115.146045,
            36.082661
          ],
          [
            -115.146013,
            36.082646
          ],
          [
            -115.145984,
            36.082633
          ],
          [
            -115.145954,
            36.082619
          ],
          [
            -115.145925,
            36.082605
          ],
          [
            -115.145895,
            36.082592
          ],
          [
            -115.145866,
            36.082578
          ],
          [
            -115.145836,
            36.082564
          ],
          [
            -115.145807,
            36.082551
          ],
          [
            -115.145778,
            36.082537
          ],
          [
            -115.145748,
            36.082523
          ],
          [
            -115.145719,
            36.08251
          ],
          [
            -115.145689,
            36.082496
          ],
          [
            -115.14566,
            36.082482
          ],
          [
            -115.14563,
            36.082468
          ],
          [
            -115.145601,
            36.082455
          ],
          [
            -115.145572,
            36.082441
          ],
          [
            -115.145542,
            36.082427
          ],
          [
            -115.145513,
            36.082414
          ],
          [
            -115.145483,
            36.0824
          ],
          [
            -115.145454,
            36.082386
          ],
          [
            -115.145424,
            36.082373
          ],
          [
            -115.145395,
            36.082359
          ],
          [
            -115.145378,
            36.082351
          ],
          [
            -115.145361,
            36.082343
          ],
          [
            -115.145344,
            36.082335
          ],
          [
            -115.145327,
            36.082327
          ],
          [
            -115.14531,
            36.082319
          ],
          [
            -115.145293,
            36.082312
          ],
          [
            -115.145276,
            36.082304
          ],
          [
            -115.145259,
            36.082296
          ],
          [
            -115.145242,
            36.082288
          ],
          [
            -115.145225,
            36.08228
          ],
          [
            -115.145208,
            36.082272
          ],
          [
            -115.145191,
            36.082264
          ],
          [
            -115.145174,
            36.082256
          ],
          [
            -115.145157,
            36.082248
          ],
          [
            -115.14514,
            36.08224
          ],
          [
            -115.145123,
            36.082233
          ],
          [
            -115.145106,
            36.082225
          ],
          [
            -115.145089,
            36.082217
          ],
          [
            -115.145072,
            36.082209
          ],
          [
            -115.145055,
            36.082201
          ],
          [
            -115.145031,
            36.08219
          ],
          [
            -115.145015,
            36.082183
          ],
          [
            -115.144999,
            36.082176
          ],
          [
            -115.144984,
            36.082169
          ],
          [
            -115.144968,
            36.082162
          ],
          [
            -115.144952,
            36.082156
          ],
          [
            -115.144936,
            36.082149
          ],
          [
            -115.14492,
            36.082143
          ],
          [
            -115.144904,
            36.082136
          ],
          [
            -115.144888,
            36.08213
          ],
          [
            -115.144871,
            36.082124
          ],
          [
            -115.144862,
            36.082121
          ],
          [
            -115.144853,
            36.082118
          ],
          [
            -115.144843,
            36.082115
          ],
          [
            -115.144833,
            36.082112
          ],
          [
            -115.144824,
            36.082109
          ],
          [
            -115.144814,
            36.082106
          ],
          [
            -115.144804,
            36.082103
          ],
          [
            -115.144795,
            36.0821
          ],
          [
            -115.144785,
            36.082097
          ],
          [
            -115.144775,
            36.082094
          ],
          [
            -115.144765,
            36.082092
          ],
          [
            -115.144756,
            36.082089
          ],
          [
            -115.144746,
            36.082087
          ],
          [
            -115.144736,
            36.082084
          ],
          [
            -115.144726,
            36.082082
          ],
          [
            -115.144716,
            36.082079
          ],
          [
            -115.144706,
            36.082077
          ],
          [
            -115.144696,
            36.082074
          ],
          [
            -115.144686,
            36.082072
          ],
          [
            -115.144677,
            36.08207
          ],
          [
            -115.144667,
            36.082067
          ],
          [
            -115.144657,
            36.082065
          ],
          [
            -115.144647,
            36.082063
          ],
          [
            -115.144637,
            36.08206
          ],
          [
            -115.144627,
            36.082058
          ],
          [
            -115.144618,
            36.082056
          ],
          [
            -115.144608,
            36.082054
          ],
          [
            -115.144598,
            36.082051
          ],
          [
            -115.144588,
            36.082049
          ],
          [
            -115.144579,
            36.082047
          ],
          [
            -115.144569,
            36.082045
          ],
          [
            -115.144559,
            36.082042
          ],
          [
            -115.144549,
            36.08204
          ],
          [
            -115.14454,
            36.082038
          ],
          [
            -115.14453,
            36.082035
          ],
          [
            -115.14452,
            36.082033
          ],
          [
            -115.144511,
            36.082031
          ],
          [
            -115.144501,
            36.082028
          ],
          [
            -115.144491,
            36.082026
          ],
          [
            -115.144481,
            36.082023
          ],
          [
            -115.144472,
            36.082021
          ],
          [
            -115.144454,
            36.082017
          ],
          [
            -115.144439,
            36.082013
          ],
          [
            -115.144424,
            36.082009
          ],
          [
            -115.144409,
            36.082006
          ],
          [
            -115.144394,
            36.082003
          ],
          [
            -115.144379,
            36.081999
          ],
          [
            -115.144363,
            36.081996
          ],
          [
            -115.144348,
            36.081993
          ],
          [
            -115.144333,
            36.08199
          ],
          [
            -115.144317,
            36.081987
          ],
          [
            -115.144302,
            36.081984
          ],
          [
            -115.14429,
            36.081982
          ],
          [
            -115.144279,
            36.08198
          ],
          [
            -115.144268,
            36.081978
          ],
          [
            -115.144256,
            36.081977
          ],
          [
            -115.144245,
            36.081975
          ],
          [
            -115.144234,
            36.081973
          ],
          [
            -115.144222,
            36.081971
          ],
          [
            -115.144211,
            36.08197
          ],
          [
            -115.1442,
            36.081968
          ],
          [
            -115.144188,
            36.081966
          ],
          [
            -115.144177,
            36.081965
          ],
          [
            -115.144166,
            36.081963
          ],
          [
            -115.144154,
            36.081962
          ],
          [
            -115.144143,
            36.08196
          ],
          [
            -115.144132,
            36.081959
          ],
          [
            -115.14412,
            36.081957
          ],
          [
            -115.144109,
            36.081956
          ],
          [
            -115.144097,
            36.081955
          ],
          [
            -115.144086,
            36.081953
          ],
          [
            -115.144074,
            36.081952
          ],
          [
            -115.144063,
            36.08195
          ],
          [
            -115.144036,
            36.081947
          ],
          [
            -115.144009,
            36.081944
          ],
          [
            -115.143983,
            36.081941
          ],
          [
            -115.143956,
            36.081937
          ],
          [
            -115.143929,
            36.081934
          ],
          [
            -115.143902,
            36.081931
          ],
          [
            -115.143876,
            36.081928
          ],
          [
            -115.143849,
            36.081925
          ],
          [
            -115.143822,
            36.081921
          ],
          [
            -115.143795,
            36.081918
          ],
          [
            -115.143768,
            36.081915
          ],
          [
            -115.143742,
            36.081912
          ],
          [
            -115.143715,
            36.081909
          ],
          [
            -115.143688,
            36.081906
          ],
          [
            -115.143661,
            36.081902
          ],
          [
            -115.143635,
            36.081899
          ],
          [
            -115.143608,
            36.081896
          ],
          [
            -115.143581,
            36.081893
          ],
          [
            -115.143554,
            36.08189
          ],
          [
            -115.143527,
            36.081887
          ],
          [
            -115.143501,
            36.081884
          ],
          [
            -115.143464,
            36.081879
          ],
          [
            -115.143427,
            36.081875
          ],
          [
            -115.143389,
            36.081871
          ],
          [
            -115.143352,
            36.081868
          ],
          [
            -115.143315,
            36.081864
          ],
          [
            -115.143278,
            36.081861
          ],
          [
            -115.143241,
            36.081857
          ],
          [
            -115.143204,
            36.081854
          ],
          [
            -115.143166,
            36.081852
          ],
          [
            -115.143129,
            36.081849
          ],
          [
            -115.143092,
            36.081847
          ],
          [
            -115.143055,
            36.081844
          ],
          [
            -115.143017,
            36.081842
          ],
          [
            -115.14298,
            36.08184
          ],
          [
            -115.142943,
            36.081839
          ],
          [
            -115.142905,
            36.081837
          ],
          [
            -115.142868,
            36.081836
          ],
          [
            -115.142831,
            36.081835
          ],
          [
            -115.142793,
            36.081835
          ],
          [
            -115.142756,
            36.081834
          ],
          [
            -115.142718,
            36.081834
          ],
          [
            -115.142664,
            36.081834
          ],
          [
            -115.142609,
            36.081833
          ],
          [
            -115.142555,
            36.081833
          ],
          [
            -115.1425,
            36.081833
          ],
          [
            -115.142445,
            36.081832
          ],
          [
            -115.142391,
            36.081832
          ],
          [
            -115.142336,
            36.081832
          ],
          [
            -115.142282,
            36.081832
          ],
          [
            -115.142227,
            36.081831
          ],
          [
            -115.142173,
            36.081831
          ],
          [
            -115.142118,
            36.081831
          ],
          [
            -115.142064,
            36.081831
          ],
          [
            -115.142009,
            36.08183
          ],
          [
            -115.141954,
            36.08183
          ],
          [
            -115.1419,
            36.08183
          ],
          [
            -115.141845,
            36.081829
          ],
          [
            -115.141791,
            36.081829
          ],
          [
            -115.141736,
            36.081829
          ],
          [
            -115.141682,
            36.081829
          ],
          [
            -115.141627,
            36.081828
          ],
          [
            -115.141572,
            36.081828
          ],
          [
            -115.141507,
            36.081828
          ],
          [
            -115.141442,
            36.081827
          ],
          [
            -115.141377,
            36.081827
          ],
          [
            -115.141312,
            36.081826
          ],
          [
            -115.141247,
            36.081826
          ],
          [
            -115.141182,
            36.081826
          ],
          [
            -115.141117,
            36.081825
          ],
          [
            -115.141052,
            36.081825
          ],
          [
            -115.140987,
            36.081825
          ],
          [
            -115.140922,
            36.081824
          ],
          [
            -115.140856,
            36.081824
          ],
          [
            -115.140791,
            36.081824
          ],
          [
            -115.140726,
            36.081823
          ],
          [
            -115.140661,
            36.081823
          ],
          [
            -115.140596,
            36.081823
          ],
          [
            -115.140531,
            36.081822
          ],
          [
            -115.140466,
            36.081822
          ],
          [
            -115.140401,
            36.081821
          ],
          [
            -115.140336,
            36.081821
          ],
          [
            -115.14027,
            36.081821
          ],
          [
            -115.140205,
            36.08182
          ],
          [
            -115.140145,
            36.08182
          ],
          [
            -115.140085,
            36.08182
          ],
          [
            -115.140025,
            36.081819
          ],
          [
            -115.139965,
            36.081819
          ],
          [
            -115.139905,
            36.081819
          ],
          [
            -115.139845,
            36.081818
          ],
          [
            -115.139785,
            36.081818
          ],
          [
            -115.139724,
            36.081818
          ],
          [
            -115.139664,
            36.081817
          ],
          [
            -115.139604,
            36.081817
          ],
          [
            -115.139544,
            36.081817
          ],
          [
            -115.139484,
            36.081817
          ],
          [
            -115.139424,
            36.081816
          ],
          [
            -115.139364,
            36.081816
          ],
          [
            -115.139304,
            36.081816
          ],
          [
            -115.139244,
            36.081815
          ],
          [
            -115.139184,
            36.081815
          ],
          [
            -115.139123,
            36.081815
          ],
          [
            -115.139063,
            36.081814
          ],
          [
            -115.139003,
            36.081814
          ],
          [
            -115.138943,
            36.081814
          ],
          [
            -115.13888,
            36.081813
          ],
          [
            -115.138818,
            36.081813
          ],
          [
            -115.138755,
            36.081813
          ],
          [
            -115.138693,
            36.081812
          ],
          [
            -115.13863,
            36.081812
          ],
          [
            -115.138567,
            36.081812
          ],
          [
            -115.138505,
            36.081811
          ],
          [
            -115.138442,
            36.081811
          ],
          [
            -115.13838,
            36.081811
          ],
          [
            -115.138317,
            36.08181
          ],
          [
            -115.138254,
            36.08181
          ],
          [
            -115.138192,
            36.08181
          ],
          [
            -115.138129,
            36.081809
          ],
          [
            -115.138067,
            36.081809
          ],
          [
            -115.138004,
            36.081809
          ],
          [
            -115.137941,
            36.081808
          ],
          [
            -115.137879,
            36.081808
          ],
          [
            -115.137816,
            36.081808
          ],
          [
            -115.137754,
            36.081807
          ],
          [
            -115.137691,
            36.081807
          ],
          [
            -115.137628,
            36.081807
          ],
          [
            -115.137595,
            36.081806
          ],
          [
            -115.137562,
            36.081806
          ],
          [
            -115.137529,
            36.081806
          ],
          [
            -115.137495,
            36.081806
          ],
          [
            -115.137462,
            36.081806
          ],
          [
            -115.137429,
            36.081806
          ],
          [
            -115.137396,
            36.081805
          ],
          [
            -115.137362,
            36.081805
          ],
          [
            -115.137329,
            36.081805
          ],
          [
            -115.137296,
            36.081805
          ],
          [
            -115.137263,
            36.081805
          ],
          [
            -115.13723,
            36.081804
          ],
          [
            -115.137196,
            36.081804
          ],
          [
            -115.137163,
            36.081804
          ],
          [
            -115.13713,
            36.081804
          ],
          [
            -115.137097,
            36.081804
          ],
          [
            -115.137063,
            36.081804
          ],
          [
            -115.13703,
            36.081803
          ],
          [
            -115.136997,
            36.081803
          ],
          [
            -115.136964,
            36.081803
          ],
          [
            -115.136928,
            36.081803
          ],
          [
            -115.136919,
            36.081803
          ],
          [
            -115.136909,
            36.081803
          ],
          [
            -115.136899,
            36.081803
          ],
          [
            -115.13689,
            36.081803
          ],
          [
            -115.136881,
            36.081803
          ]
        ]
      }
    }
  ]
}